{"type": "Feature","bbox": [-87.6554,13.6478,-86.7244,15.0201],"geometry": {"type": "MultiPolygon","coordinates": [[[[-87.4621,13.7025,727.6422],[-87.4625,13.7153,645.1121],[-87.4558,13.7219,836.8829],[-87.4571,13.7268,766.2059],[-87.4534,13.7318,808.8494],[-87.4586,13.7402,761.2994],[-87.4596,13.7568,716.7103],[-87.4564,13.7604,929.5724],[-87.4512,13.7602,822.1931],[-87.4428,13.7635,752.9863],[-87.4372,13.7617,735.0324],[-87.425,13.762,620.9412],[-87.4135,13.7552,509.4428],[-87.4025,13.7524,390.4115],[-87.4007,13.7551,436.6391],[-87.3971,13.7565,255.9533],[-87.3836,13.7556,165.2082],[-87.3846,13.749,157.934],[-87.391,13.7435,163.1849],[-87.392,13.736,143.433],[-87.3965,13.732,175.1218],[-87.397,13.7148,259.3955],[-87.3939,13.714,261.7292],[-87.39,13.7158,176.3233],[-87.3891,13.7089,190.278],[-87.3809,13.6981,220.7152],[-87.3767,13.6974,192.574],[-87.3729,13.6934,256.8784],[-87.365,13.6929,181.0082],[-87.3649,13.6832,108.9994],[-87.363,13.6791,109.6288],[-87.3324,13.6816,215.7067],[-87.3282,13.6796,396.4622],[-87.3158,13.6842,170.1175],[-87.3021,13.6779,148.1459],[-87.3013,13.6747,150.3965],[-87.2924,13.6736,281.1825],[-87.2866,13.6746,298.7231],[-87.2845,13.6732,345.9825],[-87.2559,13.6819,304.0831],[-87.2136,13.6627,533.2111],[-87.1864,13.6805,810.2702],[-87.1444,13.6555,875.5104],[-87.1412,13.6563,911.473],[-87.1343,13.6528,842.4902],[-87.1286,13.6478,786.5976],[-87.1251,13.649,771.9213],[-87.1282,13.6606,807.6268],[-87.1324,13.6673,897.8412],[-87.1165,13.6941,928.8702],[-87.1015,13.7036,588.21],[-87.1035,13.7081,504.9093],[-87.1144,13.7197,559.7315],[-87.1149,13.7241,488.1509],[-87.1187,13.7275,528.184],[-87.1203,13.7358,537.2723],[-87.1302,13.7442,546.585],[-87.1292,13.7913,516.185],[-87.1227,13.7916,602.6159],[-87.1237,13.7996,547.9789],[-87.1161,13.8031,646.553],[-87.0885,13.7828,792.5276],[-87.0851,13.7736,701.7945],[-87.0823,13.7702,724.0845],[-87.069,13.7697,854.0928],[-87.0667,13.7676,840.5419],[-87.0627,13.7681,820.5201],[-87.0522,13.7649,892.6425],[-87.0382,13.7658,995.9661],[-87.0275,13.7703,1054.4045],[-87.0186,13.7797,1468.3428],[-87.0035,13.8092,1405.5377],[-86.9989,13.8127,1361.7883],[-86.9935,13.8378,1394.1699],[-86.9965,13.8422,1374.0615],[-86.9986,13.851,1375.7174],[-86.9928,13.874,1323.0087],[-86.9907,13.8778,1267.9309],[-86.9942,13.8917,1262.6562],[-87.0011,13.9015,1319.2119],[-86.9993,13.9093,1010.7029],[-86.9942,13.9135,985.3881],[-86.9936,13.9168,986.8109],[-86.9908,13.9181,991.8964],[-86.9911,13.9204,913.3586],[-86.9872,13.9211,931.5695],[-86.9855,13.9245,872.7853],[-86.9891,13.9293,849.1564],[-86.9953,13.9504,827.7723],[-86.995,13.9538,809.1558],[-86.993,13.9542,804.2559],[-86.9923,13.9578,804.2036],[-86.9903,13.958,792.915],[-86.9888,13.9538,792.7208],[-86.9858,13.9539,799.9844],[-86.9826,13.9508,815.5555],[-86.9645,13.9482,1046.541],[-86.9588,13.9419,1186.6423],[-86.9547,13.9418,1244.6548],[-86.9205,13.9789,1411.533],[-86.9254,13.9902,1380.879],[-86.9168,13.9908,1356.7133],[-86.9181,14.0028,1148.6749],[-86.9165,14.0402,648.4712],[-86.9178,14.0418,650.1481],[-86.9516,14.0528,768.9672],[-86.9543,14.0647,832.4924],[-86.9541,14.0747,947.2255],[-86.9772,14.0895,991.1398],[-86.9944,14.1147,1242.8713],[-86.9809,14.132,950.7333],[-86.9704,14.1299,835.7697],[-86.956,14.1297,710.6729],[-86.9397,14.1217,641.7218],[-86.9394,14.1242,643.135],[-86.9353,14.121,633.0098],[-86.9241,14.1216,610.0977],[-86.9211,14.12,607.3754],[-86.9205,14.1272,608.8878],[-86.9046,14.1497,655.8742],[-86.9195,14.1596,640.5961],[-86.9301,14.1617,631.192],[-86.9348,14.1588,644.3475],[-86.9364,14.16,644.3475],[-86.937,14.1638,635.4412],[-86.9325,14.1703,611.2057],[-86.9317,14.1748,593.6454],[-86.925,14.1793,596.1789],[-86.9161,14.1818,610.7701],[-86.9115,14.1853,630.32],[-86.9085,14.1901,663.5652],[-86.9129,14.1995,746.3779],[-86.9068,14.2044,908.8461],[-86.9068,14.2226,1013.4417],[-86.8979,14.2248,1036.4991],[-86.8936,14.232,1124.9274],[-86.8851,14.2394,1307.9421],[-86.8822,14.24,1250.7163],[-86.8798,14.2457,1361.646],[-86.8716,14.251,1499.1204],[-86.8534,14.2821,1677.9778],[-86.8402,14.2818,1607.4926],[-86.8384,14.2853,1402.7961],[-86.8423,14.3214,1991.0834],[-86.7818,14.3713,738.7512],[-86.7271,14.4119,906.9198],[-86.7251,14.416,1053.2136],[-86.7244,14.4239,929.2078],[-86.7266,14.4294,946.4308],[-86.7475,14.4699,908.3829],[-86.7431,14.4802,941.0999],[-86.7438,14.496,891.2599],[-86.7563,14.4995,874.6084],[-86.7634,14.5209,967.2131],[-86.7629,14.5355,1006.4804],[-86.7551,14.5674,956.8791],[-86.7714,14.577,960.0687],[-86.7737,14.588,1060.9674],[-86.7801,14.5967,1103.3241],[-86.7899,14.6011,1098.3264],[-86.8009,14.6103,1355.667],[-86.8077,14.6131,1337.4814],[-86.8107,14.6254,1653.9672],[-86.815,14.63,1671.6825],[-86.8278,14.629,1384.9746],[-86.8388,14.6302,1197.0068],[-86.854,14.6496,1531.7355],[-86.8709,14.6587,1337.5005],[-86.8863,14.6959,1176.6899],[-86.8959,14.7351,936.9977],[-86.919,14.7594,1180.7894],[-86.9094,14.7884,897.0226],[-86.9131,14.7922,851.8503],[-86.9182,14.7928,919.313],[-86.9285,14.7982,875.7722],[-86.9299,14.8057,813.2144],[-86.9287,14.8109,829.6019],[-86.9232,14.8127,844.6219],[-86.9262,14.8271,939.9563],[-86.9376,14.8533,1222.91],[-86.9497,14.859,1091.6354],[-86.9519,14.8617,1145.0796],[-86.9508,14.8735,1445.4586],[-86.9559,14.8881,1201.684],[-86.955,14.8916,1231.2402],[-86.9448,14.8985,1418.1644],[-86.9447,14.9079,1305.6069],[-86.9331,14.926,1472.2382],[-86.928,14.9267,1423.4146],[-86.9245,14.9301,1434.8363],[-86.9396,14.9388,1245.595],[-86.9537,14.9437,1172.1292],[-86.9544,14.9534,1396.8966],[-86.9574,14.9563,1365.2753],[-86.9659,14.9573,1211.8889],[-86.972,14.9588,1182.5958],[-86.9762,14.962,1139.3333],[-86.9822,14.9616,1307.9175],[-86.9874,14.9637,1346.848],[-86.9913,14.9701,1342.4302],[-86.9929,14.9777,1342.3433],[-87.0077,14.9935,1554.432],[-87.0136,15.0042,1713.4446],[-87.055,15.0132,1859.5498],[-87.0712,15.0101,2159.2676],[-87.0845,15.0111,2191.8091],[-87.0954,15.0053,1915.73],[-87.1083,15.0029,1928.6747],[-87.1145,15.0071,1955.6206],[-87.122,15.0083,1877.5967],[-87.1263,15.013,1822.98],[-87.1362,15.0188,1685.3196],[-87.1476,15.0192,1673.7981],[-87.1555,15.0167,1688.2981],[-87.1626,15.0201,1635.4619],[-87.1645,15.0188,1681.8889],[-87.1654,15.0148,1630.6077],[-87.1677,15.0139,1636.9257],[-87.1777,15.0129,1516.3718],[-87.1845,15.0147,1439.5107],[-87.1919,15.01,1291.1478],[-87.1993,15.0112,1229.4619],[-87.2018,15.0097,1153.7017],[-87.2033,15.0053,1143.733],[-87.2116,15.0006,1232.0282],[-87.2146,14.9932,1189.6926],[-87.2119,14.9842,902.3098],[-87.214,14.9752,948.2535],[-87.2125,14.9556,937.2852],[-87.218,14.95,770.9607],[-87.2269,14.9477,610.2982],[-87.2363,14.9352,508.8902],[-87.242,14.9334,488.8247],[-87.2469,14.9251,479.2963],[-87.246,14.9178,478.8112],[-87.2379,14.912,453.256],[-87.236,14.9086,477.1644],[-87.2359,14.9052,454.967],[-87.2405,14.9009,431.4908],[-87.2387,14.8952,420.6411],[-87.2243,14.8932,426.5101],[-87.222,14.8915,426.1469],[-87.225,14.8846,462.251],[-87.2195,14.8757,436.6971],[-87.2212,14.8711,471.8139],[-87.2249,14.8688,571.467],[-87.2242,14.8632,629.3008],[-87.2256,14.8618,633.1575],[-87.2288,14.863,643.3759],[-87.2347,14.8619,714.6486],[-87.2406,14.8678,675.9104],[-87.246,14.8647,704.5453],[-87.2471,14.8591,760.203],[-87.2411,14.8594,715.7786],[-87.2342,14.8498,595.496],[-87.236,14.8379,600.9368],[-87.2418,14.8344,608.4537],[-87.2502,14.8332,733.6595],[-87.2586,14.8353,571.6556],[-87.2685,14.8349,745.0141],[-87.2755,14.8296,810.4474],[-87.2789,14.8252,750.6701],[-87.2789,14.8197,769.5599],[-87.2842,14.8174,770.0537],[-87.2857,14.8141,756.1967],[-87.2883,14.8009,907.9675],[-87.2828,14.798,756.8303],[-87.2812,14.7879,869.6922],[-87.277,14.7845,811.0063],[-87.2725,14.7763,716.9432],[-87.2728,14.764,672.7258],[-87.2749,14.7588,681.1117],[-87.2713,14.7559,630.5291],[-87.2722,14.7503,588.3392],[-87.2702,14.746,595.642],[-87.2721,14.7419,576.7155],[-87.2713,14.7346,610.4224],[-87.277,14.7283,674.994],[-87.2761,14.7221,622.9888],[-87.2773,14.7173,627.3738],[-87.2889,14.716,561.8699],[-87.2868,14.7126,543.3119],[-87.2894,14.7061,536.3403],[-87.2872,14.7018,528.9648],[-87.2918,14.698,531.1063],[-87.2865,14.6909,527.1375],[-87.2962,14.6881,528.0523],[-87.2967,14.6834,529.407],[-87.3015,14.6817,529.8844],[-87.3049,14.6812,533.5626],[-87.3102,14.6834,546.7548],[-87.3087,14.6779,533.0267],[-87.315,14.6759,542.3024],[-87.3193,14.6701,604.1554],[-87.3235,14.6673,547.2832],[-87.329,14.666,553.1046],[-87.3343,14.6674,617.2278],[-87.3358,14.6592,669.867],[-87.3301,14.6544,600.7823],[-87.3316,14.6517,677.285],[-87.339,14.6512,770.5661],[-87.34,14.6573,685.4453],[-87.3435,14.658,703.8002],[-87.3455,14.6567,745.5897],[-87.3469,14.6519,761.5837],[-87.3422,14.6426,712.7902],[-87.3417,14.6347,668.5898],[-87.3449,14.6299,608.1949],[-87.3481,14.6282,629.1085],[-87.3437,14.6246,643.9045],[-87.3435,14.6221,652.5099],[-87.3477,14.6217,672.3069],[-87.3522,14.6144,610.3904],[-87.35,14.6046,658.5302],[-87.3542,14.6,717.9797],[-87.3533,14.596,714.5004],[-87.3641,14.5954,700.4657],[-87.3668,14.5968,707.8884],[-87.3745,14.5955,748.6057],[-87.382,14.5997,873.9591],[-87.3825,14.6055,741.884],[-87.3947,14.6029,830.192],[-87.3978,14.605,800.0287],[-87.4078,14.6061,686.2991],[-87.4143,14.6101,711.1245],[-87.422,14.6069,709.2975],[-87.4189,14.5946,758.0895],[-87.4223,14.5831,750.6569],[-87.4261,14.5783,734.567],[-87.4247,14.5751,747.3945],[-87.4268,14.5724,756.1327],[-87.4234,14.5671,799.6475],[-87.4239,14.5616,792.3469],[-87.4275,14.5611,863.597],[-87.4338,14.5542,867.0294],[-87.4353,14.5496,980.7286],[-87.484,14.5077,1549.3229],[-87.4681,14.462,1705.2526],[-87.4541,14.4595,1565.1344],[-87.4448,14.4491,1611.0454],[-87.4358,14.4475,1517.7827],[-87.4303,14.4395,1511.2251],[-87.4172,14.4391,1453.0159],[-87.4183,14.4309,1638.4027],[-87.4173,14.4207,1772.6306],[-87.4218,14.4161,1678.6671],[-87.4327,14.4133,1722.9664],[-87.4333,14.4105,1741.6672],[-87.4201,14.4073,1672.2262],[-87.4104,14.4068,1721.2168],[-87.4063,14.3937,1721.0131],[-87.3991,14.3909,1678.7834],[-87.3992,14.3859,1559.5146],[-87.4022,14.3776,1633.379],[-87.4161,14.3424,1321.8121],[-87.419,14.3385,1323.8151],[-87.4304,14.3362,1309.6665],[-87.4401,14.3316,1415.6962],[-87.4488,14.3306,1409.2249],[-87.4533,14.3272,1437.4108],[-87.4823,14.2828,1349.5818],[-87.4725,14.2581,1385.1603],[-87.4565,14.2481,1516.8301],[-87.4478,14.2462,1315.4562],[-87.443,14.2424,1378.7994],[-87.438,14.2417,1300.9587],[-87.4383,14.2383,1450.0112],[-87.4367,14.237,1390.6843],[-87.4243,14.2347,1169.0],[-87.4247,14.232,1209.5353],[-87.4271,14.2302,1281.3116],[-87.4356,14.2284,1443.8595],[-87.4302,14.2217,1435.9299],[-87.4337,14.2187,1461.0269],[-87.4316,14.2163,1462.302],[-87.4356,14.2155,1484.292],[-87.4353,14.2121,1491.406],[-87.4488,14.2123,1528.1874],[-87.4674,14.2036,1580.3577],[-87.4741,14.2023,1714.3624],[-87.4811,14.1926,1790.7676],[-87.481,14.1896,1825.8418],[-87.4834,14.1865,1826.0662],[-87.4826,14.182,1875.4814],[-87.4888,14.169,1762.6973],[-87.5095,14.1591,1431.9769],[-87.5521,14.1281,1002.4575],[-87.5911,14.1344,1480.759],[-87.5935,14.1312,1496.7671],[-87.6008,14.1278,1700.4312],[-87.6047,14.1205,1636.901],[-87.6257,14.0975,1257.6489],[-87.6239,14.0807,1166.6206],[-87.6256,14.0748,1152.5905],[-87.6152,14.0224,935.5544],[-87.6156,13.9902,780.5182],[-87.6134,13.9848,760.3883],[-87.6029,13.9718,1347.3605],[-87.6082,13.9621,1060.751],[-87.6034,13.9586,1313.7361],[-87.6024,13.9554,1541.2677],[-87.6096,13.9357,1341.8093],[-87.608,13.918,1115.014],[-87.6088,13.9121,1202.0676],[-87.6135,13.9028,1189.2937],[-87.6118,13.8993,1081.8497],[-87.6117,13.8899,1166.1924],[-87.6186,13.8864,1272.2173],[-87.6249,13.8806,1213.4305],[-87.624,13.8625,1178.2451],[-87.631,13.8473,1180.8965],[-87.6361,13.8411,1280.8392],[-87.646,13.8341,1086.1165],[-87.6505,13.8229,999.4595],[-87.6521,13.801,530.1112],[-87.6491,13.7756,677.1892],[-87.6512,13.7743,567.9739],[-87.6529,13.7686,328.1311],[-87.6554,13.7395,645.3732],[-87.653,13.7394,650.9254],[-87.6456,13.7441,992.9487],[-87.6344,13.7432,979.6266],[-87.6271,13.7365,940.3657],[-87.6196,13.735,1128.6681],[-87.6145,13.7294,1037.5636],[-87.6036,13.7223,750.5218],[-87.5887,13.7165,500.5797],[-87.568,13.7174,569.8235],[-87.549,13.7204,357.8462],[-87.5466,13.7127,479.6787],[-87.526,13.7001,469.9639],[-87.5209,13.6934,480.6306],[-87.5086,13.6884,227.0766],[-87.5038,13.6892,171.4007],[-87.4963,13.687,191.6755],[-87.493,13.683,228.8456],[-87.4906,13.6846,249.2158],[-87.4859,13.6813,383.1543],[-87.4783,13.681,403.0313],[-87.4702,13.6725,536.2625],[-87.4616,13.6721,648.7072],[-87.4626,13.6796,798.1551],[-87.468,13.6872,601.9135],[-87.4624,13.6985,851.335],[-87.4621,13.7025,727.6422]]]]}
,"properties": {"GID_1": "HND.8_1","GID_0": "HND","country": "Honduras","province": "FranciscoMorazán","VARNAME_1": "Tegucigalpa","NL_NAME_1": "NA","TYPE_1": "Departamento","ENGTYPE_1": "Department","CC_1": "NA","HASC_1": "HN.FM","ISO_1": "NA","name": "Francisco_Morazán.province","area_km2": 8585.829,"hist_schema_id": "Elevation0-9000","hist_area_km2": {"100": 0.865,"125": 5.459,"150": 7.457,"175": 9.104,"200": 10.608,"225": 13.017,"250": 15.838,"275": 18.865,"300": 22.859,"325": 23.909,"350": 23.6,"375": 25.927,"400": 24.836,"425": 30.691,"450": 31.682,"475": 35.726,"500": 39.771,"525": 52.433,"550": 69.205,"575": 97.758,"600": 128.158,"625": 141.755,"650": 135.198,"675": 132.975,"700": 130.04,"725": 141.977,"750": 235.92,"775": 278.769,"800": 270.305,"825": 286.449,"850": 310.526,"875": 319.567,"900": 316.826,"925": 304.728,"950": 295.776,"975": 283.004,"1000": 264.93,"1025": 251.288,"1050": 234.057,"1075": 227.828,"1100": 207.617,"1125": 184.897,"1150": 168.45,"1175": 157.069,"1200": 145.604,"1225": 140.428,"1250": 133.032,"1275": 139.101,"1300": 140.235,"1325": 138.941,"1350": 138.818,"1375": 137.849,"1400": 133.69,"1425": 131.962,"1450": 130.312,"1475": 122.008,"1500": 109.216,"1525": 96.715,"1550": 85.286,"1575": 80.449,"1600": 68.977,"1625": 62.774,"1650": 58.293,"1675": 47.765,"1700": 42.608,"1725": 39.258,"1750": 36.009,"1775": 29.99,"1800": 30.381,"1825": 26.599,"1850": 25.204,"1875": 23.7,"1900": 17.27,"1925": 14.781,"1950": 13.713,"1975": 11.64,"2000": 11.022,"2025": 9.36,"2050": 8.064,"2075": 6.649,"2100": 6.443,"2125": 5.416,"2150": 5.744,"2175": 4.862,"2200": 3.181,"2225": 2.053,"2250": 1.292,"2275": 0.943,"2300": 0.39,"2325": 0.082}}}