{"type":"Feature","properties":{"ISO3166-1-Alpha-3":"HND","country":"Honduras","fill":"#00F","id":"639","name":"Francisco Morazán"},
"geometry":{"type": "Polygon","coordinates": [[[-87.07471,15.02089,2179.4854],[-87.09005,15.02508,2129.5488],[-87.09809,15.02906,2071.6177],[-87.10969,15.03133,2072.8945],[-87.11938,15.0319,1864.4192],[-87.16703,15.02596,1694.7009],[-87.18483,15.01138,1383.8185],[-87.18423,15.00105,1286.2454],[-87.18553,14.98048,1124.5854],[-87.18689,14.97459,902.5358],[-87.1902,14.96911,956.9931],[-87.21015,14.95227,753.7587],[-87.22028,14.9378,568.0671],[-87.22656,14.92395,499.1404],[-87.24581,14.89775,420.8239],[-87.22839,14.89,421.9187],[-87.22467,14.88695,426.3755],[-87.21943,14.88147,504.8999],[-87.21826,14.87429,446.624],[-87.20834,14.85946,466.6724],[-87.22454,14.84747,616.9546],[-87.24544,14.8455,514.9231],[-87.24836,14.84457,559.6659],[-87.25136,14.84178,472.925],[-87.25449,14.83661,473.0418],[-87.25725,14.8269,645.2509],[-87.25821,14.81129,628.2161],[-87.25361,14.79574,548.9152],[-87.24945,14.76184,519.8899],[-87.25542,14.73833,514.3991],[-87.26624,14.71083,519.4467],[-87.26702,14.70654,582.1653],[-87.26601,14.70505,552.7657],[-87.26609,14.70313,537.3613],[-87.2681,14.70076,520.4589],[-87.27552,14.69574,522.1328],[-87.2804,14.69337,529.963],[-87.28511,14.69161,523.8495],[-87.28875,14.69068,527.2995],[-87.29198,14.68934,527.5543],[-87.30074,14.68288,529.731],[-87.30629,14.68107,533.5626],[-87.31001,14.6806,541.8999],[-87.31226,14.67926,563.3431],[-87.31335,14.67642,542.3024],[-87.31381,14.67027,565.4377],[-87.31505,14.66763,563.1162],[-87.31867,14.6666,540.1587],[-87.32056,14.66794,584.3169],[-87.32211,14.6696,591.8768],[-87.32366,14.67063,589.8704],[-87.32505,14.6696,586.5001],[-87.32583,14.66598,572.1918],[-87.32417,14.65843,593.7311],[-87.3235,14.6527,553.4633],[-87.32348,14.64727,558.6903],[-87.32714,14.63353,570.9421],[-87.34213,14.60779,579.4715],[-87.35322,14.60841,598.619],[-87.35727,14.60924,631.2463],[-87.3613,14.61053,592.6646],[-87.36456,14.61203,581.0457],[-87.3659,14.61394,584.4945],[-87.36699,14.61802,586.5393],[-87.36838,14.61957,611.8898],[-87.37112,14.61988,609.6445],[-87.37417,14.61973,688.7511],[-87.37774,14.61988,676.3529],[-87.38192,14.62081,714.3287],[-87.38637,14.62262,708.5729],[-87.39063,14.6249,786.6521],[-87.3952,14.6265,788.52],[-87.39869,14.62676,728.6864],[-87.40197,14.62469,712.6624],[-87.40373,14.62071,656.4392],[-87.40342,14.60588,665.8693],[-87.40404,14.60009,669.3185],[-87.40536,14.59456,723.9545],[-87.40603,14.58955,715.6271],[-87.41505,14.57151,738.4638],[-87.46592,14.52221,1428.7906],[-87.463,14.50682,1555.4745],[-87.4605,14.49896,1553.5226],[-87.45634,14.48961,1300.2728],[-87.45106,14.48237,1415.597],[-87.43523,14.47209,1669.3489],[-87.41189,14.45193,1415.5269],[-87.40897,14.44821,1345.0099],[-87.40696,14.44356,1411.8997],[-87.40737,14.43395,1532.1152],[-87.40985,14.42982,1759.6595],[-87.41319,14.42703,1692.5515],[-87.41236,14.42382,1637.4445],[-87.41068,14.42114,1678.7766],[-87.38626,14.40264,1763.0654],[-87.38275,14.3953,1668.0852],[-87.39319,14.37401,1631.8693],[-87.41941,14.33949,1292.7756],[-87.42455,14.33602,1303.0713],[-87.43205,14.33329,1412.0862],[-87.44435,14.33918,1374.9436],[-87.45013,14.34011,1401.3196],[-87.45471,14.3399,1312.1418],[-87.45928,14.33804,1324.0931],[-87.46207,14.33225,1290.418],[-87.46385,14.32161,1295.0303],[-87.46205,14.28218,1392.2815],[-87.45988,14.27179,1461.948],[-87.45657,14.26574,1483.5027],[-87.4506,14.25934,1330.8201],[-87.44492,14.25422,1297.1211],[-87.44042,14.25122,1372.7716],[-87.43706,14.24967,1310.7355],[-87.43373,14.24864,1174.8926],[-87.4314,14.24735,1258.4279],[-87.42988,14.24554,1245.8057],[-87.42693,14.23934,1196.2192],[-87.42569,14.23495,1169.0],[-87.42546,14.22905,1241.2491],[-87.42964,14.22275,1433.2108],[-87.43709,14.21887,1478.5916],[-87.46321,14.21319,1616.0828],[-87.48295,14.2011,1822.8146],[-87.49354,14.17986,1782.7699],[-87.49427,14.17443,1724.5151],[-87.50067,14.16673,1561.882],[-87.51259,14.1596,1430.1278],[-87.54121,14.14679,1008.1803],[-87.57331,14.14332,1247.4354],[-87.57953,14.14353,1201.1255],[-87.58571,14.14033,1306.3157],[-87.59343,14.13376,1453.2103],[-87.61434,14.10911,1561.3735],[-87.61524,14.08849,1467.3125],[-87.59659,13.95729,1555.9714],[-87.59832,13.93817,1522.9994],[-87.60604,13.90292,1192.8127],[-87.60883,13.89621,1166.6686],[-87.61152,13.89218,1113.8297],[-87.61937,13.86882,1438.7788],[-87.64705,13.83419,1013.8565],[-87.64728,13.80479,771.0046],[-87.6494,13.76123,527.2818],[-87.64185,13.74986,765.369],[-87.60103,13.72268,639.4859],[-87.57031,13.71689,555.1869],[-87.55199,13.71875,415.7754],[-87.5484,13.7173,368.1685],[-87.54369,13.71451,530.8541],[-87.54075,13.711,644.3498],[-87.50514,13.68464,181.7901],[-87.47902,13.66862,602.9324],[-87.46879,13.66583,724.6151],[-87.46114,13.67017,930.8643],[-87.46525,13.68351,829.8259],[-87.46541,13.69782,755.2687],[-87.4599,13.71947,690.3435],[-87.45752,13.74541,696.1177],[-87.45437,13.75689,864.3937],[-87.44334,13.7603,872.0625],[-87.42391,13.76061,568.509],[-87.41223,13.75751,426.2563],[-87.40102,13.75497,436.6391],[-87.39655,13.75601,255.9533],[-87.39073,13.75611,246.7136],[-87.38673,13.75508,253.2695],[-87.38761,13.75089,334.6795],[-87.39482,13.73394,164.0274],[-87.39283,13.72113,142.4213],[-87.3736,13.70278,127.0],[-87.36009,13.69012,150.2159],[-87.31947,13.69487,174.2019],[-87.30753,13.68878,133.0583],[-87.29772,13.68433,150.8887],[-87.26343,13.68842,236.5663],[-87.21423,13.6711,690.1207],[-87.18268,13.68113,818.3238],[-87.13475,13.66087,757.0909],[-87.13021,13.66005,727.2608],[-87.12984,13.66433,847.4959],[-87.12703,13.68159,915.9939],[-87.11951,13.69761,938.9225],[-87.11163,13.70831,614.9855],[-87.11116,13.72402,464.0097],[-87.122559999999993,13.74459,510.8086],[-87.12868,13.75213,539.211],[-87.13155,13.76267,648.5685],[-87.13227,13.77678,668.4781],[-87.13165,13.79094,543.9871],[-87.1299,13.79874,522.8841],[-87.12819,13.80247,537.8095],[-87.12155,13.81032,594.2987],[-87.10649,13.8035,593.5267],[-87.0838,13.78371,856.595],[-87.07569,13.77973,863.5117],[-87.05122,13.77518,987.3749],[-87.03553,13.77539,1013.3795],[-87.03055,13.779,1107.27],[-87.01393,13.80045,1429.1787],[-86.99507,13.84593,1373.1487],[-86.99099,13.89187,1179.2112],[-86.99249,13.91161,1070.0823],[-86.9899,13.92447,861.0983],[-86.985,13.93429,841.9171],[-86.98422,13.94282,805.269],[-86.98515,13.95005,812.1246],[-86.98926,13.96452,773.8925],[-86.95458,13.95842,1077.4324],[-86.93828,13.9669,1223.5659],[-86.92673,13.97899,1362.1326],[-86.91596,13.9993,1289.167],[-86.91229,14.03894,637.6871],[-86.91425,14.05,630.7271],[-86.91712,14.05625,604.7708],[-86.92474,14.06043,630.9775],[-86.95223,14.08028,922.6061],[-86.97828,14.11475,941.9453],[-86.9843,14.13263,1086.5742],[-86.96301,14.14084,746.8167],[-86.94916,14.14084,684.4521],[-86.93322,14.13785,632.9883],[-86.91218,14.14084,611.0712],[-86.90187,14.161,636.8485],[-86.90304,14.16482,605.2516],[-86.90686,14.16957,610.5103],[-86.91239,14.17268,616.7026],[-86.92066,14.1749,594.257],[-86.92192,14.17857,616.6646],[-86.91993,14.18358,610.7889],[-86.90893,14.19867,749.4235],[-86.89686,14.22993,1085.9136],[-86.84813,14.27169,1539.3923],[-86.82914,14.30497,1615.8453],[-86.8217,14.33778,1960.2281],[-86.78893,14.36827,754.8866],[-86.71421,14.42382,1170.676],[-86.71356,14.43783,988.8165],[-86.72615,14.47157,886.6697],[-86.7293,14.48532,1019.9421],[-86.73106,14.50041,962.8881],[-86.7347,14.50764,992.6663],[-86.74511,14.52366,1011.0474],[-86.74752,14.53296,1009.2255],[-86.7486,14.54144,964.1571],[-86.74442,14.55746,1031.4825],[-86.74372,14.57534,1165.1144],[-86.76248,14.5988,1354.4707],[-86.79731,14.63032,1745.5824],[-86.80663,14.63983,2071.8611],[-86.82606,14.64448,1732.6545],[-86.83495,14.65151,1583.1691],[-86.84834,14.66593,1178.2103],[-86.86017,14.68758,1172.0869],[-86.89136,14.7622,1163.8922],[-86.89947,14.7991,813.1948],[-86.90717,14.80995,811.812],[-86.90991,14.8207,857.5989],[-86.91242,14.84767,1289.0256],[-86.91699,14.85832,1405.1833],[-86.92371,14.86907,1320.9053],[-86.92727,14.87625,1390.1055],[-86.93329,14.89733,1382.3196],[-86.92355,14.9054,1525.3267],[-86.91549,14.93253,1722.8263],[-86.90614,14.94017,1690.6246],[-86.90836,14.94286,1574.4893],[-86.91223,14.94612,1529.0909],[-86.92665,14.95351,1543.6946],[-86.93812,14.96529,1416.5941],[-86.96164,14.97728,1463.1543],[-86.97065,14.98586,1551.4329],[-86.98096,14.9981,1597.464],[-86.985,15.00477,1585.757],[-86.98748,15.01588,1604.1294],[-87.02104,15.02306,1754.5393],[-87.07471,15.02089,2179.4854]]]}}