{"type":"Feature","properties":{"GID_2":"HND.16.6_1","GID_0":"HND","country":"Honduras","GID_1":"HND.16_1","province":"SantaBárbara","NL_NAME_1":"NA","county":"ConcepcióndelNorte","VARNAME_2":"NA","NL_NAME_2":"NA","TYPE_2":"Municipio","ENGTYPE_2":"Municipality","CC_2":"NA","HASC_2":"HN.SB.CN","name":"Concepcióndel_Norte.county"},
"geometry":{"type": "MultiPolygon","coordinates": [[[[-88.059,15.2,282.3427],[-88.099,15.205,418.76],[-88.1086,15.2364,589.1641],[-88.1207,15.2502,488.316],[-88.1443,15.2383,509.4149],[-88.1563,15.237,796.1882],[-88.1751,15.214,1230.2511],[-88.1819,15.2206,1318.2146],[-88.1828,15.2235,1288.2052],[-88.196,15.2194,983.4298],[-88.2017,15.2136,1250.0948],[-88.2016,15.1806,506.7963],[-88.1961,15.1739,467.5596],[-88.1933,15.1568,353.3939],[-88.1895,15.1536,251.0014],[-88.1847,15.153,205.5387],[-88.186,15.147,177.365],[-88.1777,15.1367,139.9431],[-88.1811,15.1308,143.7193],[-88.1802,15.127,136.8164],[-88.1821,15.1228,214.6992],[-88.1806,15.1198,278.2789],[-88.1664,15.1096,292.8765],[-88.1595,15.1129,386.3227],[-88.1524,15.1101,472.4312],[-88.1495,15.1142,502.8185],[-88.1395,15.1191,472.3238],[-88.135,15.1242,585.6775],[-88.1279,15.1251,369.703],[-88.1259,15.1339,276.0231],[-88.122,15.1377,224.7272],[-88.1054,15.1429,200.2331],[-88.0995,15.14,247.1293],[-88.0977,15.1426,175.6943],[-88.091,15.1453,259.584],[-88.0841,15.1571,385.2808],[-88.0765,15.1621,360.5923],[-88.077,15.1684,261.353],[-88.0757,15.1722,103.2204],[-88.0678,15.18,336.8967],[-88.0634,15.1818,468.846],[-88.0628,15.1934,109.8791],[-88.059,15.2,282.3427]]]]}}