{"type":"Feature","properties":{"GID_2":"HND.4.20_1","GID_0":"HND","country":"Honduras","GID_1":"HND.4_1","province":"Comayagua","NL_NAME_1":"NA","county":"Taulabe","VARNAME_2":"NA","NL_NAME_2":"NA","TYPE_2":"Municipio","ENGTYPE_2":"Municipality","CC_2":"NA","HASC_2":"HN.CM.TA","name":"Taulabe.county"},
"geometry":{"type": "MultiPolygon","coordinates": [[[[-87.8969,14.8411,1212.1989],[-87.9664,14.7975,825.5195],[-87.976,14.7856,657.8392],[-87.9892,14.7851,698.9485],[-87.9972,14.7752,1038.0447],[-88.0218,14.7519,1050.0786],[-88.0085,14.7517,1097.5835],[-88.0009,14.7492,1204.7319],[-87.9941,14.7441,1087.6782],[-87.9872,14.7323,959.1746],[-87.9881,14.7278,1066.3297],[-87.9918,14.7256,1002.5624],[-87.9932,14.7193,885.7007],[-87.99,14.7092,678.02],[-87.9891,14.6961,561.2157],[-88.0137,14.6932,550.6234],[-88.0231,14.6856,713.3689],[-88.0193,14.6811,866.4302],[-88.0186,14.6759,921.9758],[-88.0212,14.6677,916.7642],[-88.0207,14.6644,963.4315],[-88.0144,14.6613,1074.8835],[-88.0166,14.6559,1272.0122],[-88.014,14.6521,1246.0354],[-88.0111,14.636,1202.2069],[-87.911,14.64,1148.3052],[-87.8923,14.6643,1183.9713],[-87.8928,14.7182,1652.0066],[-87.9179,14.7345,1480.0198],[-87.9206,14.7489,1333.7666],[-87.8755,14.8046,1935.1288],[-87.8765,14.8251,1703.4171],[-87.8783,14.8299,1911.6212],[-87.8816,14.8336,1962.1562],[-87.8969,14.8411,1212.1989]]]]}}