{"type": "Feature","bbox": [-86.3482,14.9116,-85.7681,15.5273],"geometry": {"type": "MultiPolygon","coordinates": [[[[-86.2309,15.4126,1374.1893],[-86.2315,15.4108,1331.0942],[-86.2827,15.379,1033.943],[-86.2888,15.3788,888.9377],[-86.3238,15.3584,901.139],[-86.3391,15.3516,919.1315],[-86.3256,15.3456,903.7241],[-86.3252,15.3413,889.375],[-86.3222,15.3354,972.4423],[-86.313,15.3228,792.0637],[-86.3108,15.3098,845.6954],[-86.303,15.3032,716.359],[-86.2955,15.2911,667.6062],[-86.2916,15.2918,735.0396],[-86.2911,15.2904,749.5805],[-86.2939,15.2846,855.66],[-86.2909,15.2793,750.6679],[-86.2959,15.2744,601.8439],[-86.2981,15.2678,665.393],[-86.3032,15.2653,583.3544],[-86.3068,15.2532,698.9276],[-86.3109,15.2517,560.6086],[-86.3219,15.2524,547.4723],[-86.3264,15.2492,537.5662],[-86.319,15.2405,713.9877],[-86.316,15.2318,816.6787],[-86.3166,15.226,795.3531],[-86.3121,15.2197,832.6064],[-86.2984,15.2122,908.0425],[-86.2532,15.1676,850.1458],[-86.2561,15.164,863.0853],[-86.2563,15.1611,861.9247],[-86.2633,15.1579,839.6832],[-86.2659,15.1543,865.5548],[-86.2681,15.1272,1011.6021],[-86.249,15.0767,1299.1335],[-86.2482,15.063,1030.1033],[-86.2697,15.0459,1044.947],[-86.2699,15.0399,1080.9854],[-86.2751,15.0234,1374.1736],[-86.2858,15.0135,1161.5604],[-86.3482,14.9827,1238.3964],[-86.3161,14.979,1176.7727],[-86.2908,14.972,1255.6355],[-86.2746,14.9715,1323.2214],[-86.2294,14.9485,916.0344],[-86.2133,14.9418,937.5864],[-86.1832,14.9399,1128.8019],[-86.1207,14.9326,1312.5276],[-86.0999,14.9349,1226.6296],[-86.0775,14.9396,1164.3877],[-86.0482,14.9222,1487.4353],[-86.0233,14.9245,1575.8655],[-85.9943,14.9368,1400.7111],[-85.95,14.9142,1621.7665],[-85.9396,14.9116,1639.8445],[-85.9344,14.9168,1450.0555],[-85.9337,14.9202,1293.0149],[-85.9383,15.0187,1207.8149],[-85.9376,15.0279,1008.8051],[-85.9327,15.041,743.6104],[-85.8354,15.0571,673.9392],[-85.841,15.0757,523.9205],[-85.8416,15.0888,494.4286],[-85.8497,15.0972,466.9085],[-85.8469,15.0979,481.8462],[-85.8464,15.1017,476.9129],[-85.8444,15.1023,478.0803],[-85.8472,15.1179,475.841],[-85.8489,15.1204,465.597],[-85.851,15.1174,452.389],[-85.8582,15.125,448.1169],[-85.8598,15.125,447.4207],[-85.8677,15.121,450.8629],[-85.8694,15.1177,462.6552],[-85.8726,15.1179,463.4949],[-85.8736,15.1213,456.1133],[-85.8794,15.1232,463.6497],[-85.8809,15.121,465.6566],[-85.8871,15.125,459.4853],[-85.8906,15.1239,467.6291],[-85.8913,15.1267,458.8966],[-85.8888,15.1282,457.8145],[-85.889,15.1298,458.6014],[-85.8921,15.1351,464.4431],[-85.9023,15.1326,474.5728],[-85.9045,15.1402,464.0986],[-85.9067,15.1354,474.7311],[-85.9125,15.1362,479.532],[-85.9101,15.1423,467.2464],[-85.9109,15.1443,466.4914],[-85.9207,15.1414,494.5847],[-85.928,15.1479,474.983],[-85.9406,15.1509,476.3248],[-85.937,15.1563,502.402],[-85.9364,15.1651,516.37],[-85.9322,15.1727,528.3508],[-85.9325,15.1749,527.8983],[-85.9356,15.1773,526.2781],[-85.9397,15.1772,519.9281],[-85.9406,15.1786,519.9281],[-85.945,15.1969,555.9753],[-85.9229,15.2044,554.2477],[-85.9198,15.2091,549.8843],[-85.9446,15.2122,563.3271],[-85.9351,15.2348,704.4542],[-85.9387,15.2418,658.0306],[-85.9367,15.2487,773.3534],[-85.939,15.2526,798.1154],[-85.9479,15.3019,1066.9651],[-85.9564,15.3362,1079.8169],[-85.887,15.3751,1047.7948],[-85.8378,15.4062,505.8902],[-85.8009,15.3913,484.6673],[-85.7751,15.3771,398.8524],[-85.7694,15.3834,347.8577],[-85.7702,15.3951,358.6024],[-85.7767,15.3989,324.0816],[-85.7788,15.4028,311.7529],[-85.7781,15.4048,296.7004],[-85.7709,15.409,401.7751],[-85.7681,15.4147,397.7552],[-85.7692,15.4221,339.2204],[-85.7752,15.4317,312.2981],[-85.7714,15.4467,301.5896],[-85.8245,15.505,1229.4617],[-85.8326,15.5079,1337.6223],[-85.8301,15.5144,1493.7906],[-85.8389,15.5145,1378.3496],[-85.8489,15.5197,1224.71],[-85.8583,15.5196,1013.2543],[-85.8635,15.5271,933.6029],[-85.8737,15.5273,1004.8665],[-85.8829,15.5255,1132.5552],[-85.8903,15.5187,1103.911],[-85.8907,15.5149,1140.8875],[-85.8884,15.5094,1192.7339],[-85.8891,15.5053,1071.6147],[-85.8856,15.5,1161.4633],[-85.8859,15.4975,1198.0679],[-85.909,15.4746,1140.0154],[-85.9206,15.4665,1198.115],[-85.9276,15.4575,1144.4482],[-85.9306,15.4557,1110.8115],[-85.9398,15.4574,1247.489],[-85.944,15.4548,1128.2847],[-85.9617,15.4355,1199.5133],[-85.9655,15.4194,1398.4387],[-85.9732,15.4167,1370.4346],[-85.9782,15.4098,1201.9789],[-85.9885,15.4107,1184.252],[-85.9924,15.4026,1438.6069],[-86.0038,15.4035,1572.818],[-86.008,15.3964,1637.5453],[-86.012,15.3963,1538.3177],[-86.0167,15.399,1443.5586],[-86.0204,15.3984,1513.3774],[-86.0254,15.394,1481.5825],[-86.0275,15.3865,1586.2634],[-86.0396,15.3842,1690.7311],[-86.0452,15.3921,1563.9685],[-86.049,15.3947,1490.9468],[-86.0627,15.3972,1472.2841],[-86.0665,15.395,1509.9399],[-86.0744,15.3977,1393.1747],[-86.0849,15.3986,1438.0549],[-86.0878,15.3956,1415.3098],[-86.0892,15.3864,1316.9916],[-86.0972,15.3912,1353.9885],[-86.1009,15.3913,1358.4519],[-86.1069,15.3868,1287.0253],[-86.1121,15.3801,1343.6699],[-86.1243,15.3744,1467.1785],[-86.1364,15.3751,1632.0001],[-86.1443,15.3698,1489.3853],[-86.1487,15.3699,1435.4166],[-86.1544,15.3727,1361.6449],[-86.1647,15.3732,1388.3965],[-86.1886,15.3891,1144.6665],[-86.2309,15.4126,1374.1893]]]]}
,"properties": {"GID_2": "HND.15.7_1","GID_0": "HND","country": "Honduras","GID_1": "HND.15_1","province": "Olancho","NL_NAME_1": "NA","county": "Gualaco","VARNAME_2": "NA","NL_NAME_2": "NA","TYPE_2": "Municipio","ENGTYPE_2": "Municipality","CC_2": "NA","HASC_2": "HN.OL.GL","name": "Gualaco.county","area_km2": 2228.28,"hist_schema_id": "Elevation0-9000","hist_area_km2": {"275": 1.124,"300": 2.759,"325": 2.391,"350": 2.698,"375": 2.923,"400": 3.475,"425": 3.72,"450": 7.219,"475": 21.178,"500": 33.027,"525": 40.534,"550": 44.666,"575": 48.002,"600": 48.515,"625": 52.16,"650": 65.47,"675": 67.169,"700": 67.311,"725": 68.616,"750": 71.395,"775": 74.93,"800": 77.772,"825": 83.273,"850": 89.124,"875": 95.711,"900": 94.133,"925": 92.965,"950": 91.02,"975": 91.305,"1000": 84.758,"1025": 76.578,"1050": 72.367,"1075": 68.52,"1100": 58.825,"1125": 51.01,"1150": 44.481,"1175": 39.509,"1200": 33.432,"1225": 30.588,"1250": 26.681,"1275": 24.39,"1300": 23.326,"1325": 21.812,"1350": 19.501,"1375": 18.417,"1400": 14.714,"1425": 12.135,"1450": 8.964,"1475": 7.388,"1500": 5.423,"1525": 4.523,"1550": 3.377,"1575": 2.457,"1600": 2.518,"1625": 2.641,"1650": 2.416,"1675": 2.13,"1700": 1.986,"1725": 2.233,"1750": 1.639,"1775": 1.762,"1800": 1.25,"1825": 1.209,"1850": 0.942,"1875": 1.209,"1900": 1.065,"1925": 1.188,"1950": 0.881,"1975": 0.922,"2000": 0.655,"2025": 0.696,"2050": 0.655,"2075": 0.492,"2100": 0.492,"2125": 0.533,"2150": 0.266,"2175": 0.41,"2200": 0.082,"2225": 0.102,"2250": 0.041,"2275": 0.082,"2300": 0.02}}}