{"type":"Feature","properties":{"GID_2":"HND.12.9_1","GID_0":"HND","country":"Honduras","GID_1":"HND.12_1","province":"LaPaz","NL_NAME_1":"NA","county":"MercedesdeOriente","VARNAME_2":"NA","NL_NAME_2":"NA","TYPE_2":"Municipio","ENGTYPE_2":"Municipality","CC_2":"NA","HASC_2":"HN.LP.MO","name":"Mercedesde_Oriente.county"},
"geometry":{"type": "MultiPolygon","coordinates": [[[[-87.754,13.8614,327.6583],[-87.748,13.8666,455.0715],[-87.7471,13.8702,550.0446],[-87.743,13.8725,606.4911],[-87.7473,13.8765,516.2968],[-87.7564,13.8787,677.5223],[-87.7465,13.8938,602.8845],[-87.7464,13.9002,608.5126],[-87.7503,13.9014,610.176],[-87.7588,13.9006,760.4338],[-87.7663,13.9054,913.8024],[-87.7665,13.9144,823.4865],[-87.7696,13.9184,880.5428],[-87.7711,13.9248,1105.3113],[-87.7709,13.9364,1101.2844],[-87.7734,13.9393,1035.9266],[-87.7733,13.9423,1018.1259],[-87.7773,13.9434,1001.6982],[-87.7806,13.9485,940.6035],[-87.783,13.9604,763.3177],[-87.7933,13.9707,872.147],[-87.7979,13.9733,770.2613],[-87.8029,13.972,825.128],[-87.8047,13.9666,911.4397],[-87.8022,13.9626,812.8127],[-87.7982,13.9614,761.8809],[-87.7966,13.9532,826.4714],[-87.7938,13.9489,944.2334],[-87.7957,13.9394,888.4023],[-87.7944,13.9266,1141.4387],[-87.7977,13.9246,1091.7743],[-87.7975,13.9227,1071.7683],[-87.802,13.9211,1023.7986],[-87.7963,13.913,966.7121],[-87.7975,13.9075,989.9786],[-87.796,13.9065,856.6682],[-87.7926,13.8918,620.6777],[-87.7927,13.8887,485.5281],[-87.7957,13.8859,545.2756],[-87.775,13.8698,505.9866],[-87.754,13.8614,327.6583]]]]}}