{"type":"Feature","properties":{"GID_2":"HND.14.9_1","GID_0":"HND","country":"Honduras","GID_1":"HND.14_1","province":"Ocotepeque","NL_NAME_1":"NA","county":"Ocotepeque","VARNAME_2":"NuevaOcotepeque","NL_NAME_2":"NA","TYPE_2":"Municipio","ENGTYPE_2":"Municipality","CC_2":"NA","HASC_2":"HN.OC.OC","name":"Ocotepeque.county"},
"geometry":{"type": "MultiPolygon","coordinates": [[[[-89.1913,14.3555,897.8682],[-89.1762,14.3434,1031.3737],[-89.1591,14.3381,1278.6062],[-89.1361,14.3369,1736.6389],[-89.1161,14.3399,2134.2075],[-89.1193,14.3517,2239.5146],[-89.1172,14.3613,2211.8826],[-89.1222,14.364,2222.8584],[-89.1254,14.3692,2264.9099],[-89.112799999999993,14.3779,2363.3975],[-89.1075,14.3876,2255.4026],[-89.1015,14.3875,2108.9993],[-89.0983,14.3895,2084.6333],[-89.1053,14.3978,2114.4224],[-89.1154,14.4032,2130.1313],[-89.1239,14.4111,1906.1123],[-89.1512,14.4195,1378.3573],[-89.1581,14.4288,1208.1113],[-89.1726,14.4279,865.824],[-89.1903,14.4239,767.0898],[-89.2025,14.4172,758.993],[-89.206,14.4234,790.6691],[-89.2028,14.4276,748.7986],[-89.2059,14.4364,755.3958],[-89.201,14.4396,800.9841],[-89.2002,14.4455,781.4418],[-89.2044,14.4475,779.9482],[-89.2063,14.451599999999999,761.552],[-89.2165,14.4518,872.1839],[-89.2257,14.447,935.8236],[-89.2412,14.4471,1116.2593],[-89.2456,14.4509,1202.3488],[-89.2456,14.4464,1177.5839],[-89.2905,14.4703,1587.219],[-89.2999,14.4665,1842.4625],[-89.3018,14.4556,1811.8364],[-89.3114,14.4502,1979.9414],[-89.3185,14.4327,1730.4055],[-89.3426,14.4163,2240.6182],[-89.3312,14.4065,1914.785],[-89.2983,14.3903,1659.5856],[-89.259,14.3803,995.2068],[-89.224,14.3781,843.2387],[-89.2175,14.3758,732.0111],[-89.2069,14.3701,772.5886],[-89.1913,14.3555,897.8682]]]]}}