{"type":"Feature","properties":{"GID_2":"HND.13.17_1","GID_0":"HND","country":"Honduras","GID_1":"HND.13_1","province":"Lempira","NL_NAME_1":"NA","county":"SanFrancisco","VARNAME_2":"NA","NL_NAME_2":"NA","TYPE_2":"Municipio","ENGTYPE_2":"Municipality","CC_2":"NA","HASC_2":"HN.AT.SF","name":"San_Francisco.county"},
"geometry":{"type": "MultiPolygon","coordinates": [[[[-88.3751,14.03,366.9601],[-88.3724,14.0316,257.0057],[-88.3699,14.0362,319.3448],[-88.3627,14.0384,348.9523],[-88.3489,14.0596,207.653],[-88.3428,14.0585,282.6998],[-88.3376,14.0621,263.1402],[-88.3298,14.0604,266.4376],[-88.3256,14.0628,297.239],[-88.3248,14.0658,406.4306],[-88.3304,14.076,228.9764],[-88.3306,14.0798,366.2081],[-88.3246,14.0891,535.7161],[-88.3145,14.0916,677.4941],[-88.313,14.0934,652.9489],[-88.314,14.1039,354.9338],[-88.3177,14.107,286.7458],[-88.3178,14.1176,333.8663],[-88.3201,14.1209,316.8748],[-88.3153,14.1351,531.5545],[-88.3162,14.1418,509.925],[-88.3199,14.1473,397.2457],[-88.3254,14.1498,527.6887],[-88.3251,14.1696,903.804],[-88.3213,14.1753,973.9401],[-88.3217,14.1853,938.9133],[-88.3166,14.1918,1084.2231],[-88.3158,14.1974,1134.4597],[-88.3177,14.2009,1070.0364],[-88.3236,14.2037,726.1413],[-88.3268,14.2078,852.0414],[-88.3438,14.2026,1068.3901],[-88.344,14.1984,1176.4207],[-88.3681,14.1734,1152.3506],[-88.383,14.171,939.2922],[-88.3882,14.1718,906.3022],[-88.3901,14.168,913.5604],[-88.4035,14.1619,672.369],[-88.4094,14.148,914.58],[-88.4195,14.1398,747.782],[-88.4268,14.1369,596.6008],[-88.4272,14.1346,564.0269],[-88.4301,14.1345,570.0458],[-88.4296,14.1294,529.6584],[-88.4314,14.1245,470.295],[-88.428,14.1172,568.5046],[-88.4299,14.1145,627.3149],[-88.4245,14.1073,558.989],[-88.422,14.1084,483.2736],[-88.4194,14.1062,471.2292],[-88.417,14.0982,413.6582],[-88.4178,14.0962,432.6121],[-88.4116,14.0899,519.0],[-88.4105,14.0826,547.7103],[-88.4054,14.0777,458.2679],[-88.4048,14.0701,462.6261],[-88.3916,14.059,498.5761],[-88.385,14.0596,362.2432],[-88.3802,14.05,267.3985],[-88.3748,14.0488,228.4343],[-88.3751,14.0405,289.3452],[-88.379,14.0379,321.6375],[-88.3803,14.0326,422.5403],[-88.3802,14.0291,372.0653],[-88.3751,14.03,366.9601]]]]}}