{"type": "Feature","bbox": [-87.3591,14.5527,-87.1215,14.8526],"geometry": {"type": "MultiPolygon","coordinates": [[[[-87.3531,14.5964,714.5004],[-87.3513,14.5933,664.4498],[-87.353,14.5873,709.9125],[-87.3591,14.5817,720.0052],[-87.3567,14.5799,676.7266],[-87.356,14.5688,732.1616],[-87.3506,14.5641,667.1217],[-87.3512,14.5594,657.1204],[-87.3477,14.5589,724.5907],[-87.3454,14.5558,728.0432],[-87.3377,14.5558,605.0563],[-87.3303,14.5594,603.2078],[-87.3212,14.5604,623.6967],[-87.3177,14.5597,636.0231],[-87.3148,14.554,644.6821],[-87.2994,14.5594,762.9946],[-87.2969,14.5569,744.8217],[-87.2542,14.5527,1157.3154],[-87.2539,14.5713,1274.4438],[-87.2454,14.578,1273.7119],[-87.2425,14.5933,1132.3899],[-87.2449,14.5954,1074.0101],[-87.2434,14.5955,1059.1631],[-87.2441,14.5982,1032.6875],[-87.241,14.6024,1033.1294],[-87.2402,14.6065,983.0652],[-87.2369,14.6085,1026.7894],[-87.2395,14.6097,1055.0052],[-87.2396,14.6113,1096.1815],[-87.2411,14.6109,1096.1815],[-87.2406,14.6124,1108.2266],[-87.243,14.6116,1095.0857],[-87.2433,14.6157,1090.6074],[-87.2392,14.6232,1038.0038],[-87.2342,14.6232,948.3013],[-87.2379,14.6253,984.0028],[-87.2304,14.6288,929.743],[-87.2291,14.6372,943.333],[-87.2252,14.6414,876.9094],[-87.2276,14.6485,819.1783],[-87.2304,14.6483,821.3237],[-87.2317,14.6507,795.5675],[-87.2299,14.6536,783.8683],[-87.2307,14.6561,768.6884],[-87.229,14.6569,768.6884],[-87.2318,14.6602,759.85],[-87.2314,14.662,754.7462],[-87.2292,14.6653,755.6852],[-87.2153,14.6723,664.7622],[-87.2127,14.6788,649.0857],[-87.2062,14.6818,643.0227],[-87.2058,14.6796,643.6055],[-87.1992,14.6768,641.2226],[-87.1961,14.681,628.7413],[-87.1915,14.6838,653.8597],[-87.1924,14.6876,620.1045],[-87.1899,14.6875,619.6066],[-87.1835,14.6938,613.2716],[-87.1812,14.694,595.5403],[-87.1808,14.6912,594.4829],[-87.1839,14.6873,593.056],[-87.1774,14.6874,579.5183],[-87.1773,14.6835,587.9356],[-87.1727,14.6845,583.7961],[-87.1729,14.6824,582.7975],[-87.1699,14.681,579.6237],[-87.167,14.6749,585.5732],[-87.1665,14.6713,592.6986],[-87.1646,14.6713,596.2689],[-87.1607,14.6747,577.59],[-87.1602,14.672,578.8512],[-87.1554,14.6713,595.7968],[-87.1589,14.6653,584.1366],[-87.1544,14.6635,587.7186],[-87.1512,14.659,594.4534],[-87.147,14.657,598.5939],[-87.1439,14.6584,605.0803],[-87.1374,14.6576,609.5315],[-87.1333,14.653,604.4799],[-87.1294,14.6585,606.0271],[-87.1268,14.6589,601.4789],[-87.125,14.6552,603.2435],[-87.1216,14.6572,600.2011],[-87.1215,14.6961,644.2326],[-87.1384,14.7322,986.265],[-87.158,14.7417,724.8295],[-87.166,14.7533,726.0341],[-87.167,14.7639,979.2448],[-87.1704,14.7698,1085.9777],[-87.169,14.7745,1078.9047],[-87.166,14.7761,997.8522],[-87.168,14.7799,978.5904],[-87.1659,14.7869,930.0705],[-87.1606,14.792,806.0106],[-87.1614,14.7965,906.5472],[-87.1549,14.8005,752.4323],[-87.1551,14.8045,831.3673],[-87.1524,14.8065,707.6514],[-87.1528,14.814,732.3686],[-87.1579,14.8145,794.1113],[-87.1617,14.8187,727.4534],[-87.1611,14.8264,858.5348],[-87.165,14.8312,737.166],[-87.1846,14.8326,860.1034],[-87.1861,14.8372,811.4247],[-87.1895,14.8365,857.137],[-87.1921,14.8387,768.0823],[-87.1999,14.8404,598.5387],[-87.2019,14.8444,546.0092],[-87.2057,14.8436,546.9355],[-87.2078,14.8465,512.2413],[-87.2125,14.8474,530.8328],[-87.2173,14.8526,593.9095],[-87.2199,14.8491,605.0533],[-87.2222,14.8519,638.8735],[-87.2332,14.8498,595.496],[-87.236,14.8379,600.9368],[-87.2418,14.8344,608.4537],[-87.251,14.8332,733.6595],[-87.2586,14.8353,571.6556],[-87.2675,14.8353,807.5194],[-87.2755,14.8296,810.4474],[-87.2789,14.8252,750.6701],[-87.2789,14.8197,769.5599],[-87.2846,14.8171,731.3971],[-87.2883,14.8009,907.9675],[-87.2828,14.798,756.8303],[-87.2812,14.7879,869.6922],[-87.277,14.7845,811.0063],[-87.2725,14.7763,716.9432],[-87.2728,14.764,672.7258],[-87.2749,14.7588,681.1117],[-87.2711,14.7551,603.1227],[-87.2722,14.7503,588.3392],[-87.2702,14.7464,595.642],[-87.2721,14.7419,576.7155],[-87.2713,14.7346,610.4224],[-87.277,14.7283,674.994],[-87.2761,14.7221,622.9888],[-87.2773,14.7173,627.3738],[-87.2889,14.716,561.8699],[-87.2868,14.7126,543.3119],[-87.2894,14.7061,536.3403],[-87.2872,14.7018,528.9648],[-87.2918,14.698,531.1063],[-87.2865,14.6909,527.1375],[-87.2962,14.6881,528.0523],[-87.2967,14.6834,529.407],[-87.3015,14.6817,529.8844],[-87.3049,14.6812,533.5626],[-87.3102,14.6834,546.7548],[-87.3087,14.6779,533.0267],[-87.315,14.6759,542.3024],[-87.3193,14.6701,604.1554],[-87.3235,14.6673,547.2832],[-87.329,14.666,553.1046],[-87.3343,14.6674,617.2278],[-87.3358,14.6592,669.867],[-87.3301,14.6544,600.7823],[-87.3316,14.6517,677.285],[-87.339,14.6512,770.5661],[-87.34,14.6573,685.4453],[-87.3435,14.658,703.8002],[-87.3455,14.6567,745.5897],[-87.3469,14.6519,761.5837],[-87.3422,14.6426,712.7902],[-87.3417,14.6347,668.5898],[-87.3449,14.6299,608.1949],[-87.3481,14.6282,629.1085],[-87.3437,14.6246,643.9045],[-87.3435,14.6221,652.5099],[-87.3477,14.6217,672.3069],[-87.3522,14.6144,610.3904],[-87.35,14.6046,658.5302],[-87.3542,14.6,717.9797],[-87.3531,14.5964,714.5004]]]]}
,"properties": {"GID_2": "HND.8.5_1","GID_0": "HND","country": "Honduras","GID_1": "HND.8_1","province": "FranciscoMorazán","NL_NAME_1": "NA","county": "ElPorvenir","VARNAME_2": "NA","NL_NAME_2": "NA","TYPE_2": "Municipio","ENGTYPE_2": "Municipality","CC_2": "NA","HASC_2": "HN.AT.EP","name": "El_Porvenir.county","area_km2": 415.045,"hist_schema_id": "Elevation0-9000","hist_area_km2": {"450": 0.1435,"475": 0.8404,"500": 2.501,"525": 13.7798,"550": 26.3506,"575": 51.0234,"600": 45.5699,"625": 35.6022,"650": 27.5225,"675": 20.6112,"700": 14.8885,"725": 16.5088,"750": 16.3653,"775": 14.3757,"800": 12.3654,"825": 12.0379,"850": 11.0332,"875": 10.2133,"900": 7.8961,"925": 7.5062,"950": 7.6088,"975": 6.5629,"1000": 6.0506,"1025": 6.0505,"1050": 5.1892,"1075": 5.8252,"1100": 5.7228,"1125": 5.1075,"1150": 4.3895,"1175": 3.2819,"1200": 2.4202,"1225": 2.051,"1250": 1.4768,"1275": 1.7846,"1300": 1.1693,"1325": 0.9434,"1350": 0.8613,"1375": 0.6152,"1400": 0.3486,"1425": 0.3075,"1450": 0.123,"1475": 0.0205}}}