{"type": "Feature","bbox": [-87.5093,13.3571,-87.3416,13.5224],"geometry": {"type": "MultiPolygon","coordinates": [[[[-87.4699,13.3687,0.6114],[-87.4713,13.3687,0.6114],[-87.471,13.3657,0.0],[-87.4685,13.3638,0.0],[-87.4685,13.3657,0.0],[-87.4699,13.3687,0.6114]]],
[[[-87.4995,13.3849,4.0818],[-87.5071,13.3804,0.0],[-87.5093,13.3757,0.9369],[-87.4985,13.3726,0.0],[-87.4912,13.3654,0.0],[-87.491,13.3632,0.0],[-87.489,13.3626,0.0],[-87.4885,13.3587,0.0],[-87.4782,13.3571,3.0714],[-87.4746,13.3635,0.0],[-87.4749,13.3701,0.0],[-87.4804,13.3871,0.0],[-87.4837,13.3907,0.0],[-87.4837,13.3947,0.0],[-87.4914,13.3931,2.0673],[-87.4933,13.3846,3.0631],[-87.4976,13.3875,1.188],[-87.4995,13.3849,4.0818]]],
[[[-87.4807,13.4059,0.0],[-87.4812,13.4026,1.3703],[-87.4788,13.401,0.0],[-87.4782,13.3985,0.0],[-87.4815,13.3954,2.6648],[-87.4824,13.3924,0.0],[-87.4799,13.3879,0.0],[-87.4771,13.391,0.0],[-87.4757,13.4004,4.0537],[-87.4724,13.3993,0.6707],[-87.4701,13.4024,1.5937],[-87.4751,13.4035,2.8306],[-87.4768,13.4065,0.0],[-87.4781,13.4059,1.5947],[-87.478,13.4081,0.0],[-87.4807,13.4059,0.0]]],
[[[-87.481,13.3977,1.1742],[-87.4796,13.3979,0.0],[-87.4793,13.4004,2.4519],[-87.4817,13.4018,2.4847],[-87.4834,13.3979,3.2076],[-87.481,13.3977,1.1742]]],
[[[-87.4607,13.4068,0.0],[-87.4682,13.4029,1.5726],[-87.469,13.4001,3.559],[-87.4715,13.3988,0.0],[-87.469,13.3915,1.2784],[-87.4707,13.3918,0.7482],[-87.4749,13.3999,0.0],[-87.4743,13.3979,0.4912],[-87.4779,13.3854,0.9078],[-87.4735,13.3779,1.2014],[-87.4662,13.3718,0.0],[-87.4543,13.376,1.5889],[-87.4457,13.3732,0.0],[-87.4415,13.374,0.9478],[-87.4321,13.3821,0.0],[-87.4313,13.3849,0.0],[-87.4329,13.3862,0.0],[-87.4385,13.3843,0.5315],[-87.444,13.3857,0.0],[-87.4465,13.3896,0.0],[-87.4476,13.3968,1.631],[-87.4551,13.3918,1.461],[-87.4587,13.3929,0.0],[-87.4607,13.3959,1.6215],[-87.4626,13.3957,0.6185],[-87.4638,13.3932,1.7034],[-87.464,13.3963,3.0933],[-87.4604,13.3965,1.6215],[-87.4587,13.399,1.5675],[-87.4582,13.4026,0.0],[-87.4607,13.4068,0.0]]],
[[[-87.4571,13.4149,0.0],[-87.4593,13.4154,1.2142],[-87.4607,13.4132,3.3393],[-87.4574,13.4035,0.0],[-87.4596,13.3949,0.0],[-87.4554,13.3929,1.4072],[-87.4501,13.3977,1.196],[-87.4468,13.3974,2.2025],[-87.4451,13.3946,0.0],[-87.4451,13.389,0.0],[-87.4415,13.3857,2.302],[-87.436,13.389,1.8369],[-87.4304,13.3893,0.0],[-87.4357,13.4013,0.9057],[-87.4488,13.4004,2.0281],[-87.4535,13.4029,1.9195],[-87.4526,13.4082,0.0],[-87.4479,13.4076,0.0],[-87.4446,13.4101,0.0],[-87.446,13.414,0.7714],[-87.4532,13.4135,2.1012],[-87.4571,13.4149,0.0]]],
[[[-87.444,13.406,0.6857],[-87.4449,13.4074,0.0],[-87.4474,13.4051,3.2077],[-87.4485,13.4071,0.0],[-87.4515,13.4079,0.0],[-87.4532,13.404,1.0615],[-87.4476,13.4013,0.0],[-87.4404,13.4038,0.0],[-87.444,13.406,0.6857]]],
[[[-87.3614,13.5177,260.9987],[-87.3624,13.5208,403.7709],[-87.3656,13.5224,357.319],[-87.3772,13.5149,124.592],[-87.3784,13.5115,126.9641],[-87.3871,13.5094,100.532],[-87.3917,13.5022,90.6743],[-87.3976,13.5043,105.4494],[-87.4003,13.5105,68.3306],[-87.4029,13.51,70.517],[-87.4139,13.5157,57.4324],[-87.4191,13.5135,63.2031],[-87.4223,13.5161,55.137],[-87.425,13.5149,84.5767],[-87.4286,13.517,44.7591],[-87.4321,13.5115,39.9749],[-87.4316,13.5071,37.8819],[-87.4351,13.5027,35.9592],[-87.434,13.498,39.5308],[-87.4366,13.4951,32.4441],[-87.4367,13.4887,27.5597],[-87.444,13.4802,23.292],[-87.4446,13.4765,23.4282],[-87.4472,13.475,21.5538],[-87.4481,13.4715,27.1726],[-87.4567,13.4727,18.101],[-87.4645,13.4653,15.5708],[-87.4732,13.4631,14.0402],[-87.4743,13.4587,12.8296],[-87.4763,13.4595,13.7699],[-87.4808,13.4573,11.1875],[-87.4839,13.4586,11.0682],[-87.4844,13.4549,10.1049],[-87.4879,13.4553,9.8814],[-87.4927,13.4513,8.9662],[-87.4957,13.4521,9.1563],[-87.4969,13.451,7.7811],[-87.4948,13.4459,6.6236],[-87.4991,13.4376,5.1236],[-87.4989,13.4346,4.7994],[-87.4968,13.4315,4.6735],[-87.4905,13.4285,1.5],[-87.4922,13.4271,1.5],[-87.4853,13.4259,1.2431],[-87.4839,13.4191,2.3468],[-87.4876,13.4213,4.3521],[-87.4899,13.4193,1.5004],[-87.4896,13.4172,1.5],[-87.4856,13.418,4.4165],[-87.4842,13.4154,5.5141],[-87.4776,13.4119,2.6918],[-87.475,13.4119,3.7493],[-87.4737,13.4149,4.7623],[-87.4709,13.4137,4.0593],[-87.469,13.4097,0.7207],[-87.4707,13.4081,4.7433],[-87.4728,13.4103,2.2326],[-87.476,13.4077,0.6609],[-87.474,13.4043,0.0],[-87.4679,13.4038,2.2025],[-87.4635,13.4057,3.4715],[-87.4624,13.4129,1.3568],[-87.4585,13.4168,0.0],[-87.4554,13.4154,0.0],[-87.4468,13.4154,0.7714],[-87.4432,13.4121,0.0],[-87.4437,13.4071,0.0],[-87.4362,13.4043,1.2029],[-87.429,13.3963,0.0],[-87.4243,13.4018,0.0],[-87.4238,13.4074,0.0],[-87.4199,13.4124,0.0],[-87.4204,13.4143,0.0],[-87.4229,13.4146,0.5499],[-87.4212,13.4163,0.0],[-87.4187,13.4154,0.0],[-87.4143,13.419,0.0],[-87.4137,13.4213,0.0],[-87.4115,13.4215,0.873],[-87.4104,13.4184,0.6901],[-87.4121,13.4171,0.0],[-87.4124,13.4115,0.0],[-87.406,13.4179,0.0],[-87.4024,13.4182,0.0],[-87.4007,13.4163,0.0],[-87.3999,13.4071,0.0],[-87.4026,13.4065,0.4231],[-87.404,13.4038,0.0],[-87.3965,13.4049,0.0],[-87.3901,13.4029,2.9641],[-87.3896,13.3993,0.0],[-87.3932,13.4021,0.0],[-87.3971,13.4021,0.0],[-87.3965,13.3993,1.7772],[-87.3987,13.4015,0.0],[-87.4071,13.3979,0.5521],[-87.4121,13.4024,0.0],[-87.4135,13.401,0.0],[-87.4137,13.4032,0.0],[-87.4163,13.4046,0.0],[-87.4187,13.404,0.0],[-87.4238,13.3918,1.2146],[-87.4274,13.3754,0.0],[-87.4262,13.3715,2.3806],[-87.4279,13.3635,0.0],[-87.4246,13.3574,0.7938],[-87.4151,13.3701,0.0],[-87.4071,13.3732,0.0],[-87.4121,13.3765,2.4075],[-87.4174,13.3765,0.0],[-87.4118,13.3771,3.2831],[-87.4065,13.374,0.7259],[-87.4037,13.3746,1.2021],[-87.4029,13.379,0.0],[-87.4076,13.384,0.8793],[-87.4046,13.381,0.5459],[-87.399,13.381,0.8637],[-87.4018,13.3801,0.0],[-87.4018,13.3746,0.0],[-87.4035,13.3721,0.4822],[-87.4015,13.3704,0.0],[-87.3929,13.3685,0.0],[-87.3896,13.3704,0.0],[-87.3871,13.3743,0.0],[-87.3879,13.3862,0.6627],[-87.3857,13.389,1.0423],[-87.3819,13.3886,2.6749],[-87.3802,13.3903,1.2136],[-87.3826,13.3936,4.4213],[-87.3811,13.3953,0.9708],[-87.3824,13.3968,0.0],[-87.3813,13.3974,2.0513],[-87.3814,13.4036,1.3528],[-87.3802,13.3977,1.0297],[-87.3779,13.3993,2.0885],[-87.3719,13.3969,3.5869],[-87.3626,13.3993,3.5322],[-87.3608,13.4028,4.3978],[-87.3565,13.4031,6.9582],[-87.3516,13.41,9.3114],[-87.35,13.4219,16.8443],[-87.3443,13.4278,25.2006],[-87.3459,13.4362,42.4339],[-87.3416,13.4414,119.7398],[-87.3547,13.4578,298.5748],[-87.3597,13.4693,181.934],[-87.3674,13.4787,144.9165],[-87.3682,13.4879,312.7461],[-87.3635,13.4984,196.9917],[-87.3614,13.5177,260.9987]]]]}
,"properties": {"GID_2": "HND.17.9_1","GID_0": "HND","country": "Honduras","GID_1": "HND.17_1","province": "Valle","NL_NAME_1": "NA","county": "SanLorenzo","VARNAME_2": "NA","NL_NAME_2": "NA","TYPE_2": "Municipio","ENGTYPE_2": "Municipality","CC_2": "NA","HASC_2": "HN.VA.SL","name": "San_Lorenzo.county","area_km2": 180.5848,"hist_schema_id": "Elevation0-9000","hist_area_km2": {"0": 80.7246,"25": 22.2501,"50": 14.4548,"75": 15.0312,"100": 10.2064,"125": 7.1548,"150": 5.7321,"175": 5.4021,"200": 4.3917,"225": 4.6186,"250": 4.1444,"275": 3.1753,"300": 1.4845,"325": 0.6391,"350": 0.5567,"375": 0.3093,"400": 0.1443,"425": 0.1031,"450": 0.0619}}}