{"type":"Feature","properties":{"GID_2":"HND.7.17_1","GID_0":"HND","country":"Honduras","GID_1":"HND.7_1","province":"ElParaíso","NL_NAME_1":"NA","county":"VadoAncho","VARNAME_2":"NA","NL_NAME_2":"NA","TYPE_2":"Municipio","ENGTYPE_2":"Municipality","CC_2":"NA","HASC_2":"HN.EP.VA","name":"Vado_Ancho.county"},
"geometry":{"type": "MultiPolygon","coordinates": [[[[-86.8901,13.6498,275.0919],[-86.8881,13.6592,380.3568],[-86.89,13.6639,486.8878],[-86.8941,13.6652,485.6304],[-86.8958,13.6734,619.266],[-86.906,13.6729,568.6141],[-86.9073,13.6791,555.9591],[-86.9111,13.6791,695.673],[-86.9135,13.6812,774.5066],[-86.9357,13.6831,1151.4341],[-86.9439,13.6713,1063.4122],[-86.9593,13.6629,914.3016],[-86.9693,13.654,614.5685],[-86.9823,13.6376,434.3192],[-86.9938,13.6308,381.5115],[-86.9934,13.6201,314.7549],[-86.9973,13.6181,318.3458],[-86.9986,13.6132,521.3889],[-87.0071,13.6039,561.4425],[-86.9952,13.5954,702.0752],[-86.9952,13.5845,897.126],[-87.0022,13.5837,710.7825],[-87.0016,13.5808,802.7341],[-87.0042,13.5768,903.8005],[-87.0033,13.5707,949.533],[-86.9926,13.5798,938.5897],[-86.976,13.5801,1046.5376],[-86.9716,13.5861,712.7786],[-86.9614,13.5911,529.4899],[-86.943,13.6109,464.3159],[-86.9336,13.6291,609.0645],[-86.935,13.6376,831.4361],[-86.9323,13.655,931.8168],[-86.9306,13.6554,931.8168],[-86.9285,13.6528,831.5557],[-86.9255,13.6442,559.5072],[-86.9047,13.6437,481.6724],[-86.8967,13.6482,313.443],[-86.8901,13.6498,275.0919]]]]}}