{"type":"Feature","properties":{"GID_2":"HND.3.9_1","GID_0":"HND","country":"Honduras","GID_1":"HND.3_1","province":"Colón","NL_NAME_1":"NA","county":"Tocoa","VARNAME_2":"NA","NL_NAME_2":"NA","TYPE_2":"Municipio","ENGTYPE_2":"Municipality","CC_2":"NA","HASC_2":"HN.CL.TO","name":"Tocoa.county"},
"geometry":{"type": "MultiPolygon","coordinates": [[[[-85.8439,15.7698,21.6001],[-85.8467,15.7672,18.5403],[-85.8547,15.7688,17.3591],[-85.8587,15.7631,22.5027],[-85.8689,15.7595,19.1107],[-85.8715,15.7552,21.0236],[-85.8728,15.7476,23.0287],[-85.8843,15.7461,18.5529],[-85.8912,15.7572,24.7429],[-85.894,15.7567,23.296],[-85.9014,15.7495,22.8782],[-85.9091,15.7473,20.6593],[-85.9144,15.7435,19.0],[-85.9156,15.7356,27.1645],[-85.9187,15.7336,26.9666],[-85.923,15.7358,23.2897],[-85.9216,15.7421,19.0],[-85.9233,15.7443,20.1437],[-85.9263,15.7443,22.6281],[-85.9316,15.7406,22.9043],[-85.9362,15.7408,23.7245],[-85.9492,15.7556,29.6712],[-85.9561,15.7547,23.598],[-85.9591,15.7515,23.3644],[-85.959,15.7494,25.8569],[-85.9553,15.745,31.821],[-85.9577,15.7359,27.1105],[-85.9608,15.7322,26.4396],[-85.9768,15.736,29.2867],[-85.9808,15.7346,25.5],[-85.9785,15.7223,37.6293],[-85.9671,15.7165,30.3603],[-85.9672,15.714,29.8279],[-85.9765,15.7119,33.1963],[-85.9858,15.7119,30.7557],[-85.9941,15.7069,36.8163],[-86.0043,15.7109,35.9886],[-86.0107,15.7015,30.5571],[-86.0117,15.6939,29.0],[-86.0199,15.6861,31.2452],[-86.0277,15.682,30.6482],[-86.0282,15.6729,31.9877],[-86.0313,15.6703,33.7656],[-86.0336,15.67,32.1112],[-86.0421,15.6776,37.1851],[-86.0457,15.6769,36.6921],[-86.0488,15.674,34.8411],[-86.0457,15.6646,34.7513],[-86.0422,15.6623,35.4357],[-86.0339,15.6604,35.9033],[-86.0339,15.6574,35.9514],[-86.0378,15.6527,40.2403],[-86.0406,15.6505,34.7738],[-86.0508,15.6564,35.1437],[-86.0552,15.6514,36.5439],[-86.0624,15.6498,37.0832],[-86.0638,15.6426,36.3261],[-86.0699,15.6462,41.6592],[-86.0774,15.643,40.2171],[-86.0846,15.6444,45.2755],[-86.0864,15.6432,39.7983],[-86.0866,15.6379,42.0482],[-86.0959,15.6385,41.2819],[-86.0976,15.6351,43.3306],[-86.0933,15.6316,42.8067],[-86.0948,15.6295,43.5361],[-86.1031,15.629,44.6355],[-86.1038,15.6235,44.1293],[-86.1011,15.6195,43.7045],[-86.1057,15.6165,43.623],[-86.1098,15.6066,41.8955],[-86.1236,15.5931,43.8445],[-86.1378,15.5863,49.1544],[-86.1384,15.5829,51.9552],[-86.1364,15.5785,60.0097],[-86.1301,15.5748,63.6788],[-86.1281,15.571,61.4934],[-86.1275,15.5645,67.3709],[-86.13,15.5564,91.4203],[-86.1269,15.5517,121.7711],[-86.1232,15.539,318.5839],[-86.1219,15.5216,693.3253],[-86.1187,15.5086,322.0998],[-86.1042,15.4934,648.7501],[-86.0557,15.451,893.9464],[-86.0551,15.4488,865.9667],[-86.0577,15.4408,863.0319],[-86.0536,15.4339,940.6371],[-86.0561,15.4298,923.4649],[-86.0553,15.4256,959.2169],[-86.0491,15.4135,1082.2854],[-86.0434,15.408,1160.295],[-86.0411,15.4012,1258.0977],[-86.0315,15.3862,1619.3032],[-86.0275,15.3865,1586.2634],[-86.0254,15.394,1481.5825],[-86.0204,15.3984,1513.3774],[-86.0167,15.399,1443.5586],[-86.012,15.3963,1538.3177],[-86.008,15.3964,1637.5453],[-86.0038,15.4035,1572.818],[-85.9924,15.4026,1438.6069],[-85.9885,15.4107,1184.252],[-85.9782,15.4098,1201.9789],[-85.9732,15.4167,1370.4346],[-85.9655,15.4194,1398.4387],[-85.9617,15.4355,1199.5133],[-85.944,15.4548,1128.2847],[-85.9398,15.4574,1247.489],[-85.9306,15.4557,1110.8115],[-85.9276,15.4575,1144.4482],[-85.9206,15.4665,1198.115],[-85.909,15.4746,1140.0154],[-85.8859,15.4975,1198.0679],[-85.8856,15.5,1161.4633],[-85.8891,15.5053,1071.6147],[-85.8885,15.5102,1192.7339],[-85.8909,15.5161,1073.2805],[-85.8903,15.5187,1103.911],[-85.885,15.5242,1228.5242],[-85.8761,15.5271,1063.4329],[-85.8635,15.5271,933.6029],[-85.8583,15.5196,1013.2543],[-85.8489,15.5197,1224.71],[-85.8412,15.5152,1316.2535],[-85.8308,15.5142,1493.7906],[-85.8291,15.5153,1457.7754],[-85.826,15.5231,1219.7437],[-85.8214,15.5259,1210.4038],[-85.8198,15.5305,1265.2047],[-85.8155,15.5326,1147.6104],[-85.8084,15.5418,1047.6985],[-85.7902,15.5464,795.024],[-85.7823,15.5521,878.9262],[-85.7816,15.5566,852.5281],[-85.7846,15.5647,877.053],[-85.7837,15.5702,1017.2196],[-85.7959,15.6065,845.3563],[-85.8387,15.6914,198.4481],[-85.8365,15.7143,144.6884],[-85.8384,15.7151,107.502],[-85.8397,15.7199,150.1555],[-85.8422,15.7206,156.1743],[-85.8445,15.719,86.2614],[-85.8494,15.7224,81.7749],[-85.8479,15.7332,49.9461],[-85.8452,15.7387,40.3205],[-85.8469,15.7478,25.0473],[-85.8455,15.7554,19.7024],[-85.8384,15.7604,16.5744],[-85.8431,15.7602,16.2949],[-85.8425,15.7626,18.9391],[-85.8442,15.7627,16.6534],[-85.8427,15.767,19.9246],[-85.8439,15.7698,21.6001]]]]}}