{"type": "Feature","bbox": [-87.1136,13.38,-86.9264,13.5399],"geometry": {"type": "MultiPolygon","coordinates": [[[[-87.1106,13.4024,69.6723],[-87.0945,13.389099999999999,76.7523],[-87.0926,13.3902,83.3087],[-87.0946,13.3922,75.5517],[-87.0853,13.3955,83.3057],[-87.0806,13.395,88.5805],[-87.078,13.3885,98.8015],[-87.0558,13.38,177.3388],[-87.0532,13.3807,164.9689],[-87.0442,13.3917,163.2487],[-87.037,13.3921,205.9318],[-87.0297,13.3883,338.7636],[-87.0107,13.3862,402.6033],[-87.0058,13.391,526.2777],[-86.9802,13.3913,823.1313],[-86.9734,13.3949,1004.1678],[-86.9705,13.3867,926.1837],[-86.9693,13.3866,1000.4663],[-86.9598,13.3932,1191.0979],[-86.9264,13.463,691.4592],[-86.9368,13.4763,573.35],[-86.9382,13.4756,573.35],[-86.9677,13.4855,286.6021],[-86.9923,13.5066,264.1],[-87.0077,13.5248,571.3473],[-87.0147,13.5399,758.316],[-87.0221,13.5348,678.436],[-87.0254,13.5344,674.6122],[-87.0243,13.5295,569.4483],[-87.0264,13.5192,632.4145],[-87.036,13.5173,447.2574],[-87.0408,13.5193,378.564],[-87.0513,13.516,272.5485],[-87.0548,13.5116,217.6368],[-87.0562,13.5036,270.9006],[-87.062,13.4987,233.3445],[-87.0695,13.4981,225.4675],[-87.0816,13.5059,536.5092],[-87.0814,13.4983,411.7838],[-87.0833,13.4976,460.537],[-87.0929,13.4543,81.969],[-87.0927,13.4497,82.1564],[-87.0894,13.4423,90.8707],[-87.0977,13.4379,77.743],[-87.1059,13.4261,76.3008],[-87.1061,13.4197,80.0721],[-87.1133,13.4139,74.8335],[-87.1136,13.4108,82.1877],[-87.1103,13.4062,71.1699],[-87.1106,13.4024,69.6723]]]]}
,"properties": {"GID_2": "HND.2.1_1","GID_0": "HND","country": "Honduras","GID_1": "HND.2_1","province": "Choluteca","NL_NAME_1": "NA","county": "Apacilagua","VARNAME_2": "NA","NL_NAME_2": "NA","TYPE_2": "Municipio","ENGTYPE_2": "Municipality","CC_2": "NA","HASC_2": "HN.CH.AP","name": "Apacilagua.county","area_km2": 215.3644,"hist_schema_id": "Elevation0-9000","hist_area_km2": {"75": 7.2184,"100": 15.8579,"125": 16.9084,"150": 9.2996,"175": 7.6706,"200": 7.6911,"225": 7.7117,"250": 8.2066,"275": 8.8252,"300": 7.9182,"325": 8.8873,"350": 8.1656,"375": 7.7739,"400": 7.2586,"425": 6.8255,"450": 6.4337,"475": 6.0832,"500": 5.7739,"525": 5.2585,"550": 4.9698,"575": 4.6191,"600": 3.5675,"625": 3.6912,"650": 3.0726,"675": 3.0725,"700": 3.1138,"725": 3.6705,"750": 2.825,"775": 2.5159,"800": 2.3097,"825": 2.2066,"850": 2.0416,"875": 1.8767,"900": 1.6704,"925": 1.4848,"950": 1.5261,"975": 1.093,"1000": 1.423,"1025": 0.8662,"1050": 0.7012,"1075": 0.5362,"1100": 0.3506,"1125": 0.4331,"1150": 0.5156,"1175": 0.2681,"1200": 0.4538,"1225": 0.5363,"1250": 0.1856}}}