{"type":"Feature","properties":{"GID_1":"HND.3_1","GID_0":"HND","country":"Honduras","province":"Colón","VARNAME_1":"NA","NL_NAME_1":"NA","TYPE_1":"Departamento","ENGTYPE_1":"Department","CC_1":"NA","HASC_1":"HN.CL","ISO_1":"NA","name":"Colón.province"},
"geometry":{"type": "MultiPolygon","coordinates": [[[[-85.286,15.879,1.4418],[-85.3179,15.8776,0.0],[-85.3224,15.8763,2.1533],[-85.3243,15.8774,0.0],[-85.4018,15.8782,2.1708],[-85.4101,15.8743,3.1782],[-85.4296,15.8726,7.2023],[-85.4301,15.8713,31.8881],[-85.4337,15.8707,9.7028],[-85.434,15.8674,47.5315],[-85.4418,15.8626,12.772],[-85.456,15.8599,4.2715],[-85.491,15.861,1.5387],[-85.5129,15.8688,0.0],[-85.5115,15.864,1.3102],[-85.5057,15.859,4.6366],[-85.5074,15.8549,0.6466],[-85.5071,15.8582,-0.0252],[-85.509,15.8612,2.5984],[-85.5132,15.8632,0.3245],[-85.514,15.8668,0.0],[-85.5301,15.8746,1.1949],[-85.5754,15.8904,6.25],[-85.6135,15.9087,14.0122],[-85.6165,15.909,7.343],[-85.6832,15.9499,2.3374],[-85.684,15.9463,0.0],[-85.6787,15.9388,0.4261],[-85.6774,15.9304,1.441],[-85.6712,15.9254,5.9613],[-85.6776,15.9293,1.441],[-85.6793,15.9371,0.0647],[-85.6846,15.9449,0.2162],[-85.6901,15.9451,0.0],[-85.694,15.9329,0.0],[-85.6929,15.9299,0.4827],[-85.6937,15.9251,0.0],[-85.6862,15.9207,7.2075],[-85.6876,15.9193,0.5],[-85.6876,15.914,0.7876],[-85.6893,15.914,0.7876],[-85.6896,15.9182,2.1039],[-85.694,15.9188,3.1505],[-85.6932,15.9224,0.0],[-85.696,15.9249,0.7602],[-85.6951,15.9307,0.0],[-85.6976,15.9313,0.0913],[-85.7029,15.9288,0.3091],[-85.7068,15.9299,1.7206],[-85.7063,15.9304,1.7206],[-85.7024,15.9299,0.3091],[-85.6971,15.9335,0.0],[-85.6976,15.936,0.0],[-85.6915,15.9454,0.0],[-85.6924,15.9499,1.7384],[-85.6904,15.9535,1.0165],[-85.6951,15.9582,0.3737],[-85.6988,15.9585,5.3385],[-85.7215,15.9687,2.232],[-85.7262,15.9687,3.4747],[-85.7321,15.9613,7.4598],[-85.7351,15.9613,0.0],[-85.7349,15.9576,0.4191],[-85.7301,15.956,2.5918],[-85.7288,15.9518,0.2289],[-85.7318,15.9479,1.0287],[-85.7349,15.9493,0.0],[-85.7374,15.9479,0.0],[-85.7371,15.9501,0.7685],[-85.7307,15.9507,0.2289],[-85.7301,15.9543,0.7681],[-85.7335,15.9557,0.0],[-85.7349,15.9532,2.7109],[-85.7354,15.956,0.2161],[-85.7376,15.9532,0.1609],[-85.7421,15.9521,0.1866],[-85.7424,15.9532,0.1866],[-85.7365,15.9568,0.2161],[-85.739,15.9665,1.2585],[-85.7451,15.9635,1.6775],[-85.7451,15.9599,0.0],[-85.7426,15.9574,2.0159],[-85.744,15.9576,0.2495],[-85.746,15.9601,0.0],[-85.7454,15.9646,9.1131],[-85.7412,15.9671,1.8472],[-85.7421,15.9693,0.0],[-85.7554,15.979,0.0],[-85.7799,15.9868,3.0222],[-85.8685,16.009,0.0],[-85.894,16.0124,0.0],[-85.9104,16.0124,1.556],[-85.9851,16.0268,4.2573],[-86.0043,16.0279,2.6391],[-86.0093,16.0265,6.1651],[-86.0104,16.0226,7.4806],[-85.9935,16.0157,7.5337],[-85.9818,16.0049,0.0],[-85.9749,16.0063,1.6234],[-85.9707,16.0046,0.3655],[-85.9671,16.0054,0.0],[-85.9624,16.0093,1.9574],[-85.9504,16.0082,0.0],[-85.9371,16.0113,2.4943],[-85.9287,16.0101,0.0],[-85.919,16.0049,0.5477],[-85.9124,15.9946,0.7294],[-85.9107,15.9821,0.8533],[-85.9137,15.964,2.3538],[-85.9221,15.9485,0.0],[-85.9226,15.9463,0.8085],[-85.9173,15.9537,2.9505],[-85.9226,15.9435,0.4896],[-85.9187,15.9432,0.7758],[-85.9151,15.9454,2.1446],[-85.9049,15.9579,1.0],[-85.9035,15.9646,1.5092],[-85.899,15.9696,2.293],[-85.8957,15.9699,1.4846],[-85.8926,15.9729,2.5755],[-85.8863,15.9754,1.0],[-85.8874,15.9815,2.0469],[-85.8899,15.9829,1.5034],[-85.891,15.9807,1.931],[-85.891,15.9851,1.0],[-85.8868,15.9885,1.0],[-85.8863,15.9904,1.0],[-85.8879,15.9929,1.6379],[-85.8804,15.9951,1.0],[-85.8771,15.999,8.6941],[-85.8696,15.999,7.1347],[-85.8688,15.9974,1.0],[-85.8704,15.9968,6.0799],[-85.8704,15.9943,4.3818],[-85.8729,15.9912,3.3299],[-85.8771,15.9918,1.5357],[-85.8851,15.9857,1.0],[-85.8849,15.9838,3.2017],[-85.8715,15.9882,1.0],[-85.871,15.9926,2.7988],[-85.8676,15.9949,2.5818],[-85.8562,15.9982,3.6916],[-85.8393,15.9924,3.3047],[-85.8332,15.9876,4.6941],[-85.8235,15.9868,1.0],[-85.8179,15.9838,10.4129],[-85.8157,15.981,2.5978],[-85.816,15.9729,1.8599],[-85.8193,15.9693,4.0633],[-85.8301,15.9712,2.1376],[-85.8324,15.9704,1.0],[-85.8385,15.9571,1.0],[-85.8299,15.9563,1.0],[-85.8296,15.9535,3.5845],[-85.8332,15.9526,1.0],[-85.8368,15.9557,1.8192],[-85.8404,15.9557,1.0],[-85.8457,15.9504,3.0073],[-85.8485,15.944,1.0],[-85.8515,15.9424,1.9692],[-85.8571,15.9432,1.0],[-85.8593,15.9415,7.1886],[-85.8626,15.9418,3.5713],[-85.866,15.939,1.0],[-85.871,15.9379,5.169],[-85.8774,15.941,4.2929],[-85.8865,15.9521,1.0],[-85.8968,15.9579,2.3203],[-85.8999,15.9618,7.8554],[-85.9021,15.9618,1.0],[-85.9018,15.9576,1.0],[-85.9044,15.956,1.0],[-85.9049,15.9535,7.5485],[-85.9065,15.9549,0.625],[-85.9065,15.9532,4.0595],[-85.9163,15.9435,6.5964],[-85.9182,15.9426,0.7758],[-85.9249,15.9432,1.3667],[-85.9318,15.9338,1.6366],[-85.9396,15.9265,2.4678],[-85.9512,15.9235,1.3428],[-85.9549,15.9207,4.8748],[-85.9646,15.9188,0.0],[-85.9754,15.9115,5.9796],[-85.9896,15.9049,3.7171],[-85.9968,15.9049,0.0],[-86.0124,15.901,2.1225],[-86.0324,15.9007,0.0],[-86.0663,15.8973,1.5279],[-86.1124,15.8999,11.9457],[-86.1199,15.9035,2.2638],[-86.1218,15.9024,7.8522],[-86.1232,15.9049,3.5485],[-86.1263,15.904,0.0],[-86.126,15.9012,3.3394],[-86.1304,15.8982,7.5025],[-86.1435,15.8965,18.9294],[-86.159,15.8887,39.136],[-86.1665,15.8873,0.0],[-86.1796,15.8885,10.0746],[-86.1835,15.8846,11.3036],[-86.1893,15.8843,0.0],[-86.1946,15.881,7.906],[-86.201,15.8813,1.0974],[-86.2046,15.8785,30.7361],[-86.2087,15.8779,0.0],[-86.2115,15.874,11.334],[-86.2218,15.871,0.0],[-86.2329,15.8599,0.0],[-86.2393,15.856,0.0],[-86.2454,15.846,0.6533],[-86.2549,15.8426,2.1801],[-86.2551,15.8399,8.3732],[-86.2624,15.8296,0.9672],[-86.2743,15.8246,0.8492],[-86.2851,15.8129,2.2178],[-86.3104,15.804,1.3521],[-86.3324,15.8018,0.7704],[-86.336,15.7965,1.0692],[-86.3457,15.794,0.4295],[-86.3504,15.786,0.4774],[-86.3587,15.7807,2.4266],[-86.371,15.7801,5.0396],[-86.3943,15.7863,2.5607],[-86.4032,15.7793,1.9817],[-86.4132,15.7779,2.9687],[-86.4229,15.7801,3.8529],[-86.4415,15.7876,0.433],[-86.471,15.8035,6.5407],[-86.4815,15.8112,0.3513],[-86.4921,15.8157,0.0],[-86.5038,15.8165,0.0],[-86.5118,15.8138,0.0],[-86.5107,15.8061,4.179],[-86.5007,15.7976,8.6081],[-86.4966,15.7983,10.3841],[-86.4939,15.7969,7.7139],[-86.4687,15.7778,12.6243],[-86.4684,15.7748,15.3302],[-86.4765,15.7734,7.7927],[-86.4775,15.765,13.9727],[-86.4771,15.7617,14.9197],[-86.4735,15.756,17.7023],[-86.4725,15.7388,149.5722],[-86.4687,15.7267,120.3291],[-86.4647,15.723,78.2782],[-86.4481,15.717,155.7607],[-86.4377,15.716,152.9031],[-86.4263,15.7039,251.7122],[-86.4246,15.7002,239.6205],[-86.4256,15.6834,386.2028],[-86.4232,15.677,215.0597],[-86.4152,15.6777,302.8912],[-86.4111,15.673,271.7889],[-86.3994,15.6743,257.0306],[-86.3937,15.6679,266.944],[-86.3933,15.6454,284.3163],[-86.391,15.6394,270.1515],[-86.391,15.6364,281.9575],[-86.3937,15.6344,204.6858],[-86.3937,15.6152,224.1869],[-86.3913,15.6102,290.9336],[-86.3933,15.5998,334.3044],[-86.4049,15.5941,572.8146],[-86.4432,15.5859,539.3613],[-86.4547,15.5733,496.9075],[-86.4326,15.5669,390.4067],[-86.4179,15.5546,470.3082],[-86.4038,15.5476,387.2508],[-86.4016,15.5452,292.8719],[-86.4009,15.5407,236.0086],[-86.3946,15.5367,272.9216],[-86.3667,15.5395,232.3042],[-86.3643,15.5437,239.7511],[-86.3601,15.5443,283.6792],[-86.3593,15.5465,306.2052],[-86.3507,15.5449,253.963],[-86.348,15.5464,243.4822],[-86.3267,15.5471,246.7832],[-86.3212,15.5485,122.1685],[-86.3182,15.545,130.0983],[-86.3141,15.548,168.5355],[-86.3127,15.5474,182.6639],[-86.3121,15.5441,111.7423],[-86.3048,15.5441,100.435],[-86.3031,15.5424,99.7106],[-86.2978,15.5437,111.2551],[-86.2964,15.5412,136.6111],[-86.2927,15.5397,89.0745],[-86.2794,15.5404,80.3561],[-86.2767,15.5365,78.2912],[-86.2692,15.5358,71.1526],[-86.2686,15.5306,71.3599],[-86.2625,15.5275,69.8526],[-86.2606,15.5248,68.7147],[-86.2597,15.5281,69.8483],[-86.2577,15.5287,69.3827],[-86.2512,15.522,65.8781],[-86.2472,15.5233,63.1147],[-86.2497,15.5312,67.4649],[-86.2277,15.5328,61.8278],[-86.2341,15.5299,64.7959],[-86.2359,15.5265,66.6135],[-86.2291,15.514,83.3372],[-86.2278,15.5086,90.0876],[-86.2241,15.5051,98.2816],[-86.2242,15.5007,104.0494],[-86.229,15.4902,120.1215],[-86.2265,15.4817,216.487],[-86.2315,15.4773,200.3855],[-86.2264,15.4648,546.4079],[-86.2286,15.4624,439.4089],[-86.2345,15.4616,477.6183],[-86.2393,15.4536,431.605],[-86.2301,15.4423,892.0783],[-86.2309,15.4126,1374.1893],[-86.1886,15.3891,1144.6665],[-86.1647,15.3732,1388.3965],[-86.1544,15.3727,1361.6449],[-86.1464,15.3696,1464.955],[-86.1364,15.3751,1632.0001],[-86.1243,15.3744,1467.1785],[-86.1121,15.3801,1343.6699],[-86.1069,15.3868,1287.0253],[-86.1009,15.3913,1358.4519],[-86.0972,15.3912,1353.9885],[-86.0892,15.3864,1316.9916],[-86.0878,15.3956,1415.3098],[-86.0837,15.3987,1412.6169],[-86.0665,15.395,1509.9399],[-86.0627,15.3972,1472.2841],[-86.049,15.3947,1490.9468],[-86.0452,15.3921,1563.9685],[-86.0396,15.3842,1690.7311],[-86.0275,15.3865,1586.2634],[-86.0254,15.394,1481.5825],[-86.0204,15.3984,1513.3774],[-86.0167,15.399,1443.5586],[-86.012,15.3963,1538.3177],[-86.008,15.3964,1637.5453],[-86.0038,15.4035,1572.818],[-85.9924,15.4026,1438.6069],[-85.9885,15.4107,1184.252],[-85.9782,15.4098,1201.9789],[-85.9732,15.4167,1370.4346],[-85.9655,15.4194,1398.4387],[-85.9617,15.4355,1199.5133],[-85.944,15.4548,1128.2847],[-85.9398,15.4574,1247.489],[-85.9306,15.4557,1110.8115],[-85.9276,15.4575,1144.4482],[-85.9206,15.4665,1198.115],[-85.909,15.4746,1140.0154],[-85.8859,15.4975,1198.0679],[-85.8856,15.5,1161.4633],[-85.8891,15.5053,1071.6147],[-85.8885,15.5102,1192.7339],[-85.8908,15.5174,1103.911],[-85.8829,15.5255,1132.5552],[-85.8737,15.5273,1004.8665],[-85.8635,15.5271,933.6029],[-85.8583,15.5196,1013.2543],[-85.8489,15.5197,1224.71],[-85.8412,15.5152,1316.2535],[-85.8308,15.5142,1493.7906],[-85.8291,15.5153,1457.7754],[-85.826,15.5231,1219.7437],[-85.8214,15.5259,1210.4038],[-85.8198,15.5305,1265.2047],[-85.8155,15.5326,1147.6104],[-85.8084,15.5418,1047.6985],[-85.7902,15.5464,795.024],[-85.7832,15.5508,852.0295],[-85.7814,15.5549,806.4879],[-85.7846,15.5647,877.053],[-85.7831,15.5709,1013.6747],[-85.771,15.5727,940.8618],[-85.7649,15.576,991.1013],[-85.7632,15.5795,933.5016],[-85.7611,15.5795,899.5281],[-85.7552,15.5769,715.5705],[-85.7431,15.5626,721.8953],[-85.7313,15.5604,479.7083],[-85.7246,15.5632,669.7711],[-85.719,15.571,738.4501],[-85.7059,15.5758,451.2214],[-85.5968,15.5232,194.4041],[-85.537,15.4621,393.3434],[-85.5135,15.4458,1217.0251],[-85.5056,15.442,1174.1111],[-85.4879,15.4379,1104.5624],[-85.3729,15.3959,265.9766],[-85.3166,15.3129,595.8499],[-85.2315,15.2062,877.4501],[-85.0944,15.1731,318.088],[-84.994,15.0612,163.946],[-84.9981,15.9718,5.6904],[-84.9972,15.9783,0.7938],[-84.9941,15.9793,0.644],[-85.011,15.9846,0.0],[-85.014,15.9838,0.0],[-85.0074,15.9824,0.5171],[-85.0057,15.9785,0.3649],[-85.0001,15.9788,1.7616],[-85.0001,15.9776,2.2962],[-85.006,15.9774,0.3649],[-85.0079,15.9812,0.0],[-85.011,15.9826,0.3245],[-85.0221,15.9815,1.8174],[-85.024,15.9779,0.0],[-85.0246,15.971,1.469],[-85.031,15.9613,2.1453],[-85.034,15.9526,2.0595],[-85.0318,15.9613,4.0148],[-85.0257,15.9699,1.8605],[-85.0249,15.979,0.1926],[-85.0215,15.9835,0.0],[-85.0179,15.9851,0.0],[-85.0212,15.9846,0.0],[-85.0301,15.9868,0.0],[-85.0451,15.9865,0.0],[-85.0668,15.9826,0.0],[-85.0729,15.9751,1.8023],[-85.0687,15.9735,1.6847],[-85.0735,15.9743,1.8023],[-85.0732,15.9762,2.0741],[-85.0699,15.9793,0.7593],[-85.0713,15.9807,0.0],[-85.1007,15.9668,3.5595],[-85.1288,15.9487,0.5692],[-85.1496,15.9282,3.4466],[-85.1571,15.9238,0.0],[-85.1646,15.9162,2.8298],[-85.1757,15.909,1.4916],[-85.1921,15.9012,2.1142],[-85.2324,15.8882,4.2125],[-85.2479,15.8862,0.7467],[-85.2637,15.8818,4.5684],[-85.286,15.879,1.4418]]],
[[[-85.9999,15.9999,0.0],[-85.9999,16.0001,0.0],[-86.0001,16.0001,0.0],[-86.0001,15.9999,0.0],[-85.9999,15.9999,0.0]]],
[[[-85.6879,15.9492,2.0649],[-85.6907,15.9501,0.0],[-85.691,15.9463,0.0],[-85.6871,15.9474,0.1503],[-85.6879,15.9492,2.0649]]],
[[[-85.7465,15.9754,2.9343],[-85.7487,15.976,0.0],[-85.746,15.9732,1.6101],[-85.7401,15.971,8.203],[-85.7374,15.9635,0.7328],[-85.7307,15.966,0.0],[-85.7299,15.9693,0.0],[-85.7343,15.9729,0.2793],[-85.7465,15.9754,2.9343]]]]}}