{"type":"Feature","properties":{"ISO3166-1-Alpha-3":"HND","country":"Honduras","fill":"#FF0","id":"638","name":"Colón"},
"geometry":{"type": "Polygon","coordinates": [[[-84.99995,15.98794,0.0],[-85.07578,15.98625,0.0],[-85.12378,15.95857,0.0],[-85.19635,15.90745,0.0],[-85.25425,15.88408,0.0],[-85.36199,15.88111,0.0],[-85.43639,15.87376,0.0],[-85.48858,15.86957,0.0],[-85.56405,15.88887,0.0],[-85.60846,15.90707,0.0],[-85.62956,15.92204,0.0],[-85.64733,15.93594,0.0],[-85.65622,15.94877,0.0],[-85.67272,15.94916,0.0],[-85.67504,15.94709,0.0],[-85.67805,15.94538,8.8636],[-85.68008,15.94221,0.7575],[-85.67955,15.93549,0.3282],[-85.687,15.93549,1.7913],[-85.68961,15.94644,0.0],[-85.68944,15.96003,0.0],[-85.69205,15.9715,0.0],[-85.7032,15.97647,0.0],[-85.71935,15.97972,0.0],[-85.76633,15.99158,0.0],[-85.81347,16.00454,0.0],[-85.851,16.00873,0.0],[-85.90455,16.01838,0.0],[-85.98184,16.03315,0.0],[-86.00792,16.03107,0.0],[-86.01277,16.01996,0.0],[-85.98249,16.01252,11.4194],[-85.91918,16.00373,0.0],[-85.90319,15.98347,6.3716],[-85.91218,15.9593,2.5784],[-85.93326,15.93667,0.0],[-85.97216,15.90917,8.4854],[-85.98229,15.9042,13.4],[-85.99486,15.9007,6.2322],[-86.13781,15.89566,41.3684],[-86.1726,15.88752,6.4758],[-86.20714,15.87401,87.4673],[-86.2185,15.86506,151.6699],[-86.24323,15.83861,132.4629],[-86.33829,15.7814,111.4818],[-86.35497,15.77399,103.683],[-86.37475,15.77094,44.6288],[-86.39904,15.77241,2.9561],[-86.41466,15.77643,2.3015],[-86.43786,15.79084,0.0],[-86.43787,15.79085,0.0],[-86.43772,15.78255,1.9213],[-86.44482,15.78219,3.4884],[-86.44632,15.78141,0.3413],[-86.44725,15.77909,0.6107],[-86.44642,15.77547,1.7949],[-86.44469,15.77025,4.5516],[-86.4433,15.764099999999999,8.6178],[-86.44154,15.75005,28.1582],[-86.43834,15.74193,167.5517],[-86.43211,15.73449,334.2731],[-86.41774,15.72292,264.9475],[-86.40878,15.71418,165.7172],[-86.39743,15.68969,242.0819],[-86.39433,15.68442,270.6035],[-86.3849,15.68111,269.1797],[-86.37961,15.67847,308.787],[-86.37591,15.67827,311.2773],[-86.3695,15.67894,386.8618],[-86.36601,15.67553,335.3694],[-86.36346,15.67217,350.3552],[-86.36191,15.64892,557.5593],[-86.36167,15.62654,355.9675],[-86.36601,15.61362,337.931],[-86.37552,15.60442,243.4055],[-86.39904,15.59553,423.9727],[-86.42095,15.58282,673.2421],[-86.39123,15.55967,497.8913],[-86.37976,15.54623,271.7795],[-86.37738,15.54241,277.6713],[-86.37235,15.54065,235.6211],[-86.36206,15.53993,209.8426],[-86.31411,15.54179,106.6404],[-86.28881,15.53559,90.3786],[-86.283,15.5358,82.7226],[-86.28075,15.53533,77.5846],[-86.27791,15.53414,76.7356],[-86.27537,15.5327,74.556],[-86.27253,15.53032,72.0838],[-86.26915,15.52624,69.6499],[-86.26633,15.52427,70.67],[-86.26354,15.52329,68.6195],[-86.26018,15.52277,68.7235],[-86.25775,15.52169,68.7173],[-86.25566,15.52014,67.0946],[-86.25426,15.51879,64.495],[-86.2529,15.51874,63.5578],[-86.25176,15.52009,63.0],[-86.25016,15.52272,63.9332],[-86.24762,15.52412,63.4898],[-86.24328,15.5235,63.7887],[-86.24026,15.52086,65.2599],[-86.23739,15.51254,78.7138],[-86.23558,15.49931,98.4751],[-86.24168,15.45441,460.2766],[-86.24106,15.44934,469.3748],[-86.23445,15.43606,724.6218],[-86.2329,15.40976,1224.9031],[-86.17163,15.37808,1292.0275],[-86.14856,15.37302,1362.4175],[-86.12567,15.37823,1380.314],[-86.10681,15.38733,1315.4285],[-86.09019,15.39043,1294.9],[-86.08133,15.39415,1391.5636],[-86.06335,15.39668,1522.95],[-86.05366,15.39586,1562.1929],[-86.04554,15.39358,1563.9685],[-86.03828,15.39038,1490.3524],[-86.03167,15.39038,1517.4971],[-86.02751,15.39658,1511.9065],[-85.96994,15.42666,1334.0991],[-85.90914,15.48422,1187.9381],[-85.8846,15.52308,1158.2572],[-85.87995,15.52856,1063.3706],[-85.87312,15.53135,933.557],[-85.86628,15.53032,971.2547],[-85.85961,15.52799,856.8798],[-85.84786,15.5206,1135.9233],[-85.83687,15.51998,1262.5288],[-85.81726,15.53187,1273.842],[-85.79579,15.54872,1026.9047],[-85.78786,15.55781,922.4768],[-85.78455,15.56505,877.053],[-85.78631,15.5743,1293.0494],[-85.76414,15.58499,1151.4185],[-85.75913,15.58427,1018.6551],[-85.75238,15.58148,759.9194],[-85.74556,15.57585,587.0924],[-85.73587,15.57187,681.7863],[-85.72784,15.57331,798.0507],[-85.71784,15.57703,571.3674],[-85.70936,15.58153,497.4379],[-85.6883,15.57719,583.4137],[-85.60771,15.53487,273.3388],[-85.50524,15.4495,1223.2019],[-85.39594,15.40893,518.8467],[-85.36042,15.38108,609.8272],[-85.30711,15.30527,837.9409],[-85.24931,15.23664,787.6434],[-85.23265,15.22667,711.3428],[-85.09268,15.16677,241.6882],[-85.05963,15.13706,270.0021],[-84.99995,15.06874,231.836],[-84.99995,15.98794,0.0]]]}}