{"type":"Feature","properties":{"featurecla":"River","scalerank":11,"rivernum":22185,"dissolve":"22185River","name":"null982","name_alt":null,"note":"ID is link back to CEC data","name_full":null,"min_zoom":6.7,"strokeweig":0.2,"uident":2053101,"min_label":7.7},
"geometry":{"type": "LineString","coordinates": [[-87.506418423562067,15.022650457806535,269.0],[-87.337025519916224,15.112372137494035,1223.8423],[-87.277088996478724,15.135565496869035,702.2815],[-87.230783657937067,15.156602280723206,604.375],[-87.2023005850204,15.192938543744035,708.813],[-87.205433723041224,15.249863999473206,509.038],[-87.1766658193954,15.295518296348206,584.1673],[-87.120432095437067,15.344427801556535,678.0011],[-87.0272517568954,15.395860093223206,378.4887],[-86.9718318350204,15.411566473431535,262.9963],[-86.859689907937067,15.392767645306535,197.5201],[-86.779652473041224,15.392767645306535,180.3855],[-86.7145076162704,15.421942449994035,154.1349],[-86.400461392312067,15.487412827598206,91.435],[-86.2464900381454,15.557725327598206,65.714],[-86.053456183978724,15.691270249473206,43.697],[-85.853586392312067,15.871161199994035,46.5159],[-85.8097224600204,15.934190171348206,10.608],[-85.758127407937067,15.997503973431535,0.0]]}}