{"type": "Feature","bbox": [-88.7609,15.1989,-88.5866,15.3349],"geometry": {"type": "MultiPolygon","coordinates": [[[[-88.7609,15.2891,462.8369],[-88.706,15.2328,907.4176],[-88.7171,15.2062,774.3857],[-88.7057,15.2011,611.7591],[-88.7046,15.1989,609.876],[-88.6927,15.201599999999999,641.7448],[-88.685,15.2011,700.1127],[-88.6602,15.2058,656.0118],[-88.647,15.2066,704.0654],[-88.597,15.2185,342.4575],[-88.5904,15.2236,279.9416],[-88.5867,15.2295,326.8007],[-88.5866,15.2361,294.5252],[-88.5995,15.2829,424.5787],[-88.6531,15.3026,636.3221],[-88.675,15.3233,742.6648],[-88.6838,15.3349,988.424],[-88.7609,15.2891,462.8369]]]]}
,"properties": {"GID_2": "HND.16.14_1","GID_0": "HND","country": "Honduras","GID_1": "HND.16_1","province": "SantaBárbara","NL_NAME_1": "NA","county": "NuevaFrontera","VARNAME_2": "NA","NL_NAME_2": "NA","TYPE_2": "Municipio","ENGTYPE_2": "Municipality","CC_2": "NA","HASC_2": "HN.SB.NF","name": "Nueva_Frontera.county","area_km2": 164.0452,"hist_schema_id": "Elevation0-9000","hist_area_km2": {"250": 0.0614,"275": 0.6751,"300": 0.9615,"325": 1.166,"350": 0.941,"375": 1.6161,"400": 1.7797,"425": 2.5365,"450": 2.8229,"475": 3.0888,"500": 5.1752,"525": 7.4868,"550": 7.9371,"575": 7.7325,"600": 8.0391,"625": 12.8652,"650": 11.5968,"675": 9.613,"700": 8.12,"725": 7.2405,"750": 6.5247,"775": 4.9089,"800": 4.3158,"825": 4.3158,"850": 4.7249,"875": 4.2954,"900": 5.0113,"925": 4.725,"950": 4.8068,"975": 3.4568,"1000": 3.2318,"1025": 3.0068,"1050": 2.4954,"1075": 1.9636,"1100": 1.8204,"1125": 1.4318,"1150": 0.7364,"1175": 0.5114,"1200": 0.2659,"1225": 0.0409}}}