{"type":"Feature","properties":{"GID_2":"HND.14.14_1","GID_0":"HND","country":"Honduras","GID_1":"HND.14_1","province":"Ocotepeque","NL_NAME_1":"NA","county":"SantaFé","VARNAME_2":"NA","NL_NAME_2":"NA","TYPE_2":"Municipio","ENGTYPE_2":"Municipality","CC_2":"NA","HASC_2":"HN.CL.SF","name":"Santa_Fé.county"},
"geometry":{"type": "MultiPolygon","coordinates": [[[[-89.3426,14.4163,2240.6182],[-89.3185,14.4327,1730.4055],[-89.3114,14.4502,1979.9414],[-89.3018,14.4556,1811.8364],[-89.2999,14.4665,1842.4625],[-89.2938,14.4699,1661.9683],[-89.2853,14.4685,1542.5476],[-89.2456,14.4464,1177.5839],[-89.2461,14.4508,1202.3488],[-89.2551,14.4549,1145.3215],[-89.2571,14.4587,1160.207],[-89.2521,14.4672,1350.0809],[-89.2462,14.4709,1197.406],[-89.2431,14.4816,1030.2072],[-89.223,14.4759,870.6188],[-89.2149,14.477,826.4406],[-89.2131,14.4806,808.2125],[-89.2111,14.4812,802.4303],[-89.2109,14.4845,804.7272],[-89.2139,14.489,808.6175],[-89.2215,14.4921,838.1698],[-89.2152,14.4936,811.8646],[-89.2159,14.4957,791.5549],[-89.2191,14.4971,819.4551],[-89.2183,14.5013,803.7278],[-89.2243,14.5027,802.2081],[-89.2278,14.507,834.2353],[-89.2353,14.5079,853.8331],[-89.2335,14.5101,841.6069],[-89.2302,14.5097,841.824],[-89.2273,14.5125,845.005],[-89.2278,14.5139,837.1731],[-89.2358,14.5137,882.2037],[-89.2367,14.5153,875.7635],[-89.2354,14.5208,831.5679],[-89.2394,14.5193,837.5098],[-89.2411,14.5229,832.9929],[-89.2436,14.5212,864.577],[-89.2449,14.5239,876.022],[-89.2487,14.5255,894.6039],[-89.247,14.5304,896.7349],[-89.2519,14.5274,927.1749],[-89.2539,14.5305,944.8034],[-89.2539,14.5343,960.796],[-89.2585,14.5371,927.1589],[-89.2728,14.5374,1013.344],[-89.2778,14.5295,1060.772],[-89.2805,14.5177,1170.9366],[-89.2981,14.5049,1497.4437],[-89.2964,14.4944,1224.3254],[-89.3039,14.491,1220.4587],[-89.3048,14.4882,1335.9652],[-89.3087,14.487,1392.8452],[-89.3155,14.4809,1613.6071],[-89.3204,14.48,1322.8311],[-89.3466,14.468,1537.7931],[-89.3485,14.466,1680.3843],[-89.3481,14.4628,1675.3737],[-89.3503,14.463,1628.5557],[-89.3498,14.4226,2141.8704],[-89.3426,14.4163,2240.6182]]]]}}