{"type":"Feature","properties":{"GID_2":"HND.13.3_1","GID_0":"HND","country":"Honduras","GID_1":"HND.13_1","province":"Lempira","NL_NAME_1":"NA","county":"Cololaca","VARNAME_2":"NA","NL_NAME_2":"NA","TYPE_2":"Municipio","ENGTYPE_2":"Municipality","CC_2":"NA","HASC_2":"HN.LE.CO","name":"Cololaca.county"},
"geometry":{"type": "MultiPolygon","coordinates": [[[[-88.9567,14.2032,681.5856],[-88.9216,14.2028,606.0569],[-88.9232,14.2116,482.733],[-88.9268,14.219,538.6046],[-88.9399,14.232,803.0538],[-88.9424,14.2371,722.64],[-88.9488,14.2402,841.3786],[-88.9488,14.2445,792.917],[-88.9367,14.2524,888.0244],[-88.9265,14.2539,1072.1943],[-88.9228,14.2496,925.9922],[-88.9184,14.2481,884.3542],[-88.9143,14.2423,821.5093],[-88.9085,14.2391,816.5488],[-88.9054,14.234,747.2689],[-88.8966,14.2284,479.4127],[-88.892,14.2349,608.1878],[-88.8863,14.2356,594.7852],[-88.8842,14.2398,561.9825],[-88.8843,14.2439,644.9823],[-88.8813,14.2461,653.3648],[-88.8765,14.2457,690.5824],[-88.8705,14.2512,709.5911],[-88.863,14.2513,663.2827],[-88.8535,14.2542,691.1511],[-88.8454,14.2523,779.975],[-88.8367,14.2558,865.4196],[-88.8312,14.2559,865.6699],[-88.8362,14.2761,891.9731],[-88.8326,14.2852,918.3719],[-88.8186,14.2862,1198.1812],[-88.8148,14.2889,1231.0515],[-88.8094,14.2895,1441.7279],[-88.8058,14.2865,1514.8153],[-88.778,14.3254,1802.35],[-88.7783,14.3371,2201.3853],[-88.7901,14.3507,2015.7531],[-88.7994,14.3717,2246.1851],[-88.8177,14.373,2292.9375],[-88.8312,14.3712,1799.7913],[-88.8499,14.384,1437.1184],[-88.8524,14.3929,1551.6188],[-88.8637,14.3932,1433.0682],[-88.8715,14.396,1302.4961],[-88.8721,14.3612,1354.4805],[-88.8783,14.3484,1240.2151],[-88.8821,14.3437,1199.9873],[-88.8912,14.3409,1105.6135],[-88.9031,14.3341,1138.5206],[-88.9212,14.3304,1296.6234],[-88.9272,14.3321,1297.5422],[-88.9385,14.3307,1583.5671],[-88.9438,14.3283,1577.2827],[-88.9446,14.3254,1589.431],[-88.9432,14.3197,1558.9315],[-88.9479,14.3131,1431.0425],[-88.9469,14.3103,1395.4474],[-88.9503,14.309,1392.0736],[-88.9531,14.3048,1323.7853],[-88.9502,14.3038,1386.8783],[-88.9511,14.3011,1321.5002],[-88.9556,14.2997,1369.2042],[-88.9659,14.2909,1221.8745],[-88.9717,14.2909,1184.0239],[-88.977,14.2888,1063.5265],[-88.9758,14.2844,1156.0629],[-88.972,14.2812,1016.8367],[-88.9682,14.2702,905.4953],[-88.9658,14.2687,943.1947],[-88.9663,14.2673,943.1947],[-88.9642,14.2662,1059.0785],[-88.9618,14.2606,1124.2468],[-88.962,14.2576,999.4307],[-88.9657,14.255,1033.2418],[-88.9659,14.2502,1038.6864],[-88.9687,14.2465,816.9952],[-88.9677,14.2358,688.8265],[-88.9649,14.2311,708.092],[-88.9648,14.2249,720.9385],[-88.9626,14.2194,887.0062],[-88.9665,14.2098,681.2366],[-88.9567,14.2032,681.5856]]]]}}