{"type": "Feature","bbox": [-88.4949,14.3333,-88.3312,14.4649],"geometry": {"type": "MultiPolygon","coordinates": [[[[-88.3759,14.4618,1946.3066],[-88.3831,14.4602,1946.4523],[-88.399,14.4611,1867.2937],[-88.4259,14.4588,1359.8724],[-88.4401,14.4649,1185.4055],[-88.4466,14.4647,1147.1389],[-88.4702,14.4566,1113.0286],[-88.4927,14.4426,1217.4862],[-88.4944,14.4404,1178.0597],[-88.4914,14.4367,1261.7885],[-88.4919,14.4314,1279.4884],[-88.4949,14.4211,1302.5455],[-88.4897,14.3967,1374.2144],[-88.4913,14.3934,1436.2224],[-88.4943,14.3921,1429.0397],[-88.4871,14.3804,1526.4097],[-88.4588,14.3563,1396.5083],[-88.4483,14.3492,1367.2028],[-88.4441,14.349,1351.1698],[-88.4392,14.3526,1329.8192],[-88.4323,14.3535,1340.9019],[-88.4223,14.3503,1172.067],[-88.418,14.3333,1159.9266],[-88.4072,14.3372,1079.6827],[-88.3985,14.3368,1101.6311],[-88.3898,14.3429,1032.1987],[-88.3813,14.3465,1103.5432],[-88.3783,14.3501,1105.619],[-88.3732,14.3514,1127.9222],[-88.3717,14.3561,1132.3809],[-88.3786,14.359,1068.8389],[-88.3535,14.3727,1266.3114],[-88.3347,14.3933,1692.1743],[-88.3312,14.4055,1854.8951],[-88.3709,14.4336,2176.0798],[-88.3578,14.4492,1975.6642],[-88.3759,14.4618,1946.3066]]]]}
,"properties": {"GID_2": "HND.10.13_1","GID_0": "HND","country": "Honduras","GID_1": "HND.10_1","province": "Intibucá","NL_NAME_1": "NA","county": "SanJuan","VARNAME_2": "NA","NL_NAME_2": "NA","TYPE_2": "Municipio","ENGTYPE_2": "Municipality","CC_2": "NA","HASC_2": "HN.IN.SJ","name": "San_Juan.county","area_km2": 175.8056,"hist_schema_id": "Elevation0-9000","hist_area_km2": {"1025": 0.1027,"1050": 1.294,"1075": 5.7099,"1100": 7.2502,"1125": 6.0175,"1150": 6.9414,"1175": 11.685,"1200": 10.9456,"1225": 10.1034,"1250": 11.6435,"1275": 12.7317,"1300": 12.547,"1325": 11.89,"1350": 9.8573,"1375": 6.5101,"1400": 4.1483,"1425": 3.5528,"1450": 2.9777,"1475": 3.142,"1500": 3.1009,"1525": 3.0599,"1550": 2.4437,"1575": 1.6633,"1600": 1.2731,"1625": 1.6632,"1650": 1.4374,"1675": 1.7248,"1700": 1.4579,"1725": 1.3757,"1750": 1.4168,"1775": 0.9445,"1800": 0.924,"1825": 1.0267,"1850": 0.924,"1875": 0.9034,"1900": 1.0882,"1925": 1.1703,"1950": 1.3756,"1975": 1.1498,"2000": 0.8829,"2025": 0.7803,"2050": 0.8624,"2075": 0.657,"2100": 0.6776,"2125": 0.4312,"2150": 0.5954,"2175": 0.8418,"2200": 0.5544,"2225": 0.2464,"2250": 0.0821,"2275": 0.0205}}}