{"type": "Feature","bbox": [-88.9445,14.9681,-88.6982,15.2891],"geometry": {"type": "MultiPolygon","coordinates": [[[[-88.9445,15.1564,677.4446],[-88.934,15.1537,696.8748],[-88.9318,15.1506,784.5433],[-88.9259,15.1492,576.6169],[-88.9191,15.1372,982.0945],[-88.915,15.1344,1157.8198],[-88.9139,15.1211,1727.7373],[-88.9157,15.1173,1871.8555],[-88.9116,15.1129,2067.0559],[-88.915,15.1018,2001.0477],[-88.8982,15.1202,1913.0558],[-88.8832,15.1277,1647.9913],[-88.8782,15.1285,1580.5396],[-88.8736,15.1317,1465.2291],[-88.8688,15.1318,1173.7679],[-88.8663,15.1334,1074.2592],[-88.8622,15.1326,1128.7715],[-88.861,15.128,1144.771],[-88.8632,15.1156,948.3546],[-88.8583,15.0921,780.2692],[-88.859,15.0815,639.9978],[-88.8536,15.0706,604.3271],[-88.8488,15.052,499.2318],[-88.8459,15.0495,493.8656],[-88.8548,15.0346,545.2191],[-88.8406,15.0127,504.1688],[-88.8427,15.002,637.166],[-88.8432,14.9773,663.84],[-88.7956,14.9681,914.9423],[-88.7931,14.9885,791.7138],[-88.8011,15.003,880.5539],[-88.8216,15.0129,589.6726],[-88.8235,15.0353,488.2807],[-88.8198,15.0333,547.7675],[-88.8159,15.0353,639.637],[-88.819,15.0409,480.2453],[-88.8163,15.0456,469.3176],[-88.8169,15.0476,471.3867],[-88.8141,15.0473,473.7625],[-88.8153,15.0502,467.0099],[-88.8127,15.051,470.9344],[-88.8164,15.0517,465.4511],[-88.8151,15.0551,460.5635],[-88.8173,15.0552,460.6961],[-88.8175,15.0566,460.3981],[-88.8064,15.0584,468.0607],[-88.8069,15.0622,461.7184],[-88.8038,15.0617,464.3885],[-88.8041,15.0655,457.7722],[-88.7984,15.0654,464.3406],[-88.7975,15.0687,463.9575],[-88.7924,15.0696,479.0752],[-88.7875,15.0753,451.5663],[-88.7885,15.079,470.9579],[-88.7863,15.0794,462.5761],[-88.7911,15.087,441.2945],[-88.7917,15.0955,451.956],[-88.7852,15.1088,453.3909],[-88.7853,15.1135,453.1256],[-88.7826,15.1208,471.1289],[-88.7801,15.1232,529.4157],[-88.7813,15.1266,495.3856],[-88.7793,15.1274,591.2573],[-88.7783,15.1378,584.313],[-88.7752,15.1392,645.4628],[-88.7743,15.1425,548.465],[-88.7724,15.1432,575.3771],[-88.7739,15.1488,511.908],[-88.7686,15.153,547.8222],[-88.7706,15.1589,487.0362],[-88.77,15.1643,494.1472],[-88.7689,15.1679,496.7914],[-88.7654,15.1714,512.9532],[-88.765,15.1754,510.7132],[-88.7624,15.1763,524.4996],[-88.7599,15.1804,520.9597],[-88.76,15.1824,516.3815],[-88.7643,15.1851,491.6154],[-88.7617,15.1896,502.6363],[-88.7478,15.1888,915.9672],[-88.7436,15.178,945.2264],[-88.7394,15.1726,938.7585],[-88.732,15.1699,981.3732],[-88.7253,15.1651,1006.3494],[-88.7151,15.1622,921.5102],[-88.7102,15.1584,756.4204],[-88.7058,15.159,746.7327],[-88.7099,15.1776,967.0156],[-88.7009,15.1876,869.7241],[-88.7005,15.1908,801.3191],[-88.6982,15.1913,780.3876],[-88.7057,15.2011,611.7591],[-88.7171,15.2062,774.3857],[-88.706,15.2328,907.4176],[-88.7609,15.2891,462.8369],[-88.7982,15.2673,431.8242],[-88.8182,15.2571,508.9272],[-88.8262,15.2552,602.1324],[-88.9445,15.1564,677.4446]]]]}
,"properties": {"GID_2": "HND.5.9_1","GID_0": "HND","country": "Honduras","GID_1": "HND.5_1","province": "Copán","NL_NAME_1": "NA","county": "Florida","VARNAME_2": "NA","NL_NAME_2": "NA","TYPE_2": "Municipio","ENGTYPE_2": "Municipality","CC_2": "NA","HASC_2": "HN.CP.FL","name": "Florida.county","area_km2": 360.0498,"hist_schema_id": "Elevation0-9000","hist_area_km2": {"275": 0.1841,"300": 0.4091,"325": 1.3091,"350": 1.575,"375": 2.3114,"400": 2.2705,"425": 2.3932,"450": 19.507,"475": 15.597,"500": 19.9745,"525": 13.4462,"550": 13.2006,"575": 10.9497,"600": 11.8703,"625": 11.8497,"650": 11.1949,"675": 10.2737,"700": 9.9457,"725": 9.3109,"750": 8.9429,"775": 8.9018,"800": 8.5947,"825": 7.6533,"850": 7.592,"875": 8.2467,"900": 8.5943,"925": 9.924,"950": 9.4535,"975": 7.9595,"1000": 7.5092,"1025": 6.6909,"1050": 6.1386,"1075": 6.0569,"1100": 5.8115,"1125": 5.4228,"1150": 5.3002,"1175": 5.8323,"1200": 4.9319,"1225": 4.5022,"1250": 4.4817,"1275": 4.5431,"1300": 3.9904,"1325": 4.7271,"1350": 4.0108,"1375": 3.4583,"1400": 3.0285,"1425": 2.7216,"1450": 2.1896,"1475": 2.4557,"1500": 2.0669,"1525": 1.2483,"1550": 1.6167,"1575": 1.146,"1600": 1.1869,"1625": 0.9823,"1650": 0.7162,"1675": 0.6139,"1700": 0.5321,"1725": 0.3479,"1750": 0.2047,"1775": 0.1637,"1800": 0.1842,"1825": 0.1228,"1850": 0.1433,"1875": 0.1023,"1900": 0.0819,"1925": 0.0819,"1950": 0.0409,"1975": 0.0409,"2000": 0.1842,"2025": 0.0614,"2050": 0.1638,"2075": 0.2252,"2100": 0.1023,"2125": 0.1638,"2150": 0.1023,"2175": 0.0819,"2200": 0.0819,"2225": 0.0205}}}