{"type":"Feature","properties":{"GID_2":"HND.2.10_1","GID_0":"HND","country":"Honduras","GID_1":"HND.2_1","province":"Choluteca","NL_NAME_1":"NA","county":"Orocuina","VARNAME_2":"NA","NL_NAME_2":"NA","TYPE_2":"Municipio","ENGTYPE_2":"Municipality","CC_2":"NA","HASC_2":"HN.CH.OR","name":"Orocuina.county"},
"geometry":{"type": "MultiPolygon","coordinates": [[[[-87.0833,13.4976,460.537],[-87.0916,13.502,216.6814],[-87.1004,13.5043,261.757],[-87.1069,13.511,227.5637],[-87.1074,13.522,334.182],[-87.1141,13.5299,256.9189],[-87.1127,13.5454,244.1429],[-87.1104,13.5501,259.2349],[-87.1424,13.5429,519.5888],[-87.1477,13.5436,543.1176],[-87.1517,13.5475,530.6351],[-87.1569,13.5486,381.745],[-87.1689,13.5444,290.1385],[-87.1724,13.546,337.9728],[-87.1744,13.5501,425.0775],[-87.1827,13.5574,515.9052],[-87.1879,13.56,586.7501],[-87.1995,13.5568,702.9501],[-87.2113,13.5498,782.7369],[-87.1974,13.5149,870.3331],[-87.2186,13.5027,1014.7614],[-87.1998,13.499,794.662],[-87.1692,13.4863,799.9568],[-87.1563,13.475,862.8649],[-87.13,13.4597,526.2355],[-87.1302,13.4568,642.6051],[-87.1332,13.4531,583.8425],[-87.1396,13.4512,735.3424],[-87.1365,13.4045,323.813],[-87.1106,13.4024,69.6723],[-87.1103,13.4062,71.1699],[-87.1136,13.4108,82.1877],[-87.1133,13.4139,74.8335],[-87.1061,13.4197,80.0721],[-87.1059,13.4261,76.3008],[-87.0977,13.4379,77.743],[-87.0894,13.4423,90.8707],[-87.0927,13.4497,82.1564],[-87.0929,13.4543,81.969],[-87.0833,13.4976,460.537]]]]}}