{"type":"Feature","properties":{"ISO3166-1-Alpha-3":"HND","country":"Honduras","fill":"#F00","id":"648","name":"Intibucá"},
"geometry":{"type": "Polygon","coordinates": [[[-87.85311,14.42909,2140.6511],[-87.849,14.43281,2264.8423],[-87.84815,14.43509,2274.4221],[-87.84778,14.43819,2186.2947],[-87.84822,14.44175,2362.6479],[-87.85582,14.45597,2170.5625],[-87.88794,14.49555,1984.1405],[-87.89975,14.50651,2035.1609],[-87.89876,14.51591,1969.098],[-87.89905,14.52599,1982.4697],[-87.90269,14.53028,2035.8359],[-87.90902,14.53524,1983.7577],[-87.93326,14.54692,1632.1321],[-87.94098,14.55307,1495.1119],[-87.94737,14.56536,1465.2583],[-87.94964,14.57182,1514.2163],[-87.95065,14.58216,1374.229],[-87.9516,14.58588,1367.4762],[-87.95977,14.60092,1054.611],[-87.96915,14.61306,942.138],[-87.98734,14.61947,918.2881],[-88.00421,14.63156,1068.9172],[-88.03873,14.6403,614.0807],[-88.04622,14.64117,516.1033],[-88.05614,14.64417,594.0258],[-88.06131,14.6465,599.6131],[-88.07495,14.66484,356.2028],[-88.09335,14.65445,590.4545],[-88.10043,14.64929,655.1022],[-88.12963,14.65203,663.3962],[-88.16322,14.65864,959.3502],[-88.20745,14.65476,745.6214],[-88.26595,14.64877,1126.8898],[-88.34378,14.6543,1674.1835],[-88.33388,14.63601,1942.36],[-88.32251,14.57317,1680.6074],[-88.34222,14.53823,1644.4629],[-88.34806,14.51932,1574.369],[-88.35005,14.50764,1669.0544],[-88.36049,14.491,1975.7424],[-88.38804,14.47689,2019.6514],[-88.41157,14.47359,1636.613],[-88.45705,14.47405,1196.5493],[-88.48154,14.46682,1021.4236],[-88.49824,14.45638,1188.9623],[-88.50147,14.44863,1119.1077],[-88.49462,14.40708,1220.3904],[-88.47472,14.38114,1507.8156],[-88.45426,14.36367,1373.9438],[-88.43237,14.36098,1330.3459],[-88.42883,14.35752,1344.7308],[-88.42238,14.349,1172.067],[-88.41173,14.29908,1215.3022],[-88.41341,14.28099,1195.791],[-88.42305,14.26053,1246.8293],[-88.42393,14.25339,1112.0515],[-88.4215,14.24792,1034.9972],[-88.41674,14.2444,1076.1614],[-88.41121,14.2413,1016.4672],[-88.40468,14.23841,1013.9016],[-88.39858,14.23438,952.9971],[-88.39271,14.23133,1008.8119],[-88.38798,14.22967,988.5825],[-88.38398,14.22947,914.8228],[-88.37912,14.2305,920.0558],[-88.37403,14.23076,899.4514],[-88.3678,14.23035,895.5325],[-88.3461,14.2258,904.5059],[-88.32817,14.21562,840.0868],[-88.32654,14.20533,742.4948],[-88.32791,14.20136,756.21],[-88.32794,14.19169,667.4723],[-88.32832,14.18751,707.6937],[-88.32677,14.16606,658.8347],[-88.32006,14.12203,316.8748],[-88.32228,14.10787,325.3038],[-88.32564,14.10503,293.0354],[-88.33101,14.09929,330.1667],[-88.33256,14.09475,274.5885],[-88.33352,14.08865,292.6085],[-88.33352,14.0809,442.1229],[-88.3362,14.07682,238.7535],[-88.339,14.07521,250.5493],[-88.34378,14.07408,215.8001],[-88.353,14.07046,206.5085],[-88.3753,14.05067,237.2807],[-88.43121,14.01873,180.711],[-88.46351,14.00457,141.6905],[-88.48015,13.99217,149.1876],[-88.48304,13.98757,279.0992],[-88.48377,13.98499,147.3857],[-88.49493,13.97036,136.4946],[-88.49709,13.96907,175.8362],[-88.4979,13.96837,118.5602],[-88.49818,13.96841,118.5602],[-88.50229,13.96894,87.9787],[-88.5012,13.9666,122.7369],[-88.49609,13.95569,185.9951],[-88.49682,13.94403,221.797],[-88.50023,13.93186,119.0908],[-88.50229,13.91711,188.6075],[-88.4995,13.9076,116.7513],[-88.48868,13.88135,80.2214],[-88.488,13.86533,84.679],[-88.49682,13.8512,79.6172],[-88.47015,13.85249,72.1462],[-88.45144,13.86357,218.2092],[-88.43323,13.87107,186.3827],[-88.39295,13.87977,195.952],[-88.38336,13.87926,317.9626],[-88.36742,13.87311,145.1195],[-88.36011,13.87238,257.3509],[-88.35892,13.87528,316.0901],[-88.35892,13.8812,435.9748],[-88.35819,13.8874,373.4727],[-88.35507,13.89096,317.8334],[-88.34856,13.89138,272.7033],[-88.34057,13.89003,379.3254],[-88.33261,13.88771,405.4567],[-88.32621,13.88507,328.1299],[-88.31926,13.8976,286.201],[-88.30843,13.90148,338.8593],[-88.29631,13.90236,441.7009],[-88.28543,13.90597,521.1791],[-88.27753,13.91334,421.6023],[-88.27417,13.91912,578.7811],[-88.27016,13.92602,568.4949],[-88.2636,13.9331,683.22],[-88.25164,13.93809,757.9835],[-88.24277,13.9367,816.2996],[-88.23637,13.93814,916.2783],[-88.23159,13.95181,946.1045],[-88.23337,13.9545,858.1223],[-88.24231,13.96253,782.4344],[-88.24438,13.9661,775.8402],[-88.24536,13.98589,881.8289],[-88.24489,13.98925,800.4033],[-88.23507,13.99287,572.0699],[-88.22006,13.99132,728.514],[-88.21766,13.9908,671.8966],[-88.21774,13.99093,671.8966],[-88.21916,13.99336,661.4223],[-88.21029,14.04338,1235.767],[-88.21931,14.06219,981.9867],[-88.22569,14.0687,900.6808],[-88.23221,14.07873,881.071],[-88.23223,14.08359,647.8998],[-88.22962,14.08638,549.5337],[-88.22595,14.08524,563.8262],[-88.21967,14.09072,607.398],[-88.16523,14.14952,865.756],[-88.15438,14.15939,914.2158],[-88.12565,14.1734,1129.6454],[-88.12291,14.17603,1100.5605],[-88.11464,14.18756,1121.5337],[-88.10596,14.20833,1270.4333],[-88.08973,14.22435,1514.0237],[-88.05542,14.25221,1407.5408],[-88.01346,14.2537,1028.5697],[-88.00519,14.26766,979.8308],[-88.00586,14.2753,926.6295],[-88.00235,14.28791,938.8072],[-87.99623,14.29277,892.2664],[-87.98431,14.29732,927.6571],[-87.9747,14.30383,869.5002],[-87.96941,14.31044,869.6815],[-87.95331,14.34011,880.0895],[-87.95739,14.3706,698.5017],[-87.95514,14.38388,779.3616],[-87.95207,14.3893,701.3513],[-87.94716,14.38956,769.4434],[-87.94036,14.38698,860.5402],[-87.93248,14.38527,825.6724],[-87.92199,14.38538,1001.7048],[-87.90959,14.39049,1085.064],[-87.89765,14.397,1031.3225],[-87.85311,14.42909,2140.6511]]]}}