{"type":"Feature","properties":{"GID_1":"HND.10_1","GID_0":"HND","country":"Honduras","province":"Intibucá","VARNAME_1":"NA","NL_NAME_1":"NA","TYPE_1":"Departamento","ENGTYPE_1":"Department","CC_1":"NA","HASC_1":"HN.IN","ISO_1":"NA","name":"Intibucá.province"},
"geometry":{"type": "MultiPolygon","coordinates": [[[[-88.4635,13.857,118.7233],[-88.4635,13.8622,88.4441],[-88.4451,13.8608,232.6815],[-88.4391,13.8617,142.6446],[-88.4282,13.876,263.9171],[-88.4191,13.8791,161.2975],[-88.3769,13.8824,184.4234],[-88.3533,13.8654,168.8265],[-88.3171,13.8782,241.4804],[-88.2813,13.8879,419.0471],[-88.255,13.8974,458.2341],[-88.2207,13.9256,837.0599],[-88.2154,13.9307,835.1307],[-88.2168,13.951599999999999,832.3799],[-88.213,13.9655,873.5671],[-88.2098,13.9972,702.7478],[-88.2066,14.0048,953.604],[-88.2013,14.0372,1272.4563],[-88.2098,14.0455,1275.6475],[-88.2163,14.0493,1124.5002],[-88.2201,14.0496,1046.2128],[-88.2248,14.0539,1026.967],[-88.2265,14.0591,1081.087],[-88.2312,14.0628,956.4445],[-88.2325,14.0711,852.8044],[-88.2285,14.0705,850.786],[-88.2239,14.0737,824.1968],[-88.2201,14.0696,974.0685],[-88.2186,14.0754,883.1385],[-88.2153,14.0777,781.2449],[-88.2135,14.0833,786.6969],[-88.2092,14.0868,965.8325],[-88.2013,14.0872,1062.8342],[-88.2021,14.0904,1128.6887],[-88.1988,14.0938,991.8831],[-88.1988,14.0964,921.8391],[-88.1934,14.0975,776.7765],[-88.1881,14.1105,1179.5117],[-88.1832,14.1128,1294.6526],[-88.1812,14.116,1223.6781],[-88.1814,14.1202,1293.4484],[-88.1788,14.1236,1183.6095],[-88.1745,14.1237,1410.3828],[-88.1714,14.128,1327.46],[-88.1671,14.1274,1201.5911],[-88.162,14.1349,1033.7097],[-88.1587,14.1349,1048.3794],[-88.1585,14.1378,1167.8655],[-88.1547,14.1401,1228.316],[-88.1538,14.1436,1185.8452],[-88.1438,14.1485,1126.6343],[-88.1413,14.1472,1181.5247],[-88.1387,14.1495,1225.4656],[-88.1349,14.1488,1355.4342],[-88.1332,14.152,1380.4927],[-88.1282,14.1506,1463.4023],[-88.1281,14.155,1396.5769],[-88.1164,14.1581,1185.5208],[-88.1129,14.1703,1238.3223],[-88.1037,14.1777,1104.0122],[-88.1031,14.1959,1419.3435],[-88.0642,14.2234,1386.0619],[-88.0588,14.2305,1471.0089],[-88.044,14.2379,1345.6588],[-88.0037,14.237,1065.4652],[-87.9998,14.2533,1134.1791],[-88.0021,14.2571,1012.6605],[-87.9973,14.2686,1032.6698],[-87.9942,14.272,1004.1486],[-87.9808,14.2764,1035.7784],[-87.9772,14.2793,983.4844],[-87.973,14.2771,1021.126],[-87.9695,14.2833,1062.9272],[-87.9699,14.2873,946.3881],[-87.9663,14.2893,918.0964],[-87.9666,14.2919,932.4978],[-87.9648,14.2924,978.6047],[-87.9665,14.2949,974.4233],[-87.9655,14.3055,896.5591],[-87.9621,14.3059,885.6462],[-87.96,14.309,1060.5974],[-87.9583,14.3066,1027.3015],[-87.9544,14.3079,1046.1218],[-87.9535,14.3102,983.3374],[-87.9469,14.312,922.0745],[-87.9496,14.3144,843.9243],[-87.9464,14.3157,831.2675],[-87.9482,14.3174,821.9021],[-87.9467,14.3205,797.9564],[-87.9478,14.3226,798.5733],[-87.9441,14.3279,878.1627],[-87.9477,14.3325,874.7018],[-87.9477,14.3352,853.6498],[-87.952,14.3351,779.5428],[-87.9523,14.3392,766.1171],[-87.9491,14.3426,812.2346],[-87.951,14.3445,858.2875],[-87.95,14.3467,927.662],[-87.9523,14.3475,845.9008],[-87.9511,14.351,854.2009],[-87.9561,14.3525,722.1064],[-87.95,14.3566,899.5384],[-87.9511,14.3593,877.0658],[-87.9478,14.3605,838.6547],[-87.951,14.3656,890.0853],[-87.9494,14.3678,898.084],[-87.9507,14.3701,889.7836],[-87.9502,14.3763,885.3467],[-87.9451,14.3754,828.7168],[-87.9449,14.3742,828.7168],[-87.9419,14.3754,836.8599],[-87.94,14.373,941.0081],[-87.9409,14.3707,906.7267],[-87.9273,14.3703,980.7188],[-87.9252,14.3689,1033.2491],[-87.9197,14.3715,1073.439],[-87.9158,14.3685,1063.8868],[-87.9087,14.369,1063.7166],[-87.9068,14.3716,951.2413],[-87.9011,14.3741,1065.7844],[-87.8965,14.381,1092.8706],[-87.8886,14.3834,1129.8273],[-87.8786,14.3911,1221.0293],[-87.8631,14.3997,1462.8248],[-87.8572,14.4085,1698.3347],[-87.8528,14.4114,1819.1646],[-87.8506,14.415,1828.1678],[-87.8484,14.415,1888.6617],[-87.8398,14.4216,1821.1219],[-87.8433,14.4279,2030.9314],[-87.8443,14.4371,2162.5154],[-87.8514,14.4407,2340.0193],[-87.8521,14.4451,2366.3767],[-87.8605,14.4519,2092.0938],[-87.8759,14.4705,2065.175],[-87.8779,14.4781,2005.8677],[-87.8816,14.4833,2143.3027],[-87.8937,14.4897,1912.3141],[-87.8964,14.4956,2065.4888],[-87.8967,14.5006,2001.2869],[-87.8928,14.5058,1962.9979],[-87.8921,14.5108,1856.8845],[-87.8966,14.5211,1898.6826],[-87.9238,14.5323,1790.7301],[-87.9331,14.5312,1726.7776],[-87.9351,14.5332,1679.5525],[-87.9425,14.5581,1493.4664],[-87.9426,14.5728,1365.2252],[-87.9484,14.5786,1432.6191],[-87.9502,14.5834,1374.229],[-87.9536,14.5853,1301.7539],[-87.9535,14.601,969.2027],[-87.9609,14.6015,1054.611],[-87.9661,14.6047,995.4443],[-87.9713,14.6033,1197.7916],[-87.973,14.6043,1134.4828],[-87.9731,14.6014,1241.8452],[-87.9767,14.6013,1147.2302],[-87.9858,14.6114,895.4387],[-88.0126,14.6169,882.6598],[-88.0384,14.6256,601.1574],[-88.0574,14.6228,410.7419],[-88.0629,14.629,464.1466],[-88.0658,14.6401,443.3742],[-88.0734,14.6472,559.0668],[-88.0824,14.6447,814.3697],[-88.0939,14.6291,814.1061],[-88.1529,14.6441,882.0132],[-88.2249,14.6403,872.3311],[-88.2319,14.6386,992.8718],[-88.2462,14.6308,1204.2775],[-88.2823,14.6319,1523.5769],[-88.3387,14.6395,2075.0327],[-88.3427,14.6368,2019.2493],[-88.3249,14.6044,1917.7286],[-88.3214,14.5848,1740.47],[-88.3186,14.552,1615.8763],[-88.3255,14.5382,1482.754],[-88.3433,14.5155,1627.1658],[-88.3386,14.5024,1562.864],[-88.341,14.4897,1706.345],[-88.3687,14.4659,1997.4353],[-88.3759,14.4618,1946.3066],[-88.3831,14.4602,1946.4523],[-88.399,14.4611,1867.2937],[-88.4259,14.4588,1359.8724],[-88.4401,14.4649,1185.4055],[-88.4466,14.4647,1147.1389],[-88.4702,14.4566,1113.0286],[-88.4942,14.4414,1175.828],[-88.4914,14.4361,1261.7885],[-88.4949,14.4211,1302.5455],[-88.4897,14.3967,1374.2144],[-88.4913,14.3934,1436.2224],[-88.4943,14.3921,1429.0397],[-88.4871,14.3804,1526.4097],[-88.4495,14.3498,1384.7823],[-88.4441,14.349,1351.1698],[-88.4392,14.3526,1329.8192],[-88.4312,14.3535,1340.9019],[-88.4215,14.3488,1158.5229],[-88.4116,14.3118,1195.2247],[-88.4053,14.2703,1175.5352],[-88.4057,14.2668,1183.5576],[-88.4194,14.2465,1002.5903],[-88.4199,14.2422,1164.5448],[-88.4168,14.2339,1185.0337],[-88.4082,14.2295,1156.1753],[-88.4012,14.2282,1092.462],[-88.3984,14.2238,1068.7333],[-88.3954,14.2235,1072.0205],[-88.3934,14.2213,1005.8901],[-88.3862,14.2207,1011.7721],[-88.3809,14.216,954.4142],[-88.3663,14.218,958.5007],[-88.3633,14.2166,964.5754],[-88.3571,14.2173,1082.3621],[-88.334,14.212,1219.6146],[-88.3289,14.213,977.9086],[-88.3252,14.2052,704.6105],[-88.3177,14.2009,1070.0364],[-88.3158,14.1974,1134.4597],[-88.3166,14.1918,1084.2231],[-88.3217,14.1853,938.9133],[-88.3213,14.1753,973.9401],[-88.3251,14.1696,903.804],[-88.3254,14.1498,527.6887],[-88.3199,14.1473,397.2457],[-88.3162,14.1418,509.925],[-88.3153,14.1351,531.5545],[-88.3201,14.1209,316.8748],[-88.3178,14.1176,333.8663],[-88.3178,14.1074,314.2616],[-88.3142,14.1046,354.9338],[-88.3128,14.0946,596.4801],[-88.3145,14.0916,677.4941],[-88.3246,14.0891,535.7161],[-88.3306,14.0798,366.2081],[-88.3304,14.076,228.9764],[-88.3248,14.0658,406.4306],[-88.3256,14.0628,297.239],[-88.3298,14.0604,266.4376],[-88.3376,14.0621,263.1402],[-88.3428,14.0585,282.6998],[-88.3489,14.0596,207.653],[-88.3627,14.0384,348.9523],[-88.3699,14.0362,319.3448],[-88.3732,14.0308,290.9438],[-88.3802,14.0291,372.0653],[-88.3823,14.0239,431.9561],[-88.3895,14.0241,356.3008],[-88.3963,14.0207,318.8127],[-88.4005,14.0205,408.1964],[-88.4062,14.0151,445.7136],[-88.4154,14.0124,516.9099],[-88.4251,14.0047,443.2687],[-88.4368,14.0038,192.5926],[-88.4436,13.9955,316.0041],[-88.4614,13.994,387.9581],[-88.4672,13.9812,193.9382],[-88.4724,13.9789,175.2666],[-88.4789,13.9784,99.9459],[-88.4757,13.9725,208.5442],[-88.4754,13.9654,146.6676],[-88.4785,13.9646,128.8612],[-88.4798,13.9622,123.7698],[-88.4845,13.9624,145.8443],[-88.4874,13.9604,91.5426],[-88.4909,13.9499,195.3485],[-88.4946,13.9525,169.0266],[-88.4978,13.951599999999999,63.0],[-88.4986,13.949,80.6888],[-88.4969,13.9402,180.263],[-88.5079,13.9394,91.302],[-88.5118,13.9244,100.8496],[-88.5088,13.9175,58.2766],[-88.5122,13.9107,61.4059],[-88.4959,13.8787,106.9363],[-88.4946,13.8725,58.4001],[-88.4965,13.8654,96.4501],[-88.4948,13.8591,73.353],[-88.4825,13.8573,63.2961],[-88.4665,13.8503,70.5611],[-88.4635,13.857,118.7233]]]]}}