{"type":"Feature","properties":{"featurecla":"River","scalerank":7,"rivernum":530,"dissolve":"530River","name":"Ula","name_alt":null,"note":null,"min_zoom":6.0,"strokeweig":0.15,"name_en":"Ula","min_label":7.0},
"geometry":{"type": "LineString","coordinates": [[-87.907324218749991,14.185321356244117,1625.8333],[-87.868017578124991,14.28436920780662,1100.0309],[-87.865478515625,14.29840729374412,1017.1263],[-87.869482421874991,14.303338934369123,946.6746],[-87.877539062499991,14.306170965619117,930.8696],[-87.88720703125,14.313495184369117,1007.5384],[-87.938232421875,14.37738678593162,899.28],[-87.984057617187489,14.467303778119117,616.8364]]}}