{"type":"Feature","properties":{"GID_2":"HND.7.3_1","GID_0":"HND","country":"Honduras","GID_1":"HND.7_1","province":"ElParaíso","NL_NAME_1":"NA","county":"ElParaíso","VARNAME_2":"NA","NL_NAME_2":"NA","TYPE_2":"Municipio","ENGTYPE_2":"Municipality","CC_2":"NA","HASC_2":"HN.CP.EP","name":"El_Paraíso.county"},
"geometry":{"type": "MultiPolygon","coordinates": [[[[-86.5801,13.7879,1280.6652],[-86.5703,13.7919,1242.05],[-86.5652,13.7989,1346.4384],[-86.5608,13.8007,1404.6553],[-86.5395,13.8,1367.6196],[-86.5345,13.7979,1410.0151],[-86.5226,13.7811,1331.4775],[-86.5165,13.7763,1336.8569],[-86.4991,13.7692,1384.5295],[-86.4909,13.7683,1680.0093],[-86.474,13.7713,1639.858],[-86.4511,13.7829,1731.8273],[-86.4482,13.7825,1649.8987],[-86.4448,13.7792,1753.2484],[-86.4387,13.7622,1842.3411],[-86.4361,13.7595,1778.3386],[-86.4328,13.7587,1641.2098],[-86.4195,13.7617,2001.0729],[-86.394,13.759,1931.1991],[-86.387,13.7606,1750.3042],[-86.3762,13.7698,1719.1675],[-86.3724,13.7694,1552.9404],[-86.3681,13.763,1618.1639],[-86.3647,13.7611,1580.2356],[-86.3579,13.7603,1518.5929],[-86.3603,13.7675,1546.802],[-86.3671,13.7736,1418.5466],[-86.368,13.7774,1377.1101],[-86.367,13.7938,1201.5521],[-86.3634,13.7962,1047.8356],[-86.362,13.8011,1091.0754],[-86.3642,13.8183,1120.6779],[-86.3694,13.8273,1169.27],[-86.3689,13.8311,1057.1064],[-86.3708,13.8364,1017.3853],[-86.3697,13.8407,955.718],[-86.3649,13.8478,922.1537],[-86.3665,13.8502,882.5122],[-86.4245,13.8705,928.8708],[-86.4616,13.8753,615.6988],[-86.5226,13.9102,1052.9067],[-86.5774,13.9268,795.6899],[-86.5863,13.9328,757.0268],[-86.5901,13.9334,721.6986],[-86.5939,13.931,675.8015],[-86.5969,13.9315,688.0025],[-86.6012,13.9279,687.4438],[-86.602,13.9254,745.8169],[-86.6002,13.9253,748.9947],[-86.6006,13.9232,757.2611],[-86.6042,13.9196,762.8434],[-86.6119,13.9196,801.3442],[-86.6138,13.9226,751.6929],[-86.619,13.9221,634.2829],[-86.6187,13.9175,718.1739],[-86.625,13.9154,642.6674],[-86.6271,13.9129,633.9438],[-86.6271,13.91,804.5186],[-86.6318,13.9088,854.4337],[-86.6291,13.9059,837.4457],[-86.6312,13.903,794.284],[-86.6339,13.9049,813.5601],[-86.6368,13.9042,814.6268],[-86.6378,13.9061,814.4058],[-86.648,13.9071,772.6833],[-86.6512,13.909,725.4537],[-86.6533,13.9072,719.5503],[-86.6551,13.9095,761.1505],[-86.6532,13.9113,732.9897],[-86.6573,13.9155,725.1816],[-86.662,13.9122,602.1281],[-86.6631,13.9141,607.0388],[-86.672,13.9159,559.0308],[-86.6782,13.9145,633.0047],[-86.6836,13.9159,540.8158],[-86.6829,13.9116,616.8282],[-86.6852,13.9113,588.8693],[-86.6859,13.9095,555.9578],[-86.69,13.9104,557.3732],[-86.6911,13.9083,611.6573],[-86.6876,13.904,562.2258],[-86.6825,13.9012,603.5295],[-86.6772,13.8893,702.2913],[-86.6711,13.8837,692.9185],[-86.6713,13.8698,609.0323],[-86.6689,13.8671,661.8341],[-86.662,13.8643,664.195],[-86.6441,13.8298,967.0999],[-86.6355,13.8242,943.4318],[-86.6217,13.8254,834.629],[-86.6093,13.8241,861.4945],[-86.6032,13.8172,896.222],[-86.5993,13.8055,1007.7037],[-86.5864,13.7995,1171.9271],[-86.5801,13.7879,1280.6652]]]]}}