{"type": "Feature","bbox": [-87.762,14.1726,-87.652,14.2586],"geometry": {"type": "MultiPolygon","coordinates": [[[[-87.7343,14.1745,1036.9473],[-87.7281,14.1776,1032.0131],[-87.7248,14.1776,1034.2915],[-87.7199,14.1761,956.3325],[-87.717,14.1734,918.0449],[-87.7111,14.1726,925.9727],[-87.7071,14.1763,819.4789],[-87.7023,14.1763,837.3095],[-87.6837,14.1866,811.1219],[-87.684,14.2007,751.3323],[-87.6872,14.2032,742.9402],[-87.687,14.2186,697.2078],[-87.6889,14.2198,694.5733],[-87.6857,14.2222,681.9298],[-87.6828,14.222,700.02],[-87.6836,14.2267,688.4447],[-87.6796,14.2265,704.8553],[-87.6788,14.2305,669.4828],[-87.6741,14.235,691.31],[-87.675,14.2384,658.1755],[-87.6714,14.2409,660.0674],[-87.6696,14.2452,677.0134],[-87.666,14.2455,704.0696],[-87.6684,14.2405,710.2167],[-87.6628,14.2383,706.7858],[-87.6609,14.2394,706.5873],[-87.6614,14.2428,667.1754],[-87.652,14.2446,643.5154],[-87.66,14.2582,643.1914],[-87.6622,14.2586,643.3396],[-87.6626,14.254,652.2084],[-87.6639,14.2533,647.0996],[-87.6668,14.2563,650.2981],[-87.6692,14.2566,651.9731],[-87.6721,14.2495,668.5303],[-87.6745,14.2474,661.943],[-87.6764,14.2487,672.137],[-87.6762,14.253,671.6047],[-87.6835,14.2482,687.571],[-87.6834,14.2527,677.8931],[-87.6861,14.255,702.1472],[-87.6883,14.2507,690.5024],[-87.6912,14.2506,701.6934],[-87.6934,14.2466,721.7956],[-87.6969,14.2467,754.8754],[-87.6979,14.2428,749.8641],[-87.7012,14.243,772.7488],[-87.7039,14.2399,786.6584],[-87.7104,14.2425,778.9447],[-87.7159,14.2421,868.6118],[-87.7204,14.2392,826.3179],[-87.7249,14.2396,1035.4319],[-87.7271,14.2364,958.8617],[-87.737,14.2349,1028.8776],[-87.7424,14.2257,1080.0565],[-87.7558,14.2284,1109.7831],[-87.7596,14.2266,1178.436],[-87.762,14.2201,1271.6606],[-87.7451,14.2122,1029.6687],[-87.7388,14.2113,943.119],[-87.7302,14.2033,961.4883],[-87.7346,14.2014,1035.4648],[-87.7344,14.1992,979.3334],[-87.7377,14.1982,962.8794],[-87.7355,14.1904,1058.5065],[-87.7372,14.1802,1021.3303],[-87.7338,14.1764,1030.2974],[-87.7343,14.1745,1036.9473]]]]}
,"properties": {"GID_2": "HND.4.5_1","GID_0": "HND","country": "Honduras","GID_1": "HND.4_1","province": "Comayagua","NL_NAME_1": "NA","county": "Humuya","VARNAME_2": "NA","NL_NAME_2": "NA","TYPE_2": "Municipio","ENGTYPE_2": "Municipality","CC_2": "NA","HASC_2": "HN.CM.HU","name": "Humuya.county","area_km2": 49.12176,"hist_schema_id": "Elevation0-9000","hist_area_km2": {"625": 0.4932,"650": 1.99335,"675": 3.34979,"700": 3.987,"725": 2.91844,"750": 1.76756,"775": 1.76761,"800": 2.17877,"825": 2.98041,"850": 3.04207,"875": 2.75427,"900": 2.79525,"925": 2.75416,"950": 2.73359,"975": 2.38415,"1000": 2.65139,"1025": 2.54872,"1050": 2.32254,"1075": 1.76757,"1100": 0.80155,"1125": 0.53436,"1150": 0.08221,"1175": 0.18497,"1200": 0.12331,"1225": 0.12331,"1250": 0.08221}}}