{"type":"Feature","properties":{"GID_2":"HND.7.9_1","GID_0":"HND","country":"Honduras","GID_1":"HND.7_1","province":"ElParaíso","NL_NAME_1":"NA","county":"Potrerillos","VARNAME_2":"NA","NL_NAME_2":"NA","TYPE_2":"Municipio","ENGTYPE_2":"Municipality","CC_2":"NA","HASC_2":"HN.CR.PO","name":"Potrerillos.county"},
"geometry":{"type": "MultiPolygon","coordinates": [[[[-86.7334,14.1148,1311.4353],[-86.7384,14.1134,1338.473],[-86.7429,14.115,1294.0591],[-86.7574,14.1149,1173.666],[-86.7624,14.1199,1044.7595],[-86.7603,14.125,1118.8069],[-86.7608,14.1274,1222.1367],[-86.775,14.1211,1160.5997],[-86.7791,14.1169,1080.9144],[-86.7768,14.1111,1077.538],[-86.7776,14.1067,1135.9813],[-86.7808,14.1029,1061.7588],[-86.7801,14.097,1051.6558],[-86.773,14.0943,980.1437],[-86.7766,14.0758,881.8307],[-86.8318,14.0373,617.5731],[-86.8367,14.0356,637.3254],[-86.8423,14.0372,621.2059],[-86.8373,14.0166,808.713],[-86.8386,14.014099999999999,817.8156],[-86.8372,14.0126,844.0301],[-86.8337,14.0116,852.8406],[-86.8297,14.0145,837.2173],[-86.8253,14.0101,770.292],[-86.8236,14.0152,744.9103],[-86.8091,14.0118,736.1089],[-86.7986,14.0056,675.405],[-86.7891,13.9957,951.2104],[-86.7838,13.9932,655.8322],[-86.7817,13.9872,646.6523],[-86.778,13.983,614.4925],[-86.778,13.9759,881.627],[-86.7647,13.9812,660.2656],[-86.7604,13.9783,697.0483],[-86.7605,13.9703,811.0572],[-86.7583,13.9685,782.1499],[-86.7496,13.969,615.464],[-86.7475,13.9679,594.5516],[-86.7443,13.981,560.0926],[-86.735,13.9827,585.8719],[-86.7331,13.9914,592.6912],[-86.7294,13.9958,695.9744],[-86.7297,14.0005,844.5089],[-86.7137,14.0339,1059.4036],[-86.7158,14.0413,1053.1077],[-86.7193,14.046,1111.756],[-86.7178,14.0511,1084.4902],[-86.7187,14.0577,1041.876],[-86.7164,14.0641,1073.778],[-86.7215,14.0705,1098.2937],[-86.7204,14.073,1088.8059],[-86.7226,14.0751,1104.6157],[-86.7235,14.0796,1110.0275],[-86.7326,14.0854,1157.8767],[-86.7334,14.1148,1311.4353]]]]}}