{"type":"Feature","properties":{"GID_2":"HND.18.11_1","GID_0":"HND","country":"Honduras","GID_1":"HND.18_1","province":"Yoro","NL_NAME_1":"NA","county":"Yoro","VARNAME_2":"NA","NL_NAME_2":"NA","TYPE_2":"Municipio","ENGTYPE_2":"Municipality","CC_2":"NA","HASC_2":"HN.YO.YO","name":"Yoro.county"},
"geometry":{"type": "MultiPolygon","coordinates": [[[[-87.4757,15.5405,75.585],[-87.4799,15.5364,80.1412],[-87.4867,15.5375,89.0747],[-87.4904,15.5363,102.9196],[-87.4944,15.5299,96.888],[-87.4988,15.5279,120.1996],[-87.5023,15.5215,105.5214],[-87.5242,15.5151,167.7521],[-87.5266,15.5131,181.564],[-87.5211,15.5092,168.308],[-87.5217,15.5071,217.7941],[-87.525,15.5066,242.2389],[-87.526,15.5029,293.2353],[-87.5242,15.5009,331.0169],[-87.5248,15.495,582.4733],[-87.5222,15.4903,731.2859],[-87.5225,15.4859,691.4356],[-87.5204,15.4799,785.3004],[-87.5196,15.4702,1037.7695],[-87.5214,15.4593,790.9249],[-87.5203,15.4567,783.1415],[-87.5252,15.451,519.5145],[-87.5368,15.4472,542.6255],[-87.5415,15.4437,409.5868],[-87.5432,15.44,319.3536],[-87.5461,15.4393,312.833],[-87.546,15.4339,437.3706],[-87.5433,15.4271,456.4903],[-87.5451,15.4216,497.6526],[-87.5482,15.4198,508.5235],[-87.5491,15.4149,562.9792],[-87.5548,15.4084,537.4031],[-87.5561,15.4024,556.1734],[-87.555,15.3972,573.8988],[-87.5501,15.3931,600.906],[-87.5489,15.3897,644.8573],[-87.5417,15.3915,575.4162],[-87.5254,15.3747,574.9315],[-87.5158,15.3522,314.7456],[-87.4946,15.3409,429.5336],[-87.4749,15.3208,844.3593],[-87.4548,15.2534,798.2238],[-87.4602,15.2502,802.4755],[-87.4619,15.2455,793.2258],[-87.5124,15.2556,825.5259],[-87.5152,15.2512,703.4961],[-87.5199,15.2488,889.7676],[-87.5213,15.2442,648.0789],[-87.5291,15.241,872.7655],[-87.5313,15.2339,938.3243],[-87.537,15.2324,927.8161],[-87.5407,15.2282,986.0087],[-87.5461,15.2271,1103.2139],[-87.5448,15.2245,1019.9093],[-87.545,15.2065,1077.2968],[-87.5487,15.2002,1258.5193],[-87.5502,15.1934,1414.4752],[-87.5652,15.185,1823.9579],[-87.5687,15.1783,2117.6038],[-87.5737,15.1766,2288.293],[-87.579,15.1696,1879.4723],[-87.5709,15.1637,1492.1243],[-87.5496,15.1632,1715.4966],[-87.5496,15.1598,1505.113],[-87.5443,15.1523,1350.6328],[-87.5413,15.1511,1506.3557],[-87.5387,15.1462,1146.8988],[-87.5345,15.1449,1126.3634],[-87.5287,15.1475,1343.6637],[-87.4999,15.1412,1150.2017],[-87.4925,15.1351,1001.3287],[-87.4879,15.1287,1082.575],[-87.4787,15.1257,1185.517],[-87.4694,15.112,1299.816],[-87.4537,15.1091,1335.2129],[-87.4495,15.1062,1382.7402],[-87.4414,15.0959,1376.0234],[-87.4316,15.0943,1392.0137],[-87.4258,15.0901,1364.3135],[-87.4225,15.0959,1353.4055],[-87.4226,15.1056,1402.3595],[-87.4188,15.1158,1480.9575],[-87.412,15.1169,1432.0067],[-87.3958,15.1282,1349.0845],[-87.3922,15.126,1396.2578],[-87.3525,15.1178,985.5572],[-87.3405,15.1098,1166.094],[-87.3338,15.1023,1013.5504],[-87.3305,15.1047,1062.7642],[-87.316,15.1074,922.6569],[-87.3038,15.1005,1100.4702],[-87.2979,15.1013,933.1283],[-87.2893,15.1058,928.99],[-87.2868,15.1019,774.9838],[-87.2828,15.079,807.4696],[-87.2679,15.0617,732.34],[-87.2648,15.0427,809.3921],[-87.2164,15.0307,902.808],[-87.2153,15.0277,946.2235],[-87.2097,15.0256,972.096],[-87.1996,15.0247,1163.609],[-87.1914,15.0183,1323.5027],[-87.1867,15.0169,1422.78],[-87.1851,15.0145,1439.5107],[-87.1777,15.0129,1516.3718],[-87.1657,15.0146,1630.6077],[-87.1638,15.02,1681.8889],[-87.1555,15.0167,1688.2981],[-87.1476,15.0192,1673.7981],[-87.1368,15.0189,1685.3196],[-87.1263,15.013,1822.98],[-87.122,15.0083,1877.5967],[-87.1145,15.0071,1955.6206],[-87.1083,15.0029,1928.6747],[-87.0954,15.0053,1915.73],[-87.0845,15.0111,2191.8091],[-87.0712,15.0101,2159.2676],[-87.0675,15.0118,2100.7942],[-87.0544,15.0132,1859.5498],[-87.014,15.0036,1701.2544],[-87.0014,15.0232,1669.8284],[-86.9919,15.0323,1651.7671],[-86.9827,15.0355,1808.3047],[-86.9747,15.0348,1679.6708],[-86.9651,15.0306,1502.6455],[-86.955,15.0336,1448.9307],[-86.9472,15.0301,1370.9537],[-86.9441,15.0353,1625.3838],[-86.9443,15.0517,1563.469],[-86.9418,15.0579,1418.4504],[-86.927,15.0624,1136.1462],[-86.9194,15.0699,1205.5387],[-86.9092,15.067,1145.4655],[-86.9043,15.0709,1064.9506],[-86.9036,15.0752,1025.0007],[-86.9058,15.0804,1139.3479],[-86.9075,15.0925,858.465],[-86.9021,15.094,816.5597],[-86.9028,15.1101,603.5348],[-86.8989,15.1158,542.4242],[-86.8919,15.1193,540.744],[-86.8908,15.1235,632.6021],[-86.8865,15.1248,549.7692],[-86.8844,15.1322,636.0924],[-86.8848,15.1345,619.787],[-86.89,15.1348,673.5245],[-86.8905,15.1369,727.1177],[-86.8887,15.1427,830.0404],[-86.8856,15.1437,820.1395],[-86.8838,15.1495,857.3139],[-86.8811,15.151,908.942],[-86.881,15.1679,1411.4752],[-86.884,15.1748,1451.4746],[-86.8962,15.1701,1415.1987],[-86.9292,15.2015,1758.3406],[-86.9734,15.1967,1134.9067],[-86.979,15.2049,1405.9338],[-86.9872,15.2107,1376.9048],[-86.9892,15.2173,1217.5669],[-86.9922,15.22,1174.52],[-86.9983,15.2228,1316.1188],[-87.0093,15.2239,1227.7386],[-87.0137,15.2286,1060.2819],[-87.0191,15.23,883.5485],[-87.0181,15.2354,1039.3953],[-87.025,15.2419,835.0959],[-87.0433,15.2465,880.5627],[-87.0984,15.2872,919.5455],[-87.1057,15.2881,1008.1882],[-87.1125,15.2916,987.9595],[-87.1146,15.2957,998.9393],[-87.1147,15.3027,1035.0824],[-87.1232,15.3048,987.7091],[-87.1315,15.3181,818.4562],[-87.1239,15.3248,572.2599],[-87.1199,15.3254,464.0924],[-87.1201,15.3274,407.6717],[-87.1226,15.3295,427.5642],[-87.1321,15.3317,466.1818],[-87.1377,15.3356,404.1908],[-87.1421,15.336,407.1714],[-87.1423,15.3656,1014.5748],[-87.1393,15.3695,946.2271],[-87.1409,15.3749,773.0635],[-87.1748,15.3986,1130.2831],[-87.1979,15.4336,1544.2012],[-87.203,15.4288,1537.6779],[-87.2043,15.4188,1536.9857],[-87.2069,15.4146,1447.3857],[-87.2109,15.4108,1206.3401],[-87.2139,15.4103,1166.0447],[-87.2205,15.412,1345.3267],[-87.2247,15.4174,1389.3976],[-87.234,15.4137,1220.5706],[-87.2465,15.4132,1000.2968],[-87.2796,15.427,1458.8779],[-87.2844,15.4276,1426.6577],[-87.2898,15.4245,1429.0524],[-87.2943,15.4289,1625.3719],[-87.3032,15.4282,1435.2822],[-87.3092,15.4361,1718.5798],[-87.3196,15.4393,1501.5447],[-87.3309,15.4369,1419.4861],[-87.3385,15.4323,1141.1531],[-87.3417,15.4322,1122.7664],[-87.3513,15.4444,1443.4581],[-87.3607,15.4435,1344.1307],[-87.3683,15.4488,1486.9949],[-87.3717,15.4485,1441.3762],[-87.3759,15.4457,1409.9204],[-87.3863,15.4355,1251.1016],[-87.3928,15.4345,1385.6147],[-87.4023,15.4303,1214.6763],[-87.4033,15.4326,1306.759],[-87.4065,15.4315,1272.9282],[-87.4077,15.4354,1276.4192],[-87.4099,15.4369,1197.3506],[-87.4082,15.4392,1351.465],[-87.4139,15.4394,1330.855],[-87.4116,15.4436,1248.0461],[-87.4125,15.4454,1223.9185],[-87.4204,15.442,1298.8901],[-87.4205,15.4454,1202.5894],[-87.4226,15.4436,1226.1243],[-87.4236,15.4448,1156.6956],[-87.4209,15.4488,984.3834],[-87.4273,15.4513,1178.8861],[-87.4272,15.4493,1180.1552],[-87.4303,15.4493,1229.0911],[-87.4308,15.4531,1165.2435],[-87.4331,15.4548,1153.0671],[-87.4348,15.4524,1190.0469],[-87.4362,15.4529,1190.0469],[-87.4381,15.4594,1138.5916],[-87.4404,15.4574,1069.4242],[-87.4422,15.458,1013.0712],[-87.4408,15.4649,996.0096],[-87.444,15.4727,848.7518],[-87.4495,15.4768,880.091],[-87.4544,15.4773,771.8992],[-87.4555,15.4796,866.2702],[-87.4553,15.4813,838.1163],[-87.4496,15.4854,787.0722],[-87.4531,15.4877,829.9105],[-87.4535,15.4914,676.1584],[-87.4574,15.4937,616.6938],[-87.4557,15.5011,338.9576],[-87.4577,15.506,213.7569],[-87.4532,15.5076,243.8433],[-87.4523,15.5109,313.9517],[-87.4546,15.5127,198.8206],[-87.4511,15.5134,299.0685],[-87.4541,15.5183,137.685],[-87.4519,15.5207,119.3132],[-87.4519,15.526,103.7193],[-87.4527,15.5273,89.2548],[-87.4568,15.5262,123.9293],[-87.4654,15.5275,90.1612],[-87.4757,15.5405,75.585]]]]}}