{"type":"Feature","properties":{"GID_2":"HND.15.21_1","GID_0":"HND","country":"Honduras","GID_1":"HND.15_1","province":"Olancho","NL_NAME_1":"NA","county":"SantaMariadelReal","VARNAME_2":"NA","NL_NAME_2":"NA","TYPE_2":"Municipio","ENGTYPE_2":"Municipality","CC_2":"NA","HASC_2":"HN.OL.SM","name":"Santa_Mariadel_Real.county"},
"geometry":{"type": "MultiPolygon","coordinates": [[[[-85.9411,14.9113,1629.8228],[-85.95,14.9142,1621.7665],[-85.9943,14.9368,1400.7111],[-86.0233,14.9245,1575.8655],[-86.047,14.9225,1475.8274],[-86.0224,14.8914,1378.2736],[-86.0009,14.8418,1089.8346],[-85.9802,14.8058,660.5514],[-86.0167,14.7858,947.8566],[-85.9961,14.772,373.9418],[-85.9435,14.7422,314.3437],[-85.9379,14.7369,314.6537],[-85.9397,14.7305,313.1687],[-85.9444,14.7241,316.8875],[-85.9489,14.7244,316.2046],[-85.9576,14.7176,320.0211],[-85.9672,14.7178,318.1071],[-85.9648,14.7108,324.5094],[-85.9654,14.7082,328.7028],[-85.9689,14.7084,319.5151],[-85.974,14.7123,318.3271],[-85.9796,14.7061,330.8491],[-85.9795,14.702,337.366],[-85.9758,14.6947,340.9823],[-85.9748,14.686,369.1266],[-85.9699,14.6795,397.3628],[-85.9656,14.657,448.4558],[-85.9545,14.6359,495.4142],[-85.9391,14.6585,392.3289],[-85.927,14.6708,443.7706],[-85.9238,14.6803,388.9109],[-85.9188,14.6865,382.3],[-85.9153,14.686,370.1339],[-85.918,14.7006,353.9723],[-85.9166,14.7012,355.6869],[-85.9179,14.7044,356.3125],[-85.915,14.7084,357.7685],[-85.9189,14.7121,342.7305],[-85.9195,14.7221,341.5583],[-85.9226,14.7272,330.6861],[-85.9276,14.73,325.7151],[-85.9272,14.7341,324.6018],[-85.9303,14.7405,309.0],[-85.9188,14.7486,312.2507],[-85.9097,14.7488,311.9958],[-85.9058,14.7577,306.909],[-85.9011,14.7594,305.25],[-85.901,14.7611,306.3528],[-85.9157,14.8476,529.4734],[-85.9194,14.8792,701.8939],[-85.9224,14.8861,685.8131],[-85.9395,14.8951,890.5436],[-85.9407,14.8971,970.2468],[-85.9411,14.9113,1629.8228]]]]}}