{"type":"Feature","properties":{"GID_2":"HND.15.8_1","GID_0":"HND","country":"Honduras","GID_1":"HND.15_1","province":"Olancho","NL_NAME_1":"NA","county":"Guarizama","VARNAME_2":"NA","NL_NAME_2":"NA","TYPE_2":"Municipio","ENGTYPE_2":"Municipality","CC_2":"NA","HASC_2":"HN.OL.GR","name":"Guarizama.county"},
"geometry":{"type": "MultiPolygon","coordinates": [[[[-86.3282,14.9806,982.0129],[-86.327,14.9739,960.0352],[-86.3157,14.9601,770.2579],[-86.3136,14.9554,756.6306],[-86.3327,14.9445,1133.4563],[-86.3402,14.9368,1019.51],[-86.3503,14.9195,651.8034],[-86.366,14.9033,720.405],[-86.3659,14.8998,720.5851],[-86.3591,14.894,785.5121],[-86.3703,14.8879,960.4469],[-86.3892,14.8683,603.5928],[-86.3893,14.8649,581.142],[-86.3817,14.8588,580.7513],[-86.3393,14.8349,523.7725],[-86.3218,14.8369,508.9394],[-86.3036,14.8279,492.9291],[-86.2931,14.8189,475.4388],[-86.2853,14.8183,478.0172],[-86.257,14.8232,458.5307],[-86.2491,14.8222,461.1415],[-86.2447,14.8185,463.3842],[-86.2391,14.8193,472.786],[-86.237,14.8217,487.4422],[-86.2385,14.8291,460.6373],[-86.2416,14.8327,465.2426],[-86.2479,14.8353,459.8426],[-86.2537,14.8422,464.7639],[-86.2502,14.8493,490.7696],[-86.2439,14.8539,493.0835],[-86.2394,14.8638,553.2161],[-86.2409,14.882,514.6504],[-86.2435,14.8897,526.3438],[-86.2433,14.8995,546.4904],[-86.2398,14.9008,545.6158],[-86.2331,14.908,560.8562],[-86.2308,14.9147,693.5668],[-86.2293,14.9274,718.1554],[-86.2185,14.9445,825.6263],[-86.2294,14.9485,916.0344],[-86.2728,14.971,1282.5255],[-86.2908,14.972,1255.6355],[-86.3034,14.9762,1013.3228],[-86.3282,14.9806,982.0129]]]]}}