{"type":"Feature","properties":{"GID_2":"HND.16.16_1","GID_0":"HND","country":"Honduras","GID_1":"HND.16_1","province":"SantaBárbara","NL_NAME_1":"NA","county":"Petoa","VARNAME_2":"NA","NL_NAME_2":"NA","TYPE_2":"Municipio","ENGTYPE_2":"Municipality","CC_2":"NA","HASC_2":"HN.SB.PE","name":"Petoa.county"},
"geometry":{"type": "MultiPolygon","coordinates": [[[[-88.1459,15.3672,75.993],[-88.1425,15.3578,89.362799999999993],[-88.1459,15.3542,84.8336],[-88.1479,15.3458,108.3712],[-88.1587,15.3369,103.5367],[-88.1566,15.3279,113.437],[-88.1608,15.3196,120.0756],[-88.1613,15.3103,138.2273],[-88.1648,15.3081,146.1667],[-88.1704,15.3093,137.0572],[-88.1762,15.3069,140.2012],[-88.1768,15.3045,144.1503],[-88.1748,15.3006,157.0577],[-88.1774,15.2983,169.3044],[-88.1794,15.298,169.3044],[-88.1897,15.3036,143.101],[-88.1959,15.3038,229.471],[-88.1977,15.3026,246.1024],[-88.1988,15.2975,297.0266],[-88.2125,15.2987,307.732],[-88.2125,15.2942,353.829],[-88.2157,15.2873,356.457],[-88.2187,15.2845,329.6939],[-88.2291,15.2837,370.4669],[-88.2456,15.2859,243.3706],[-88.2502,15.2818,271.5302],[-88.2533,15.2815,265.6876],[-88.2561,15.284,226.2283],[-88.2559,15.2899,238.5899],[-88.2658,15.2899,179.6695],[-88.2693,15.2881,197.994],[-88.2721,15.2837,270.0013],[-88.2931,15.2845,314.9566],[-88.3005,15.281,373.475],[-88.3122,15.261,524.9264],[-88.3359,15.2271,768.6885],[-88.3288,15.2061,952.5551],[-88.341,15.1899,1225.0474],[-88.3298,15.1615,1527.6147],[-88.3177,15.172,1089.6125],[-88.2772,15.2012,509.4831],[-88.2663,15.189,725.7983],[-88.2493,15.1849,635.4324],[-88.2527,15.1963,994.7245],[-88.2439,15.2011,1031.8717],[-88.2347,15.2095,723.4691],[-88.2,15.2349,689.0428],[-88.1461,15.2377,573.5511],[-88.1207,15.2502,488.316],[-88.1222,15.252,456.4755],[-88.1295,15.3608,113.3043],[-88.1459,15.3672,75.993]]]]}}