{"type": "Feature","bbox": [-88.7478,14.597,-88.5884,14.7205],"geometry": {"type": "MultiPolygon","coordinates": [[[[-88.7282,14.597,2013.921],[-88.7052,14.5973,2111.6453],[-88.7,14.603,1752.517],[-88.6956,14.6218,1173.1516],[-88.6867,14.6248,1276.0178],[-88.672,14.6386,1330.3765],[-88.6632,14.6419,1265.874],[-88.6522,14.6387,1017.8192],[-88.6459,14.642,941.4408],[-88.6426,14.64,920.8201],[-88.6375,14.6399,893.662],[-88.6287,14.6458,800.0095],[-88.6279,14.6492,718.4235],[-88.6235,14.6531,664.2217],[-88.6146,14.6543,655.9191],[-88.6118,14.6574,637.6099],[-88.6116,14.6627,598.8779],[-88.6134,14.6634,598.8779],[-88.6137,14.6671,631.0455],[-88.6184,14.6748,567.7238],[-88.612,14.672,599.7079],[-88.6088,14.6737,541.4178],[-88.608,14.6759,540.7657],[-88.6123,14.6815,631.9768],[-88.6201,14.6824,524.9265],[-88.6212,14.6883,524.3564],[-88.6127,14.6937,553.4208],[-88.6068,14.6943,609.4717],[-88.5959,14.705,728.46],[-88.5884,14.7067,844.3688],[-88.6397,14.7195,534.6324],[-88.6462,14.7182,484.9887],[-88.6509,14.7205,481.6013],[-88.6502,14.7153,488.7558],[-88.646,14.7122,506.98],[-88.6475,14.7066,540.1257],[-88.6466,14.7017,518.7522],[-88.6553,14.6988,546.8854],[-88.6564,14.6968,581.6861],[-88.6592,14.6983,563.5743],[-88.6632,14.6946,666.4335],[-88.664,14.6923,689.176],[-88.6606,14.6801,658.9293],[-88.661,14.6767,673.2507],[-88.6662,14.6733,805.5433],[-88.667,14.6712,813.7867],[-88.6703,14.6712,880.3995],[-88.6755,14.6667,1029.9447],[-88.6914,14.6376,1178.1788],[-88.7066,14.6397,926.8926],[-88.7108,14.6363,989.294],[-88.718,14.6363,1003.1713],[-88.7228,14.6343,902.3433],[-88.7305,14.6377,1099.6515],[-88.7433,14.6322,1255.7517],[-88.7478,14.6286,1214.4529],[-88.7282,14.597,2013.921]]]]}
,"properties": {"GID_2": "HND.13.12_1","GID_0": "HND","country": "Honduras","GID_1": "HND.13_1","province": "Lempira","NL_NAME_1": "NA","county": "LasFlores","VARNAME_2": "NA","NL_NAME_2": "NA","TYPE_2": "Municipio","ENGTYPE_2": "Municipality","CC_2": "NA","HASC_2": "HN.LE.LF","name": "Las_Flores.county","area_km2": 71.62824,"hist_schema_id": "Elevation0-9000","hist_area_km2": {"475": 0.18456,"500": 2.60446,"525": 3.50696,"550": 3.8146,"575": 4.67601,"600": 4.96326,"625": 3.32263,"650": 2.58432,"675": 1.96904,"700": 1.7024,"725": 1.45628,"750": 1.70245,"775": 1.70245,"800": 1.53839,"825": 1.23073,"850": 1.37431,"875": 1.35381,"900": 1.55894,"925": 1.21025,"950": 1.04617,"975": 1.27182,"1000": 1.2103,"1025": 1.06672,"1050": 1.18982,"1075": 1.70268,"1100": 1.51807,"1125": 1.82579,"1150": 1.49757,"1175": 1.57964,"1200": 1.33347,"1225": 1.2309,"1250": 1.08731,"1275": 1.27192,"1300": 1.14883,"1325": 0.73854,"1350": 0.73855,"1375": 0.43083,"1400": 0.55393,"1425": 0.32825,"1450": 0.32826,"1475": 0.26672,"1500": 0.22568,"1525": 0.20517,"1550": 0.20517,"1575": 0.30775,"1600": 0.1231,"1625": 0.28724,"1650": 0.2462,"1675": 0.16413,"1700": 0.2462,"1725": 0.20517,"1750": 0.20517,"1775": 0.22569,"1800": 0.32827,"1825": 0.36931,"1850": 0.36931,"1875": 0.28724,"1900": 0.18465,"1925": 0.18465,"1950": 0.20517,"1975": 0.20517,"2000": 0.22569,"2025": 0.16414,"2050": 0.20517,"2075": 0.04103,"2100": 0.06155,"2125": 0.12311,"2150": 0.12311,"2175": 0.04104,"2200": 0.04104}}}