{"type": "Feature","bbox": [-87.2473,14.8364,-86.9245,15.0201],"geometry": {"type": "MultiPolygon","coordinates": [[[[-87.2338,14.8487,556.896],[-87.2222,14.8519,638.8735],[-87.2199,14.8491,605.0533],[-87.218,14.8525,593.9095],[-87.2164,14.8526,537.335],[-87.2115,14.8468,486.8172],[-87.2078,14.8465,512.2413],[-87.2057,14.8436,546.9355],[-87.2019,14.8444,546.0092],[-87.1999,14.8404,598.5387],[-87.1921,14.8387,768.0823],[-87.1885,14.8364,857.137],[-87.1268,14.8399,733.5677],[-87.102,14.8432,871.7314],[-87.0592,14.8416,1556.7554],[-87.0588,14.8453,1680.8779],[-87.0548,14.8478,1541.5886],[-87.0523,14.8527,1224.9478],[-87.0439,14.8619,965.2035],[-87.034,14.8633,1020.7037],[-87.0274,14.8719,1451.317],[-87.0193,14.875,1363.1782],[-87.0121,14.8757,1379.3204],[-86.9933,14.9142,1392.5259],[-86.9441,14.9089,1377.803],[-86.9323,14.927,1436.2927],[-86.928,14.9267,1423.4146],[-86.9245,14.9301,1434.8363],[-86.9396,14.9388,1245.595],[-86.9537,14.9437,1172.1292],[-86.9544,14.9534,1396.8966],[-86.9574,14.9563,1365.2753],[-86.9659,14.9573,1211.8889],[-86.972,14.9588,1182.5958],[-86.9762,14.962,1139.3333],[-86.9822,14.9616,1307.9175],[-86.9874,14.9637,1346.848],[-86.9913,14.9701,1342.4302],[-86.9929,14.9777,1342.3433],[-87.0077,14.9935,1554.432],[-87.0136,15.0042,1713.4446],[-87.055,15.0132,1859.5498],[-87.0712,15.0101,2159.2676],[-87.0845,15.0111,2191.8091],[-87.0954,15.0053,1915.73],[-87.1083,15.0029,1928.6747],[-87.1145,15.0071,1955.6206],[-87.122,15.0083,1877.5967],[-87.1263,15.013,1822.98],[-87.1362,15.0188,1685.3196],[-87.1476,15.0192,1673.7981],[-87.1555,15.0167,1688.2981],[-87.1626,15.0201,1635.4619],[-87.1645,15.0188,1681.8889],[-87.1654,15.0148,1630.6077],[-87.1677,15.0139,1636.9257],[-87.1777,15.0129,1516.3718],[-87.1845,15.0147,1439.5107],[-87.1919,15.01,1291.1478],[-87.1985,15.0114,1229.4619],[-87.2018,15.0097,1153.7017],[-87.2033,15.0053,1143.733],[-87.2107,15.0016,1232.0282],[-87.2142,14.995,1223.2689],[-87.2145,14.991,1158.8076],[-87.2119,14.9842,902.3098],[-87.214,14.9752,948.2535],[-87.2125,14.9556,937.2852],[-87.218,14.95,770.9607],[-87.2269,14.9477,610.2982],[-87.2363,14.9352,508.8902],[-87.242,14.9334,488.8247],[-87.2469,14.9251,479.2963],[-87.246,14.9178,478.8112],[-87.2379,14.912,453.256],[-87.236,14.9086,477.1644],[-87.2359,14.9052,454.967],[-87.2405,14.9009,431.4908],[-87.2387,14.8952,420.6411],[-87.2243,14.8932,426.5101],[-87.222,14.8915,426.1469],[-87.225,14.8846,462.251],[-87.2195,14.8757,436.6971],[-87.2212,14.8711,471.8139],[-87.2249,14.8688,571.467],[-87.2247,14.8622,584.8065],[-87.2347,14.8619,714.6486],[-87.2406,14.8678,675.9104],[-87.246,14.8647,704.5453],[-87.2473,14.8619,767.803],[-87.2468,14.8589,760.203],[-87.2408,14.8591,715.7786],[-87.2338,14.8487,556.896]]]]}
,"properties": {"GID_2": "HND.8.11_1","GID_0": "HND","country": "Honduras","GID_1": "HND.8_1","province": "FranciscoMorazán","NL_NAME_1": "NA","county": "Marale","VARNAME_2": "NA","NL_NAME_2": "NA","TYPE_2": "Municipio","ENGTYPE_2": "Municipality","CC_2": "NA","HASC_2": "HN.FM.ML","name": "Marale.county","area_km2": 471.6847,"hist_schema_id": "Elevation0-9000","hist_area_km2": {"425": 2.5613,"450": 1.8032,"475": 3.7906,"500": 4.6101,"525": 3.6677,"550": 3.6063,"575": 4.3236,"600": 4.5901,"625": 4.9794,"650": 6.3728,"675": 9.0981,"700": 9.6719,"725": 9.7333,"750": 8.6882,"775": 8.3603,"800": 7.7659,"825": 8.3191,"850": 6.1265,"875": 5.1016,"900": 4.7942,"925": 4.5892,"950": 4.7943,"975": 5.3065,"1000": 5.7777,"1025": 6.5973,"1050": 6.8433,"1075": 6.7819,"1100": 8.523,"1125": 7.9491,"1150": 8.6047,"1175": 8.8912,"1200": 8.5636,"1225": 8.7479,"1250": 8.7682,"1275": 8.8298,"1300": 9.0346,"1325": 9.1779,"1350": 9.0959,"1375": 9.3623,"1400": 10.1816,"1425": 9.5464,"1450": 10.3659,"1475": 9.8946,"1500": 10.1608,"1525": 9.7717,"1550": 9.5257,"1575": 9.9353,"1600": 9.1157,"1625": 7.7638,"1650": 7.7021,"1675": 7.3949,"1700": 6.5548,"1725": 5.9813,"1750": 6.4318,"1775": 5.5509,"1800": 5.7557,"1825": 5.8171,"1850": 5.2025,"1875": 6.1037,"1900": 4.9156,"1925": 4.9566,"1950": 4.9361,"1975": 4.0553,"2000": 4.2601,"2025": 3.5843,"2050": 3.6662,"2075": 2.847,"2100": 2.9903,"2125": 2.8675,"2150": 3.0518,"2175": 2.6012,"2200": 1.4952,"2225": 0.8398,"2250": 0.7169,"2275": 0.6759,"2300": 0.2458,"2325": 0.0205}}}