{"type":"Feature","properties":{"GID_2":"HND.13.23_1","GID_0":"HND","country":"Honduras","GID_1":"HND.13_1","province":"Lempira","NL_NAME_1":"NA","county":"SantaCruz","VARNAME_2":"NA","NL_NAME_2":"NA","TYPE_2":"Municipio","ENGTYPE_2":"Municipality","CC_2":"NA","HASC_2":"HN.LE.SC","name":"Santa_Cruz.county"},
"geometry":{"type": "MultiPolygon","coordinates": [[[[-88.4919,14.4314,1279.4884],[-88.4969,14.4294,1258.3281],[-88.4983,14.4229,1288.6774],[-88.5076,14.4181,1348.6995],[-88.5071,14.4161,1350.9872],[-88.5092,14.4158,1416.1636],[-88.5102,14.4135,1375.402],[-88.515,14.4101,1382.4502],[-88.5184,14.4113,1410.0007],[-88.5202,14.4094,1452.0974],[-88.5299,14.3844,1809.7324],[-88.5289,14.3697,1699.6959],[-88.5308,14.3685,1642.2371],[-88.5389,14.3702,1684.9595],[-88.5419,14.3691,1741.7134],[-88.5576,14.3518,1535.0925],[-88.5569,14.3484,1413.8916],[-88.5648,14.3503,1357.5923],[-88.5712,14.3462,1297.5134],[-88.5806,14.3449,999.1765],[-88.5891,14.3396,1022.3408],[-88.5944,14.339,1033.7059],[-88.599,14.3354,1080.3308],[-88.6034,14.3376,986.9141],[-88.6153,14.3312,932.1734],[-88.6205,14.332,892.642],[-88.6335,14.3292,966.8923],[-88.6342,14.3246,1050.4473],[-88.6381,14.3214,950.3862],[-88.6342,14.3207,1048.0696],[-88.6326,14.3188,1093.8289],[-88.629,14.3212,1013.6774],[-88.624,14.3203,932.3278],[-88.622,14.3108,922.8116],[-88.6131,14.3075,916.7155],[-88.6141,14.3036,941.5954],[-88.6116,14.3018,952.2437],[-88.6125,14.2999,959.2145],[-88.6112,14.2953,1023.339],[-88.6127,14.2937,959.9526],[-88.6015,14.293,1121.8735],[-88.5981,14.2941,1065.3547],[-88.5922,14.2904,1193.9016],[-88.5833,14.2896,1130.2463],[-88.5749,14.2845,1074.4697],[-88.5724,14.28,1066.8121],[-88.5645,14.2796,1169.948],[-88.562,14.2754,1235.4946],[-88.5626,14.2733,1194.2787],[-88.5588,14.27,1181.4734],[-88.5405,14.2826,1500.8424],[-88.5277,14.2796,1648.1523],[-88.5184,14.2816,1677.9293],[-88.5112,14.2862,1764.5229],[-88.5081,14.2865,1789.2068],[-88.5062,14.286,1793.627],[-88.5031,14.2813,1825.4436],[-88.497,14.2828,1698.4978],[-88.4784,14.3275,1469.5948],[-88.4734,14.3287,1507.364],[-88.4694,14.3336,1505.1321],[-88.4641,14.3352,1455.3961],[-88.4625,14.3386,1453.2828],[-88.4574,14.339,1466.5607],[-88.4545,14.3427,1426.1931],[-88.4476,14.3439,1373.5176],[-88.4441,14.349,1351.1698],[-88.4495,14.3498,1384.7823],[-88.481,14.3746,1519.9578],[-88.4871,14.3804,1526.4097],[-88.4939,14.3909,1441.3054],[-88.4943,14.3925,1429.0397],[-88.4913,14.3934,1436.2224],[-88.4897,14.3967,1374.2144],[-88.4949,14.4211,1302.5455],[-88.4919,14.4314,1279.4884]]]]}}