{"type": "Feature","id": "641","bbox": [-86.9974,16.06639,-83.89704,17.41865],"geometry": {"type": "MultiPolygon","coordinates": [[[[-86.88117,16.10456,7.3413],[-86.87255,16.121,0.0],[-86.87873,16.12726,0.0],[-86.89053,16.12783,0.0],[-86.90392,16.12417,0.0],[-86.91837,16.12206,0.0],[-86.94425,16.11651,0.0],[-86.98874,16.09547,0.0],[-86.9974,16.08396,0.0],[-86.97894,16.07779,0.542],[-86.96372,16.06639,0.0],[-86.94017,16.07949,2.7953],[-86.9132,16.09016,0.0],[-86.89757,16.09382,0.0],[-86.87873,16.09317,0.0],[-86.88117,16.10456,7.3413]]],
[[[-86.20221,16.42247,0.0],[-86.18175,16.42823,0.0],[-86.23108,16.42884,0.0],[-86.26235,16.43058,0.0],[-86.30205,16.4329,0.0],[-86.33213,16.42945,0.0],[-86.37544,16.41733,0.0],[-86.44039,16.39655,0.0],[-86.5,16.36891,0.0],[-86.53068,16.35618,0.0],[-86.57045,16.33244,0.0],[-86.59933,16.3093,0.0],[-86.60654,16.28503,0.0],[-86.6005,16.26945,29.6674],[-86.58065,16.28277,5.1282],[-86.5638,16.29839,0.4268],[-86.54815,16.31285,0.0],[-86.52527,16.31521,0.9908],[-86.49102,16.32549,29.0359],[-86.45307,16.35151,1.0236],[-86.41696,16.36423,13.3217],[-86.38025,16.38156,2.1074],[-86.36221,16.39425,33.464],[-86.34777,16.39753,54.3992],[-86.33886,16.39785,0.0],[-86.33267,16.40046,48.3429],[-86.31892,16.40933,141.455],[-86.31212,16.4125,179.447],[-86.29434,16.41527,3.6219],[-86.27319,16.41097,0.0],[-86.24311,16.41788,0.0],[-86.22387,16.4121,30.2447],[-86.20221,16.42247,0.0]]],
[[[-86.14463,16.44723,0.0],[-86.15034,16.44542,0.0],[-86.16684,16.43572,0.0],[-86.16685,16.43086,8.2708],[-86.16113,16.43206,10.838],[-86.15479,16.43388,9.4297],[-86.14844,16.43448,0.0],[-86.14274,16.43265,11.5048],[-86.13703,16.43143,0.0],[-86.12815,16.43749,6.2257],[-86.12435,16.44478,60.3855],[-86.12941,16.446,0.0],[-86.13766,16.44419,14.2174],[-86.14463,16.44723,0.0]]],
[[[-85.8957,16.4365,0.0],[-85.88236,16.45105,0.0],[-85.86272,16.45222,10.4853],[-85.84937,16.46921,11.4767],[-85.84425,16.48378,0.9704],[-85.82206,16.48616,0.0],[-85.81695,16.49831,16.3161],[-85.83213,16.5105,0.0],[-85.85113,16.51722,0.0],[-85.88414,16.50283,3.0545],[-85.89557,16.48874,0.0],[-85.91147,16.46204,5.4725],[-85.92669,16.45478,9.0948],[-85.94068,16.4299,0.0],[-85.95085,16.41231,0.0],[-85.94707,16.40319,0.8897],[-85.8957,16.4365,0.0]]],
[[[-83.89704,17.40998,4.4389],[-83.90437,17.41014,18.9433],[-83.90437,17.40502,0.0],[-83.89749,17.40335,0.0],[-83.89704,17.40998,4.4389]]],
[[[-83.91234,17.41112,0.0],[-83.91893,17.41405,0.0],[-83.92614,17.41633,0.4836],[-83.93358,17.41787,0.0],[-83.94115,17.41865,0.0],[-83.93688,17.41254,0.0],[-83.93033,17.40941,12.4036],[-83.92195,17.40908,12.841],[-83.91234,17.41112,0.0]]]]}
,"properties": {"ISO3166-1-Alpha-3": "HND","country": "Honduras","fill": "#F0F","name": "Islas de la Bahía","area_km2": 263.5375,"hist_schema_id": "Elevation0-9000","hist_area_km2": {"0": 128.6831,"25": 48.9014,"50": 30.6538,"75": 19.7918,"100": 11.248,"125": 6.5894,"150": 4.6164,"175": 3.4161,"200": 2.8466,"225": 1.9315,"250": 1.4639,"275": 1.2402,"300": 0.9963,"325": 0.6099,"350": 0.366,"375": 0.122,"400": 0.061}}}