{"type": "Feature","bbox": [-87.0001,15.9521,-85.8157,16.5165],"geometry": {"type": "MultiPolygon","coordinates": [[[[-86.4979,15.964,1.6958],[-86.4999,15.9663,0.0],[-86.4999,15.9618,41.653],[-86.5038,15.9576,29.4642],[-86.5071,15.9588,0.0],[-86.5076,15.956,0.0],[-86.5013,15.9521,14.205],[-86.4982,15.9521,0.8649],[-86.4957,15.9571,0.0],[-86.4979,15.964,1.6958]]],
[[[-86.4721,15.9613,0.0],[-86.4726,15.9596,0.0],[-86.4707,15.9601,0.0],[-86.4707,15.9624,0.0],[-86.4721,15.9613,0.0]]],
[[[-86.476,15.981,2.642],[-86.4774,15.9818,2.642],[-86.4785,15.9779,36.0849],[-86.484,15.9776,0.0],[-86.4863,15.9749,0.0],[-86.479,15.9735,25.2083],[-86.4801,15.9674,0.0],[-86.4754,15.9637,0.0],[-86.4724,15.9668,8.1481],[-86.4726,15.9701,42.9449],[-86.4685,15.9765,0.0],[-86.4701,15.9793,24.7341],[-86.476,15.981,2.642]]],
[[[-87.0001,15.9999,0.0],[-86.9999,15.9999,0.0],[-86.9999,16.0001,0.0],[-87.0001,16.0001,0.0],[-87.0001,15.9999,0.0]]],
[[[-86.9638,16.0635,0.0],[-86.9638,16.0649,0.572],[-86.9662,16.0649,0.4421],[-86.9687,16.0629,0.7046],[-86.966,16.0626,0.0],[-86.9638,16.0635,0.0]]],
[[[-86.884,16.1232,2.8145],[-86.8979,16.1232,1.2171],[-86.9051,16.1204,0.7817],[-86.9043,16.1168,1.1614],[-86.9071,16.1196,0.1937],[-86.9071,16.1174,0.3442],[-86.911,16.1151,4.8768],[-86.9232,16.1174,0.0],[-86.926,16.1193,0.0],[-86.926,16.1213,0.0],[-86.9287,16.1221,0.0],[-86.9365,16.1213,1.6062],[-86.9393,16.1188,0.0],[-86.9393,16.1168,2.4937],[-86.944,16.116,0.0],[-86.9418,16.1151,2.5196],[-86.9413,16.1124,1.6357],[-86.944,16.1079,3.5233],[-86.9538,16.1054,0.3639],[-86.9571,16.1093,0.0],[-86.9654,16.1049,0.5619],[-86.9707,16.1049,0.0],[-86.9718,16.1007,0.0],[-86.9779,16.1018,1.0146],[-86.9807,16.1007,0.0],[-86.9896,16.0921,0.0],[-86.9887,16.0851,0.0],[-86.9899,16.0815,0.4896],[-86.9707,16.0762,0.7742],[-86.9668,16.0699,0.0],[-86.9557,16.069,3.9569],[-86.9421,16.0765,0.0],[-86.9349,16.0768,0.0],[-86.9307,16.0801,1.3932],[-86.919,16.0829,1.1201],[-86.9149,16.0876,0.2574],[-86.9207,16.0871,-0.0096],[-86.9193,16.0901,0.0369],[-86.9104,16.0932,0.0],[-86.9099,16.0912,0.0],[-86.9126,16.0896,0.0],[-86.9112,16.089,0.8517],[-86.9046,16.0946,0.0094],[-86.9104,16.0954,0.054],[-86.9115,16.0946,0.054],[-86.9124,16.0965,0.321],[-86.896,16.0968,0.0],[-86.8921,16.0924,0.0],[-86.8932,16.0876,1.3669],[-86.8887,16.0871,0.1182],[-86.8818,16.0921,0.0],[-86.8829,16.094,0.4107],[-86.881,16.0951,0.0],[-86.8829,16.0971,0.0],[-86.8829,16.1007,0.0],[-86.8743,16.1079,0.8243],[-86.8724,16.1121,0.0],[-86.8724,16.1174,0.0],[-86.8743,16.1199,1.3103],[-86.884,16.1232,2.8145]]],
[[[-86.536,16.3101,0.0],[-86.5357,16.3124,0.0],[-86.5371,16.3126,0.0],[-86.5379,16.3093,1.9932],[-86.536,16.3101,0.0]]],
[[[-86.5026,16.3204,0.4697],[-86.5049,16.3213,0.233],[-86.5057,16.3201,0.0],[-86.5032,16.319,0.4697],[-86.5026,16.3204,0.4697]]],
[[[-86.4754,16.3354,0.1558],[-86.4785,16.3346,0.5152],[-86.4751,16.3335,0.0],[-86.4743,16.3349,0.1558],[-86.4754,16.3354,0.1558]]],
[[[-86.3646,16.3915,1.0899],[-86.3626,16.3868,0.0],[-86.3596,16.3879,2.2264],[-86.3571,16.3865,0.0],[-86.3538,16.3893,0.0],[-86.3535,16.3968,0.2214],[-86.3524,16.3963,0.2214],[-86.3532,16.3921,6.2569],[-86.3507,16.3899,0.0],[-86.3432,16.3921,0.4349],[-86.3421,16.3954,3.5103],[-86.3407,16.3951,0.2387],[-86.341,16.3932,0.0],[-86.3374,16.3918,0.0],[-86.3371,16.3937,0.0],[-86.3401,16.3976,14.4196],[-86.3396,16.4018,3.8876],[-86.3412,16.4035,5.1834],[-86.3376,16.409,6.7753],[-86.3371,16.4068,32.4937],[-86.3385,16.4024,0.0],[-86.3357,16.3971,1.0984],[-86.3365,16.394,0.9006],[-86.3285,16.3924,7.6592],[-86.3201,16.3946,0.0],[-86.3185,16.4026,1.2729],[-86.3165,16.4043,10.5073],[-86.3026,16.4051,0.0],[-86.3012,16.4071,29.4983],[-86.299,16.4071,21.6751],[-86.2982,16.4126,2.4944],[-86.2954,16.4149,6.4738],[-86.2801,16.4129,15.3754],[-86.2726,16.4082,0.0],[-86.2718,16.409,0.0],[-86.274,16.4112,11.0904],[-86.271,16.414,0.0],[-86.2707,16.4179,6.7294],[-86.2679,16.4199,16.8304],[-86.2607,16.4171,0.4969],[-86.2643,16.4135,0.0],[-86.2629,16.4118,0.0],[-86.2582,16.4168,0.0],[-86.2385,16.4207,4.7696],[-86.2293,16.4171,5.5958],[-86.226,16.4085,0.0],[-86.2154,16.4143,0.0],[-86.2124,16.4188,15.9513],[-86.2082,16.4188,7.9328],[-86.2035,16.424,1.978],[-86.1957,16.424,3.8391],[-86.1913,16.4215,0.0],[-86.1899,16.4232,3.442],[-86.1929,16.4279,0.9059],[-86.1965,16.4285,2.6857],[-86.1974,16.4301,0.0],[-86.2146,16.4262,5.8303],[-86.2176,16.4271,0.0],[-86.2224,16.4246,9.6276],[-86.2307,16.4276,0.0],[-86.2412,16.4282,3.7389],[-86.2599,16.4254,7.2724],[-86.266,16.4268,7.9285],[-86.271,16.431,0.0],[-86.2737,16.4301,45.2013],[-86.2768,16.4315,4.6825],[-86.2904,16.4287,43.2506],[-86.306,16.4293,1.4644],[-86.3087,16.4262,44.2784],[-86.3157,16.4299,0.0],[-86.316,16.4262,1.4999],[-86.3285,16.424,0.0],[-86.3337,16.4215,2.0753],[-86.3412,16.4221,0.0],[-86.3474,16.4171,7.0245],[-86.3493,16.4171,0.5947],[-86.3526,16.421,0.0],[-86.3562,16.4174,6.7615],[-86.3699,16.4149,13.198],[-86.3812,16.4082,10.8435],[-86.3887,16.4074,0.0],[-86.394,16.4018,4.6118],[-86.3982,16.4024,0.0],[-86.3974,16.4054,0.0],[-86.3985,16.4054,3.1743],[-86.4007,16.4026,0.5362],[-86.4065,16.3999,0.2506],[-86.4046,16.3993,2.7139],[-86.4057,16.3963,2.6287],[-86.4157,16.3943,5.1494],[-86.4201,16.3893,8.8115],[-86.4218,16.3907,0.0],[-86.4271,16.3901,0.0],[-86.4313,16.3843,0.3188],[-86.4371,16.3829,0.0],[-86.4376,16.3799,2.572],[-86.4401,16.3782,8.2675],[-86.4532,16.3754,5.9141],[-86.4546,16.3776,1.0111],[-86.4604,16.379,0.0],[-86.4854,16.3649,13.1128],[-86.4921,16.3671,0.0],[-86.4954,16.3665,2.7642],[-86.4962,16.3618,8.2709],[-86.5013,16.3582,5.2804],[-86.5035,16.3587,3.2365],[-86.5124,16.3535,3.9645],[-86.5154,16.3554,1.5721],[-86.5126,16.3599,0.0],[-86.5185,16.3565,1.5368],[-86.5176,16.3551,0.9269],[-86.5204,16.3496,5.5283],[-86.5221,16.3499,1.0098],[-86.524,16.356,0.0],[-86.5304,16.3496,11.8828],[-86.5376,16.3493,0.5991],[-86.5385,16.346,2.055],[-86.5457,16.3457,0.0],[-86.5612,16.3365,1.5321],[-86.5701,16.3285,13.4548],[-86.5732,16.3293,1.0451],[-86.5718,16.3265,18.9826],[-86.5743,16.3263,3.0854],[-86.5765,16.3229,0.0],[-86.5843,16.3185,6.6602],[-86.5821,16.3163,6.2919],[-86.5837,16.3137,9.3889],[-86.5868,16.3176,0.0],[-86.5871,16.3154,4.4132],[-86.5893,16.3157,0.0],[-86.591,16.314,0.0],[-86.5896,16.3074,2.3845],[-86.5921,16.3118,0.0],[-86.5951,16.3093,0.0],[-86.5926,16.3074,7.2909],[-86.5935,16.3054,2.787],[-86.5954,16.3057,0.0],[-86.594,16.3037,0.6391],[-86.5943,16.296,2.8076],[-86.5965,16.2865,9.3318],[-86.6004,16.2801,2.0452],[-86.5993,16.2738,1.5489],[-86.6026,16.269,0.0],[-86.6024,16.2671,0.7999],[-86.5987,16.2671,0.0],[-86.5801,16.2818,0.0],[-86.5796,16.2846,0.0],[-86.581,16.2854,1.5154],[-86.5768,16.2854,0.0],[-86.5701,16.2915,0.0],[-86.5704,16.2935,2.2675],[-86.5646,16.296,0.0],[-86.5549,16.306,0.0],[-86.5549,16.3085,0.3093],[-86.5512,16.3132,5.7248],[-86.5462,16.3146,2.2496],[-86.5449,16.3124,1.2702],[-86.5437,16.3143,5.3008],[-86.5404,16.3151,0.2064],[-86.5401,16.3135,0.0],[-86.5382,16.3132,0.0],[-86.5315,16.314,5.4596],[-86.5312,16.3121,0.5142],[-86.5126,16.3196,0.0],[-86.5121,16.3218,1.2808],[-86.5104,16.3204,0.0],[-86.5068,16.321,1.4431],[-86.5062,16.3235,1.6462],[-86.501,16.3246,2.2106],[-86.5007,16.3279,1.9362],[-86.4974,16.3304,0.2211],[-86.4965,16.3218,0.0],[-86.4929,16.3201,0.0],[-86.4949,16.3235,0.5436],[-86.4929,16.3218,0.0],[-86.4851,16.3238,0.0],[-86.4843,16.3296,5.4804],[-86.4818,16.3304,0.0],[-86.4829,16.3329,0.2211],[-86.4863,16.3335,1.1355],[-86.4857,16.3357,2.8764],[-86.4799,16.3363,0.3692],[-86.4762,16.3388,6.0578],[-86.4746,16.3368,0.0],[-86.4749,16.3399,1.3063],[-86.4685,16.3435,0.0],[-86.4601,16.3515,1.0997],[-86.4596,16.351,1.0997],[-86.461,16.3485,1.6503],[-86.4599,16.3474,1.6503],[-86.4565,16.3499,0.7418],[-86.4526,16.3501,0.0],[-86.4529,16.3543,0.0],[-86.4496,16.3538,4.8228],[-86.4404,16.3568,0.0],[-86.4404,16.3593,0.7323],[-86.4351,16.3615,0.5684],[-86.4349,16.3629,7.1271],[-86.4315,16.3626,4.1708],[-86.4332,16.3599,0.997],[-86.4324,16.3585,0.0],[-86.4199,16.3596,0.0],[-86.419,16.3693,1.806],[-86.4165,16.3657,11.4597],[-86.4187,16.3624,0.0],[-86.4182,16.3604,0.0],[-86.4135,16.361,0.0],[-86.4112,16.3643,0.0],[-86.4129,16.3682,7.7395],[-86.4107,16.3693,3.9728],[-86.4096,16.3657,2.0969],[-86.4037,16.366,1.7269],[-86.3999,16.3668,0.0],[-86.3996,16.3685,4.2354],[-86.4026,16.3699,6.8729],[-86.3987,16.371,15.0371],[-86.3943,16.3662,0.0],[-86.3921,16.3662,0.6571],[-86.3854,16.3757,4.1866],[-86.3885,16.3813,0.0],[-86.3876,16.3843,1.127],[-86.3854,16.3846,1.069],[-86.381,16.3782,0.2126],[-86.3799,16.381,2.1074],[-86.3749,16.3824,4.6236],[-86.3796,16.3915,5.6755],[-86.3768,16.3896,1.5713],[-86.3768,16.3926,14.102],[-86.3757,16.3924,14.102],[-86.3737,16.3901,0.0],[-86.3732,16.3838,0.0],[-86.3715,16.3832,0.4158],[-86.371,16.3868,1.1338],[-86.3693,16.3863,0.0],[-86.3665,16.3882,0.0],[-86.3662,16.3951,4.6782],[-86.3646,16.3915,1.0899]]],
[[[-86.4679,16.3412,0.5192],[-86.469,16.3426,0.0],[-86.4721,16.3393,0.0],[-86.4696,16.339,1.5163],[-86.4679,16.3412,0.5192]]],
[[[-86.4618,16.3476,0.4257],[-86.4624,16.3487,0.4257],[-86.4638,16.3479,1.068],[-86.4635,16.3457,0.0],[-86.4615,16.3465,0.8409],[-86.4618,16.3476,0.4257]]],
[[[-86.4424,16.3515,0.0],[-86.4426,16.3529,0.0],[-86.4457,16.3521,0.0],[-86.4451,16.3504,0.0],[-86.4424,16.3515,0.0]]],
[[[-86.439,16.3582,2.1296],[-86.4371,16.3574,8.7576],[-86.4357,16.3596,3.4578],[-86.4376,16.3593,3.5254],[-86.439,16.3582,2.1296]]],
[[[-86.2868,16.4051,1.4336],[-86.2885,16.4057,0.164],[-86.2896,16.4037,0.0],[-86.2868,16.404,1.4336],[-86.2849,16.4015,0.4537],[-86.281,16.4029,0.6286],[-86.2821,16.4046,0.4854],[-86.2846,16.4035,2.6319],[-86.2868,16.4051,1.4336]]],
[[[-86.2032,16.4163,1.2538],[-86.2068,16.4165,0.0],[-86.2068,16.4135,0.0],[-86.2051,16.4118,0.0],[-86.2018,16.4132,0.8106],[-86.2032,16.4163,1.2538]]],
[[[-85.8815,16.4074,0.0],[-85.8829,16.4088,0.0],[-85.8865,16.404,0.0],[-85.8843,16.404,1.8785],[-85.8815,16.4074,0.0]]],
[[[-86.184,16.4354,38.7136],[-86.1865,16.4363,6.8948],[-86.1913,16.4332,1.5714],[-86.1907,16.4274,1.2041],[-86.1885,16.4287,0.0],[-86.1843,16.4276,2.2071],[-86.184,16.4354,38.7136]]],
[[[-86.1413,16.4471,0.0],[-86.1454,16.4474,0.0],[-86.1465,16.4449,12.2278],[-86.1576,16.4429,0.0],[-86.1668,16.4351,12.2391],[-86.1679,16.429,0.3713],[-86.1654,16.4279,0.4536],[-86.1557,16.4346,9.4297],[-86.1504,16.4357,13.2876],[-86.1465,16.4351,0.0],[-86.141,16.4299,0.0],[-86.1257,16.4396,0.0],[-86.1224,16.444,26.114],[-86.1226,16.446,0.9689],[-86.1263,16.4463,1.6703],[-86.139,16.4446,20.8627],[-86.1399,16.4471,0.0],[-86.1413,16.4471,0.0]]],
[[[-85.8857,16.441,2.1768],[-85.8863,16.4435,1.449],[-85.8901,16.4429,0.0],[-85.8874,16.4396,0.0],[-85.8857,16.441,2.1768]]],
[[[-85.8474,16.4421,0.0],[-85.8482,16.4438,0.0],[-85.8512,16.4401,0.0],[-85.8501,16.4399,0.0],[-85.8474,16.4421,0.0]]],
[[[-85.8288,16.459,0.0],[-85.8301,16.4601,0.0],[-85.8326,16.459,0.0],[-85.8307,16.4574,0.0],[-85.8365,16.4501,0.0],[-85.8379,16.4504,0.0],[-85.8374,16.4488,0.0],[-85.8274,16.4588,0.0],[-85.8288,16.459,0.0]]],
[[[-85.8549,16.516,0.0],[-85.8593,16.5165,0.0],[-85.8649,16.5101,0.0],[-85.8674,16.5096,0.0],[-85.8657,16.5076,0.0],[-85.8657,16.5029,0.0],[-85.8685,16.4993,2.6832],[-85.8718,16.5024,0.0],[-85.8779,16.5046,0.4559],[-85.8849,16.5029,3.0545],[-85.8907,16.4979,4.4219],[-85.8929,16.491,2.1986],[-85.9001,16.4818,10.8699],[-85.9074,16.4815,0.1515],[-85.9057,16.4801,2.461],[-85.9057,16.476,1.503],[-85.9143,16.4682,0.0],[-85.9151,16.4654,17.8075],[-85.9143,16.4551,2.0564],[-85.9154,16.4521,1.9972],[-85.9176,16.4512,2.5292],[-85.9235,16.4554,8.0723],[-85.931,16.4538,0.0],[-85.9304,16.4512,3.8939],[-85.9326,16.4499,1.6912],[-85.9321,16.4463,29.5283],[-85.939,16.4354,0.0],[-85.9365,16.4346,3.3592],[-85.9365,16.431,0.0],[-85.946,16.4174,0.0],[-85.9512,16.4021,7.385],[-85.944,16.4037,0.0],[-85.9368,16.4099,2.1044],[-85.9335,16.4104,0.0],[-85.9329,16.414,5.381],[-85.9274,16.4196,19.8594],[-85.9207,16.4207,10.0161],[-85.9179,16.4257,0.0],[-85.9135,16.4293,5.0143],[-85.9049,16.4326,0.6163],[-85.8974,16.4379,1.179],[-85.8974,16.4396,1.7458],[-85.9024,16.4407,1.7034],[-85.9035,16.4424,1.3566],[-85.899,16.4415,0.0],[-85.894,16.4429,0.0],[-85.8893,16.4493,13.4851],[-85.8857,16.4499,0.0],[-85.884,16.4521,14.1009],[-85.8726,16.4576,3.11],[-85.8688,16.4568,0.0],[-85.8651,16.4538,0.2097],[-85.8665,16.4521,2.2752],[-85.8607,16.4524,8.8044],[-85.8474,16.4685,0.0],[-85.8501,16.4718,9.9957],[-85.8485,16.4804,1.674],[-85.8526,16.486,2.9558],[-85.8465,16.4837,0.0],[-85.8404,16.484,2.0126],[-85.8374,16.4863,0.5121],[-85.8315,16.4854,0.0],[-85.8254,16.4901,8.5231],[-85.8182,16.4926,0.0],[-85.8157,16.4993,2.5699],[-85.8179,16.5015,9.1151],[-85.8204,16.5007,3.8387],[-85.8224,16.5024,11.9454],[-85.8224,16.509,0.0],[-85.8249,16.509,0.0],[-85.831,16.5032,6.5677],[-85.8376,16.506,0.0],[-85.8418,16.5051,4.2577],[-85.8424,16.5068,0.234],[-85.8476,16.5057,0.0],[-85.846,16.5088,0.7164],[-85.8412,16.5099,0.803],[-85.8418,16.5138,0.0],[-85.8449,16.516,0.0],[-85.8496,16.5163,0.0],[-85.851,16.5149,0.0],[-85.8521,16.5165,0.0],[-85.8549,16.516,0.0]]],
[[[-85.8249,16.4679,0.0],[-85.8265,16.469,0.0],[-85.8279,16.4671,0.0],[-85.8257,16.4671,0.5038],[-85.8249,16.4679,0.0]]]]}
,"properties": {"GID_1": "HND.11_1","GID_0": "HND","country": "Honduras","province": "IslasdelaBahía","VARNAME_1": "IslasdeBahia","NL_NAME_1": "NA","TYPE_1": "Departamento","ENGTYPE_1": "Department","CC_1": "NA","HASC_1": "HN.IB","ISO_1": "NA","name": "Islasdela_Bahía.province","area_km2": 232.3068,"hist_schema_id": "Elevation0-9000","hist_area_km2": {"0": 87.501,"25": 52.6257,"50": 33.3401,"75": 21.4199,"100": 12.1639,"125": 7.1998,"150": 4.9215,"175": 3.4772,"200": 2.8669,"225": 1.9315,"250": 1.4639,"275": 1.2402,"300": 0.9963,"325": 0.6099,"350": 0.366,"375": 0.122,"400": 0.061}}}