{"type":"Feature","properties":{"GID_2":"HND.7.14_1","GID_0":"HND","country":"Honduras","GID_1":"HND.7_1","province":"ElParaíso","NL_NAME_1":"NA","county":"Teupasenti","VARNAME_2":"NA","NL_NAME_2":"NA","TYPE_2":"Municipio","ENGTYPE_2":"Municipality","CC_2":"NA","HASC_2":"HN.EP.TP","name":"Teupasenti.county"},
"geometry":{"type": "MultiPolygon","coordinates": [[[[-86.4584,14.2937,722.0956],[-86.4621,14.3065,878.2892],[-86.4742,14.3158,959.9642],[-86.4786,14.3246,1061.2627],[-86.4934,14.3245,933.1188],[-86.5156,14.3279,906.0748],[-86.5185,14.3308,949.6513],[-86.5234,14.3444,801.3176],[-86.5266,14.3463,843.2783],[-86.5291,14.3447,797.568],[-86.5367,14.3552,950.3245],[-86.6114,14.3714,1170.7312],[-86.6152,14.3706,1183.4883],[-86.6224,14.3635,1225.8857],[-86.6278,14.3718,1166.4224],[-86.6285,14.3824,1108.8787],[-86.6399,14.3904,1171.5892],[-86.6417,14.3955,1169.2793],[-86.6443,14.3977,1151.6345],[-86.6469,14.3981,1170.7842],[-86.6491,14.3955,1222.4814],[-86.6552,14.3959,1222.8069],[-86.6589,14.399,1261.2715],[-86.6625,14.3991,1237.5326],[-86.6675,14.3894,1054.2123],[-86.6711,14.3886,1110.6565],[-86.6801,14.3917,1065.2036],[-86.6846,14.3993,1000.7686],[-86.6921,14.4001,1043.36],[-86.7271,14.4119,906.9198],[-86.7818,14.3713,738.7512],[-86.8423,14.3214,1991.0834],[-86.8384,14.2853,1402.7961],[-86.8402,14.2818,1607.4926],[-86.8175,14.281,1160.3486],[-86.819,14.2621,1576.8574],[-86.824,14.2521,1266.588],[-86.8272,14.2387,1077.47],[-86.8299,14.2355,917.9949],[-86.829,14.2259,804.6858],[-86.8337,14.2219,854.6276],[-86.8318,14.2133,860.7014],[-86.8268,14.2072,1016.2336],[-86.7833,14.1943,850.689],[-86.7848,14.1889,873.5571],[-86.7912,14.1843,988.7914],[-86.7979,14.1733,1220.8662],[-86.7975,14.1686,1259.908],[-86.7864,14.162,1132.4556],[-86.7799,14.1603,1360.6331],[-86.7766,14.1435,1278.1067],[-86.7336,14.1289,1175.2391],[-86.7041,14.1376,1230.4741],[-86.6956,14.1538,1065.4552],[-86.6926,14.1566,976.8377],[-86.6871,14.1693,867.4567],[-86.6848,14.1812,890.6737],[-86.6417,14.2075,785.9417],[-86.642,14.2172,635.5498],[-86.6403,14.226,641.7061],[-86.6378,14.2285,656.7882],[-86.6271,14.2319,642.0134],[-86.6289,14.2366,565.8754],[-86.628,14.239,546.4929],[-86.6162,14.2373,559.1664],[-86.6112,14.2429,551.4128],[-86.6084,14.2406,548.564],[-86.6052,14.2407,552.8312],[-86.604,14.2453,537.9089],[-86.6006,14.2432,551.5837],[-86.5964,14.2465,540.9244],[-86.5915,14.245,547.2531],[-86.5861,14.2503,532.1786],[-86.5855,14.2554,526.6564],[-86.5821,14.256,523.6499],[-86.5789,14.254,525.5347],[-86.5768,14.2643,608.6161],[-86.5747,14.2665,628.1411],[-86.5701,14.2674,549.1899],[-86.5707,14.2723,594.337],[-86.5654,14.2713,519.9006],[-86.5595,14.2754,529.3833],[-86.5589,14.2724,526.4918],[-86.5541,14.2725,619.7863],[-86.5512,14.275,605.652],[-86.552,14.2794,513.641],[-86.5481,14.2777,525.6008],[-86.5435,14.2787,567.071],[-86.5412,14.2816,517.6756],[-86.5436,14.2851,514.6169],[-86.5394,14.2847,510.5984],[-86.5379,14.288,513.7479],[-86.5349,14.2868,509.9087],[-86.5364,14.2832,516.468],[-86.5306,14.283,545.7688],[-86.5288,14.2868,583.2117],[-86.5237,14.288,549.316],[-86.5211,14.2965,510.207],[-86.5048,14.2908,607.5141],[-86.499,14.2922,844.3415],[-86.4713,14.2894,805.3629],[-86.4584,14.2937,722.0956]]]]}}