{"type": "Feature","bbox": [-88.4807,14.7359,-88.3563,14.841],"geometry": {"type": "MultiPolygon","coordinates": [[[[-88.4205,14.7496,929.9167],[-88.4169,14.7451,911.9797],[-88.4145,14.7458,794.3025],[-88.4053,14.7383,739.0957],[-88.3975,14.7359,807.2764],[-88.3908,14.7496,635.9348],[-88.386,14.752,635.062],[-88.3838,14.7514,645.5895],[-88.379,14.7564,770.0639],[-88.3645,14.7819,919.7739],[-88.3563,14.8063,1071.9568],[-88.3686,14.8159,1476.5267],[-88.3726,14.821,1484.2207],[-88.3893,14.8224,1271.4392],[-88.3973,14.8181,1126.3699],[-88.4044,14.819,1120.5441],[-88.4121,14.8324,1536.4248],[-88.4149,14.8323,1532.2214],[-88.418,14.8358,1527.4355],[-88.4372,14.841,1428.129],[-88.4494,14.8348,1355.8857],[-88.4641,14.8007,1398.1154],[-88.4807,14.7946,1318.8162],[-88.4794,14.789,1410.4993],[-88.4622,14.7793,1263.5142],[-88.4565,14.761,916.2239],[-88.4504,14.7613,780.5906],[-88.4436,14.7584,759.6166],[-88.44,14.7502,830.9837],[-88.4363,14.7481,876.1332],[-88.4309,14.7473,849.504],[-88.4246,14.75,910.3121],[-88.4205,14.7496,929.9167]]]]}
,"properties": {"GID_2": "HND.13.10_1","GID_0": "HND","country": "Honduras","GID_1": "HND.13_1","province": "Lempira","NL_NAME_1": "NA","county": "LaUnión","VARNAME_2": "NA","NL_NAME_2": "NA","TYPE_2": "Municipio","ENGTYPE_2": "Municipality","CC_2": "NA","HASC_2": "HN.CP.LU","name": "La_Unión.county","area_km2": 90.7728,"hist_schema_id": "Elevation0-9000","hist_area_km2": {"625": 0.45108,"650": 0.45108,"675": 0.69712,"700": 1.49671,"725": 2.15278,"750": 2.33729,"775": 2.25524,"800": 2.52178,"825": 2.50126,"850": 2.41924,"875": 2.09117,"900": 2.60363,"925": 2.37804,"950": 2.39851,"975": 3.85394,"1000": 4.87883,"1025": 4.16136,"1050": 3.48486,"1075": 2.8904,"1100": 2.72639,"1125": 3.13637,"1150": 2.54186,"1175": 2.66485,"1200": 2.37788,"1225": 2.35735,"1250": 2.29589,"1275": 2.33685,"1300": 2.35736,"1325": 2.11137,"1350": 2.5008,"1375": 2.11135,"1400": 2.39834,"1425": 2.21385,"1450": 1.98835,"1475": 2.02931,"1500": 1.78334,"1525": 1.55781,"1550": 1.57831,"1575": 0.84043,"1600": 0.55346,"1625": 0.18449,"1650": 0.10249}}}