{"type":"Feature","properties":{"GID_2":"HND.1.4_1","GID_0":"HND","country":"Honduras","GID_1":"HND.1_1","province":"Atlántida","NL_NAME_1":"NA","county":"Jutiapa","VARNAME_2":"NA","NL_NAME_2":"NA","TYPE_2":"Municipio","ENGTYPE_2":"Municipality","CC_2":"NA","HASC_2":"HN.AT.JU","name":"Jutiapa.county"},
"geometry":{"type": "MultiPolygon","coordinates": [[[[-86.5118,15.8138,0.0],[-86.5274,15.8065,6.9884],[-86.596,15.7976,1.3357],[-86.6279,15.7974,0.0],[-86.6292,15.7921,5.6954],[-86.6279,15.7868,40.2639],[-86.6312,15.7852,41.5132],[-86.6319,15.7822,78.9407],[-86.6318,15.7778,240.1335],[-86.6294,15.7732,294.7155],[-86.6314,15.7484,736.871],[-86.6396,15.7342,1001.8079],[-86.6552,15.7211,1482.259],[-86.6386,15.6938,615.0069],[-86.6474,15.6847,471.91],[-86.6482,15.6783,337.5499],[-86.6465,15.662,505.3604],[-86.6381,15.6398,404.0291],[-86.6416,15.6092,681.9728],[-86.642,15.6078,707.6742],[-86.6532,15.6047,455.0265],[-86.6587,15.6048,530.7758],[-86.664,15.6002,546.0876],[-86.6696,15.5985,660.7484],[-86.6038,15.5816,1234.084],[-86.5832,15.5868,1557.5605],[-86.5644,15.5877,1333.0615],[-86.5617,15.5868,1229.5287],[-86.5546,15.5781,935.2006],[-86.5518,15.5768,853.494],[-86.548,15.5779,858.4317],[-86.5474,15.5811,906.7616],[-86.5403,15.5791,941.0369],[-86.5311,15.5838,1115.8018],[-86.5256,15.5825,1209.304],[-86.5207,15.5844,1266.5795],[-86.5145,15.5836,1379.2915],[-86.5119,15.5889,1283.9365],[-86.5028,15.589,1389.6034],[-86.4911,15.5857,971.3987],[-86.4826,15.5796,753.4496],[-86.4738,15.5792,959.8632],[-86.4547,15.5733,496.9075],[-86.4432,15.5859,539.3613],[-86.4049,15.5941,572.8146],[-86.3933,15.5998,334.3044],[-86.3913,15.6102,290.9336],[-86.3937,15.6152,224.1869],[-86.3937,15.6344,204.6858],[-86.391,15.6364,281.9575],[-86.391,15.6394,270.1515],[-86.3933,15.6454,284.3163],[-86.3937,15.6679,266.944],[-86.3994,15.6743,257.0306],[-86.4111,15.673,271.7889],[-86.4152,15.6777,302.8912],[-86.4232,15.677,215.0597],[-86.4256,15.6834,386.2028],[-86.4246,15.7002,239.6205],[-86.4263,15.7039,251.7122],[-86.4377,15.716,152.9031],[-86.4481,15.717,155.7607],[-86.4647,15.723,78.2782],[-86.4687,15.7267,120.3291],[-86.4725,15.7388,149.5722],[-86.4735,15.756,17.7023],[-86.4771,15.7617,14.9197],[-86.4775,15.7697,11.5672],[-86.4765,15.7734,7.7927],[-86.4684,15.7748,15.3302],[-86.4687,15.7778,12.6243],[-86.4939,15.7969,7.7139],[-86.4966,15.7983,10.3841],[-86.5007,15.7976,8.6081],[-86.5107,15.8061,4.179],[-86.5118,15.8138,0.0]]]]}}