{"type":"Feature","properties":{"GID_2":"HND.12.1_1","GID_0":"HND","country":"Honduras","GID_1":"HND.12_1","province":"LaPaz","NL_NAME_1":"NA","county":"Aguaqueterique","VARNAME_2":"Aguanqueterique","NL_NAME_2":"NA","TYPE_2":"Municipio","ENGTYPE_2":"Municipality","CC_2":"NA","HASC_2":"HN.LP.AG","name":"Aguaqueterique.county"},
"geometry":{"type": "MultiPolygon","coordinates": [[[[-87.6933,14.0359,560.4919],[-87.6936,14.03,579.3088],[-87.6903,14.0277,567.2031],[-87.6912,14.0244,542.276],[-87.6893,14.0208,482.7053],[-87.6932,14.0192,529.2148],[-87.6914,14.0178,506.7659],[-87.6899,14.0098,471.3713],[-87.6917,14.0059,449.7106],[-87.696,14.0022,468.2845],[-87.6951,13.9978,395.345],[-87.6964,13.9931,441.3853],[-87.6984,13.9915,393.5242],[-87.6975,13.9802,363.3395],[-87.7035,13.9708,341.528],[-87.7004,13.9687,345.3036],[-87.7025,13.9583,359.4667],[-87.7013,13.9528,379.1823],[-87.6936,13.9445,400.2454],[-87.6919,13.9397,364.341],[-87.6865,13.9402,337.0391],[-87.6845,13.9377,322.6456],[-87.6856,13.9328,381.3619],[-87.6898,13.9289,547.4327],[-87.6872,13.9269,456.6039],[-87.6838,13.9271,412.5104],[-87.6818,13.9236,375.5984],[-87.6821,13.9066,297.0953],[-87.6862,13.9066,318.0195],[-87.6859,13.9027,302.1062],[-87.6739,13.8951,289.8137],[-87.6765,13.8929,264.5405],[-87.6757,13.8885,254.3406],[-87.6788,13.8815,297.5379],[-87.6742,13.8785,389.8732],[-87.6702,13.8819,380.5583],[-87.666,13.8769,451.2244],[-87.6579,13.8783,440.6412],[-87.6545,13.8769,463.2419],[-87.6526,13.8736,510.6424],[-87.6445,13.8744,584.1249],[-87.6248,13.8684,1189.6632],[-87.6249,13.8806,1213.4305],[-87.6186,13.8864,1272.2173],[-87.6117,13.8899,1166.1924],[-87.6118,13.8993,1081.8497],[-87.6135,13.9028,1189.2937],[-87.6088,13.9121,1202.0676],[-87.608,13.918,1115.014],[-87.6096,13.9357,1341.8093],[-87.6024,13.9559,1446.4934],[-87.6034,13.9586,1313.7361],[-87.6082,13.9621,1060.751],[-87.6029,13.9718,1347.3605],[-87.6134,13.9848,760.3883],[-87.6156,13.9902,780.5182],[-87.6152,14.0224,935.5544],[-87.6256,14.0752,1152.5905],[-87.631,14.0741,978.2596],[-87.6337,14.0757,971.1386],[-87.6384,14.0756,876.0319],[-87.6425,14.0744,821.1254],[-87.6526,14.077,737.3397],[-87.6591,14.0746,654.5342],[-87.6655,14.0683,621.478],[-87.6663,14.0617,694.593],[-87.6832,14.0481,531.5263],[-87.6857,14.0448,523.5524],[-87.6849,14.0413,513.8777],[-87.6933,14.0359,560.4919]]]]}}