{"type": "Feature","bbox": [-88.4781,13.8503,-88.3734,13.9671],"geometry": {"type": "MultiPolygon","coordinates": [[[[-88.4414,13.8613,107.0482],[-88.4391,13.8617,142.6446],[-88.4282,13.876,263.9171],[-88.4191,13.8791,161.2975],[-88.3947,13.881,126.2003],[-88.3945,13.8832,160.0835],[-88.377,13.8946,158.0523],[-88.3734,13.8991,166.7388],[-88.3786,13.904,190.3603],[-88.3857,13.9158,371.8691],[-88.3896,13.918,372.0607],[-88.3965,13.9182,343.1252],[-88.3984,13.92,427.7827],[-88.3987,13.9222,404.0635],[-88.3963,13.926,405.044],[-88.3953,13.9441,542.4449],[-88.3975,13.9546,528.26],[-88.4026,13.9594,674.0903],[-88.4018,13.9644,786.1176],[-88.4052,13.9666,699.7375],[-88.4187,13.9671,625.7396],[-88.4112,13.9519,461.2999],[-88.4199,13.9385,405.8232],[-88.426,13.9371,452.8775],[-88.4251,13.9348,563.9667],[-88.4183,13.933,544.6244],[-88.4218,13.9199,548.3845],[-88.4348,13.9199,447.9231],[-88.4339,13.9167,558.4774],[-88.4359,13.9119,422.6524],[-88.4464,13.901,247.9705],[-88.4521,13.8992,183.863],[-88.4512,13.8886,376.2339],[-88.4542,13.8806,326.1998],[-88.4612,13.8789,251.5793],[-88.4607,13.8739,280.2927],[-88.4639,13.8732,281.2203],[-88.4641,13.8701,197.1487],[-88.4725,13.8633,260.2202],[-88.4725,13.8592,186.8021],[-88.478,13.8566,70.809],[-88.4781,13.855,158.7929],[-88.4665,13.8503,70.5611],[-88.4635,13.856,118.7233],[-88.4635,13.8622,88.4441],[-88.4414,13.8613,107.0482]]]]}
,"properties": {"GID_2": "HND.10.16_1","GID_0": "HND","country": "Honduras","GID_1": "HND.10_1","province": "Intibucá","NL_NAME_1": "NA","county": "SantaLucía","VARNAME_2": "NA","NL_NAME_2": "NA","TYPE_2": "Municipio","ENGTYPE_2": "Municipality","CC_2": "NA","HASC_2": "HN.FM.SL","name": "Santa_Lucía.county","area_km2": 49.37394,"hist_schema_id": "Elevation0-9000","hist_area_km2": {"50": 0.04117,"75": 0.32936,"100": 0.90571,"125": 1.58494,"150": 2.42881,"175": 2.9845,"200": 2.61402,"225": 3.29325,"250": 3.06681,"275": 3.27259,"300": 2.57272,"325": 2.36683,"350": 2.3256,"375": 2.71653,"400": 2.44898,"425": 1.89332,"450": 1.99622,"475": 2.01675,"500": 2.09905,"525": 1.97558,"550": 1.7698,"575": 0.92606,"600": 0.37041,"625": 0.7614,"650": 0.61737,"675": 0.391,"700": 0.45274,"725": 0.24695,"750": 0.32927,"775": 0.22637,"800": 0.16463,"825": 0.14405,"850": 0.02058,"875": 0.02058}}}