{"type": "Feature","id": "643","bbox": [-87.93512,14.89775,-86.2329,15.721],"geometry": {"type": "Polygon","coordinates": [[[-87.61,15.50443,516.333],[-87.62555,15.51078,471.9718],[-87.66542,15.55357,32.9976],[-87.66867,15.55859,37.5528],[-87.67152,15.56468,32.4482],[-87.67699,15.59553,30.0214],[-87.678,15.61011,25.3005],[-87.6872,15.64468,9.3675],[-87.6979,15.6637,8.285],[-87.71459,15.67212,6.006],[-87.78758,15.721,8.0712],[-87.81797,15.70137,8.1963],[-87.82355,15.69155,9.8172],[-87.80546,15.68788,13.9889],[-87.81975,15.6716,8.0487],[-87.80345,15.65357,12.4128],[-87.77735,15.63321,12.5512],[-87.76221,15.61016,11.0],[-87.76464,15.60685,13.4709],[-87.772,15.58117,18.2742],[-87.77125,15.57776,25.3511],[-87.77776,15.57404,17.3147],[-87.78487,15.57486,16.845],[-87.79084,15.57709,15.7776],[-87.79391,15.57765,17.2108],[-87.80042,15.56411,16.1297],[-87.80451,15.54779,14.7516],[-87.80978,15.53368,16.6058],[-87.81993,15.52706,20.5869],[-87.83094,15.50851,26.4974],[-87.82748,15.49446,18.0],[-87.81864,15.48226,22.8405],[-87.81355,15.46913,23.5031],[-87.81642,15.45156,22.0512],[-87.82438,15.45301,23.5855],[-87.83512,15.46035,22.5872],[-87.84634,15.46045,24.3043],[-87.85272,15.45167,25.5386],[-87.84598,15.44588,26.1292],[-87.83373,15.43973,25.3576],[-87.82378,15.42996,23.0491],[-87.82019,15.41627,23.3212],[-87.82386,15.40805,26.9229],[-87.83848,15.39611,25.1448],[-87.863,15.35638,29.8742],[-87.86995,15.34795,36.0413],[-87.87391,15.34501,26.5],[-87.87856,15.34268,31.6367],[-87.88763,15.33581,29.7949],[-87.89357,15.3325,32.2969],[-87.90688,15.32894,32.9066],[-87.91158,15.32661,33.8979],[-87.91331,15.32341,31.931],[-87.91259,15.32025,32.0644],[-87.91127,15.317,32.7494],[-87.91114,15.31354,38.7131],[-87.91375,15.30883,34.3234],[-87.92576,15.29643,34.1817],[-87.92411,15.28982,38.4772],[-87.92406,15.28289,35.7525],[-87.92553,15.27607,37.9366],[-87.92837,15.26971,35.1982],[-87.92646,15.25912,37.2065],[-87.93512,15.24475,40.1315],[-87.93073,15.23731,36.3733],[-87.92685,15.23783,39.3578],[-87.92104,15.24047,39.2167],[-87.91837,15.23907,42.9498],[-87.9175,15.23778,36.569],[-87.91719,15.22584,39.5159],[-87.9206,15.21158,41.2462],[-87.9198,15.20465,41.849],[-87.92297,15.19494,41.8152],[-87.9231,15.1908,41.1861],[-87.91837,15.18781,42.7309],[-87.89776,15.19328,46.8585],[-87.87871,15.19184,49.3806],[-87.86786,15.18936,90.9839],[-87.85308,15.1782,91.054],[-87.84869,15.1738,79.3825],[-87.84608,15.16931,212.2818],[-87.84515,15.16517,207.3544],[-87.84257,15.16042,162.0289],[-87.83693,15.15959,57.1482],[-87.82215,15.15985,119.3904],[-87.81786,15.15799,55.8939],[-87.81443,15.15479,59.8743],[-87.81099,15.1537,57.2993],[-87.7998,15.15339,60.0692],[-87.79652,15.1492,63.4452],[-87.79407,15.13959,65.3663],[-87.78843,15.13747,64.5041],[-87.7834,15.13685,65.3931],[-87.76769,15.1397,95.4782],[-87.73836,15.11112,79.9195],[-87.7373,15.10456,137.2576],[-87.73332,15.09438,82.8223],[-87.73231,15.08647,98.7218],[-87.73216,15.08146,118.4485],[-87.73379,15.07768,132.4787],[-87.73743,15.07515,178.6128],[-87.74007,15.06787,326.059],[-87.74128,15.06146,167.9879],[-87.73588,15.01655,269.0],[-87.64235,15.01795,269.0],[-87.63118,15.0166,269.0],[-87.58741,15.02627,269.0],[-87.58387,15.03474,269.0],[-87.55473,15.05562,269.0],[-87.55134,15.05701,269.0],[-87.54827,15.05763,289.185],[-87.54359,15.0565,269.0],[-87.53757,15.05407,269.0],[-87.52473,15.04549,269.0],[-87.51685,15.03769,269.0],[-87.50641,15.02265,269.0],[-87.50323,15.01386,269.5],[-87.50047,15.00157,280.4625],[-87.49866,14.99717,394.7638],[-87.49644,14.99345,420.6366],[-87.4916,14.98927,410.9177],[-87.48667,14.9858,430.6896],[-87.47714,14.9826,420.5047],[-87.47318,14.98022,295.3869],[-87.4691,14.97459,306.4174],[-87.46375,14.97201,290.6718],[-87.46068,14.96591,309.4848],[-87.45944,14.961,302.4788],[-87.46026,14.95165,420.7041],[-87.46013,14.94699,436.1032],[-87.45874,14.94136,353.7142],[-87.45564,14.93428,315.4602],[-87.45455,14.92994,349.7661],[-87.45179,14.92374,409.8042],[-87.45171,14.92136,437.3918],[-87.45202,14.91878,381.8047],[-87.45202,14.91645,414.9927],[-87.44944,14.91392,405.5911],[-87.44427,14.91087,453.9313],[-87.43357,14.90875,424.175],[-87.41864,14.90855,322.4403],[-87.39407,14.92085,330.7506],[-87.37469,14.93883,362.7159],[-87.35066,14.93728,582.8707],[-87.3149,14.92798,489.9788],[-87.31056,14.92581,392.3782],[-87.30286,14.91955,449.51],[-87.2972,14.91666,502.5378],[-87.29175,14.91831,433.8257],[-87.28524,14.92421,439.2956],[-87.27901,14.92302,457.6372],[-87.27268,14.92126,400.277],[-87.24581,14.89775,420.8239],[-87.22656,14.92395,499.1404],[-87.22028,14.9378,568.0671],[-87.21015,14.95227,753.7587],[-87.1902,14.96911,956.9931],[-87.18689,14.97459,902.5358],[-87.18553,14.98048,1124.5854],[-87.18423,15.00105,1286.2454],[-87.18483,15.01138,1383.8185],[-87.16703,15.02596,1694.7009],[-87.11938,15.0319,1864.4192],[-87.10969,15.03133,2072.8945],[-87.09809,15.02906,2071.6177],[-87.09005,15.02508,2129.5488],[-87.07471,15.02089,2179.4854],[-87.02104,15.02306,1754.5393],[-86.98748,15.01588,1604.1294],[-86.97332,15.04058,1768.2882],[-86.96957,15.04378,1743.0742],[-86.9635,15.04761,1869.6975],[-86.95913,15.04745,1878.6221],[-86.95125,15.04601,1813.512],[-86.92099,15.05397,1151.5352],[-86.90102,15.07154,994.6248],[-86.88616,15.08156,598.7922],[-86.88066,15.09055,621.6521],[-86.87916,15.0983,602.8249],[-86.87901,15.10461,518.9554],[-86.87823,15.11112,541.5549],[-86.8758,15.1181,646.4849],[-86.87149,15.12724,512.6969],[-86.86454,15.13799,571.042],[-86.86244,15.14378,533.4919],[-86.8626,15.1476,547.9082],[-86.86319,15.15158,581.9888],[-86.86299,15.15463,496.141],[-86.85513,15.17163,532.7793],[-86.86291,15.23194,617.4044],[-86.86206,15.24005,563.268],[-86.85888,15.25359,367.6632],[-86.85555,15.25767,357.6598],[-86.85144,15.26062,510.4317],[-86.84462,15.26201,358.7088],[-86.82971,15.26977,426.7627],[-86.82622,15.27111,469.345],[-86.81769,15.27726,384.3531],[-86.81532,15.28537,310.2353],[-86.76873,15.29529,380.493],[-86.73814,15.2709,691.6885],[-86.72966,15.26868,607.8478],[-86.71876,15.26682,811.0839],[-86.70065,15.26692,1115.9651],[-86.69274,15.26863,1148.3433],[-86.68636,15.27194,1133.6967],[-86.67628,15.27927,1405.4713],[-86.66636,15.28232,1289.8293],[-86.65974,15.29659,1220.4785],[-86.65184,15.30594,1003.6793],[-86.64186,15.33126,797.3431],[-86.63822,15.3372,1210.7112],[-86.63295,15.34087,1243.4719],[-86.62879,15.34036,1178.5344],[-86.62414,15.33912,1178.5447],[-86.61879,15.33875,1180.0928],[-86.61132,15.34149,1091.8373],[-86.52655,15.38624,730.6646],[-86.51407,15.38924,443.6814],[-86.50303,15.38929,541.2938],[-86.47919,15.38232,258.6515],[-86.46474,15.37467,337.7781],[-86.45198,15.3664,416.3395],[-86.44275,15.35849,466.1122],[-86.43449,15.34986,510.8489],[-86.42968,15.34284,660.4198],[-86.42661,15.33684,655.5007],[-86.4204,15.33188,804.1525],[-86.40911,15.32826,1245.4604],[-86.38526,15.32795,1273.2468],[-86.37196,15.3294,1373.5988],[-86.34607,15.3416,1127.782],[-86.29052,15.37415,1164.726],[-86.27765,15.37854,1260.924],[-86.2329,15.40976,1224.9031],[-86.23445,15.43606,724.6218],[-86.24106,15.44934,469.3748],[-86.24168,15.45441,460.2766],[-86.23558,15.49931,98.4751],[-86.23739,15.51254,78.7138],[-86.24026,15.52086,65.2599],[-86.24328,15.5235,63.7887],[-86.24762,15.52412,63.4898],[-86.25016,15.52272,63.9332],[-86.25176,15.52009,63.0],[-86.2529,15.51874,63.5578],[-86.25426,15.51879,64.495],[-86.25566,15.52014,67.0946],[-86.25775,15.52169,68.7173],[-86.26018,15.52277,68.7235],[-86.26354,15.52329,68.6195],[-86.26633,15.52427,70.67],[-86.26915,15.52624,69.6499],[-86.27253,15.53032,72.0838],[-86.27537,15.5327,74.556],[-86.27791,15.53414,76.7356],[-86.28075,15.53533,77.5846],[-86.283,15.5358,82.7226],[-86.28881,15.53559,90.3786],[-86.31411,15.54179,106.6404],[-86.36206,15.53993,209.8426],[-86.37235,15.54065,235.6211],[-86.37738,15.54241,277.6713],[-86.37976,15.54623,271.7795],[-86.39123,15.55967,497.8913],[-86.42095,15.58282,673.2421],[-86.44278,15.59212,426.0933],[-86.4704,15.59646,728.3702],[-86.49562,15.59347,1072.1388],[-86.5028,15.59181,1361.1576],[-86.50931,15.58944,1215.5165],[-86.51769,15.58799,1372.3148],[-86.52639,15.58871,1032.0477],[-86.53686,15.59285,1218.8916],[-86.54675,15.59429,1112.8145],[-86.58334,15.59202,1447.1743],[-86.61918,15.60174,900.8655],[-86.63626,15.60463,555.287],[-86.64796,15.60246,555.1917],[-86.66956,15.59574,649.3859],[-86.69059,15.58675,963.8175],[-86.73214,15.56417,856.1804],[-86.75721,15.55564,955.6792],[-86.77894,15.55068,1262.8979],[-86.81002,15.55058,1669.3887],[-86.82498,15.54887,1849.3506],[-86.84376,15.553,1962.781],[-86.8558,15.56928,1953.0762],[-86.92712,15.55068,1602.6013],[-86.97236,15.55176,1433.1301],[-86.99063,15.54882,1284.8071],[-87.02833,15.51688,1431.4642],[-87.04458,15.499,1198.6208],[-87.05416,15.49156,948.0144],[-87.0721,15.48164,919.8993],[-87.13726,15.4588,1076.3032],[-87.16757,15.43797,826.4819],[-87.1777,15.42945,936.6888],[-87.18245,15.42655,1201.4048],[-87.22369,15.42717,1347.8463],[-87.29487,15.4435,1770.955],[-87.30521,15.44335,1851.359],[-87.31466,15.4449,1837.8815],[-87.32394,15.45141,1822.5302],[-87.33539,15.45544,1700.8707],[-87.34275,15.45642,1687.1997],[-87.34947,15.45456,1623.1677],[-87.35474,15.45105,1567.8607],[-87.36063,15.44934,1372.5747],[-87.36487,15.44567,1385.7819],[-87.37076,15.44299,1290.2888],[-87.37572,15.44123,1296.4465],[-87.38197,15.44216,1259.2026],[-87.38719,15.44366,1147.2151],[-87.40202,15.45048,931.4807],[-87.4105,15.4559,854.3628],[-87.4167,15.46076,847.2878],[-87.42409,15.46981,730.8361],[-87.43076,15.48066,509.5607],[-87.43616,15.50562,228.7415],[-87.4367,15.51843,176.7893],[-87.4384,15.52897,99.8475],[-87.45556,15.53993,71.2013],[-87.46476,15.54065,68.8867],[-87.46993,15.53874,76.1239],[-87.50886,15.5174,116.5536],[-87.52336,15.5191,148.296],[-87.56535,15.5081,254.0584],[-87.61,15.50443,516.333]]]}
,"properties": {"ISO3166-1-Alpha-3": "HND","country": "Honduras","fill": "#000","name": "Yoro","area_km2": 7796.474,"hist_schema_id": "Elevation0-9000","hist_area_km2": {"0": 80.005,"25": 328.343,"50": 89.041,"75": 78.909,"100": 136.582,"125": 130.514,"150": 153.879,"175": 165.07,"200": 151.03,"225": 138.009,"250": 126.457,"275": 131.806,"300": 105.127,"325": 107.206,"350": 112.898,"375": 112.612,"400": 113.225,"425": 118.346,"450": 125.078,"475": 128.426,"500": 132.061,"525": 138.525,"550": 147.913,"575": 158.453,"600": 191.628,"625": 210.519,"650": 198.159,"675": 190.583,"700": 195.264,"725": 199.627,"750": 197.543,"775": 192.549,"800": 192.735,"825": 186.908,"850": 182.084,"875": 171.63,"900": 161.993,"925": 150.005,"950": 143.192,"975": 131.289,"1000": 122.556,"1025": 115.884,"1050": 107.863,"1075": 98.559,"1100": 95.246,"1125": 87.168,"1150": 80.175,"1175": 76.493,"1200": 70.295,"1225": 63.65,"1250": 60.787,"1275": 60.096,"1300": 54.714,"1325": 50.256,"1350": 49.581,"1375": 48.913,"1400": 46.337,"1425": 38.112,"1450": 34.101,"1475": 30.093,"1500": 26.268,"1525": 23.978,"1550": 24.594,"1575": 21.913,"1600": 21.588,"1625": 21.22,"1650": 22.306,"1675": 18.192,"1700": 15.593,"1725": 13.751,"1750": 11.991,"1775": 11.377,"1800": 9.536,"1825": 9.495,"1850": 7.797,"1875": 6.65,"1900": 5.893,"1925": 4.399,"1950": 3.765,"1975": 2.761,"2000": 3.089,"2025": 2.352,"2050": 2.025,"2075": 1.902,"2100": 1.533,"2125": 1.37,"2150": 1.206,"2175": 0.941,"2200": 0.777,"2225": 0.511,"2250": 0.368,"2275": 0.204,"2300": 0.286,"2325": 0.163,"2350": 0.123,"2375": 0.266,"2400": 0.082,"2425": 0.061}}}