{"type": "Feature","bbox": [-87.9367,14.8618,-86.2241,15.7218],"geometry": {"type": "MultiPolygon","coordinates": [[[[-87.2404,14.8717,700.5621],[-87.2406,14.8678,675.9104],[-87.2347,14.8619,714.6486],[-87.2288,14.863,643.3759],[-87.2256,14.8618,633.1575],[-87.2242,14.8632,629.3008],[-87.2249,14.8688,571.467],[-87.2212,14.8711,471.8139],[-87.2195,14.8757,436.6971],[-87.225,14.8846,462.251],[-87.2223,14.8922,428.873],[-87.2356,14.8937,422.0516],[-87.2395,14.8963,421.538],[-87.2403,14.9018,431.4908],[-87.2359,14.9052,454.967],[-87.236,14.9086,477.1644],[-87.2379,14.912,453.256],[-87.246,14.9178,478.8112],[-87.2467,14.926,471.9393],[-87.242,14.9334,488.8247],[-87.2363,14.9352,508.8902],[-87.2269,14.9477,610.2982],[-87.218,14.95,770.9607],[-87.2125,14.9556,937.2852],[-87.214,14.9752,948.2535],[-87.2119,14.9842,902.3098],[-87.2145,14.991,1158.8076],[-87.2142,14.995,1223.2689],[-87.2116,15.0006,1232.0282],[-87.2033,15.0053,1143.733],[-87.2011,15.0103,1153.7017],[-87.1969,15.0116,1273.0034],[-87.1919,15.01,1291.1478],[-87.1845,15.0147,1439.5107],[-87.1762,15.0128,1516.0038],[-87.1666,15.0142,1630.6077],[-87.1626,15.0201,1635.4619],[-87.1555,15.0167,1688.2981],[-87.1476,15.0192,1673.7981],[-87.1362,15.0188,1685.3196],[-87.1263,15.013,1822.98],[-87.122,15.0083,1877.5967],[-87.1145,15.0071,1955.6206],[-87.1083,15.0029,1928.6747],[-87.0954,15.0053,1915.73],[-87.0845,15.0111,2191.8091],[-87.0712,15.0101,2159.2676],[-87.0675,15.0118,2100.7942],[-87.0544,15.0132,1859.5498],[-87.014,15.0036,1701.2544],[-87.0014,15.0232,1669.8284],[-86.9919,15.0323,1651.7671],[-86.9827,15.0355,1808.3047],[-86.9747,15.0348,1679.6708],[-86.9651,15.0306,1502.6455],[-86.955,15.0336,1448.9307],[-86.9472,15.0301,1370.9537],[-86.9441,15.0353,1625.3838],[-86.9443,15.0517,1563.469],[-86.9418,15.0579,1418.4504],[-86.927,15.0624,1136.1462],[-86.9194,15.0699,1205.5387],[-86.9092,15.067,1145.4655],[-86.9043,15.0709,1064.9506],[-86.9036,15.0752,1025.0007],[-86.9058,15.0804,1139.3479],[-86.9075,15.0925,858.465],[-86.9021,15.094,816.5597],[-86.9028,15.1101,603.5348],[-86.8989,15.1158,542.4242],[-86.8919,15.1193,540.744],[-86.8908,15.1235,632.6021],[-86.8865,15.1248,549.7692],[-86.8842,15.1337,636.0924],[-86.8864,15.1352,669.5345],[-86.89,15.1348,673.5245],[-86.8905,15.1369,727.1177],[-86.8887,15.1427,830.0404],[-86.8856,15.1437,820.1395],[-86.8838,15.1495,857.3139],[-86.8811,15.151,908.942],[-86.881,15.1679,1411.4752],[-86.889,15.1855,1405.3779],[-86.8911,15.2074,1275.0262],[-86.8949,15.2225,1207.3728],[-86.8933,15.2314,1043.53],[-86.8902,15.2356,937.1711],[-86.8912,15.2393,884.4863],[-86.8827,15.248,791.6761],[-86.8736,15.2483,712.6542],[-86.8708,15.253,632.0453],[-86.8614,15.2586,408.097],[-86.8456,15.2623,380.2824],[-86.8428,15.2765,791.9995],[-86.8357,15.2729,522.2495],[-86.8239,15.2715,414.973],[-86.8194,15.2692,391.1669],[-86.818,15.273,350.4241],[-86.8138,15.2735,523.3768],[-86.8114,15.2766,587.2616],[-86.8082,15.2772,487.3599],[-86.8037,15.2833,295.8213],[-86.8029,15.2875,526.5604],[-86.8015,15.2878,553.2222],[-86.7942,15.2839,412.9282],[-86.7935,15.2815,314.2526],[-86.7895,15.282,316.2133],[-86.7876,15.2802,373.4552],[-86.7857,15.2703,653.4959],[-86.7795,15.262,902.7117],[-86.7627,15.2572,863.1031],[-86.7573,15.2571,614.9583],[-86.7554,15.2588,552.0381],[-86.7535,15.2573,601.374],[-86.7471,15.2598,683.813],[-86.7277,15.2567,709.3208],[-86.7007,15.273,1340.1071],[-86.692,15.2754,1360.4777],[-86.6907,15.2846,1357.2487],[-86.6801,15.2946,1222.8998],[-86.6765,15.2954,1218.4174],[-86.6776,15.2999,1274.0818],[-86.6742,15.3101,956.81],[-86.6741,15.3208,797.7563],[-86.6755,15.3254,790.9206],[-86.6741,15.3286,566.267],[-86.6584,15.3338,990.3914],[-86.6521,15.329,951.9347],[-86.644,15.3286,808.5298],[-86.6321,15.3351,978.0126],[-86.6258,15.3442,926.472],[-86.5976,15.3564,1032.7014],[-86.5913,15.3606,1049.8529],[-86.5785,15.3613,1278.7903],[-86.573,15.3692,1046.0112],[-86.5537,15.3786,914.9951],[-86.5487,15.383,845.1896],[-86.5441,15.3819,754.3087],[-86.5381,15.3837,739.4015],[-86.5322,15.3783,785.0826],[-86.5311,15.3805,851.5419],[-86.5236,15.3839,745.3744],[-86.5228,15.3866,619.2562],[-86.5089,15.3893,431.8269],[-86.5063,15.3919,448.7368],[-86.5082,15.398,556.5325],[-86.5072,15.399,664.5817],[-86.5009,15.3966,460.905],[-86.4959,15.3971,347.3333],[-86.4917,15.3937,236.9206],[-86.4882,15.3944,216.7496],[-86.471,15.3897,543.2444],[-86.4671,15.3829,618.4932],[-86.4664,15.3771,354.9619],[-86.4596,15.372,352.9965],[-86.4613,15.3669,431.4622],[-86.4571,15.3672,356.3745],[-86.4585,15.3638,360.9532],[-86.4498,15.3643,426.185],[-86.448,15.3613,396.8925],[-86.4437,15.3601,452.6891],[-86.4421,15.3604,504.9658],[-86.4412,15.364,583.4314],[-86.4383,15.363,721.2491],[-86.4375,15.3605,607.481],[-86.4328,15.3576,714.9876],[-86.4306,15.3541,756.5437],[-86.4287,15.3442,745.9897],[-86.4249,15.3396,721.9434],[-86.4246,15.3312,661.8502],[-86.4191,15.3237,786.4329],[-86.4192,15.3182,881.6455],[-86.4167,15.3156,1094.7069],[-86.4104,15.3153,1269.6808],[-86.3971,15.3186,1236.0695],[-86.3624,15.3365,1320.5887],[-86.3405,15.3508,836.3059],[-86.3238,15.3584,901.139],[-86.2939,15.3762,1122.5754],[-86.2883,15.379,958.3554],[-86.2827,15.379,1033.943],[-86.2309,15.4114,1331.0942],[-86.2301,15.4423,892.0783],[-86.2393,15.4536,431.605],[-86.2345,15.4616,477.6183],[-86.2286,15.4624,439.4089],[-86.2264,15.4648,546.4079],[-86.2315,15.4773,200.3855],[-86.2265,15.4817,216.487],[-86.229,15.4902,120.1215],[-86.2242,15.5007,104.0494],[-86.2241,15.5051,98.2816],[-86.2278,15.5086,90.0876],[-86.2291,15.514,83.3372],[-86.2359,15.5265,66.6135],[-86.2341,15.5299,64.7959],[-86.2277,15.5328,61.8278],[-86.2497,15.5312,67.4649],[-86.2472,15.5233,63.1147],[-86.2512,15.522,65.8781],[-86.2577,15.5287,69.3827],[-86.2597,15.5281,69.8483],[-86.2606,15.5248,68.7147],[-86.2625,15.5275,69.8526],[-86.2686,15.5306,71.3599],[-86.2692,15.5358,71.1526],[-86.2767,15.5365,78.2912],[-86.2794,15.5404,80.3561],[-86.2927,15.5397,89.0745],[-86.2964,15.5412,136.6111],[-86.2978,15.5437,111.2551],[-86.3031,15.5424,99.7106],[-86.3048,15.5441,100.435],[-86.3121,15.5441,111.7423],[-86.3127,15.5474,182.6639],[-86.3141,15.548,168.5355],[-86.3182,15.545,130.0983],[-86.3212,15.5485,122.1685],[-86.3267,15.5471,246.7832],[-86.348,15.5464,243.4822],[-86.3507,15.5449,253.963],[-86.3593,15.5465,306.2052],[-86.3601,15.5443,283.6792],[-86.3643,15.5437,239.7511],[-86.3667,15.5395,232.3042],[-86.3946,15.5367,272.9216],[-86.4009,15.5407,236.0086],[-86.4016,15.5452,292.8719],[-86.4038,15.5476,387.2508],[-86.4179,15.5546,470.3082],[-86.4336,15.5674,405.3888],[-86.4708,15.5786,925.262],[-86.4826,15.5796,753.4496],[-86.4911,15.5857,971.3987],[-86.5011,15.5887,1284.7809],[-86.5115,15.5891,1283.9365],[-86.5145,15.5836,1379.2915],[-86.5207,15.5844,1266.5795],[-86.5256,15.5825,1209.304],[-86.5311,15.5838,1115.8018],[-86.5403,15.5791,941.0369],[-86.5474,15.5811,906.7616],[-86.548,15.5779,858.4317],[-86.5518,15.5768,853.494],[-86.5546,15.5781,935.2006],[-86.5617,15.5868,1229.5287],[-86.5644,15.5877,1333.0615],[-86.5832,15.5868,1557.5605],[-86.6038,15.5816,1234.084],[-86.6696,15.5985,660.7484],[-86.7256,15.5776,628.0202],[-86.7608,15.5548,969.192],[-86.7883,15.5474,1301.8997],[-86.791,15.5462,1374.6072],[-86.7924,15.5424,1229.7169],[-86.7959,15.5407,1269.6147],[-86.8008,15.542,1337.2593],[-86.8047,15.5406,1382.8673],[-86.8081,15.5428,1432.0365],[-86.8316,15.5461,1900.9535],[-86.8359,15.5527,2025.5991],[-86.8401,15.5534,2029.334],[-86.8452,15.5521,1975.9952],[-86.8589,15.54,1647.7063],[-86.8728,15.5474,1802.8762],[-86.8829,15.5463,1712.0693],[-86.8831,15.5561,1979.7571],[-86.8855,15.5636,2123.0139],[-86.8923,15.5648,1878.6216],[-86.9027,15.5575,2131.2822],[-86.9106,15.5564,1999.6132],[-86.9154,15.5581,1853.4387],[-86.9305,15.5529,1472.9709],[-86.9343,15.5528,1434.5463],[-86.9418,15.5573,1185.3334],[-86.9624,15.5426,1219.2657],[-86.9795,15.5444,1341.3398],[-86.9863,15.5428,972.676],[-86.9992,15.5443,1076.4351],[-87.0081,15.5426,1030.2737],[-87.016,15.545,927.3608],[-87.02,15.5506,994.801],[-87.0264,15.5461,602.3487],[-87.0317,15.5383,612.9163],[-87.0358,15.5356,829.6075],[-87.0443,15.5223,1126.031],[-87.0558,15.5166,1247.3473],[-87.0621,15.5117,897.0846],[-87.0644,15.507,680.6432],[-87.0712,15.506,629.4159],[-87.0779,15.5024,424.9971],[-87.0777,15.497,501.1569],[-87.0846,15.4916,575.5491],[-87.0829,15.4812,733.1852],[-87.0844,15.4796,843.4325],[-87.1097,15.4653,1087.3464],[-87.1265,15.4643,835.6681],[-87.1412,15.4483,818.4166],[-87.1591,15.447,746.507],[-87.1697,15.4477,782.3015],[-87.1793,15.4506,630.3846],[-87.1852,15.4501,752.4843],[-87.1974,15.434,1357.6074],[-87.2025,15.4298,1537.6779],[-87.205,15.4174,1490.4902],[-87.2094,15.4119,1236.6824],[-87.2127,15.4103,1166.0447],[-87.2205,15.412,1345.3267],[-87.2247,15.4174,1389.3976],[-87.234,15.4137,1220.5706],[-87.2465,15.4132,1000.2968],[-87.2796,15.427,1458.8779],[-87.2844,15.4276,1426.6577],[-87.2868,15.4254,1401.2666],[-87.2907,15.4248,1477.0907],[-87.2943,15.4289,1625.3719],[-87.3044,15.4288,1505.4906],[-87.3092,15.4361,1718.5798],[-87.3196,15.4393,1501.5447],[-87.3309,15.4369,1419.4861],[-87.3385,15.4323,1141.1531],[-87.3417,15.4322,1122.7664],[-87.3513,15.4444,1443.4581],[-87.3607,15.4435,1344.1307],[-87.3683,15.4488,1486.9949],[-87.3717,15.4485,1441.3762],[-87.3759,15.4457,1409.9204],[-87.3863,15.4355,1251.1016],[-87.3928,15.4345,1385.6147],[-87.403,15.4301,1214.6763],[-87.4027,15.4323,1306.759],[-87.4065,15.4315,1272.9282],[-87.4078,15.433,1136.0469],[-87.4077,15.4354,1276.4192],[-87.4099,15.4369,1197.3506],[-87.4082,15.4392,1351.465],[-87.4135,15.4386,1251.5321],[-87.4116,15.4436,1248.0461],[-87.4125,15.4454,1223.9185],[-87.4204,15.442,1298.8901],[-87.4205,15.4454,1202.5894],[-87.4226,15.4436,1226.1243],[-87.4236,15.4448,1156.6956],[-87.4209,15.4488,984.3834],[-87.4273,15.4513,1178.8861],[-87.4272,15.4493,1180.1552],[-87.4303,15.4493,1229.0911],[-87.4308,15.4531,1165.2435],[-87.4331,15.4548,1153.0671],[-87.4348,15.4524,1190.0469],[-87.4362,15.4529,1190.0469],[-87.4381,15.4594,1138.5916],[-87.4404,15.4574,1069.4242],[-87.4422,15.458,1013.0712],[-87.4408,15.4649,996.0096],[-87.444,15.4727,848.7518],[-87.4495,15.4768,880.091],[-87.4544,15.4773,771.8992],[-87.4555,15.4796,866.2702],[-87.4553,15.4813,838.1163],[-87.4496,15.4854,787.0722],[-87.4531,15.4877,829.9105],[-87.4535,15.4914,676.1584],[-87.4574,15.4937,616.6938],[-87.4557,15.5011,338.9576],[-87.4577,15.506,213.7569],[-87.4532,15.5076,243.8433],[-87.4523,15.5109,313.9517],[-87.4546,15.5127,198.8206],[-87.4511,15.5134,299.0685],[-87.4541,15.5183,137.685],[-87.4519,15.5207,119.3132],[-87.4519,15.526,103.7193],[-87.4527,15.5273,89.2548],[-87.4568,15.5262,123.9293],[-87.4654,15.5275,90.1612],[-87.4759,15.5406,75.585],[-87.4799,15.5364,80.1412],[-87.4867,15.5375,89.0747],[-87.4904,15.5363,102.9196],[-87.4944,15.5299,96.888],[-87.4988,15.5279,120.1996],[-87.5023,15.5215,105.5214],[-87.5242,15.5151,167.7521],[-87.5283,15.5107,201.349],[-87.5336,15.5186,158.1221],[-87.5403,15.5198,167.458],[-87.548,15.5177,176.4643],[-87.554,15.5125,186.1947],[-87.5591,15.5116,201.1005],[-87.563,15.5144,219.9411],[-87.5726,15.5107,255.1541],[-87.5723,15.5084,221.7877],[-87.5794,15.5082,236.7325],[-87.5871,15.5057,276.6333],[-87.6254,15.5038,502.8465],[-87.6327,15.5045,359.4137],[-87.6373,15.5067,410.7133],[-87.6412,15.5121,414.4436],[-87.6451,15.5145,297.8262],[-87.6527,15.5298,62.1956],[-87.6616,15.5322,53.7952],[-87.6665,15.5376,39.3872],[-87.6653,15.5399,40.8352],[-87.6687,15.5445,36.0088],[-87.6722,15.544,34.1262],[-87.6766,15.5466,37.9832],[-87.6779,15.5538,26.8967],[-87.6843,15.5633,31.033],[-87.6835,15.5671,36.7321],[-87.6877,15.5724,25.2785],[-87.6855,15.5757,21.8435],[-87.688,15.5806,22.8616],[-87.6867,15.5829,24.6681],[-87.6908,15.5912,22.2286],[-87.6906,15.5968,22.6819],[-87.6886,15.6012,26.6017],[-87.6928,15.6149,16.0143],[-87.6919,15.643,11.4873],[-87.6945,15.6464,12.1695],[-87.6986,15.6474,7.9232],[-87.6994,15.6503,7.8534],[-87.7022,15.6498,8.4671],[-87.705,15.6538,7.5358],[-87.7069,15.6655,6.6372],[-87.7097,15.6664,6.1135],[-87.7116,15.6639,6.1415],[-87.7147,15.6634,5.8762],[-87.716,15.6647,5.8499],[-87.7146,15.6678,5.9629],[-87.7291,15.6691,10.4202],[-87.7344,15.6733,11.6182],[-87.7353,15.6766,7.8546],[-87.7395,15.679,6.7223],[-87.7421,15.6784,7.1123],[-87.7429,15.6813,6.33],[-87.747,15.6808,5.6943],[-87.7502,15.685,6.0416],[-87.7497,15.6878,7.3187],[-87.7518,15.689,6.3808],[-87.752,15.6922,5.7275],[-87.7552,15.6938,5.7714],[-87.7568,15.697,5.8104],[-87.7622,15.6973,7.6929],[-87.767,15.6999,10.9744],[-87.7711,15.6988,11.5121],[-87.7725,15.7006,11.1815],[-87.7763,15.6996,11.1971],[-87.7814,15.7008,9.4667],[-87.7845,15.7055,9.5557],[-87.7819,15.7133,7.193],[-87.7832,15.7187,5.3919],[-87.785,15.7114,6.835],[-87.7873,15.7087,8.7102],[-87.7919,15.707,7.5555],[-87.7961,15.7092,8.9624],[-87.8032,15.7202,8.2176],[-87.8068,15.7218,8.6053],[-87.8111,15.7213,10.2739],[-87.8134,15.7172,7.8782],[-87.8132,15.7062,15.8972],[-87.815,15.7024,7.7706],[-87.8358,15.6942,9.3201],[-87.8455,15.6838,10.2602],[-87.8467,15.6798,7.5314],[-87.8444,15.6794,11.8419],[-87.8399,15.6822,11.1742],[-87.8295,15.6794,11.2265],[-87.8211,15.6852,10.6559],[-87.8158,15.6856,11.1491],[-87.8158,15.6784,10.4034],[-87.8266,15.679,12.7221],[-87.833,15.6743,10.1895],[-87.8373,15.6625,12.339],[-87.8374,15.6556,9.1766],[-87.835,15.6517,8.6012],[-87.8274,15.648,9.3321],[-87.825,15.6496,11.0116],[-87.8206,15.6588,10.6024],[-87.8158,15.6596,11.3556],[-87.8139,15.6577,10.1711],[-87.8137,15.6538,11.1847],[-87.8192,15.6468,10.0328],[-87.8199,15.6435,12.2794],[-87.8157,15.6365,9.9328],[-87.8071,15.6325,10.4386],[-87.7909,15.6363,13.3129],[-87.7856,15.6358,12.5066],[-87.7833,15.6339,16.2462],[-87.7812,15.6266,13.1376],[-87.7841,15.62,14.8904],[-87.7839,15.6144,11.6566],[-87.7746,15.606,14.5415],[-87.7743,15.5892,19.0446],[-87.7762,15.5867,15.6477],[-87.7861,15.591,13.0655],[-87.7911,15.5904,16.0356],[-87.7923,15.5885,16.98],[-87.7922,15.5833,19.4725],[-87.7808,15.5674,16.6016],[-87.7816,15.5632,17.9596],[-87.7854,15.5602,17.1882],[-87.789,15.5604,16.3466],[-87.7939,15.5685,15.6389],[-87.8005,15.5731,17.7716],[-87.8072,15.5753,18.1697],[-87.8126,15.573,17.1651],[-87.8137,15.5675,16.2561],[-87.8067,15.5568,17.6989],[-87.807,15.5519,16.1371],[-87.8122,15.5468,16.898],[-87.8211,15.545,19.2771],[-87.8233,15.5399,19.039],[-87.8214,15.5265,25.5246],[-87.8127,15.518,18.3535],[-87.814,15.5114,18.5377],[-87.817,15.5101,16.3027],[-87.8202,15.5108,19.3012],[-87.8283,15.5194,19.7327],[-87.8313,15.5207,23.3289],[-87.8363,15.52,19.9823],[-87.8384,15.518,17.7643],[-87.8342,15.5111,25.6549],[-87.8336,15.5057,26.8088],[-87.8345,15.5026,25.8283],[-87.8417,15.4954,20.8262],[-87.8419,15.4904,20.3861],[-87.84,15.4871,20.5303],[-87.8293,15.4816,19.2979],[-87.8295,15.4762,18.5],[-87.8335,15.4664,22.5249],[-87.8316,15.4638,22.8432],[-87.8199,15.4616,22.0956],[-87.817,15.4597,22.888],[-87.8142,15.4539,23.3366],[-87.8153,15.4452,21.8234],[-87.822,15.4373,24.3592],[-87.8254,15.4297,23.0491],[-87.8301,15.4266,22.7536],[-87.8356,15.4289,23.4906],[-87.8376,15.4423,24.7809],[-87.8402,15.4467,25.3235],[-87.8618,15.4456,24.0191],[-87.8669,15.4438,21.678],[-87.8687,15.4415,24.5959],[-87.8665,15.4356,23.6536],[-87.8511,15.4317,22.1177],[-87.8296,15.4192,23.0916],[-87.8241,15.4012,25.0018],[-87.8248,15.3909,26.1148],[-87.8266,15.3882,26.0268],[-87.8295,15.3873,25.7894],[-87.8434,15.3907,28.2216],[-87.8443,15.3831,25.9989],[-87.8521,15.3624,24.9983],[-87.8625,15.3497,27.893],[-87.8815,15.337,30.9881],[-87.8811,15.332,30.6957],[-87.8676,15.3295,28.8358],[-87.8692,15.3226,27.4104],[-87.8758,15.3223,28.4905],[-87.8837,15.3299,31.152],[-87.8877,15.3303,31.1405],[-87.8898,15.3252,31.8939],[-87.8903,15.3161,29.6496],[-87.8943,15.3096,30.7178],[-87.8968,15.3084,33.2831],[-87.9102,15.3114,35.3661],[-87.9168,15.3099,33.9275],[-87.9181,15.3078,33.0528],[-87.9181,15.3039,34.2537],[-87.9158,15.2999,32.1161],[-87.9078,15.2942,32.749],[-87.9079,15.2887,33.5506],[-87.9156,15.2906,33.5],[-87.9215,15.29,34.8314],[-87.9272,15.2836,35.2157],[-87.9261,15.2768,37.9366],[-87.9153,15.2756,36.9841],[-87.9111,15.2727,34.0],[-87.9139,15.2602,35.4455],[-87.9221,15.2585,36.7984],[-87.9311,15.2609,36.1607],[-87.9334,15.2593,37.939],[-87.9317,15.2499,37.6348],[-87.9367,15.2397,39.6223],[-87.9337,15.2209,37.7895],[-87.932,15.221,38.4522],[-87.9229,15.2299,38.9874],[-87.9203,15.2295,37.3758],[-87.9244,15.2175,40.6541],[-87.9178,15.2098,38.5401],[-87.9234,15.1997,39.3591],[-87.9171,15.1945,41.622],[-87.9217,15.1916,41.2718],[-87.9221,15.1879,41.867],[-87.9102,15.1852,43.5148],[-87.8964,15.1771,45.7466],[-87.8788,15.1809,79.0975],[-87.8658,15.1795,129.5412],[-87.8592,15.1665,220.1052],[-87.8497,15.164,74.0044],[-87.8482,15.1624,54.1099],[-87.8479,15.1587,130.2637],[-87.8508,15.1532,178.6575],[-87.8471,15.1489,146.216],[-87.842,15.1473,184.0436],[-87.8215,15.1511,228.1644],[-87.8184,15.1494,105.4225],[-87.8154,15.1417,121.1155],[-87.8074,15.147,89.4195],[-87.8038,15.1472,88.9765],[-87.7974,15.1392,66.4898],[-87.7981,15.1336,173.1952],[-87.8013,15.1317,159.6376],[-87.7998,15.1294,204.0977],[-87.7835,15.1267,267.3825],[-87.7722,15.1336,75.613],[-87.7693,15.1302,88.854],[-87.7587,15.1256,114.0242],[-87.7572,15.119,234.4589],[-87.7446,15.1065,452.0309],[-87.7362,15.1035,88.1867],[-87.7426,15.0935,257.1038],[-87.7391,15.0891,128.3896],[-87.7411,15.083,194.5474],[-87.7364,15.0794,131.6623],[-87.7366,15.0765,143.472],[-87.7396,15.071,243.9543],[-87.7479,15.0664,249.3461],[-87.7478,15.0504,118.337],[-87.7522,15.04,175.8072],[-87.7455,15.0183,391.0105],[-87.738,15.0132,269.0],[-87.737,15.0109,269.0],[-87.7384,15.007,269.0],[-87.7426,15.0061,269.0],[-87.7433,15.0045,269.0],[-87.7284,15.0007,398.0661],[-87.713,15.0051,277.8495],[-87.7049,15.0032,392.7455],[-87.697,15.0096,269.0],[-87.6921,15.0059,302.7082],[-87.6816,15.0126,269.0],[-87.6775,15.0117,277.3569],[-87.6742,15.0163,269.0],[-87.6663,15.0113,404.2811],[-87.6586,15.0127,269.0],[-87.6542,15.0106,378.3453],[-87.6505,15.0146,269.0],[-87.6412,15.015,269.0],[-87.6305,15.0038,269.0],[-87.6259,15.0023,289.4889],[-87.6175,15.0109,269.0],[-87.6154,15.0155,269.0],[-87.5943,15.0176,269.0],[-87.591,15.0193,269.0],[-87.5898,15.0225,269.0],[-87.5968,15.0297,282.702],[-87.5957,15.0315,350.6355],[-87.5906,15.0313,269.0],[-87.5879,15.0335,269.0],[-87.5809,15.0316,269.0],[-87.5784,15.038,269.0],[-87.5734,15.0407,269.0],[-87.5709,15.0452,269.0],[-87.5609,15.0442,401.3351],[-87.5515,15.049,333.0274],[-87.5477,15.0468,427.7317],[-87.5415,15.0386,578.8653],[-87.5359,15.0384,720.0977],[-87.5294,15.0331,628.9931],[-87.5272,15.0262,576.1018],[-87.5187,15.0167,512.225],[-87.5143,15.006,384.3882],[-87.5179,15.0015,486.5987],[-87.5161,14.9948,449.6889],[-87.517,14.9843,598.476],[-87.5101,14.9786,466.1701],[-87.5097,14.9717,685.7585],[-87.5033,14.9688,611.4978],[-87.5004,14.9648,685.5116],[-87.496,14.9665,568.1305],[-87.4913,14.9659,515.1226],[-87.4908,14.9637,627.4254],[-87.4936,14.9605,670.0676],[-87.4934,14.9571,797.704],[-87.4894,14.9563,621.1443],[-87.4811,14.9577,432.3865],[-87.4821,14.9506,548.8523],[-87.4787,14.9403,414.9771],[-87.4827,14.9323,614.3966],[-87.4787,14.925,634.9698],[-87.4722,14.9223,513.6388],[-87.4723,14.9205,484.4678],[-87.4769,14.917,503.5177],[-87.4778,14.9136,551.585],[-87.4765,14.9115,543.8745],[-87.473,14.9105,488.2781],[-87.475,14.8998,386.8607],[-87.4719,14.8976,383.3066],[-87.4705,14.8939,568.6578],[-87.4605,14.894,382.8344],[-87.458,14.8913,413.2516],[-87.4551,14.8931,362.0761],[-87.4476,14.8885,355.6462],[-87.4354,14.8924,447.1631],[-87.4335,14.8946,480.9532],[-87.4256,14.8931,435.7883],[-87.4213,14.9011,363.4004],[-87.412,14.9076,323.5785],[-87.3988,14.9215,330.55],[-87.388,14.922,343.2999],[-87.3819,14.9248,376.22],[-87.3802,14.9237,395.7338],[-87.3799,14.9208,393.7086],[-87.367,14.9143,861.609],[-87.356,14.913,877.1754],[-87.3473,14.9149,823.03],[-87.3429,14.912,799.6007],[-87.3371,14.916,729.7333],[-87.3313,14.9067,780.2535],[-87.3271,14.9047,841.5023],[-87.3231,14.8985,1009.738],[-87.3185,14.9004,995.718],[-87.3127,14.911,643.0775],[-87.3021,14.9122,479.4944],[-87.2987,14.9103,567.5809],[-87.2983,14.9068,675.9628],[-87.2873,14.8927,756.2827],[-87.2805,14.8904,685.772],[-87.2771,14.8862,673.8636],[-87.2664,14.8836,835.8872],[-87.2569,14.8764,833.9138],[-87.2421,14.8738,779.8212],[-87.2404,14.8717,700.5621]]]]}
,"properties": {"GID_1": "HND.18_1","GID_0": "HND","country": "Honduras","province": "Yoro","VARNAME_1": "NA","NL_NAME_1": "NA","TYPE_1": "Departamento","ENGTYPE_1": "Department","CC_1": "NA","HASC_1": "HN.YO","ISO_1": "HN-YO","name": "Yoro.province","area_km2": 7816.263,"hist_schema_id": "Elevation0-9000","hist_area_km2": {"0": 83.599,"25": 323.285,"50": 94.836,"75": 86.088,"100": 141.715,"125": 134.441,"150": 157.848,"175": 167.751,"200": 152.708,"225": 138.338,"250": 126.255,"275": 150.915,"300": 110.065,"325": 113.026,"350": 118.311,"375": 117.001,"400": 117.289,"425": 125.094,"450": 129.429,"475": 130.769,"500": 131.884,"525": 136.302,"550": 146.466,"575": 157.498,"600": 192.083,"625": 211.69,"650": 198.798,"675": 191.918,"700": 195.903,"725": 200.163,"750": 197.035,"775": 192.265,"800": 191.756,"825": 185.273,"850": 180.652,"875": 169.83,"900": 159.457,"925": 147.101,"950": 140.758,"975": 129.121,"1000": 120.182,"1025": 113.572,"1050": 104.489,"1075": 96.451,"1100": 91.646,"1125": 83.732,"1150": 77.107,"1175": 73.056,"1200": 65.755,"1225": 59.56,"1250": 57.167,"1275": 56.925,"1300": 51.258,"1325": 47.433,"1350": 47.087,"1375": 46.95,"1400": 44.333,"1425": 36.722,"1450": 32.568,"1475": 28.56,"1500": 23.958,"1525": 22.528,"1550": 23.266,"1575": 20.934,"1600": 20.915,"1625": 20.547,"1650": 21.346,"1675": 18.359,"1700": 16.722,"1725": 14.9,"1750": 13.017,"1775": 11.788,"1800": 10.008,"1825": 10.008,"1850": 8.761,"1875": 7.716,"1900": 6.652,"1925": 4.953,"1950": 4.195,"1975": 3.336,"2000": 3.295,"2025": 2.906,"2050": 2.292,"2075": 2.661,"2100": 2.456,"2125": 2.579,"2150": 2.19,"2175": 1.617,"2200": 1.351,"2225": 0.982,"2250": 0.43,"2275": 0.143,"2300": 0.184}}}