{"type":"Feature","properties":{"GID_2":"HND.8.13_1","GID_0":"HND","country":"Honduras","GID_1":"HND.8_1","province":"FranciscoMorazán","NL_NAME_1":"NA","county":"Ojojona","VARNAME_2":"NA","NL_NAME_2":"NA","TYPE_2":"Municipio","ENGTYPE_2":"Municipality","CC_2":"NA","HASC_2":"HN.FM.OJ","name":"Ojojona.county"},
"geometry":{"type": "MultiPolygon","coordinates": [[[[-87.3809,14.0107,1550.2416],[-87.4097,13.9913,1470.9349],[-87.4081,13.9746,1298.5344],[-87.4118,13.9717,1323.4907],[-87.4135,13.9655,1211.0236],[-87.4188,13.9618,1125.217],[-87.4209,13.9546,1016.3745],[-87.4327,13.9527,1042.8188],[-87.4427,13.9538,910.1447],[-87.4461,13.9483,919.0902],[-87.4568,13.946,1070.8832],[-87.4537,13.9398,1040.7294],[-87.4503,13.937,921.0248],[-87.4509,13.9342,931.996],[-87.4491,13.9309,912.646],[-87.4074,13.9298,1145.6011],[-87.3712,13.835,1017.0108],[-87.3483,13.8477,835.2403],[-87.3529,13.8386,829.4869],[-87.3515,13.8321,781.588],[-87.3472,13.8203,769.6422],[-87.3411,13.8178,559.3096],[-87.3379,13.8141,529.8314],[-87.3371,13.8177,464.3958],[-87.3333,13.8182,516.2732],[-87.3259,13.8238,577.4132],[-87.3224,13.8229,703.4721],[-87.3168,13.8272,584.0494],[-87.3048,13.8422,569.5342],[-87.2973,13.844,716.5725],[-87.2876,13.8426,1097.2208],[-87.2846,13.8455,750.3413],[-87.2836,13.8517,682.4756],[-87.2803,13.8569,724.3529],[-87.2814,13.8653,955.3789],[-87.2766,13.871,799.8622],[-87.2753,13.8765,841.3828],[-87.2699,13.8804,932.1683],[-87.2691,13.8832,931.0005],[-87.2696,13.8848,923.4139],[-87.277,13.8857,1100.689],[-87.28,13.8917,1108.8796],[-87.2901,13.8942,1300.0031],[-87.295,13.9057,1381.4905],[-87.2857,13.9368,1435.8384],[-87.2566,13.9577,1518.3154],[-87.2655,13.9724,1146.0358],[-87.2575,13.9728,1185.2672],[-87.2516,13.9782,1231.0222],[-87.2499,13.9835,1121.9808],[-87.2535,13.9847,1163.0212],[-87.2592,13.9792,1125.9731],[-87.2664,13.978,1212.1536],[-87.2711,13.9841,1258.5172],[-87.2819,13.9847,1285.4751],[-87.2967,13.9925,1278.8525],[-87.3062,13.9936,1313.3013],[-87.3076,13.9969,1230.2659],[-87.3147,13.9974,1231.8884],[-87.3187,14.003,1432.3942],[-87.3269,14.0065,1505.4277],[-87.3294,14.0093,1528.4125],[-87.3339,14.0101,1553.0348],[-87.3521,14.0193,1564.9622],[-87.3492,14.0244,1557.0848],[-87.3809,14.0107,1550.2416]]]]}}