{"type":"Feature","properties":{"GID_2":"HND.16.4_1","GID_0":"HND","country":"Honduras","GID_1":"HND.16_1","province":"SantaBárbara","NL_NAME_1":"NA","county":"Ceguaca","VARNAME_2":"NA","NL_NAME_2":"NA","TYPE_2":"Municipio","ENGTYPE_2":"Municipality","CC_2":"NA","HASC_2":"HN.SB.CE","name":"Ceguaca.county"},
"geometry":{"type": "MultiPolygon","coordinates": [[[[-88.1636,14.8428,912.494],[-88.1712,14.8475,887.1616],[-88.1829,14.8475,824.2866],[-88.1934,14.8502,885.6122],[-88.1981,14.8238,685.0517],[-88.2521,14.7982,247.2246],[-88.2445,14.7901,356.0756],[-88.239,14.7905,343.2053],[-88.2367,14.7835,478.6201],[-88.2336,14.7826,449.153],[-88.229,14.7844,316.3723],[-88.2275,14.7814,297.2715],[-88.2234,14.7805,346.5638],[-88.222,14.7767,401.5193],[-88.214,14.77,266.1876],[-88.2113,14.7696,258.9128],[-88.2067,14.7717,244.1781],[-88.1983,14.7645,298.9267],[-88.2007,14.7592,462.8192],[-88.1978,14.7583,360.0774],[-88.1959,14.7538,412.8755],[-88.1917,14.7535,492.6893],[-88.1873,14.7627,320.6927],[-88.184,14.7653,299.478],[-88.1834,14.7757,401.9417],[-88.1518,14.8123,634.8373],[-88.1636,14.8428,912.494]]]]}}