{"type":"Feature","properties":{"GID_2":"HND.8.27_1","GID_0":"HND","country":"Honduras","GID_1":"HND.8_1","province":"FranciscoMorazán","NL_NAME_1":"NA","county":"Vallecillo","VARNAME_2":"NA","NL_NAME_2":"NA","TYPE_2":"Municipio","ENGTYPE_2":"Municipality","CC_2":"NA","HASC_2":"HN.FM.VC","name":"Vallecillo.county"},
"geometry":{"type": "MultiPolygon","coordinates": [[[[-87.4204,14.4396,1455.9456],[-87.4153,14.4428,1385.8016],[-87.4095,14.4438,1425.2046],[-87.409,14.4411,1549.8337],[-87.4017,14.4423,1443.2883],[-87.3996,14.4394,1507.5896],[-87.3934,14.4412,1595.9719],[-87.3933,14.4383,1661.3108],[-87.3887,14.438,1426.5814],[-87.382,14.4402,1391.65],[-87.3802,14.4426,1311.1758],[-87.3774,14.4426,1303.3779],[-87.3757,14.4476,1263.8655],[-87.3717,14.4488,1308.5813],[-87.3712,14.4519,1364.2306],[-87.3696,14.4527,1389.8551],[-87.3718,14.4539,1337.1805],[-87.37,14.4578,1306.2457],[-87.3654,14.4615,1119.2766],[-87.3619,14.4594,1139.696],[-87.3602,14.4625,1023.2026],[-87.358,14.4606,1020.0095],[-87.3514,14.462,1007.0681],[-87.3471,14.4637,947.8854],[-87.3463,14.4665,858.7014],[-87.3399,14.4672,824.2275],[-87.3309,14.4782,843.2284],[-87.3318,14.4806,821.0802],[-87.3239,14.4846,848.2735],[-87.3196,14.4906,762.8202],[-87.3103,14.4945,784.9805],[-87.3109,14.4975,791.6518],[-87.3191,14.5017,758.7895],[-87.3177,14.5045,755.3463],[-87.3191,14.5076,768.8417],[-87.3268,14.5104,805.113],[-87.3309,14.514,825.9824],[-87.3325,14.5176,865.1646],[-87.3303,14.5211,896.3052],[-87.3335,14.5237,806.7021],[-87.334,14.5273,680.7902],[-87.348,14.5305,766.3322],[-87.3463,14.5333,746.3724],[-87.3418,14.5341,655.8417],[-87.3398,14.5452,682.9187],[-87.3434,14.5495,623.4865],[-87.3448,14.5558,728.0432],[-87.3477,14.5589,724.5907],[-87.3512,14.5594,657.1204],[-87.3516,14.566,662.7507],[-87.356,14.5688,732.1616],[-87.3567,14.5799,676.7266],[-87.3591,14.5826,754.2213],[-87.353,14.5873,709.9125],[-87.3513,14.5933,664.4498],[-87.3521,14.5956,675.1927],[-87.3641,14.5954,700.4657],[-87.3668,14.5968,707.8884],[-87.3745,14.5955,748.6057],[-87.382,14.5997,873.9591],[-87.3825,14.6055,741.884],[-87.3947,14.6029,830.192],[-87.3978,14.605,800.0287],[-87.4078,14.6061,686.2991],[-87.4143,14.6101,711.1245],[-87.422,14.6069,709.2975],[-87.4189,14.5946,758.0895],[-87.4223,14.5831,750.6569],[-87.4261,14.5783,734.567],[-87.4247,14.5751,747.3945],[-87.4268,14.5724,756.1327],[-87.4234,14.5671,799.6475],[-87.4241,14.5613,792.3469],[-87.4275,14.5611,863.597],[-87.4338,14.5542,867.0294],[-87.4353,14.5496,980.7286],[-87.484,14.5077,1549.3229],[-87.4681,14.462,1705.2526],[-87.4541,14.4595,1565.1344],[-87.4448,14.4491,1611.0454],[-87.4358,14.4475,1517.7827],[-87.4303,14.4395,1511.2251],[-87.4261,14.4386,1438.9888],[-87.4204,14.4396,1455.9456]]]]}}