{"type":"Feature","properties":{"GID_2":"HND.14.3_1","GID_0":"HND","country":"Honduras","GID_1":"HND.14_1","province":"Ocotepeque","NL_NAME_1":"NA","county":"DoloresMerendon","VARNAME_2":"NA","NL_NAME_2":"NA","TYPE_2":"Municipio","ENGTYPE_2":"Municipality","CC_2":"NA","HASC_2":"HN.OC.DM","name":"Dolores_Merendon.county"},
"geometry":{"type": "MultiPolygon","coordinates": [[[[-89.121,14.5067,1519.9678],[-89.1189,14.5089,1492.4751],[-89.1047,14.5105,1684.2784],[-89.1037,14.5138,1666.8672],[-89.0997,14.5135,1694.6166],[-89.0971,14.5163,1731.7245],[-89.0996,14.5211,1768.8175],[-89.0991,14.538,1490.4165],[-89.1129,14.5462,1705.9451],[-89.1169,14.5549,1703.9529],[-89.1099,14.5856,1579.9124],[-89.1046,14.5888,1410.8755],[-89.1016,14.5936,1371.1511],[-89.1037,14.5984,1337.2517],[-89.1161,14.5976,1401.7036],[-89.1263,14.5938,1434.4441],[-89.1287,14.5896,1456.6935],[-89.1267,14.5858,1662.7656],[-89.1269,14.578,1801.6631],[-89.1313,14.5735,1612.4729],[-89.1398,14.5702,1569.6987],[-89.1577,14.5676,1777.9619],[-89.1571,14.5486,1595.0806],[-89.1514,14.5461,1610.2626],[-89.1509,14.5375,1489.0664],[-89.1434,14.5374,1613.5073],[-89.141,14.531,1570.4916],[-89.1529,14.5246,1301.2983],[-89.1564,14.5192,1258.2961],[-89.1603,14.5179,1290.5093],[-89.1638,14.513,1185.3185],[-89.1622,14.5103,1178.7142],[-89.1607,14.5111,1216.8571],[-89.1562,14.508,1172.9456],[-89.1468,14.5079,1306.6019],[-89.144,14.506,1426.6035],[-89.121,14.5067,1519.9678]]]]}}