{"type":"Feature","properties":{"GID_2":"HND.16.13_1","GID_0":"HND","country":"Honduras","GID_1":"HND.16_1","province":"SantaBárbara","NL_NAME_1":"NA","county":"Naranjito","VARNAME_2":"NA","NL_NAME_2":"NA","TYPE_2":"Municipio","ENGTYPE_2":"Municipality","CC_2":"NA","HASC_2":"HN.SB.NA","name":"Naranjito.county"},
"geometry":{"type": "MultiPolygon","coordinates": [[[[-88.6383,14.9027,532.231],[-88.6216,14.8994,879.3542],[-88.6142,14.9013,877.1812],[-88.6041,14.9105,679.6981],[-88.607,14.9175,615.4675],[-88.6038,14.922,483.9095],[-88.6024,14.9296,549.9016],[-88.5957,14.9287,798.8558],[-88.5843,14.9227,911.8591],[-88.5324,14.9406,1068.2314],[-88.5329,14.9527,964.0042],[-88.5391,14.9559,905.4827],[-88.5391,14.9593,870.7611],[-88.5349,14.9635,895.4828],[-88.5383,14.9725,722.1076],[-88.5395,14.982,1010.9832],[-88.5449,14.9835,802.3622],[-88.5443,14.9899,652.8751],[-88.5478,14.996,621.9674],[-88.5483,15.0011,300.8948],[-88.5574,15.0163,771.8358],[-88.5631,15.0108,827.568],[-88.5742,15.0077,834.4575],[-88.6073,14.9815,351.666],[-88.6508,14.9985,983.84],[-88.6731,14.9987,1297.0925],[-88.6742,14.9842,1128.3228],[-88.6808,14.9774,865.266],[-88.6964,14.9351,633.5134],[-88.6888,14.9228,532.6503],[-88.686,14.9103,625.6523],[-88.6829,14.9061,814.899],[-88.6699,14.9043,867.8676],[-88.653,14.914,776.9808],[-88.642,14.914,447.4038],[-88.6371,14.9124,548.8139],[-88.6354,14.9098,716.7274],[-88.6383,14.9027,532.231]]]]}}