{"type": "Feature","bbox": [-87.6547,14.1983,-87.4054,14.3736],"geometry": {"type": "MultiPolygon","coordinates": [[[[-87.6543,14.3553,585.2233],[-87.6547,14.3523,585.7653],[-87.6518,14.3524,585.6461],[-87.6504,14.3481,588.4893],[-87.6472,14.3461,589.6221],[-87.6486,14.3437,592.6504],[-87.6468,14.3428,592.5161],[-87.6483,14.3385,597.0],[-87.6466,14.3338,601.0819],[-87.6421,14.3324,590.4007],[-87.6476,14.3222,612.156],[-87.6452,14.3175,613.923],[-87.6467,14.3149,618.4193],[-87.6434,14.314,612.4207],[-87.6447,14.307,620.6775],[-87.6348,14.3029,595.2521],[-87.6376,14.2977,602.7888],[-87.6416,14.2976,608.3695],[-87.6432,14.2939,619.1608],[-87.6421,14.2919,615.8587],[-87.6386,14.2927,611.5127],[-87.6395,14.2899,613.7903],[-87.6375,14.2883,616.4321],[-87.6374,14.2823,605.8688],[-87.6336,14.2745,625.1917],[-87.6379,14.2763,606.6274],[-87.6392,14.2695,609.4689],[-87.6416,14.2669,616.4272],[-87.6443,14.2667,610.5579],[-87.6459,14.2692,618.1454],[-87.6482,14.2695,630.8049],[-87.6457,14.2607,623.5103],[-87.6218,14.2589,653.3412],[-87.6024,14.2418,652.9019],[-87.6022,14.2358,655.347],[-87.5807,14.2365,663.1754],[-87.5698,14.2135,746.1589],[-87.5642,14.2122,757.0204],[-87.562,14.209,762.5688],[-87.5533,14.2043,888.5996],[-87.547,14.2032,899.6711],[-87.5359,14.2055,980.8456],[-87.5309,14.2012,1106.0208],[-87.5231,14.2056,1179.437],[-87.5143,14.2061,1372.5034],[-87.5049,14.1983,1375.4253],[-87.4674,14.2036,1580.3577],[-87.4488,14.2123,1528.1874],[-87.4353,14.2121,1491.406],[-87.4351,14.2161,1484.292],[-87.4318,14.2159,1462.302],[-87.4337,14.2187,1461.0269],[-87.4302,14.2217,1435.9299],[-87.4356,14.2284,1443.8595],[-87.4271,14.2302,1281.3116],[-87.4247,14.232,1209.5353],[-87.4243,14.2347,1169.0],[-87.4367,14.237,1390.6843],[-87.4383,14.2383,1450.0112],[-87.438,14.2417,1300.9587],[-87.443,14.2424,1378.7994],[-87.4478,14.2462,1315.4562],[-87.4565,14.2481,1516.8301],[-87.4725,14.2581,1385.1603],[-87.4823,14.2828,1349.5818],[-87.4533,14.3272,1437.4108],[-87.4488,14.3306,1409.2249],[-87.4401,14.3316,1415.6962],[-87.4304,14.3362,1309.6665],[-87.419,14.3385,1323.8151],[-87.4161,14.3424,1321.8121],[-87.4054,14.3706,1588.0282],[-87.4462,14.37,1421.1713],[-87.4478,14.3623,1306.5037],[-87.4516,14.3624,1295.2872],[-87.4623,14.3527,1305.1937],[-87.4699,14.3522,1226.9539],[-87.4728,14.3485,1261.6006],[-87.4769,14.347,1245.795],[-87.4812,14.3471,1101.1724],[-87.4923,14.3563,957.8304],[-87.5024,14.3512,872.0183],[-87.5031,14.355,917.2891],[-87.5062,14.3588,947.5446],[-87.5032,14.367,1101.2737],[-87.5034,14.3707,1075.7765],[-87.5376,14.3736,1023.6058],[-87.5425,14.37,951.3587],[-87.5489,14.3707,914.8022],[-87.5513,14.3663,834.5437],[-87.5551,14.3651,791.566],[-87.5577,14.37,871.3279],[-87.5789,14.3707,710.7219],[-87.591,14.3669,664.9454],[-87.6177,14.3664,615.292],[-87.6416,14.3559,574.6703],[-87.6543,14.3553,585.2233]]]]}
,"properties": {"GID_2": "HND.4.21_1","GID_0": "HND","country": "Honduras","GID_1": "HND.4_1","province": "Comayagua","NL_NAME_1": "NA","county": "VilladeSanAntonio","VARNAME_2": "NA","NL_NAME_2": "NA","TYPE_2": "Municipio","ENGTYPE_2": "Municipality","CC_2": "NA","HASC_2": "HN.CM.VS","name": "Villade_San_Antonio.county","area_km2": 336.9325,"hist_schema_id": "Elevation0-9000","hist_area_km2": {"575": 6.0598,"600": 28.1652,"625": 43.1867,"650": 29.2578,"675": 10.0257,"700": 7.3754,"725": 6.6155,"750": 6.6158,"775": 6.9858,"800": 7.1499,"825": 7.0884,"850": 7.5404,"875": 8.054,"900": 8.1364,"925": 9.4101,"950": 8.7731,"975": 8.4441,"1000": 8.7725,"1025": 6.6358,"1050": 5.8139,"1075": 4.7251,"1100": 3.3488,"1125": 2.4656,"1150": 2.3218,"1175": 2.8765,"1200": 3.5134,"1225": 4.1295,"1250": 4.9307,"1275": 5.1772,"1300": 5.0744,"1325": 4.8691,"1350": 4.109,"1375": 3.7803,"1400": 4.3146,"1425": 4.5203,"1450": 5.835,"1475": 5.9997,"1500": 4.8702,"1525": 3.8225,"1550": 3.7403,"1575": 3.3705,"1600": 2.6717,"1625": 2.0963,"1650": 2.199,"1675": 2.3635,"1700": 2.1169,"1725": 1.5208,"1750": 1.2948,"1775": 0.7193,"1800": 0.6783,"1825": 0.3288,"1850": 0.5344,"1875": 0.37,"1900": 0.5344,"1925": 0.3905,"1950": 0.3905,"1975": 0.3083,"2000": 0.3289,"2025": 0.1233,"2050": 0.0617}}}