{"type": "Feature","bbox": [-88.6917,14.1255,-88.5133,14.3212],"geometry": {"type": "MultiPolygon","coordinates": [[[[-88.5588,14.27,1181.4734],[-88.5626,14.2733,1194.2787],[-88.562,14.2754,1235.4946],[-88.5645,14.2796,1169.948],[-88.5724,14.28,1066.8121],[-88.5749,14.2845,1074.4697],[-88.5833,14.2896,1130.2463],[-88.5922,14.2904,1193.9016],[-88.5981,14.2941,1065.3547],[-88.6015,14.293,1121.8735],[-88.6127,14.2937,959.9526],[-88.6112,14.2953,1023.339],[-88.6125,14.2999,959.2145],[-88.6116,14.3018,952.2437],[-88.6141,14.3036,941.5954],[-88.6131,14.3075,916.7155],[-88.622,14.3108,922.8116],[-88.6246,14.3207,930.0175],[-88.629,14.3212,1013.6774],[-88.6321,14.3188,1056.569],[-88.6357,14.3211,1048.0696],[-88.6396,14.32,977.173],[-88.64,14.3107,994.7547],[-88.6456,14.3034,669.2473],[-88.6489,14.3028,727.7216],[-88.6497,14.3003,700.0635],[-88.6436,14.2896,784.5795],[-88.6444,14.2827,921.5605],[-88.6471,14.2831,869.6564],[-88.6474,14.2796,861.9023],[-88.6516,14.2769,853.2402],[-88.656,14.2689,951.3541],[-88.6589,14.2691,813.1005],[-88.6588,14.2666,964.9707],[-88.661,14.2655,824.5471],[-88.6602,14.2611,876.4093],[-88.663,14.2606,866.2582],[-88.6634,14.2578,960.7849],[-88.6667,14.2594,932.536],[-88.6685,14.2555,994.723],[-88.6723,14.258,893.0938],[-88.6785,14.2558,791.6787],[-88.6824,14.2443,731.9391],[-88.686,14.2438,724.9735],[-88.6879,14.2411,507.3404],[-88.6859,14.2384,641.3204],[-88.6872,14.2347,667.2661],[-88.6908,14.2331,453.1092],[-88.6902,14.2308,468.552],[-88.6917,14.2277,435.6183],[-88.6874,14.2184,519.2217],[-88.6878,14.2149,443.3715],[-88.6848,14.2139,464.5103],[-88.6863,14.2061,363.6721],[-88.6835,14.2009,421.9054],[-88.6877,14.2006,394.7487],[-88.6882,14.1991,434.7528],[-88.686,14.1953,343.0304],[-88.6865,14.1932,329.8371],[-88.6822,14.1925,409.6532],[-88.6831,14.1868,439.4825],[-88.6813,14.1834,405.772],[-88.6847,14.1802,411.8566],[-88.6793,14.1763,301.556],[-88.6749,14.1764,312.2643],[-88.6748,14.1676,304.5178],[-88.6768,14.1635,365.595],[-88.6706,14.1603,256.1105],[-88.6671,14.1552,245.2783],[-88.6631,14.1547,265.8506],[-88.6672,14.152,341.4844],[-88.6669,14.1487,289.4951],[-88.6618,14.1423,292.4645],[-88.6592,14.1342,239.4193],[-88.6562,14.1308,270.0044],[-88.6567,14.1255,366.0022],[-88.6505,14.1302,323.8411],[-88.6447,14.13,360.938],[-88.6431,14.1338,386.1087],[-88.6349,14.1409,410.5654],[-88.6287,14.1407,446.4679],[-88.627,14.139,482.3221],[-88.6174,14.1392,612.8162],[-88.6077,14.1349,699.4518],[-88.5992,14.1349,819.9167],[-88.5898,14.145,771.9178],[-88.5806,14.1488,1053.5566],[-88.5789,14.154,1128.8127],[-88.5703,14.161,1645.0229],[-88.5522,14.1634,1472.8491],[-88.5495,14.1754,1753.5194],[-88.5527,14.1812,1925.4497],[-88.5398,14.1827,1823.0876],[-88.5261,14.1953,1550.2712],[-88.5133,14.1995,1719.4635],[-88.5225,14.2085,1807.2343],[-88.5266,14.2178,1757.2144],[-88.526,14.2338,1731.8596],[-88.5322,14.2505,1747.1593],[-88.5451,14.2647,1385.7372],[-88.549,14.2672,1331.0916],[-88.5548,14.2665,1179.173],[-88.5588,14.27,1181.4734]]]]}
,"properties": {"GID_2": "HND.13.16_1","GID_0": "HND","country": "Honduras","GID_1": "HND.13_1","province": "Lempira","NL_NAME_1": "NA","county": "SanAndrés","VARNAME_2": "NA","NL_NAME_2": "NA","TYPE_2": "Municipio","ENGTYPE_2": "Municipality","CC_2": "NA","HASC_2": "HN.LE.SA","name": "San_Andrés.county","area_km2": 245.5851,"hist_schema_id": "Elevation0-9000","hist_area_km2": {"225": 0.2262,"250": 0.9251,"275": 1.5419,"300": 2.0353,"325": 2.6726,"350": 2.3642,"375": 2.2203,"400": 3.2481,"425": 2.878,"450": 3.7002,"475": 2.9602,"500": 2.7546,"525": 3.4535,"550": 3.2479,"575": 3.4124,"600": 3.474,"625": 3.5562,"650": 3.1039,"675": 2.6928,"700": 2.6927,"725": 2.5078,"750": 2.9804,"775": 2.7336,"800": 2.9597,"825": 2.8979,"850": 3.1034,"875": 3.5758,"900": 4.1719,"925": 4.8292,"950": 5.2814,"975": 5.3019,"1000": 5.5897,"1025": 5.4253,"1050": 5.7335,"1075": 5.4458,"1100": 5.6718,"1125": 5.9184,"1150": 6.2062,"1175": 5.7746,"1200": 5.7541,"1225": 4.1102,"1250": 4.1925,"1275": 3.5965,"1300": 3.4937,"1325": 3.432,"1350": 3.7814,"1375": 4.7267,"1400": 4.7472,"1425": 4.2952,"1450": 4.2336,"1475": 3.8638,"1500": 4.7063,"1525": 5.5696,"1550": 4.912,"1575": 4.09,"1600": 4.1928,"1625": 3.8845,"1650": 3.2885,"1675": 2.9597,"1700": 2.0965,"1725": 2.2609,"1750": 2.2198,"1775": 2.2404,"1800": 1.8704,"1825": 1.6238,"1850": 1.5622,"1875": 1.5827,"1900": 1.4799,"1925": 1.6855,"1950": 1.3977,"1975": 1.151,"2000": 0.8222,"2025": 0.3289,"2050": 0.1028,"2075": 0.0206,"2100": 0.0411}}}