{"type":"Feature","properties":{"GID_2":"HND.16.9_1","GID_0":"HND","country":"Honduras","GID_1":"HND.16_1","province":"SantaBárbara","NL_NAME_1":"NA","county":"Gualala","VARNAME_2":"NA","NL_NAME_2":"NA","TYPE_2":"Municipio","ENGTYPE_2":"Municipality","CC_2":"NA","HASC_2":"HN.SB.GU","name":"Gualala.county"},
"geometry":{"type": "MultiPolygon","coordinates": [[[[-88.2262,15.0168,133.8752],[-88.2324,15.0117,169.8653],[-88.2329,15.0075,157.7794],[-88.2266,15.003,178.1983],[-88.2197,15.0019,290.1256],[-88.2183,14.9997,270.6821],[-88.223,14.9968,174.4557],[-88.2321,14.9954,134.3712],[-88.2327,14.9926,133.36],[-88.231,14.9865,134.6203],[-88.2221,14.9758,205.3593],[-88.2208,14.9677,312.2179],[-88.2154,14.9626,370.7958],[-88.2146,14.9561,414.7459],[-88.156,14.9557,1693.4807],[-88.1273,14.963,1439.7205],[-88.1009,14.9821,1119.2659],[-88.1145,14.9823,1241.1376],[-88.1294,15.0053,896.7224],[-88.1541,15.0002,1053.6018],[-88.1908,15.0121,439.4005],[-88.2262,15.0168,133.8752]]]]}}