{"type": "Feature","bbox": [-88.4464,14.6372,-88.3095,14.7532],"geometry": {"type": "MultiPolygon","coordinates": [[[[-88.3387,14.6395,2075.0327],[-88.3394,14.6405,1973.5226],[-88.3258,14.6525,1839.0215],[-88.3127,14.6701,1479.0015],[-88.3095,14.719,1312.5278],[-88.3466,14.7043,828.3876],[-88.3653,14.7193,726.7538],[-88.3694,14.7357,684.6665],[-88.3816,14.7532,661.584],[-88.3908,14.7496,635.9348],[-88.3982,14.7354,776.2137],[-88.4004,14.7379,793.0862],[-88.4053,14.7383,739.0957],[-88.4145,14.7458,794.3025],[-88.4169,14.7451,911.9797],[-88.4205,14.7496,929.9167],[-88.4324,14.7405,969.9579],[-88.4358,14.7404,921.9206],[-88.4374,14.7366,965.8496],[-88.4403,14.7373,994.8324],[-88.4414,14.7344,905.5219],[-88.4464,14.7328,809.7388],[-88.4458,14.7296,815.8978],[-88.4417,14.7255,938.2711],[-88.4423,14.7162,977.1926],[-88.4393,14.7099,1166.759],[-88.4121,14.7038,1211.4147],[-88.4052,14.6969,1331.614],[-88.3983,14.6939,1231.3344],[-88.4024,14.6916,1401.3904],[-88.4045,14.6854,1385.4595],[-88.4078,14.6819,1487.2576],[-88.4059,14.6569,1490.8163],[-88.4044,14.6555,1502.1193],[-88.385,14.6447,1624.1617],[-88.3436,14.6372,2068.7632],[-88.3387,14.6395,2075.0327]]]]}
,"properties": {"GID_2": "HND.13.21_1","GID_0": "HND","country": "Honduras","GID_1": "HND.13_1","province": "Lempira","NL_NAME_1": "NA","county": "SanRafael","VARNAME_2": "NA","NL_NAME_2": "NA","TYPE_2": "Municipio","ENGTYPE_2": "Municipality","CC_2": "NA","HASC_2": "HN.LE.SR","name": "San_Rafael.county","area_km2": 104.06195,"hist_schema_id": "Elevation0-9000","hist_area_km2": {"600": 0.04101,"625": 1.12771,"650": 0.55361,"675": 0.65615,"700": 0.77919,"725": 1.64045,"750": 2.7068,"775": 2.85036,"800": 2.99394,"825": 3.01447,"850": 2.48133,"875": 2.03019,"900": 2.17376,"925": 2.78899,"950": 2.52239,"975": 2.6454,"1000": 2.46086,"1025": 2.87103,"1050": 2.44039,"1075": 2.37886,"1100": 1.94818,"1125": 1.86619,"1150": 1.96875,"1175": 2.25591,"1200": 2.25594,"1225": 2.42,"1250": 2.58408,"1275": 2.52257,"1300": 2.58412,"1325": 2.17396,"1350": 2.13299,"1375": 2.42013,"1400": 2.21508,"1425": 2.05103,"1450": 1.5793,"1475": 2.05103,"1500": 1.76393,"1525": 2.11262,"1550": 1.76395,"1575": 1.846,"1600": 2.03066,"1625": 1.84606,"1650": 1.64096,"1675": 1.90762,"1700": 1.21022,"1725": 1.49739,"1750": 1.47689,"1775": 1.21023,"1800": 1.02563,"1825": 0.8205,"1850": 0.94358,"1875": 0.92307,"1900": 0.80001,"1925": 0.82052,"1950": 0.6359,"1975": 0.38974,"2000": 0.41027,"2025": 0.14359,"2050": 0.26668,"2075": 0.22565,"2100": 0.1436,"2125": 0.02051}}}