{"type":"Feature","properties":{"GID_2":"HND.2.12_1","GID_0":"HND","country":"Honduras","GID_1":"HND.2_1","province":"Choluteca","NL_NAME_1":"NA","county":"SanAntoniodeFlores","VARNAME_2":"NA","NL_NAME_2":"NA","TYPE_2":"Municipio","ENGTYPE_2":"Municipality","CC_2":"NA","HASC_2":"HN.CH.SF","name":"San_Antoniode_Flores.county"},
"geometry":{"type": "MultiPolygon","coordinates": [[[[-87.3103,13.6242,437.462],[-87.3085,13.6364,326.1925],[-87.3039,13.6467,254.8653],[-87.3054,13.653,312.7731],[-87.3033,13.6588,278.4542],[-87.3046,13.6727,164.1837],[-87.3038,13.6747,165.6705],[-87.3014,13.675,150.3965],[-87.3021,13.6779,148.1459],[-87.3112,13.6828,164.5526],[-87.3173,13.6842,150.8358],[-87.3218,13.6812,266.1107],[-87.3282,13.6796,396.4622],[-87.331,13.6815,250.3085],[-87.3455,13.6811,241.0481],[-87.3606,13.6798,162.5024],[-87.3673,13.6769,92.6481],[-87.369,13.6698,117.2238],[-87.3666,13.6616,82.6834],[-87.3691,13.649,90.2884],[-87.3748,13.6448,75.2048],[-87.3782,13.6388,107.2968],[-87.3731,13.6289,79.069],[-87.3771,13.625,105.9503],[-87.3782,13.62,121.0548],[-87.373,13.6134,88.872],[-87.3636,13.6164,129.2775],[-87.3604,13.6092,139.6091],[-87.3563,13.6074,233.7077],[-87.351,13.6074,325.8039],[-87.329,13.6187,607.7228],[-87.3103,13.6242,437.462]]]]}}