{"type": "Feature","bbox": [-89.053,14.5166,-88.9035,14.6449],"geometry": {"type": "MultiPolygon","coordinates": [[[[-88.9169,14.5821,1035.4092],[-88.9183,14.5848,1005.1949],[-88.9545,14.6168,1311.9944],[-88.9782,14.6283,1534.4768],[-88.9869,14.6377,1872.0963],[-89.0057,14.644,1899.6857],[-89.0245,14.6405,1810.1514],[-89.0299,14.6357,1979.6763],[-89.0359,14.6338,1899.6624],[-89.0433,14.6383,1698.7321],[-89.0482,14.6449,1491.6632],[-89.0504,14.6412,1543.3624],[-89.053,14.6345,1588.7202],[-89.0346,14.6152,1637.2668],[-89.0292,14.6171,1744.7883],[-89.0241,14.623,1758.4991],[-89.0236,14.5996,1490.493],[-89.0158,14.5937,1487.3167],[-89.0148,14.5911,1549.4768],[-89.0174,14.5866,1437.9935],[-89.016,14.5786,1276.7234],[-89.0197,14.5777,1420.584],[-89.0193,14.5743,1343.35],[-89.0245,14.5722,1407.5076],[-89.0244,14.5703,1360.9727],[-89.0317,14.5637,1121.2297],[-89.0341,14.5635,1116.4076],[-89.0338,14.5618,1092.2584],[-89.0354,14.5605,1092.2584],[-89.0402,14.5602,1143.1564],[-89.0405,14.5583,1102.5051],[-89.0423,14.5589,1121.4058],[-89.0463,14.5563,1055.5996],[-89.044,14.5481,1153.7725],[-89.0418,14.5479,1188.474],[-89.0432,14.5468,1203.3604],[-89.0422,14.5452,1213.7512],[-89.0445,14.5441,1161.6904],[-89.0442,14.5419,1171.7198],[-89.0356,14.5429,1196.129],[-89.029,14.5375,1043.9656],[-89.0287,14.5395,1033.0093],[-89.018,14.5406,1026.4982],[-89.0174,14.5378,1055.5554],[-89.0118,14.5368,980.5077],[-89.0109,14.5329,1041.4995],[-89.0066,14.5326,996.8502],[-89.0057,14.5298,954.7551],[-89.0004,14.5292,934.4247],[-88.9946,14.5238,1007.5822],[-88.988,14.5271,922.5248],[-88.9851,14.5354,899.1599],[-88.9865,14.5388,907.4296],[-88.9931,14.5453,936.7922],[-88.993,14.5499,1000.0249],[-88.9903,14.5561,1021.3125],[-88.9932,14.5639,1112.9395],[-88.9967,14.5681,1140.2605],[-88.9954,14.5798,1187.5393],[-88.9973,14.5817,1244.1439],[-89.0019,14.5811,1187.5244],[-88.9991,14.5873,1329.23],[-88.9969,14.5993,1502.124],[-88.9944,14.6036,1506.3595],[-88.9914,14.5931,1333.796],[-88.9859,14.5915,1306.8325],[-88.9866,14.5845,1267.3503],[-88.9807,14.5815,1182.9385],[-88.9802,14.5751,1119.9274],[-88.9852,14.5717,1075.0619],[-88.9858,14.5653,1041.0703],[-88.9806,14.5566,982.8771],[-88.9807,14.5523,963.4482],[-88.9785,14.5517,944.3422],[-88.9774,14.5472,914.401],[-88.9753,14.5455,904.7062],[-88.972,14.5374,901.4376],[-88.9728,14.5354,884.8298],[-88.9661,14.5249,853.8293],[-88.9665,14.5231,848.8519],[-88.9347,14.5229,884.7378],[-88.9333,14.5201,916.0974],[-88.9352,14.5176,897.9537],[-88.9268,14.5188,906.9609],[-88.9035,14.5166,1153.3406],[-88.9125,14.5268,1034.327],[-88.9094,14.5423,1052.051],[-88.9118,14.5412,1039.1354],[-88.9218,14.5427,920.7943],[-88.9284,14.5481,878.9276],[-88.9226,14.5514,886.1065],[-88.9246,14.5611,819.1488],[-88.9222,14.5676,846.3962],[-88.9199,14.5689,872.0972],[-88.9221,14.5757,900.5314],[-88.9175,14.577,913.8466],[-88.9169,14.5821,1035.4092]]]]}
,"properties": {"GID_2": "HND.14.7_1","GID_0": "HND","country": "Honduras","GID_1": "HND.14_1","province": "Ocotepeque","NL_NAME_1": "NA","county": "Lucerna","VARNAME_2": "NA","NL_NAME_2": "NA","TYPE_2": "Municipio","ENGTYPE_2": "Municipality","CC_2": "NA","HASC_2": "HN.OC.LU","name": "Lucerna.county","area_km2": 119.64998,"hist_schema_id": "Elevation0-9000","hist_area_km2": {"800": 1.16964,"825": 4.47361,"850": 6.01303,"875": 5.93106,"900": 5.31535,"925": 5.19217,"950": 4.86376,"975": 5.62304,"1000": 5.68457,"1025": 4.82256,"1050": 5.33546,"1075": 4.49405,"1100": 3.55009,"1125": 3.83732,"1150": 2.79074,"1175": 2.54442,"1200": 2.03146,"1225": 2.15451,"1250": 2.25707,"1275": 2.44165,"1300": 2.03127,"1325": 1.92868,"1350": 2.29799,"1375": 1.57986,"1400": 1.53879,"1425": 1.51828,"1450": 1.37465,"1475": 1.4567,"1500": 1.72343,"1525": 1.94908,"1550": 1.94906,"1575": 1.78492,"1600": 1.47717,"1625": 1.62075,"1650": 1.64124,"1675": 1.41554,"1700": 1.43604,"1725": 1.18987,"1750": 1.53861,"1775": 1.45654,"1800": 1.12831,"1825": 1.14883,"1850": 1.21036,"1875": 0.75905,"1900": 0.51286,"1925": 0.49235,"1950": 0.2872,"1975": 0.18463,"2000": 0.24618,"2025": 0.22566,"2050": 0.02051}}}