{"type":"Feature","properties":{"GID_2":"HND.10.11_1","GID_0":"HND","country":"Honduras","GID_1":"HND.10_1","province":"Intibucá","NL_NAME_1":"NA","county":"SanFranciscodeOpalaca","VARNAME_2":"NA","NL_NAME_2":"NA","TYPE_2":"Municipio","ENGTYPE_2":"Municipality","CC_2":"NA","HASC_2":"HN.IN.SF","name":"San_Franciscode_Opalaca.county"},
"geometry":{"type": "MultiPolygon","coordinates": [[[[-88.1851,14.6419,660.2481],[-88.2249,14.6403,872.3311],[-88.2319,14.6386,992.8718],[-88.2462,14.6308,1204.2775],[-88.2823,14.6319,1523.5769],[-88.3387,14.6395,2075.0327],[-88.3427,14.6368,2019.2493],[-88.3249,14.6044,1917.7286],[-88.3214,14.5848,1740.47],[-88.3188,14.5512,1615.8763],[-88.3255,14.5382,1482.754],[-88.3433,14.5155,1627.1658],[-88.3386,14.5024,1562.864],[-88.341,14.4897,1706.345],[-88.3687,14.4659,1997.4353],[-88.3759,14.4618,1946.3066],[-88.2595,14.3801,1797.1442],[-88.2436,14.3913,2178.4771],[-88.2391,14.3924,1959.4335],[-88.2425,14.403,1877.5143],[-88.2424,14.415,1845.5253],[-88.2402,14.4209,1766.1643],[-88.2452,14.4305,1549.2012],[-88.2451,14.4374,1554.5461],[-88.2478,14.4434,1450.5995],[-88.2476,14.4529,1455.6498],[-88.2385,14.4585,1592.635],[-88.2394,14.4659,1390.7389],[-88.2332,14.4687,1463.3745],[-88.2352,14.4718,1538.4283],[-88.2338,14.4761,1409.6439],[-88.2359,14.4803,1347.5012],[-88.2327,14.4867,1203.2098],[-88.2322,14.4931,1369.802],[-88.2342,14.499,1283.361],[-88.2415,14.4999,1137.0074],[-88.2452,14.5035,1194.5586],[-88.2429,14.5082,1159.75],[-88.2431,14.5149,1070.9248],[-88.2405,14.517,1046.3571],[-88.2364,14.5173,1141.0684],[-88.2302,14.5275,1222.0294],[-88.2191,14.5364,1173.593],[-88.2156,14.5426,1168.4575],[-88.2131,14.5431,1190.8633],[-88.2151,14.5524,1029.7542],[-88.2128,14.5558,1142.3225],[-88.2134,14.5589,1080.7596],[-88.2097,14.5739,932.2781],[-88.1983,14.5786,1141.3027],[-88.1924,14.5865,1218.6404],[-88.1865,14.5903,1341.4005],[-88.1865,14.5934,1484.7546],[-88.1904,14.5952,1388.5508],[-88.2106,14.5985,902.5382],[-88.2116,14.6028,969.1644],[-88.2036,14.6164,1330.8081],[-88.1989,14.6191,1391.3184],[-88.1985,14.6219,1360.3765],[-88.1955,14.6217,1446.9746],[-88.1911,14.6291,1221.3368],[-88.1909,14.634,1050.446],[-88.1851,14.6419,660.2481]]]]}}