{"type": "Feature","id": "652","bbox": [-88.97888,13.96907,-88.3168,14.94167],"geometry": {"type": "Polygon","coordinates": [[[-88.48731,14.81191,1133.5012],[-88.50563,14.83444,1095.4834],[-88.53322,14.87837,1022.0586],[-88.55511,14.9348,1174.922],[-88.60169,14.94167,701.3605],[-88.60926,14.93769,485.0204],[-88.64461,14.92736,373.9345],[-88.63929,14.89578,514.4518],[-88.64332,14.86927,418.5612],[-88.65662,14.85977,450.4632],[-88.65482,14.84902,499.3662],[-88.65686,14.84457,494.387],[-88.66412,14.83589,533.3066],[-88.66954,14.83088,569.0247],[-88.67383,14.82328,482.4928],[-88.67631,14.81501,511.7336],[-88.67781,14.80189,467.6203],[-88.6768,14.787,470.1926],[-88.67006,14.77595,464.4724],[-88.65978,14.75357,463.6858],[-88.65551,14.73548,513.363],[-88.65497,14.72975,493.3256],[-88.6559,14.72386,529.0328],[-88.66373,14.72308,652.4508],[-88.69205,14.71507,571.5062],[-88.7282,14.71249,634.9739],[-88.77809,14.71822,604.242],[-88.79284,14.71352,638.8515],[-88.7947,14.69859,745.7089],[-88.79411,14.69445,779.0523],[-88.78328,14.66898,1021.5026],[-88.75277,14.64076,1569.5883],[-88.74556,14.63027,1176.2727],[-88.7336,14.60924,1343.026],[-88.73052,14.54878,2150.7266],[-88.7213,14.54526,2383.3271],[-88.71869,14.54335,2361.6875],[-88.71533,14.52805,2189.7859],[-88.7414,14.4538,1480.5234],[-88.74375,14.44217,1275.4879],[-88.74714,14.43809,1281.439],[-88.75269,14.43323,1377.0146],[-88.76065,14.42878,1457.6699],[-88.78959,14.41938,2118.3586],[-88.81075,14.42238,2168.8015],[-88.81739,14.42687,2285.0645],[-88.81946,14.42656,2297.634],[-88.82088,14.42424,2268.9563],[-88.82318,14.41493,2224.1343],[-88.82349,14.40801,2247.8042],[-88.82297,14.40315,2185.2222],[-88.81065,14.38682,2159.5225],[-88.83641,14.38636,1982.7632],[-88.84785,14.39142,1575.46],[-88.85328,14.39654,1577.4656],[-88.86286,14.4077,1378.8914],[-88.8701,14.4078,1303.7529],[-88.87563,14.40589,1318.7135],[-88.87795,14.39612,1234.5167],[-88.87919,14.38315,1190.5779],[-88.8855,14.36925,1101.1991],[-88.89067,14.36078,1174.983],[-88.9234,14.346,1367.9105],[-88.9394,14.34424,1474.5106],[-88.94596,14.3398,1566.6058],[-88.95211,14.33287,1638.1792],[-88.96077,14.31923,1387.2876],[-88.96684,14.31262,1305.6083],[-88.97389,14.30678,1224.467],[-88.97787,14.3014,1128.822],[-88.97888,14.2938,1064.6936],[-88.9712,14.26931,942.2796],[-88.96906,14.23696,688.8265],[-88.97023,14.21018,609.3156],[-88.96924,14.202,786.993],[-88.96599,14.19138,906.5388],[-88.95718,14.18518,683.2867],[-88.94749,14.18727,699.9865],[-88.93563,14.19402,514.1588],[-88.92165,14.19988,676.2472],[-88.90602,14.19957,505.7982],[-88.88126,14.1842,478.7405],[-88.86033,14.15852,324.1202],[-88.84532,14.12862,414.0296],[-88.83876,14.10041,292.0116],[-88.82119,14.10294,454.6385],[-88.77734,14.09973,369.2477],[-88.76543,14.10426,356.4182],[-88.75512,14.11046,405.1766],[-88.74639,14.11134,544.3443],[-88.73923,14.09994,687.5347],[-88.74006,14.08302,659.2709],[-88.74608,14.06656,614.3621],[-88.74665,14.05248,532.9693],[-88.73096,14.04248,793.2874],[-88.70952,14.03969,479.7833],[-88.70487,14.03803,518.8827],[-88.69766,14.03201,393.9298],[-88.6927,14.02529,230.2233],[-88.69045,14.01695,249.5367],[-88.69081,14.01179,139.6468],[-88.69094,14.01,120.0061],[-88.68481,14.0123,171.6152],[-88.65934,14.01612,170.1049],[-88.63386,14.01447,194.4358],[-88.5581,13.9909,196.8643],[-88.51405,13.98765,255.1257],[-88.50436,13.9837,229.532],[-88.49542,13.97514,226.6078],[-88.4962,13.97199,156.0604],[-88.49651,13.96956,175.8362],[-88.49709,13.96907,175.8362],[-88.49493,13.97036,136.4946],[-88.48377,13.98499,147.3857],[-88.48304,13.98757,279.0992],[-88.48015,13.99217,149.1876],[-88.46351,14.00457,141.6905],[-88.43121,14.01873,180.711],[-88.3753,14.05067,237.2807],[-88.353,14.07046,206.5085],[-88.34378,14.07408,215.8001],[-88.339,14.07521,250.5493],[-88.3362,14.07682,238.7535],[-88.33352,14.0809,442.1229],[-88.33352,14.08865,292.6085],[-88.33256,14.09475,274.5885],[-88.33101,14.09929,330.1667],[-88.32564,14.10503,293.0354],[-88.32228,14.10787,325.3038],[-88.32006,14.12203,316.8748],[-88.32677,14.16606,658.8347],[-88.32832,14.18751,707.6937],[-88.32794,14.19169,667.4723],[-88.32791,14.20136,756.21],[-88.32654,14.20533,742.4948],[-88.32817,14.21562,840.0868],[-88.3461,14.2258,904.5059],[-88.3678,14.23035,895.5325],[-88.37403,14.23076,899.4514],[-88.37912,14.2305,920.0558],[-88.38398,14.22947,914.8228],[-88.38798,14.22967,988.5825],[-88.39271,14.23133,1008.8119],[-88.39858,14.23438,952.9971],[-88.40468,14.23841,1013.9016],[-88.41121,14.2413,1016.4672],[-88.41674,14.2444,1076.1614],[-88.4215,14.24792,1034.9972],[-88.42393,14.25339,1112.0515],[-88.42305,14.26053,1246.8293],[-88.41341,14.28099,1195.791],[-88.41173,14.29908,1215.3022],[-88.42238,14.349,1172.067],[-88.42883,14.35752,1344.7308],[-88.43237,14.36098,1330.3459],[-88.45426,14.36367,1373.9438],[-88.47472,14.38114,1507.8156],[-88.49462,14.40708,1220.3904],[-88.50147,14.44863,1119.1077],[-88.49824,14.45638,1188.9623],[-88.48154,14.46682,1021.4236],[-88.45705,14.47405,1196.5493],[-88.41157,14.47359,1636.613],[-88.38804,14.47689,2019.6514],[-88.36049,14.491,1975.7424],[-88.35005,14.50764,1669.0544],[-88.34806,14.51932,1574.369],[-88.34222,14.53823,1644.4629],[-88.32251,14.57317,1680.6074],[-88.33388,14.63601,1942.36],[-88.34378,14.6543,1674.1835],[-88.32228,14.68892,1458.9396],[-88.3168,14.71952,1356.4084],[-88.32336,14.73119,1623.4661],[-88.33574,14.7297,1463.4006],[-88.35251,14.73181,695.6016],[-88.367,14.73951,655.9911],[-88.38305,14.76582,1083.3823],[-88.38884,14.77223,1375.9138],[-88.36052,14.8192,1440.8103],[-88.38103,14.83119,1495.7825],[-88.40778,14.83062,1502.4497],[-88.42023,14.84757,1458.2925],[-88.4224,14.84984,1487.2954],[-88.43364,14.85455,1366.9172],[-88.44235,14.85387,1404.2333],[-88.45359,14.84323,1258.5858],[-88.46372,14.82742,1284.897],[-88.47963,14.81439,1238.8191],[-88.48731,14.81191,1133.5012]]]}
,"properties": {"ISO3166-1-Alpha-3": "HND","country": "Honduras","fill": "#000","name": "Lempira","area_km2": 4310.942,"hist_schema_id": "Elevation0-9000","hist_area_km2": {"75": 0.062,"100": 2.078,"125": 4.238,"150": 10.532,"175": 15.221,"200": 18.656,"225": 20.918,"250": 23.611,"275": 25.482,"300": 26.057,"325": 28.935,"350": 28.954,"375": 28.48,"400": 31.377,"425": 33.635,"450": 36.982,"475": 39.136,"500": 43.792,"525": 47.241,"550": 53.047,"575": 55.672,"600": 60.518,"625": 62.259,"650": 67.227,"675": 69.072,"700": 72.292,"725": 72.346,"750": 74.967,"775": 75.108,"800": 76.726,"825": 83.726,"850": 85.304,"875": 87.587,"900": 95.528,"925": 96.696,"950": 104.3,"975": 100.294,"1000": 97.44,"1025": 94.091,"1050": 86.474,"1075": 84.113,"1100": 81.65,"1125": 83.826,"1150": 82.797,"1175": 80.355,"1200": 85.535,"1225": 87.156,"1250": 84.156,"1275": 80.784,"1300": 80.451,"1325": 74.352,"1350": 76.423,"1375": 73.08,"1400": 72.834,"1425": 70.046,"1450": 67.956,"1475": 68.552,"1500": 67.263,"1525": 63.772,"1550": 63.28,"1575": 54.842,"1600": 54.064,"1625": 45.832,"1650": 41.149,"1675": 38.051,"1700": 33.018,"1725": 30.718,"1750": 27.844,"1775": 27.598,"1800": 23.82,"1825": 18.685,"1850": 17.208,"1875": 15.956,"1900": 15.011,"1925": 15.422,"1950": 14.107,"1975": 11.785,"2000": 10.757,"2025": 11.003,"2050": 10.716,"2075": 9.648,"2100": 9.279,"2125": 8.889,"2150": 8.726,"2175": 8.581,"2200": 7.966,"2225": 7.473,"2250": 7.001,"2275": 6.364,"2300": 5.071,"2325": 4.475,"2350": 3.654,"2375": 3.264,"2400": 3.058,"2425": 2.545,"2450": 2.565,"2475": 2.216,"2500": 2.073,"2525": 2.298,"2550": 2.298,"2575": 2.339,"2600": 2.319,"2625": 2.422,"2650": 3.099,"2675": 3.263,"2700": 2.914,"2725": 1.724,"2750": 1.95,"2775": 1.026,"2800": 0.287,"2825": 0.123}}}