{"type": "Feature","bbox": [-88.977,13.9394,-88.3095,14.9297],"geometry": {"type": "MultiPolygon","coordinates": [[[[-88.568,13.9802,122.8195],[-88.565,13.9788,89.9137],[-88.5376,13.9831,113.0443],[-88.5273,13.9818,170.1506],[-88.5077,13.9719,131.0949],[-88.4978,13.9619,151.8196],[-88.4976,13.9576,112.9591],[-88.5079,13.9394,91.302],[-88.4969,13.9402,180.263],[-88.4982,13.9511,63.0],[-88.4946,13.9525,169.0266],[-88.4909,13.9499,195.3485],[-88.4874,13.9604,91.5426],[-88.4845,13.9624,145.8443],[-88.4798,13.9622,123.7698],[-88.4785,13.9646,128.8612],[-88.4754,13.9654,146.6676],[-88.4757,13.9725,208.5442],[-88.4789,13.9784,99.9459],[-88.4724,13.9789,175.2666],[-88.4672,13.9812,193.9382],[-88.4614,13.994,387.9581],[-88.4436,13.9955,316.0041],[-88.4368,14.0038,192.5926],[-88.4251,14.0047,443.2687],[-88.4154,14.0124,516.9099],[-88.4062,14.0151,445.7136],[-88.4005,14.0205,408.1964],[-88.3963,14.0207,318.8127],[-88.3895,14.0241,356.3008],[-88.3818,14.0242,431.9561],[-88.3802,14.0291,372.0653],[-88.3732,14.0308,290.9438],[-88.3699,14.0362,319.3448],[-88.3627,14.0384,348.9523],[-88.3489,14.0596,207.653],[-88.3428,14.0585,282.6998],[-88.3376,14.0621,263.1402],[-88.3298,14.0604,266.4376],[-88.3256,14.0628,297.239],[-88.3248,14.0658,406.4306],[-88.3304,14.076,228.9764],[-88.3306,14.0798,366.2081],[-88.3246,14.0891,535.7161],[-88.3132,14.0927,661.7844],[-88.314,14.1039,354.9338],[-88.3177,14.107,286.7458],[-88.3178,14.1176,333.8663],[-88.3201,14.1209,316.8748],[-88.3153,14.1351,531.5545],[-88.3162,14.1418,509.925],[-88.3199,14.1473,397.2457],[-88.3254,14.1498,527.6887],[-88.3251,14.1696,903.804],[-88.3213,14.1753,973.9401],[-88.3214,14.186,955.6698],[-88.3161,14.1928,1087.7618],[-88.3164,14.1994,1141.1636],[-88.3252,14.2052,704.6105],[-88.3289,14.213,977.9086],[-88.334,14.212,1219.6146],[-88.3571,14.2173,1082.3621],[-88.3633,14.2166,964.5754],[-88.3663,14.218,958.5007],[-88.3809,14.216,954.4142],[-88.3862,14.2207,1011.7721],[-88.3934,14.2213,1005.8901],[-88.3954,14.2235,1072.0205],[-88.3984,14.2238,1068.7333],[-88.4012,14.2282,1092.462],[-88.4082,14.2295,1156.1753],[-88.4168,14.2339,1185.0337],[-88.4199,14.2422,1164.5448],[-88.4194,14.2465,1002.5903],[-88.4057,14.2668,1183.5576],[-88.4053,14.2703,1175.5352],[-88.4116,14.3118,1195.2247],[-88.4215,14.3488,1158.5229],[-88.4312,14.3535,1340.9019],[-88.4392,14.3526,1329.8192],[-88.4441,14.349,1351.1698],[-88.4483,14.3492,1367.2028],[-88.4863,14.3794,1526.4097],[-88.4943,14.3921,1429.0397],[-88.4908,14.3939,1416.3207],[-88.4897,14.399,1332.4768],[-88.4949,14.4224,1340.7544],[-88.4914,14.4361,1261.7885],[-88.4942,14.4414,1175.828],[-88.4636,14.4595,1061.3822],[-88.443,14.4651,1154.1309],[-88.4259,14.4588,1359.8724],[-88.399,14.4611,1867.2937],[-88.3816,14.4604,1946.4523],[-88.37,14.4649,1977.1931],[-88.341,14.4897,1706.345],[-88.3386,14.5024,1562.864],[-88.3433,14.5155,1627.1658],[-88.3234,14.5415,1464.0865],[-88.3186,14.5545,1635.3052],[-88.3217,14.5872,1802.3215],[-88.3249,14.6044,1917.7286],[-88.3427,14.6368,2019.2493],[-88.3271,14.6509,1825.033],[-88.3127,14.6701,1479.0015],[-88.3095,14.719,1312.5278],[-88.3466,14.7043,828.3876],[-88.3653,14.7193,726.7538],[-88.3694,14.7357,684.6665],[-88.3816,14.7532,661.584],[-88.3645,14.7819,919.7739],[-88.3563,14.8063,1071.9568],[-88.3686,14.8159,1476.5267],[-88.372,14.8206,1484.2207],[-88.3893,14.8224,1271.4392],[-88.3973,14.8181,1126.3699],[-88.4044,14.819,1120.5441],[-88.4121,14.8324,1536.4248],[-88.4149,14.8323,1532.2214],[-88.418,14.8358,1527.4355],[-88.4372,14.841,1428.129],[-88.4494,14.8348,1355.8857],[-88.4641,14.8007,1398.1154],[-88.482,14.794,1286.1029],[-88.5255,14.8547,1368.3767],[-88.5479,14.9167,1402.5137],[-88.5527,14.9145,1394.7109],[-88.5615,14.9176,1334.3691],[-88.5794,14.9206,878.249],[-88.5957,14.9287,798.8558],[-88.6017,14.9297,549.9016],[-88.6038,14.922,483.9095],[-88.607,14.9175,615.4675],[-88.6041,14.9105,679.6981],[-88.6142,14.9013,877.1812],[-88.6216,14.8994,879.3542],[-88.6385,14.9027,385.8068],[-88.632,14.8829,475.542],[-88.6351,14.8757,475.1245],[-88.6428,14.8666,491.1262],[-88.6413,14.8564,723.5857],[-88.6381,14.8535,872.2887],[-88.6366,14.849,796.793],[-88.6447,14.8508,583.2585],[-88.6465,14.8497,547.6534],[-88.65,14.8417,601.8623],[-88.6459,14.8334,753.4271],[-88.6461,14.8287,845.7164],[-88.6553,14.8232,951.0407],[-88.6565,14.821,965.5303],[-88.6628,14.8187,803.6054],[-88.672,14.7987,523.6248],[-88.67,14.7884,675.2164],[-88.6725,14.7824,479.9875],[-88.6715,14.7762,484.8113],[-88.6745,14.7679,688.5756],[-88.6728,14.7657,668.459],[-88.6612,14.761,572.525],[-88.6623,14.7563,495.2885],[-88.6586,14.7521,549.4417],[-88.658,14.7392,472.0147],[-88.6527,14.7345,532.8266],[-88.6575,14.7266,568.119],[-88.653,14.7249,479.1899],[-88.6521,14.7209,481.6013],[-88.6501,14.7194,477.1824],[-88.6502,14.7153,488.7558],[-88.646,14.7122,506.98],[-88.6472,14.7009,518.7522],[-88.6505,14.7006,519.2128],[-88.6506,14.7044,535.3556],[-88.6528,14.7054,580.9704],[-88.6555,14.7054,547.5167],[-88.6573,14.7014,570.1623],[-88.6593,14.7009,567.0999],[-88.6603,14.7049,584.2542],[-88.6668,14.7029,653.7863],[-88.6681,14.7047,644.2158],[-88.6744,14.7067,643.8165],[-88.6788,14.7026,671.2804],[-88.6807,14.698,674.6365],[-88.6844,14.696,757.9796],[-88.6981,14.6972,569.9136],[-88.7262,14.6914,995.3453],[-88.7278,14.6935,985.876],[-88.7371,14.6934,1023.5756],[-88.7499,14.699,743.6219],[-88.7563,14.6971,790.9881],[-88.7682,14.6973,811.873],[-88.7717,14.7001,770.7754],[-88.7833,14.7039,801.5974],[-88.7887,14.6987,828.1158],[-88.79,14.6887,893.9376],[-88.794,14.6876,879.0536],[-88.7925,14.6817,902.4144],[-88.7696,14.6371,1397.4292],[-88.755,14.6344,1396.1254],[-88.7533,14.6316,1327.7234],[-88.7478,14.6286,1214.4529],[-88.7279,14.5967,2013.921],[-88.7462,14.5811,1433.8955],[-88.7527,14.5798,1472.9113],[-88.7665,14.5545,1809.3354],[-88.7723,14.5354,1967.4309],[-88.7589,14.5295,2194.4717],[-88.7477,14.5267,2026.2944],[-88.737,14.5309,2039.8069],[-88.7263,14.5315,2184.7791],[-88.7185,14.5298,2283.8931],[-88.7095,14.5209,2208.5962],[-88.7107,14.5182,2161.5767],[-88.7099,14.513,2031.2349],[-88.7125,14.5117,1993.769],[-88.7131,14.5084,2177.073],[-88.7117,14.4979,2262.4595],[-88.7172,14.4889,2145.5913],[-88.7196,14.479,2030.0273],[-88.7188,14.4764,1832.9435],[-88.723,14.4718,1827.8479],[-88.723,14.4662,1740.4894],[-88.7253,14.4659,1725.3313],[-88.7285,14.46,1655.8396],[-88.7281,14.4558,1711.4045],[-88.7261,14.4536,1626.0425],[-88.727,14.446,1512.7966],[-88.7286,14.4442,1505.9709],[-88.7317,14.4443,1393.7661],[-88.7334,14.4414,1275.4459],[-88.7325,14.4398,1248.9095],[-88.7345,14.437,1312.4893],[-88.7311,14.4267,1355.3982],[-88.7344,14.4267,1393.5923],[-88.7364,14.4288,1589.377],[-88.7427,14.4192,1598.6102],[-88.7468,14.4181,1645.9894],[-88.7491,14.4155,1556.8271],[-88.79,14.4004,1956.4545],[-88.8136,14.4145,2100.5566],[-88.8152,14.4007,2151.6177],[-88.8199,14.3899,2184.2378],[-88.8006,14.3719,2246.1851],[-88.8177,14.373,2292.9375],[-88.8312,14.3712,1799.7913],[-88.8499,14.384,1437.1184],[-88.8524,14.3929,1551.6188],[-88.8637,14.3932,1433.0682],[-88.8715,14.396,1302.4961],[-88.8721,14.3612,1354.4805],[-88.8783,14.3484,1240.2151],[-88.8821,14.3437,1199.9873],[-88.8912,14.3409,1105.6135],[-88.9031,14.3341,1138.5206],[-88.9212,14.3304,1296.6234],[-88.9272,14.3321,1297.5422],[-88.9419,14.3298,1634.5397],[-88.9446,14.3263,1551.4197],[-88.9432,14.3197,1558.9315],[-88.9479,14.3131,1431.0425],[-88.9469,14.3103,1395.4474],[-88.9497,14.3095,1392.0736],[-88.9529,14.3056,1314.4181],[-88.9502,14.3038,1386.8783],[-88.9511,14.3011,1321.5002],[-88.9556,14.2997,1369.2042],[-88.9659,14.2909,1221.8745],[-88.9717,14.2909,1184.0239],[-88.977,14.2888,1063.5265],[-88.9758,14.2844,1156.0629],[-88.972,14.2812,1016.8367],[-88.9682,14.2702,905.4953],[-88.9658,14.2687,943.1947],[-88.9663,14.2673,943.1947],[-88.9642,14.2662,1059.0785],[-88.9618,14.2606,1124.2468],[-88.962,14.2576,999.4307],[-88.9657,14.255,1033.2418],[-88.9659,14.2502,1038.6864],[-88.9687,14.2465,816.9952],[-88.9677,14.2358,688.8265],[-88.9649,14.2311,708.092],[-88.9648,14.2249,720.9385],[-88.9626,14.2194,887.0062],[-88.9665,14.2098,681.2366],[-88.9561,14.2028,681.5856],[-88.9278,14.2023,493.4038],[-88.9084,14.2037,504.886],[-88.8984,14.1922,446.7547],[-88.8838,14.1857,456.177],[-88.8702,14.1822,451.2229],[-88.8646,14.1783,421.5197],[-88.8525,14.1472,352.7125],[-88.8389,14.1252,326.2319],[-88.8199,14.0836,377.3737],[-88.8167,14.081,287.4716],[-88.8119,14.0787,263.892],[-88.8034,14.0779,328.2592],[-88.7837,14.0799,502.6189],[-88.7614,14.0849,554.7635],[-88.7517,14.0849,542.3895],[-88.7432,14.0798,647.4055],[-88.7335,14.0696,744.5248],[-88.7176,14.0447,437.5515],[-88.7116,14.0379,536.185],[-88.6888,14.0164,243.5909],[-88.6812,14.0123,202.2503],[-88.6813,14.0111,130.3085],[-88.6746,14.0082,191.9707],[-88.6619,14.0156,154.5248],[-88.6535,14.0124,144.5901],[-88.6497,14.0158,130.6029],[-88.6398,14.0145,151.8428],[-88.6363,14.0188,118.1386],[-88.6285,14.0191,150.5528],[-88.6075,14.0035,209.2933],[-88.6024,14.0033,179.0862],[-88.5952,14.0077,111.9518],[-88.5891,14.0066,128.5448],[-88.5784,13.9955,123.8517],[-88.568,13.9802,122.8195]]]]}
,"properties": {"GID_1": "HND.13_1","GID_0": "HND","country": "Honduras","province": "Lempira","VARNAME_1": "Gracias","NL_NAME_1": "NA","TYPE_1": "Departamento","ENGTYPE_1": "Department","CC_1": "NA","HASC_1": "HN.LE","ISO_1": "HN-LE","name": "Lempira.province","area_km2": 4267.605,"hist_schema_id": "Elevation0-9000","hist_area_km2": {"50": 0.041,"75": 2.119,"100": 4.567,"125": 7.9,"150": 14.338,"175": 19.151,"200": 23.449,"225": 25.443,"250": 28.116,"275": 30.665,"300": 30.891,"325": 32.699,"350": 32.575,"375": 31.237,"400": 33.498,"425": 34.811,"450": 37.789,"475": 39.02,"500": 43.164,"525": 44.991,"550": 49.505,"575": 51.739,"600": 55.619,"625": 58.158,"650": 61.731,"675": 63.698,"700": 66.631,"725": 66.766,"750": 70.146,"775": 71.025,"800": 72.972,"825": 80.505,"850": 82.617,"875": 85.536,"900": 93.272,"925": 94.994,"950": 100.913,"975": 98.097,"1000": 95.757,"1025": 92.798,"1050": 85.776,"1075": 83.17,"1100": 81.18,"1125": 82.719,"1150": 81.361,"1175": 79.699,"1200": 84.078,"1225": 86.664,"1250": 82.577,"1275": 78.322,"1300": 77.209,"1325": 69.53,"1350": 71.415,"1375": 68.01,"1400": 68.791,"1425": 67.48,"1450": 65.123,"1475": 67.074,"1500": 65.168,"1525": 62.294,"1550": 62.622,"1575": 55.928,"1600": 55.294,"1625": 47.083,"1650": 42.605,"1675": 39.692,"1700": 33.9,"1725": 32.153,"1750": 28.829,"1775": 28.131,"1800": 24.394,"1825": 19.157,"1850": 18.131,"1875": 16.961,"1900": 15.832,"1925": 16.304,"1950": 15.256,"1975": 12.626,"2000": 11.065,"2025": 11.537,"2050": 10.716,"2075": 10.469,"2100": 9.648,"2125": 9.566,"2150": 9.341,"2175": 8.745,"2200": 8.191,"2225": 7.698,"2250": 6.877,"2275": 6.405,"2300": 5.419,"2325": 4.496,"2350": 3.88,"2375": 3.325,"2400": 3.222,"2425": 2.586,"2450": 2.586,"2475": 2.216,"2500": 2.073,"2525": 2.298,"2550": 2.298,"2575": 2.339,"2600": 2.319,"2625": 2.422,"2650": 3.099,"2675": 3.263,"2700": 2.914,"2725": 1.724,"2750": 1.95,"2775": 1.026,"2800": 0.287,"2825": 0.123}}}