{"type":"Feature","properties":{"GID_2":"HND.3.4_1","GID_0":"HND","country":"Honduras","GID_1":"HND.3_1","province":"Colón","NL_NAME_1":"NA","county":"Limón","VARNAME_2":"NA","NL_NAME_2":"NA","TYPE_2":"Municipio","ENGTYPE_2":"Municipality","CC_2":"NA","HASC_2":"HN.CL.LI","name":"Limón.county"},
"geometry":{"type": "MultiPolygon","coordinates": [[[[-85.6327,15.6658,159.2638],[-85.616,15.6671,172.7496],[-85.5518,15.664,263.2181],[-85.4064,15.7654,338.2454],[-85.2996,15.8249,140.8757],[-85.2788,15.8386,136.7156],[-85.2805,15.8498,53.4387],[-85.293,15.8691,6.0435],[-85.2906,15.8788,0.0],[-85.3179,15.8776,0.0],[-85.3224,15.8763,2.1533],[-85.3243,15.8774,0.0],[-85.4018,15.8782,2.1708],[-85.4101,15.8743,3.1782],[-85.4296,15.8726,7.2023],[-85.4301,15.8713,31.8881],[-85.4337,15.8707,9.7028],[-85.434,15.8674,47.5315],[-85.4418,15.8626,12.772],[-85.456,15.8599,4.2715],[-85.491,15.861,1.5387],[-85.5129,15.8688,0.0],[-85.5115,15.864,1.3102],[-85.5057,15.859,4.6366],[-85.5074,15.8549,0.6466],[-85.5071,15.8582,-0.0252],[-85.509,15.8612,2.5984],[-85.5132,15.8632,0.3245],[-85.514,15.8668,0.0],[-85.5301,15.8746,1.1949],[-85.5754,15.8904,6.25],[-85.6051,15.9043,0.0],[-85.6144,15.89,4.7756],[-85.62,15.8843,2.643],[-85.6256,15.8859,2.742],[-85.6274,15.885,18.1053],[-85.6216,15.8824,2.3771],[-85.6217,15.8782,1.5189],[-85.6281,15.8785,7.1279],[-85.6211,15.8696,3.8276],[-85.6208,15.8664,3.6625],[-85.6235,15.8658,2.238],[-85.6267,15.8698,4.507],[-85.6288,15.87,3.9692],[-85.6334,15.8684,10.8967],[-85.6359,15.8652,5.5819],[-85.6329,15.86,4.4387],[-85.634,15.857,3.5091],[-85.6308,15.8535,3.2466],[-85.613,15.8413,2.0739],[-85.6206,15.8369,8.3706],[-85.6238,15.8376,3.2142],[-85.6264,15.8352,4.5299],[-85.6333,15.8363,2.8896],[-85.6343,15.8397,4.8087],[-85.6359,15.8362,4.2456],[-85.64,15.8356,1.5802],[-85.6473,15.8284,4.1815],[-85.6544,15.8287,4.0004],[-85.6566,15.8253,4.0939],[-85.6578,15.8161,10.0296],[-85.6698,15.8037,17.7305],[-85.6674,15.7979,11.2691],[-85.67,15.7902,15.3351],[-85.6677,15.7848,18.7289],[-85.6754,15.7716,22.434],[-85.6724,15.7661,28.3189],[-85.6725,15.7586,35.334],[-85.6678,15.7559,51.4058],[-85.6617,15.7572,112.9904],[-85.6633,15.7538,30.0897],[-85.6602,15.7514,53.6366],[-85.6622,15.7477,28.3398],[-85.6614,15.7451,95.2401],[-85.6508,15.7448,32.368],[-85.6451,15.7421,59.3854],[-85.6439,15.7382,40.5633],[-85.6377,15.7365,46.451],[-85.6406,15.7335,66.5306],[-85.6455,15.7318,45.1504],[-85.6425,15.7279,58.398],[-85.6427,15.7261,80.2543],[-85.6512,15.7219,181.8082],[-85.6572,15.7165,94.0017],[-85.652,15.7162,138.7003],[-85.6497,15.7038,154.4137],[-85.6452,15.6965,128.3709],[-85.6381,15.6921,159.5085],[-85.637,15.684,125.4459],[-85.6332,15.6812,170.9335],[-85.6327,15.6658,159.2638]]]]}}