{"type": "Feature","bbox": [-88.3751,13.9785,-88.2644,14.0921],"geometry": {"type": "MultiPolygon","coordinates": [[[[-88.3322,13.9819,764.9417],[-88.3292,13.9874,673.1759],[-88.2994,14.0104,656.8339],[-88.2876,14.007,675.3471],[-88.2644,14.0294,482.3644],[-88.2695,14.037,444.5346],[-88.2722,14.0326,480.8561],[-88.2755,14.0326,541.0478],[-88.2797,14.0297,539.9869],[-88.2834,14.0322,559.182],[-88.2832,14.038,450.6482],[-88.2804,14.0448,310.121],[-88.2771,14.0468,354.5811],[-88.2712,14.0472,414.9221],[-88.2661,14.0536,669.3005],[-88.286,14.0819,997.3084],[-88.3014,14.0883,864.8056],[-88.31,14.0895,670.1744],[-88.3138,14.0921,661.7844],[-88.3246,14.0891,535.7161],[-88.3306,14.0798,366.2081],[-88.3304,14.076,228.9764],[-88.3248,14.0658,406.4306],[-88.3256,14.0628,297.239],[-88.3298,14.0604,266.4376],[-88.3376,14.0621,263.1402],[-88.3428,14.0585,282.6998],[-88.3489,14.0596,207.653],[-88.3627,14.0384,348.9523],[-88.3699,14.0362,319.3448],[-88.3724,14.0316,257.0057],[-88.3751,14.03,366.9601],[-88.3726,14.0283,257.4298],[-88.3699,14.0132,458.4783],[-88.3671,14.0072,473.4566],[-88.3635,14.0009,610.1071],[-88.3558,13.9932,712.6384],[-88.3556,13.9872,801.1678],[-88.3427,13.9785,666.9232],[-88.3322,13.9819,764.9417]]]]}
,"properties": {"GID_2": "HND.10.3_1","GID_0": "HND","country": "Honduras","GID_1": "HND.10_1","province": "Intibucá","NL_NAME_1": "NA","county": "Concepción","VARNAME_2": "NA","NL_NAME_2": "NA","TYPE_2": "Municipio","ENGTYPE_2": "Municipality","CC_2": "NA","HASC_2": "HN.CP.CN","name": "Concepción.county","area_km2": 84.80689,"hist_schema_id": "Elevation0-9000","hist_area_km2": {"200": 0.16454,"225": 1.11066,"250": 2.18021,"275": 2.55046,"300": 2.63272,"325": 3.66122,"350": 4.93648,"375": 6.41758,"400": 6.25307,"425": 5.80058,"450": 5.5743,"475": 5.38919,"500": 5.18348,"525": 5.22479,"550": 4.42257,"575": 3.76422,"600": 2.90034,"625": 2.77689,"650": 2.59178,"675": 2.03638,"700": 2.01584,"725": 1.56327,"750": 1.25477,"775": 1.00792,"800": 0.90503,"825": 0.90503,"850": 0.41133,"875": 0.37019,"900": 0.37018,"925": 0.18509,"950": 0.14396,"975": 0.0617,"1000": 0.04113}}}