{"type": "Feature","id": "650","bbox": [-88.7609,14.64877,-87.98581,15.54045],"geometry": {"type": "Polygon","coordinates": [[[-87.98581,14.83641,634.0],[-87.98788,14.87765,634.0],[-87.99563,14.90085,634.0],[-88.02697,14.92849,634.0],[-88.04891,14.92917,854.4164],[-88.05359,14.93082,814.5016],[-88.05671,14.94694,775.6704],[-88.04956,14.98896,740.4287],[-88.04397,14.99733,942.6622],[-88.03075,15.04254,465.8076],[-88.01814,15.05583,436.961],[-88.0223,15.06301,264.9206],[-88.02907,15.06564,376.216],[-88.03602,15.07195,508.8963],[-88.04302,15.07526,676.3241],[-88.06534,15.0827,662.8603],[-88.09405,15.10104,820.871],[-88.10593,15.11427,596.3525],[-88.11353,15.13086,342.2388],[-88.10805,15.14982,126.866],[-88.06713,15.19235,60.7496],[-88.06152,15.20775,76.1241],[-88.08144,15.2138,469.6553],[-88.09451,15.22202,681.6594],[-88.10219,15.22791,766.1495],[-88.12381,15.27075,318.0373],[-88.13095,15.36795,139.4236],[-88.13433,15.37302,91.6627],[-88.15895,15.37767,95.2429],[-88.16908,15.38216,119.0935],[-88.18254,15.39115,160.8681],[-88.19763,15.4034,209.9492],[-88.22712,15.42056,423.0222],[-88.23368,15.42717,476.3972],[-88.2381,15.43348,529.0054],[-88.24011,15.43916,563.9306],[-88.24115,15.44505,637.5],[-88.24068,15.45213,682.5171],[-88.23833,15.46402,823.0289],[-88.23867,15.46924,971.9237],[-88.24065,15.47849,1050.3926],[-88.2398,15.48681,1183.1257],[-88.24094,15.49073,1428.1726],[-88.24779,15.49621,1653.196],[-88.262,15.50402,1867.8942],[-88.35657,15.53239,365.6321],[-88.40992,15.54045,205.1887],[-88.46682,15.52076,518.4139],[-88.46743,15.52074,518.4139],[-88.50002,15.49595,663.3613],[-88.50002,15.4959,663.3613],[-88.58738,15.4303,924.6388],[-88.6742,15.36506,1092.6462],[-88.7609,15.29996,703.9159],[-88.75801,15.29566,575.5598],[-88.71579,15.24527,1138.4664],[-88.71517,15.23731,999.0167],[-88.71649,15.23091,718.9983],[-88.71804,15.21716,603.4321],[-88.6997,15.1968,622.1785],[-88.6791,15.17566,469.5303],[-88.66272,15.16827,395.4755],[-88.65466,15.1628,440.6832],[-88.65267,15.15856,446.2036],[-88.65172,15.1551,495.9297],[-88.66391,15.13954,431.7224],[-88.6574,15.11443,706.9023],[-88.65298,15.10936,948.2164],[-88.64495,15.09727,965.8656],[-88.64262,15.09148,948.0586],[-88.64236,15.08414,808.9034],[-88.64458,15.07701,771.1803],[-88.66897,15.05639,1082.0953],[-88.67771,15.03743,1181.6378],[-88.67936,15.0195,1268.2681],[-88.68941,14.98513,1033.7913],[-88.70225,14.95237,1123.4568],[-88.69988,14.94353,813.3273],[-88.69755,14.93883,708.8421],[-88.69538,14.93253,590.7173],[-88.69244,14.92694,562.3691],[-88.68587,14.92291,540.8298],[-88.67988,14.92095,501.0095],[-88.64461,14.92736,373.9345],[-88.60926,14.93769,485.0204],[-88.60169,14.94167,701.3605],[-88.55511,14.9348,1174.922],[-88.53322,14.87837,1022.0586],[-88.50563,14.83444,1095.4834],[-88.48731,14.81191,1133.5012],[-88.47963,14.81439,1238.8191],[-88.46372,14.82742,1284.897],[-88.45359,14.84323,1258.5858],[-88.44235,14.85387,1404.2333],[-88.43364,14.85455,1366.9172],[-88.4224,14.84984,1487.2954],[-88.42023,14.84757,1458.2925],[-88.40778,14.83062,1502.4497],[-88.38103,14.83119,1495.7825],[-88.36052,14.8192,1440.8103],[-88.38884,14.77223,1375.9138],[-88.38305,14.76582,1083.3823],[-88.367,14.73951,655.9911],[-88.35251,14.73181,695.6016],[-88.33574,14.7297,1463.4006],[-88.32336,14.73119,1623.4661],[-88.3168,14.71952,1356.4084],[-88.32228,14.68892,1458.9396],[-88.34378,14.6543,1674.1835],[-88.26595,14.64877,1126.8898],[-88.20745,14.65476,745.6214],[-88.16322,14.65864,959.3502],[-88.12963,14.65203,663.3962],[-88.10043,14.64929,655.1022],[-88.09335,14.65445,590.4545],[-88.07495,14.66484,356.2028],[-88.06224,14.68562,859.118],[-88.0716,14.71089,363.4036],[-88.07787,14.72138,440.0581],[-88.07733,14.73522,716.3812],[-88.07477,14.74246,623.8753],[-88.06981,14.74721,646.9538],[-88.05842,14.75197,665.5175],[-88.05297,14.75538,650.0319],[-88.02253,14.78628,886.9765],[-87.98705,14.79259,636.739],[-87.98581,14.83641,634.0]]]}
,"properties": {"ISO3166-1-Alpha-3": "HND","country": "Honduras","fill": "#0F0","name": "Santa Bárbara","area_km2": 5102.78,"hist_schema_id": "Elevation0-9000","hist_area_km2": {"50": 0.532,"75": 8.977,"100": 31.9,"125": 39.415,"150": 53.927,"175": 83.639,"200": 121.836,"225": 166.088,"250": 150.083,"275": 136.039,"300": 129.585,"325": 133.347,"350": 138.424,"375": 137.491,"400": 137.458,"425": 130.22,"450": 123.219,"475": 125.816,"500": 130.772,"525": 136.818,"550": 130.345,"575": 126.974,"600": 124.117,"625": 166.309,"650": 137.256,"675": 128.509,"700": 123.633,"725": 119.914,"750": 113.55,"775": 105.487,"800": 103.174,"825": 97.829,"850": 99.201,"875": 101.046,"900": 102.58,"925": 100.678,"950": 93.866,"975": 88.343,"1000": 80.956,"1025": 72.483,"1050": 69.047,"1075": 61.945,"1100": 57.544,"1125": 56.114,"1150": 49.4,"1175": 44.894,"1200": 42.928,"1225": 38.566,"1250": 36.295,"1275": 32.117,"1300": 28.183,"1325": 24.661,"1350": 21.362,"1375": 18.352,"1400": 17.41,"1425": 16.182,"1450": 13.171,"1475": 12.352,"1500": 11.84,"1525": 10.12,"1550": 9.259,"1575": 8.42,"1600": 5.899,"1625": 5.285,"1650": 4.711,"1675": 4.446,"1700": 3.401,"1725": 3.401,"1750": 3.135,"1775": 2.541,"1800": 2.5,"1825": 2.561,"1850": 2.172,"1875": 2.316,"1900": 2.131,"1925": 1.824,"1950": 2.008,"1975": 1.988,"2000": 1.762,"2025": 1.762,"2050": 1.762,"2075": 1.578,"2100": 1.66,"2125": 1.537,"2150": 1.537,"2175": 2.254,"2200": 1.905,"2225": 2.213,"2250": 1.66,"2275": 1.68,"2300": 1.803,"2325": 1.27,"2350": 1.414,"2375": 1.475,"2400": 1.229,"2425": 1.332,"2450": 1.496,"2475": 1.147,"2500": 1.311,"2525": 0.963,"2550": 1.024,"2575": 1.168,"2600": 1.004,"2625": 1.065,"2650": 0.594,"2675": 0.471,"2700": 0.328,"2725": 0.061}}}