{"type":"Feature","properties":{"GID_1":"HND.16_1","GID_0":"HND","country":"Honduras","province":"SantaBárbara","VARNAME_1":"NA","NL_NAME_1":"NA","TYPE_1":"Departamento","ENGTYPE_1":"Department","CC_1":"NA","HASC_1":"HN.CP","ISO_1":"NA","name":"Santa_Bárbara.province"},
"geometry":{"type": "MultiPolygon","coordinates": [[[[-88.1651,14.6434,1048.0917],[-88.1529,14.6441,882.0132],[-88.0935,14.6294,814.1061],[-88.0824,14.6447,814.3697],[-88.0763,14.6455,653.0251],[-88.0705,14.6486,546.9874],[-88.0689,14.6518,482.4414],[-88.0501,14.6668,1042.1016],[-88.0526,14.6723,937.0468],[-88.0684,14.6942,690.3202],[-88.0797,14.6964,468.7823],[-88.0799,14.7029,438.1068],[-88.0422,14.7437,897.6237],[-88.0218,14.7519,1050.0786],[-87.9972,14.7752,1038.0447],[-87.9892,14.7851,698.9485],[-87.996,14.7968,634.0],[-87.9973,14.8053,634.0],[-88.0001,14.8076,634.0],[-88.0007,14.8137,634.0],[-87.998,14.8424,634.0],[-87.991,14.8618,634.0],[-87.9916,14.8659,634.0],[-87.9946,14.8672,634.0],[-87.9971,14.8717,634.0],[-88.0019,14.8741,672.1904],[-88.012,14.873,997.5334],[-88.0216,14.8755,777.1493],[-88.0178,14.8764,868.1999],[-88.0158,14.8828,657.6504],[-88.0186,14.8895,634.0],[-88.0242,14.8939,634.0],[-88.0224,14.9029,634.0],[-88.0252,14.9023,634.0],[-88.0274,14.8974,634.0],[-88.0293,14.8982,643.8629],[-88.0277,14.9012,634.0],[-88.0318,14.8991,647.3914],[-88.03,14.9022,634.0],[-88.0307,14.9089,634.0],[-88.0261,14.9106,634.0],[-88.0271,14.914,634.0],[-88.0201,14.9199,634.0],[-88.0204,14.923,634.0],[-88.0459,14.9143,750.1014],[-88.0518,14.9144,865.49],[-88.0405,14.9811,587.2281],[-88.0312,14.99,663.0823],[-88.0291,15.0333,563.7015],[-88.0233,15.0409,537.9525],[-88.021,15.0521,502.9848],[-88.0233,15.0554,337.7844],[-88.029,15.0585,545.4669],[-88.0346,15.0672,429.6514],[-88.0603,15.0701,632.3865],[-88.065,15.0774,697.0765],[-88.079,15.078,975.4734],[-88.0845,15.0848,953.0808],[-88.0988,15.0952,721.6317],[-88.1145,15.1181,492.6949],[-88.0977,15.1426,175.6943],[-88.0901,15.146,190.0288],[-88.0841,15.1571,385.2808],[-88.0769,15.1614,451.2384],[-88.0765,15.171,181.6624],[-88.0678,15.18,336.8967],[-88.0634,15.1818,468.846],[-88.0628,15.1934,109.8791],[-88.059,15.2,282.3427],[-88.099,15.205,418.76],[-88.1086,15.2364,589.1641],[-88.1222,15.252,456.4755],[-88.1295,15.3608,113.3043],[-88.1455,15.3673,75.993],[-88.1591,15.3609,84.8732],[-88.1629,15.3614,87.373],[-88.1784,15.3733,117.1444],[-88.1843,15.3745,152.988],[-88.1928,15.388,161.7214],[-88.1954,15.3877,163.092],[-88.1982,15.3905,198.1885],[-88.2068,15.3924,290.3039],[-88.2166,15.3972,513.6772],[-88.2288,15.3988,563.6646],[-88.232,15.4022,534.753],[-88.2382,15.4181,553.8451],[-88.2417,15.4198,646.2762],[-88.2399,15.4257,564.0043],[-88.2427,15.4314,624.4471],[-88.2391,15.4372,605.2041],[-88.2374,15.4457,684.9005],[-88.2418,15.4597,860.1151],[-88.241,15.4667,839.3962],[-88.2384,15.4728,1100.5645],[-88.2336,15.4772,1262.5104],[-88.2361,15.4804,1128.0637],[-88.2357,15.4858,1244.5077],[-88.4344,15.5418,236.0507],[-88.541,15.4531,966.9798],[-88.5682,15.4275,929.2911],[-88.5782,15.4222,1022.192],[-88.5827,15.4244,996.3629],[-88.6015,15.4126,1055.3496],[-88.6418,15.3715,725.5755],[-88.6849,15.3363,1033.8336],[-88.6838,15.3349,988.424],[-88.7609,15.2891,462.8369],[-88.706,15.2328,907.4176],[-88.7171,15.2062,774.3857],[-88.7057,15.2011,611.7591],[-88.7019,15.1949,702.9822],[-88.6947,15.1896,765.8581],[-88.6935,15.1854,594.7455],[-88.6848,15.1819,453.1886],[-88.6844,15.1769,448.1603],[-88.6793,15.1639,439.4968],[-88.6735,15.157,403.2435],[-88.6689,15.1558,398.8767],[-88.664,15.1573,399.1517],[-88.6574,15.1524,430.9708],[-88.6499,15.1497,500.5458],[-88.6419,15.1424,725.0912],[-88.6538,15.1348,519.7906],[-88.6577,15.1228,583.2334],[-88.6567,15.1146,708.0694],[-88.6584,15.1029,993.0788],[-88.6388,15.0839,842.9697],[-88.6365,15.0727,955.3528],[-88.6306,15.0648,919.5641],[-88.6316,15.0585,758.6765],[-88.6368,15.0532,862.3038],[-88.6499,15.0513,985.0001],[-88.6625,15.0403,1103.1948],[-88.6691,15.0319,1166.366],[-88.6742,14.9842,1128.3228],[-88.6808,14.9774,865.266],[-88.6964,14.9351,633.5134],[-88.6888,14.9228,532.6503],[-88.6851,14.9089,660.037],[-88.6829,14.9061,814.899],[-88.6755,14.9044,1083.226],[-88.6694,14.9045,867.8676],[-88.653,14.914,776.9808],[-88.642,14.914,447.4038],[-88.6371,14.9124,548.8139],[-88.6354,14.9098,716.7274],[-88.6383,14.9027,532.231],[-88.6175,14.8996,948.448],[-88.6041,14.9105,679.6981],[-88.607,14.9175,615.4675],[-88.6038,14.922,483.9095],[-88.6017,14.9297,549.9016],[-88.5957,14.9287,798.8558],[-88.5794,14.9206,878.249],[-88.5615,14.9176,1334.3691],[-88.5527,14.9145,1394.7109],[-88.5479,14.9167,1402.5137],[-88.5255,14.8547,1368.3767],[-88.482,14.794,1286.1029],[-88.4641,14.8007,1398.1154],[-88.4494,14.8348,1355.8857],[-88.4372,14.841,1428.129],[-88.418,14.8358,1527.4355],[-88.4149,14.8323,1532.2214],[-88.4121,14.8324,1536.4248],[-88.4044,14.819,1120.5441],[-88.3973,14.8181,1126.3699],[-88.3893,14.8224,1271.4392],[-88.3716,14.8203,1491.6996],[-88.3686,14.8159,1476.5267],[-88.3563,14.8063,1071.9568],[-88.3645,14.7819,919.7739],[-88.3816,14.7532,661.584],[-88.3694,14.7357,684.6665],[-88.3653,14.7193,726.7538],[-88.3466,14.7043,828.3876],[-88.3095,14.719,1312.5278],[-88.3127,14.6701,1479.0015],[-88.3258,14.6525,1839.0215],[-88.3393,14.6397,2075.0327],[-88.2823,14.6319,1523.5769],[-88.2462,14.6308,1204.2775],[-88.2319,14.6386,992.8718],[-88.2249,14.6403,872.3311],[-88.1651,14.6434,1048.0917]]]]}}