{"type":"Feature","properties":{"GID_2":"HND.16.8_1","GID_0":"HND","country":"Honduras","GID_1":"HND.16_1","province":"SantaBárbara","NL_NAME_1":"NA","county":"ElNispero","VARNAME_2":"NA","NL_NAME_2":"NA","TYPE_2":"Municipio","ENGTYPE_2":"Municipality","CC_2":"NA","HASC_2":"HN.SB.EN","name":"El_Nispero.county"},
"geometry":{"type": "MultiPolygon","coordinates": [[[[-88.3816,14.7532,661.584],[-88.3694,14.7357,684.6665],[-88.3653,14.7193,726.7538],[-88.3466,14.7043,828.3876],[-88.3099,14.7188,1312.5278],[-88.3045,14.7265,1656.3354],[-88.2998,14.7303,1546.0693],[-88.2971,14.7393,1285.3077],[-88.3006,14.7514,1117.4141],[-88.2804,14.7716,456.2305],[-88.2764,14.7793,516.997],[-88.2758,14.7845,436.9103],[-88.2672,14.7991,295.0919],[-88.2653,14.808,274.0981],[-88.2734,14.8055,325.4551],[-88.2814,14.8058,390.1855],[-88.2834,14.8077,384.9452],[-88.2886,14.8063,376.8086],[-88.2916,14.8082,363.3709],[-88.2998,14.8052,469.7564],[-88.307,14.8058,485.9844],[-88.3119,14.8011,478.0988],[-88.3159,14.7916,460.1049],[-88.3208,14.7876,455.7779],[-88.3243,14.7806,553.6648],[-88.3332,14.7775,666.0365],[-88.3346,14.7757,622.6058],[-88.3367,14.7759,621.9013],[-88.338,14.7794,609.0334],[-88.3425,14.7828,634.2766],[-88.3496,14.7949,713.4542],[-88.3588,14.798,1050.8604],[-88.3645,14.7819,919.7739],[-88.3816,14.7532,661.584]]]]}}