{"type":"Feature","properties":{"GID_2":"HND.12.14_1","GID_0":"HND","country":"Honduras","GID_1":"HND.12_1","province":"LaPaz","NL_NAME_1":"NA","county":"SanPedrodeTutule","VARNAME_2":"NA","NL_NAME_2":"NA","TYPE_2":"Municipio","ENGTYPE_2":"Municipality","CC_2":"NA","HASC_2":"HN.LP.ST","name":"San_Pedrode_Tutule.county"},
"geometry":{"type": "MultiPolygon","coordinates": [[[[-87.8177,14.2209,1622.0665],[-87.8182,14.2256,1619.0149],[-87.8226,14.2343,1585.1355],[-87.8183,14.2376,1617.3333],[-87.8159,14.2419,1595.7737],[-87.8182,14.2446,1601.8757],[-87.8237,14.2463,1525.9984],[-87.8242,14.2498,1574.0432],[-87.8218,14.2538,1471.4025],[-87.8263,14.2553,1483.6764],[-87.8232,14.2618,1459.1133],[-87.824,14.2641,1438.9991],[-87.8279,14.2663,1456.5262],[-87.8275,14.274,1452.0476],[-87.8337,14.2773,1368.2155],[-87.8386,14.2835,1322.8527],[-87.8487,14.2838,1316.0408],[-87.8506,14.2867,1272.2572],[-87.8552,14.285,1284.2589],[-87.8585,14.2859,1169.2224],[-87.8606,14.2726,1210.6416],[-87.8644,14.2689,1238.6552],[-87.8614,14.2612,1159.5413],[-87.8694,14.2547,1233.6394],[-87.8688,14.253,1259.3184],[-87.8729,14.246,1385.8228],[-87.8773,14.2426,1241.5382],[-87.8763,14.2352,1393.2196],[-87.8742,14.2325,1493.6396],[-87.8759,14.2212,1626.1106],[-87.8736,14.2149,1734.2949],[-87.8561,14.2026,2126.0681],[-87.8416,14.1827,2182.8838],[-87.8337,14.1867,2154.5366],[-87.8328,14.1904,2204.8435],[-87.8273,14.1962,1920.5099],[-87.8258,14.2005,1882.4092],[-87.8216,14.2008,1786.9222],[-87.829,14.2106,1793.7521],[-87.8254,14.2169,1694.6394],[-87.8177,14.2209,1622.0665]]]]}}