{"type": "Feature","bbox": [-88.9284,14.4813,-88.733,14.5935],"geometry": {"type": "MultiPolygon","coordinates": [[[[-88.9169,14.5821,1035.4092],[-88.9175,14.577,913.8466],[-88.9221,14.5757,900.5314],[-88.9199,14.5689,872.0972],[-88.9222,14.5676,846.3962],[-88.9246,14.5611,819.1488],[-88.9226,14.5514,886.1065],[-88.9284,14.5481,878.9276],[-88.9218,14.5427,920.7943],[-88.9118,14.5412,1039.1354],[-88.9094,14.5423,1052.051],[-88.9125,14.5268,1034.327],[-88.8919,14.5038,1314.7938],[-88.8509,14.4964,1587.3983],[-88.8437,14.4813,1748.7969],[-88.8223,14.4869,1753.7083],[-88.8221,14.4893,1724.6056],[-88.8274,14.4975,1621.4634],[-88.8236,14.505,1512.0764],[-88.8283,14.5116,1479.8671],[-88.8292,14.5202,1395.7493],[-88.823,14.5228,1503.028],[-88.809,14.5186,1758.3923],[-88.7943,14.5291,1840.1141],[-88.7724,14.5349,1967.4309],[-88.7665,14.5545,1809.3354],[-88.7527,14.5798,1472.9113],[-88.7468,14.5807,1433.8955],[-88.733,14.5917,1990.6804],[-88.7798,14.5869,1136.1387],[-88.7864,14.5715,1218.3397],[-88.7952,14.581,1088.7041],[-88.8001,14.5782,1007.0104],[-88.8017,14.5745,1072.5181],[-88.8032,14.5749,1063.1239],[-88.8042,14.5765,1053.0624],[-88.8025,14.5804,1015.0366],[-88.8049,14.5849,1049.1085],[-88.8043,14.5885,1079.9526],[-88.8066,14.591,1125.3253],[-88.8088,14.5774,978.4171],[-88.8181,14.5746,928.0969],[-88.8234,14.5675,1092.3136],[-88.8281,14.564,1078.2434],[-88.8281,14.5727,1011.0181],[-88.8303,14.5812,953.3406],[-88.8344,14.5865,989.2997],[-88.8384,14.5886,1048.6351],[-88.8612,14.5855,848.3103],[-88.868,14.5874,860.7534],[-88.8731,14.5935,848.406],[-88.8942,14.592,852.893],[-88.8983,14.5932,883.7086],[-88.9001,14.5898,925.9148],[-88.9117,14.5802,949.9573],[-88.9169,14.5821,1035.4092]]]]}
,"properties": {"GID_2": "HND.5.4_1","GID_0": "HND","country": "Honduras","GID_1": "HND.5_1","province": "Copán","NL_NAME_1": "NA","county": "Corquín","VARNAME_2": "NA","NL_NAME_2": "NA","TYPE_2": "Municipio","ENGTYPE_2": "Municipality","CC_2": "NA","HASC_2": "HN.CP.CQ","name": "Corquín.county","area_km2": 137.4593,"hist_schema_id": "Elevation0-9000","hist_area_km2": {"825": 0.4514,"850": 4.1038,"875": 5.6635,"900": 4.535,"925": 5.6227,"950": 5.2328,"975": 5.2739,"1000": 5.8075,"1025": 5.2946,"1050": 5.5614,"1075": 5.9514,"1100": 5.2128,"1125": 4.987,"1150": 4.474,"1175": 3.6531,"1200": 3.0374,"1225": 2.7296,"1250": 3.7353,"1275": 3.8378,"1300": 3.2017,"1325": 3.5095,"1350": 2.9144,"1375": 2.3396,"1400": 2.5654,"1425": 2.8116,"1450": 3.0169,"1475": 2.5039,"1500": 2.196,"1525": 2.3807,"1550": 1.9087,"1575": 2.3602,"1600": 2.2576,"1625": 2.0114,"1650": 2.3809,"1675": 2.3398,"1700": 2.0525,"1725": 1.7241,"1750": 1.4367,"1775": 1.1904,"1800": 1.4778,"1825": 1.3135,"1850": 0.8415,"1875": 0.472,"1900": 0.4105,"1925": 0.2668,"1950": 0.1026,"1975": 0.1847,"2000": 0.0821,"2025": 0.0205,"2050": 0.0205}}}