{"type": "Feature","bbox": [-88.7046,15.1289,-88.4793,15.3161],"geometry": {"type": "MultiPolygon","coordinates": [[[[-88.6982,15.1913,780.3876],[-88.6947,15.1896,765.8581],[-88.6935,15.1854,594.7455],[-88.6848,15.1819,453.1886],[-88.6844,15.1769,448.1603],[-88.6793,15.1639,439.4968],[-88.6735,15.157,403.2435],[-88.6689,15.1558,398.8767],[-88.664,15.1573,399.1517],[-88.6574,15.1524,430.9708],[-88.6499,15.1497,500.5458],[-88.6422,15.1413,660.4934],[-88.6253,15.1502,1096.6658],[-88.5744,15.1289,493.386],[-88.5733,15.1337,616.8145],[-88.5377,15.1436,711.5325],[-88.5336,15.1462,731.0004],[-88.5231,15.1472,810.0856],[-88.5201,15.1521,678.355],[-88.5128,15.1559,648.3885],[-88.5105,15.1608,515.1181],[-88.5124,15.1689,438.1657],[-88.5095,15.1748,432.1124],[-88.5133,15.178,373.8659],[-88.514,15.185,359.4795],[-88.5128,15.19,275.1634],[-88.5093,15.193,262.1744],[-88.513,15.2127,238.7178],[-88.5131,15.217,234.3774],[-88.5105,15.2199,231.8811],[-88.5134,15.2232,228.4884],[-88.5118,15.2259,225.6634],[-88.5093,15.2266,224.9312],[-88.5062,15.2381,218.1366],[-88.4974,15.2414,215.4261],[-88.4946,15.2491,210.0568],[-88.4912,15.2501,209.1435],[-88.4897,15.2526,209.4655],[-88.4883,15.2598,206.2201],[-88.4797,15.2648,204.5622],[-88.4793,15.2691,212.2521],[-88.4933,15.2965,225.2],[-88.527,15.3107,219.5319],[-88.5303,15.3161,220.902],[-88.534,15.315,238.2852],[-88.5776,15.2984,399.2887],[-88.5995,15.2829,424.5787],[-88.5862,15.2326,262.4862],[-88.5904,15.2236,279.9416],[-88.597,15.2185,342.4575],[-88.647,15.2066,704.0654],[-88.6602,15.2058,656.0118],[-88.685,15.2011,700.1127],[-88.6927,15.201599999999999,641.7448],[-88.7046,15.1989,609.876],[-88.6982,15.1913,780.3876]]]]}
,"properties": {"GID_2": "HND.16.12_1","GID_0": "HND","country": "Honduras","GID_1": "HND.16_1","province": "SantaBárbara","NL_NAME_1": "NA","county": "Macuelizo","VARNAME_2": "NA","NL_NAME_2": "NA","TYPE_2": "Municipio","ENGTYPE_2": "Municipality","CC_2": "NA","HASC_2": "HN.SB.MA","name": "Macuelizo.county","area_km2": 244.9975,"hist_schema_id": "Elevation0-9000","hist_area_km2": {"200": 10.0223,"225": 35.5706,"250": 22.1328,"275": 13.379,"300": 9.84,"325": 9.3692,"350": 10.0242,"375": 9.0834,"400": 13.8926,"425": 10.2711,"450": 8.9208,"475": 8.7164,"500": 7.3251,"525": 7.0182,"550": 6.5273,"575": 5.4429,"600": 5.5863,"625": 4.8497,"650": 4.0516,"675": 4.3586,"700": 4.0312,"725": 4.5633,"750": 4.0108,"775": 3.3356,"800": 2.8649,"825": 2.4352,"850": 1.8827,"875": 1.8213,"900": 1.719,"925": 1.6781,"950": 2.0055,"975": 1.8623,"1000": 1.3711,"1025": 1.3302,"1050": 1.3098,"1075": 0.9005,"1100": 0.88,"1125": 0.4707,"1150": 0.1023,"1175": 0.0409}}}