{"type": "Feature","bbox": [-88.1666,13.9826,-88.0259,14.1647],"geometry": {"type": "MultiPolygon","coordinates": [[[[-88.1047,13.9862,1325.1008],[-88.1022,13.9916,1311.0317],[-88.1024,13.9977,1282.1519],[-88.0963,14.0032,1393.8411],[-88.0961,14.0144,1555.251],[-88.0886,14.0227,1771.1711],[-88.088,14.032,1824.0186],[-88.0856,14.0334,1869.8405],[-88.0813,14.0323,1910.5222],[-88.0736,14.0331,1892.0681],[-88.0726,14.0433,1927.272],[-88.075,14.0468,1895.8502],[-88.0729,14.0475,1915.3937],[-88.0702,14.052,1896.02],[-88.0601,14.0566,1906.3915],[-88.0527,14.0644,1917.4495],[-88.0528,14.0682,1906.8763],[-88.0464,14.0706,1895.2654],[-88.0488,14.0753,1856.4526],[-88.0462,14.0784,1801.4607],[-88.0416,14.0748,1824.5519],[-88.0339,14.0747,1858.6056],[-88.0359,14.0773,1811.3157],[-88.0349,14.0803,1828.5364],[-88.0364,14.0829,1801.4529],[-88.0295,14.0859,1783.3174],[-88.0259,14.0901,1792.1995],[-88.0293,14.0944,1767.4622],[-88.0422,14.0931,1741.1089],[-88.054,14.0982,1701.4631],[-88.0514,14.1036,1623.2905],[-88.0519,14.1101,1528.417],[-88.0578,14.1161,1477.5184],[-88.0484,14.1216,1469.3301],[-88.0562,14.1263,1426.1478],[-88.0599,14.1239,1469.2864],[-88.0656,14.1236,1476.4607],[-88.0695,14.1317,1418.4027],[-88.0736,14.1345,1462.3429],[-88.0766,14.1427,1373.219],[-88.0785,14.1421,1373.219],[-88.0794,14.1441,1414.9349],[-88.0806,14.143,1414.2517],[-88.0912,14.1486,1438.5454],[-88.0921,14.1544,1315.5806],[-88.0953,14.1552,1485.5415],[-88.0974,14.1608,1325.5933],[-88.1013,14.1622,1427.3101],[-88.1031,14.1647,1411.8849],[-88.1081,14.1619,1410.1871],[-88.11,14.1584,1285.6163],[-88.1131,14.1634,1415.5615],[-88.1148,14.1631,1405.9993],[-88.1176,14.157,1266.0715],[-88.1281,14.155,1396.5769],[-88.1282,14.1506,1463.4023],[-88.1332,14.152,1380.4927],[-88.1349,14.1488,1355.4342],[-88.1387,14.1495,1225.4656],[-88.1413,14.1472,1181.5247],[-88.1438,14.1485,1126.6343],[-88.1538,14.1436,1185.8452],[-88.1547,14.1401,1228.316],[-88.1585,14.1378,1167.8655],[-88.1587,14.1349,1048.3794],[-88.162,14.1349,1033.7097],[-88.1666,14.1287,1216.3711],[-88.1653,14.1289,1186.3826],[-88.1599,14.1191,1231.3741],[-88.1516,14.1196,1298.5339],[-88.1436,14.1108,1614.7206],[-88.1411,14.1053,1489.691],[-88.1307,14.0959,1717.9631],[-88.1236,14.0963,1743.6309],[-88.1229,14.1009,1799.4528],[-88.1177,14.1048,1856.8281],[-88.1091,14.101,1841.5576],[-88.1008,14.0899,1810.3574],[-88.1003,14.0847,1814.569],[-88.1018,14.0811,1781.936],[-88.0928,14.073,1846.3508],[-88.0933,14.0637,1872.0696],[-88.0901,14.0618,1921.6691],[-88.0906,14.0583,1894.5791],[-88.0879,14.0533,1938.8026],[-88.0918,14.0481,1916.8197],[-88.0919,14.0451,1930.1462],[-88.0996,14.0399,1877.0994],[-88.1008,14.0365,1840.1062],[-88.1225,14.0093,1430.6394],[-88.1199,14.0024,1327.9539],[-88.1114,13.9937,1278.4619],[-88.1138,13.9898,1205.1603],[-88.1127,13.9863,1321.3591],[-88.1148,13.9826,1431.1716],[-88.1099,13.9856,1330.6357],[-88.1047,13.9862,1325.1008]]]]}
,"properties": {"GID_2": "HND.12.19_1","GID_0": "HND","country": "Honduras","GID_1": "HND.12_1","province": "LaPaz","NL_NAME_1": "NA","county": "Yarula","VARNAME_2": "NA","NL_NAME_2": "NA","TYPE_2": "Municipio","ENGTYPE_2": "Municipality","CC_2": "NA","HASC_2": "HN.LP.YA","name": "Yarula.county","area_km2": 102.20186,"hist_schema_id": "Elevation0-9000","hist_area_km2": {"950": 0.02056,"975": 0.06168,"1000": 0.1028,"1025": 0.18505,"1050": 0.18505,"1075": 0.30841,"1100": 0.329,"1125": 0.57571,"1150": 0.53461,"1175": 0.74024,"1200": 1.08981,"1225": 1.50116,"1250": 1.54236,"1275": 1.62456,"1300": 1.87145,"1325": 1.78918,"1350": 1.97413,"1375": 2.01522,"1400": 2.15901,"1425": 2.32348,"1450": 3.20755,"1475": 3.00191,"1500": 3.1664,"1525": 2.73466,"1550": 2.03563,"1575": 1.99447,"1600": 2.79647,"1625": 2.63199,"1650": 2.85824,"1675": 2.91999,"1700": 2.94058,"1725": 3.37241,"1750": 4.81193,"1775": 6.35417,"1800": 7.7114,"1825": 6.27205,"1850": 4.58593,"1875": 4.13382,"1900": 5.53258,"1925": 4.36024,"1950": 2.73538,"1975": 1.02831,"2000": 0.08226}}}