{"type": "Feature","bbox": [-88.5455,15.2636,-88.1425,15.5418],"geometry": {"type": "MultiPolygon","coordinates": [[[[-88.5455,15.4491,939.5558],[-88.5246,15.4301,524.9343],[-88.5213,15.3946,502.396],[-88.5069,15.3598,476.7876],[-88.502,15.3583,543.7004],[-88.4978,15.3545,538.5485],[-88.4917,15.3539,525.1124],[-88.4906,15.3524,515.7779],[-88.4897,15.348,504.8374],[-88.4919,15.3396,535.4879],[-88.4875,15.3298,606.987],[-88.4886,15.3229,477.5853],[-88.483,15.317,422.3551],[-88.4933,15.2965,225.2],[-88.4793,15.2691,212.2521],[-88.4762,15.2679,203.4816],[-88.473,15.2706,199.8065],[-88.4691,15.2678,203.6149],[-88.4701,15.2636,207.6625],[-88.464,15.2639,212.712],[-88.463,15.2675,206.4124],[-88.4595,15.2654,215.2489],[-88.4565,15.2696,220.004],[-88.4501,15.2686,232.8405],[-88.452,15.2742,223.8464],[-88.4476,15.2761,226.1859],[-88.4477,15.2811,215.5629],[-88.4413,15.2805,225.7754],[-88.4359,15.2824,225.7862],[-88.4356,15.2893,231.1581],[-88.4305,15.293,220.7816],[-88.4233,15.2945,213.0053],[-88.4186,15.2981,212.5571],[-88.4147,15.3083,209.2989],[-88.4051,15.3101,227.3994],[-88.3998,15.3039,233.7147],[-88.3944,15.3037,209.6948],[-88.3823,15.308,198.9788],[-88.3818,15.3127,188.8952],[-88.3795,15.3148,181.7059],[-88.3774,15.3142,175.7633],[-88.3725,15.3065,193.8399],[-88.3683,15.3032,205.357],[-88.362,15.3012,218.8253],[-88.3588,15.3013,214.4136],[-88.3547,15.3058,198.2815],[-88.349,15.3042,211.4131],[-88.3425,15.308,200.8521],[-88.3361,15.3086,207.0802],[-88.3279,15.3069,197.0264],[-88.3217,15.3014,251.0438],[-88.3132,15.3005,236.3322],[-88.3073,15.2908,298.1868],[-88.3069,15.2838,339.7903],[-88.3023,15.2796,367.1882],[-88.2983,15.2829,351.7372],[-88.2931,15.2845,314.9566],[-88.2721,15.2837,270.0013],[-88.2693,15.2881,197.994],[-88.2658,15.2899,179.6695],[-88.2559,15.2899,238.5899],[-88.2561,15.284,226.2283],[-88.2533,15.2815,265.6876],[-88.2502,15.2818,271.5302],[-88.2456,15.2859,243.3706],[-88.2291,15.2837,370.4669],[-88.2187,15.2845,329.6939],[-88.2157,15.2873,356.457],[-88.212,15.299,304.1089],[-88.1988,15.2975,297.0266],[-88.1974,15.3029,246.1024],[-88.1931,15.3041,236.9621],[-88.1786,15.2979,169.3044],[-88.1748,15.3006,157.0577],[-88.1768,15.3045,144.1503],[-88.1762,15.3069,140.2012],[-88.1704,15.3093,137.0572],[-88.1663,15.308,138.4158],[-88.1621,15.3093,138.2273],[-88.1608,15.3196,120.0756],[-88.1566,15.3279,113.437],[-88.1587,15.3369,103.5367],[-88.1479,15.3458,108.3712],[-88.1459,15.3542,84.8336],[-88.1425,15.3578,89.362799999999993],[-88.1459,15.3672,75.993],[-88.1591,15.3609,84.8732],[-88.1629,15.3614,87.373],[-88.1784,15.3733,117.1444],[-88.1843,15.3745,152.988],[-88.1928,15.388,161.7214],[-88.1954,15.3877,163.092],[-88.1982,15.3905,198.1885],[-88.2068,15.3924,290.3039],[-88.2166,15.3972,513.6772],[-88.2288,15.3988,563.6646],[-88.2318,15.4019,513.6763],[-88.2382,15.4181,553.8451],[-88.2417,15.4198,646.2762],[-88.2399,15.4257,564.0043],[-88.2427,15.4314,624.4471],[-88.2391,15.4372,605.2041],[-88.2374,15.4457,684.9005],[-88.2417,15.4586,842.9994],[-88.241,15.4667,839.3962],[-88.238,15.4736,1100.5645],[-88.2336,15.4772,1262.5104],[-88.2361,15.4804,1128.0637],[-88.2352,15.4846,1254.5442],[-88.2366,15.4864,1244.5077],[-88.4344,15.5418,236.0507],[-88.5455,15.4491,939.5558]]]]}
,"properties": {"GID_2": "HND.16.18_1","GID_0": "HND","country": "Honduras","GID_1": "HND.16_1","province": "SantaBárbara","NL_NAME_1": "NA","county": "Quimistán","VARNAME_2": "QuimiSantan","NL_NAME_2": "NA","TYPE_2": "Municipio","ENGTYPE_2": "Municipality","CC_2": "NA","HASC_2": "HN.SB.QU","name": "Quimistán.county","area_km2": 806.0937,"hist_schema_id": "Elevation0-9000","hist_area_km2": {"50": 0.0817,"75": 3.3932,"100": 20.0147,"125": 19.238,"150": 24.9639,"175": 44.2881,"200": 57.1516,"225": 46.5559,"250": 35.697,"275": 31.4841,"300": 29.2752,"325": 26.7811,"350": 29.8867,"375": 29.0683,"400": 24.7747,"425": 18.8864,"450": 16.9234,"475": 16.9841,"500": 23.6465,"525": 29.5122,"550": 30.5949,"575": 27.8156,"600": 23.8507,"625": 21.1122,"650": 18.6389,"675": 17.2491,"700": 16.7379,"725": 12.9367,"750": 11.2606,"775": 9.5848,"800": 8.6241,"825": 7.5205,"850": 7.4591,"875": 6.7232,"900": 6.0284,"925": 5.5379,"950": 4.7205,"975": 3.9644,"1000": 3.6374,"1025": 3.1061,"1050": 2.7791,"1075": 2.6157,"1100": 2.5134,"1125": 2.3091,"1150": 1.9208,"1175": 1.7777,"1200": 1.7572,"1225": 1.4507,"1250": 1.4303,"1275": 1.4711,"1300": 1.5528,"1325": 1.369,"1350": 1.5528,"1375": 1.369,"1400": 0.9807,"1425": 0.7151,"1450": 0.8786,"1475": 0.613,"1500": 0.4699,"1525": 0.3065,"1550": 0.1634,"1575": 0.1226,"1600": 0.1226,"1625": 0.1022,"1650": 0.0204,"1700": 0.0204}}}