{"type":"Feature","properties":{"GID_2":"HND.14.10_1","GID_0":"HND","country":"Honduras","GID_1":"HND.14_1","province":"Ocotepeque","NL_NAME_1":"NA","county":"SanFernando","VARNAME_2":"NA","NL_NAME_2":"NA","TYPE_2":"Municipio","ENGTYPE_2":"Municipality","CC_2":"NA","HASC_2":"HN.OC.SF","name":"San_Fernando.county"},
"geometry":{"type": "MultiPolygon","coordinates": [[[[-89.1472,14.6752,690.1783],[-89.142,14.6623,800.1926],[-89.1393,14.6621,757.9703],[-89.1389,14.6587,855.825],[-89.1351,14.6575,759.3026],[-89.1279,14.6448,851.9161],[-89.1206,14.6455,905.456],[-89.119,14.6427,901.9189],[-89.1177,14.6451,984.5259],[-89.1143,14.644,1061.0978],[-89.1134,14.6468,1096.6947],[-89.1096,14.6456,1169.5674],[-89.0991,14.6475,1368.9443],[-89.0914,14.6515,1165.9401],[-89.0891,14.6554,998.1567],[-89.0856,14.6539,1011.9822],[-89.0826,14.6565,981.4196],[-89.0752,14.6575,962.6962],[-89.072,14.6594,1009.7181],[-89.0663,14.6591,1093.1705],[-89.0594,14.6633,1297.5743],[-89.0559,14.6628,1394.8186],[-89.0547,14.6653,1390.8656],[-89.0502,14.6663,1449.8252],[-89.0479,14.6687,1441.1147],[-89.0319,14.6694,1697.793],[-89.0294,14.6722,1556.489],[-89.0243,14.6707,1538.5715],[-89.0176,14.6731,1650.165],[-89.0127,14.6785,1673.9097],[-89.0045,14.6782,1692.2172],[-89.0027,14.6768,1787.2866],[-89.001,14.684,1559.2686],[-89.007,14.701,1514.1549],[-89.0137,14.6997,1616.7211],[-89.0249,14.7045,1682.6425],[-89.035,14.7047,1515.7339],[-89.0465,14.7013,1345.585],[-89.0544,14.7039,1311.8628],[-89.0629,14.7037,1298.7881],[-89.0716,14.7089,1244.0967],[-89.075,14.7132,1390.3738],[-89.08,14.7139,1363.8489],[-89.0845,14.7108,1276.98],[-89.0966,14.7111,1211.7153],[-89.119,14.7044,884.4896],[-89.1356,14.6969,894.2108],[-89.1472,14.6752,690.1783]]]]}}