{"type": "Feature","bbox": [-87.5304,13.7535,-87.4168,13.8224],"geometry": {"type": "MultiPolygon","coordinates": [[[[-87.4175,13.7573,555.8815],[-87.4168,13.7808,255.4892],[-87.4399,13.7842,550.7019],[-87.4585,13.7953,385.3246],[-87.4731,13.8083,560.2534],[-87.4897,13.8139,473.9525],[-87.4955,13.8224,522.5661],[-87.4961,13.8211,504.7566],[-87.52,13.82,490.7043],[-87.5264,13.8113,726.7537],[-87.5271,13.8044,721.9999],[-87.5299,13.8015,806.076],[-87.5304,13.7932,938.5374],[-87.4594,13.7535,752.41],[-87.4596,13.7568,716.7103],[-87.4564,13.7604,929.5724],[-87.4512,13.7602,822.1931],[-87.4449,13.7634,712.481],[-87.4372,13.7617,735.0324],[-87.4233,13.7617,568.509],[-87.4175,13.7573,555.8815]]]]}
,"properties": {"GID_2": "HND.8.1_1","GID_0": "HND","country": "Honduras","GID_1": "HND.8_1","province": "FranciscoMorazán","NL_NAME_1": "NA","county": "Alubarén","VARNAME_2": "NA","NL_NAME_2": "NA","TYPE_2": "Municipio","ENGTYPE_2": "Municipality","CC_2": "NA","HASC_2": "HN.FM.AL","name": "Alubarén.county","area_km2": 46.51573,"hist_schema_id": "Elevation0-9000","hist_area_km2": {"275": 0.02059,"300": 0.35005,"325": 1.64725,"350": 1.58549,"375": 1.83256,"400": 2.26494,"425": 2.75914,"450": 2.69736,"475": 2.42971,"500": 3.41807,"525": 2.96514,"550": 3.1711,"575": 2.82108,"600": 2.84168,"625": 2.53279,"650": 2.5946,"675": 1.9974,"700": 2.22395,"725": 1.44143,"750": 1.46203,"775": 0.94721,"800": 0.53539,"825": 0.47361,"850": 0.37064,"875": 0.39123,"900": 0.2265,"925": 0.18532,"950": 0.18532,"975": 0.10295,"1000": 0.04118}}}