{"type":"Feature","properties":{"GID_2":"HND.7.13_1","GID_0":"HND","country":"Honduras","GID_1":"HND.7_1","province":"ElParaíso","NL_NAME_1":"NA","county":"Soledad","VARNAME_2":"NA","NL_NAME_2":"NA","TYPE_2":"Municipio","ENGTYPE_2":"Municipality","CC_2":"NA","HASC_2":"HN.EP.SO","name":"Soledad.county"},
"geometry":{"type": "MultiPolygon","coordinates": [[[[-87.1101,13.5496,259.2349],[-87.1087,13.5488,352.7654],[-87.1074,13.5525,278.9066],[-87.0884,13.5684,505.9404],[-87.0884,13.5761,420.7448],[-87.084,13.582,510.3124],[-87.0543,13.5919,375.0606],[-87.0524,13.5946,372.0307],[-87.0638,13.5993,499.2752],[-87.0692,13.6034,630.3372],[-87.0746,13.6118,746.0125],[-87.0752,13.6213,720.9293],[-87.08,13.6237,619.6859],[-87.0805,13.6272,529.8308],[-87.0849,13.6305,655.1158],[-87.0928,13.633,652.3794],[-87.0939,13.6364,671.0034],[-87.1077,13.6434,754.5435],[-87.1179,13.6454,789.701],[-87.1251,13.649,771.9213],[-87.1286,13.6478,786.5976],[-87.1343,13.6528,842.4902],[-87.1412,13.6563,911.473],[-87.1444,13.6555,875.5104],[-87.1864,13.6805,810.2702],[-87.2136,13.6627,533.2111],[-87.2221,13.6192,678.6188],[-87.2248,13.6152,801.3052],[-87.225,13.6111,747.7775],[-87.2204,13.6097,871.402],[-87.2081,13.6108,668.5285],[-87.2012,13.6095,661.0599],[-87.1963,13.5975,769.5398],[-87.1928,13.5968,882.2515],[-87.1857,13.588,617.186],[-87.1882,13.5791,565.0508],[-87.1851,13.574,433.8983],[-87.1849,13.5585,529.2783],[-87.1744,13.5501,425.0775],[-87.1724,13.546,337.9728],[-87.1689,13.5444,290.1385],[-87.1569,13.5486,381.745],[-87.1517,13.5475,530.6351],[-87.1477,13.5436,543.1176],[-87.1424,13.5429,519.5888],[-87.1261,13.5475,411.8949],[-87.1101,13.5496,259.2349]]]]}}