{"type": "Feature","bbox": [-89.1274,14.6997,-89.0061,14.8429],"geometry": {"type": "MultiPolygon","coordinates": [[[[-89.0926,14.7104,1121.0529],[-89.0845,14.7108,1276.98],[-89.0813,14.7137,1327.0928],[-89.0784,14.7139,1377.7771],[-89.075,14.7132,1390.3738],[-89.0716,14.7089,1244.0967],[-89.0629,14.7037,1298.7881],[-89.0544,14.7039,1311.8628],[-89.0465,14.7013,1345.585],[-89.035,14.7047,1515.7339],[-89.0249,14.7045,1682.6425],[-89.0137,14.6997,1616.7211],[-89.007,14.701,1514.1549],[-89.0061,14.7364,1472.2804],[-89.02,14.7428,1256.7671],[-89.0065,14.7639,1211.582],[-89.0151,14.7757,1351.486],[-89.0306,14.7839,1126.9292],[-89.0322,14.7928,975.0599],[-89.0463,14.7947,986.8729],[-89.0681,14.8425,908.4142],[-89.0844,14.8429,689.0389],[-89.1081,14.8245,757.7062],[-89.1254,14.7866,933.2484],[-89.1274,14.7628,1250.9081],[-89.1154,14.7516,1367.8506],[-89.1175,14.7433,1232.3174],[-89.0946,14.7207,1050.5044],[-89.0926,14.7104,1121.0529]]]]}
,"properties": {"GID_2": "HND.5.1_1","GID_0": "HND","country": "Honduras","GID_1": "HND.5_1","province": "Copán","NL_NAME_1": "NA","county": "Cabañas","VARNAME_2": "NA","NL_NAME_2": "NA","TYPE_2": "Municipio","ENGTYPE_2": "Municipality","CC_2": "NA","HASC_2": "HN.CP.CA","name": "Cabañas.county","area_km2": 135.8265,"hist_schema_id": "Elevation0-9000","hist_area_km2": {"650": 0.205,"675": 0.9633,"700": 1.4142,"725": 2.0907,"750": 2.2751,"775": 2.2957,"800": 2.6032,"825": 2.3163,"850": 2.8084,"875": 2.8289,"900": 3.649,"925": 4.5511,"950": 4.7767,"975": 5.9248,"1000": 6.1093,"1025": 6.5194,"1050": 6.5399,"1075": 5.9454,"1100": 6.4169,"1125": 5.0433,"1150": 4.4899,"1175": 3.8955,"1200": 3.875,"1225": 3.4035,"1250": 3.1781,"1275": 3.1371,"1300": 2.7271,"1325": 2.7271,"1350": 2.8501,"1375": 2.7066,"1400": 2.153,"1425": 2.5016,"1450": 1.9685,"1475": 2.0505,"1500": 1.5379,"1525": 1.5174,"1550": 1.3944,"1575": 1.8866,"1600": 1.6815,"1625": 1.7841,"1650": 2.1737,"1675": 2.0507,"1700": 1.3944,"1725": 1.0048,"1750": 0.7587,"1775": 0.6152,"1800": 0.5947,"1825": 0.3486,"1850": 0.1025,"1875": 0.041}}}