{"type":"Feature","properties":{"GID_2":"HND.2.5_1","GID_0":"HND","country":"Honduras","GID_1":"HND.2_1","province":"Choluteca","NL_NAME_1":"NA","county":"ElCorpus","VARNAME_2":"NA","NL_NAME_2":"NA","TYPE_2":"Municipio","ENGTYPE_2":"Municipality","CC_2":"NA","HASC_2":"HN.CH.EC","name":"El_Corpus.county"},
"geometry":{"type": "MultiPolygon","coordinates": [[[[-87.0333,13.3892,338.7364],[-87.0436,13.3684,532.4929],[-87.0496,13.3684,546.5001],[-87.0523,13.3656,426.2678],[-87.0594,13.3626,351.0812],[-87.0602,13.3607,357.6771],[-87.0608,13.3573,344.4255],[-87.0563,13.3526,207.6797],[-87.059,13.3365,89.4126],[-87.0592,13.3249,92.6984],[-87.0632,13.3202,91.5268],[-87.0649,13.3111,186.9653],[-87.0681,13.3059,99.2694],[-87.0673,13.3008,118.119],[-87.0709,13.298,98.4661],[-87.0727,13.293,106.7799],[-87.0713,13.2813,247.3424],[-87.0691,13.2768,305.3614],[-87.0736,13.2729,248.3946],[-87.0736,13.27,307.046],[-87.0686,13.2623,353.9095],[-87.0682,13.2524,504.7928],[-87.0624,13.2458,777.6649],[-87.0608,13.2413,844.9645],[-87.0672,13.2374,792.7321],[-87.0835,13.2362,437.8723],[-87.0867,13.2336,425.6101],[-87.0916,13.2249,339.8371],[-87.095,13.2132,190.5978],[-87.0956,13.2072,161.1305],[-87.0862,13.208,324.5586],[-87.0814,13.201599999999999,342.938],[-87.0724,13.169,399.2765],[-87.0643,13.1724,349.8263],[-87.0504,13.172,267.8426],[-87.0473,13.1733,269.5301],[-87.0431,13.1776,380.5514],[-87.0431,13.1815,378.6252],[-87.0228,13.2076,551.5449],[-87.0271,13.2403,744.5275],[-86.989,13.2599,348.2897],[-86.9694,13.2626,501.4305],[-86.9508,13.2904,361.6045],[-86.9159,13.2871,663.2963],[-86.917,13.3094,831.0638],[-86.9266,13.3153,772.1061],[-86.934,13.3403,856.9393],[-86.9433,13.3503,749.2403],[-86.9436,13.3568,769.2751],[-86.9468,13.3631,858.2224],[-86.9505,13.3666,985.7899],[-86.955,13.3655,1009.5417],[-86.9588,13.3682,1012.1146],[-86.9663,13.3697,956.7198],[-86.965,13.372,970.6098],[-86.9665,13.3764,990.2584],[-86.9654,13.3817,1068.3419],[-86.9705,13.3867,926.1837],[-86.9729,13.3948,1004.1678],[-86.9826,13.391,792.8175],[-87.0058,13.391,526.2777],[-87.0107,13.3862,402.6033],[-87.0333,13.3892,338.7364]]]]}}