{"type":"Feature","properties":{"GID_2":"HND.8.3_1","GID_0":"HND","country":"Honduras","GID_1":"HND.8_1","province":"FranciscoMorazán","NL_NAME_1":"NA","county":"Curarén","VARNAME_2":"NA","NL_NAME_2":"NA","TYPE_2":"Municipio","ENGTYPE_2":"Municipality","CC_2":"NA","HASC_2":"HN.FM.CU","name":"Curarén.county"},
"geometry":{"type": "MultiPolygon","coordinates": [[[[-87.4961,13.8211,504.7566],[-87.5008,13.8478,374.8807],[-87.4873,13.8626,582.8334],[-87.487799999999993,13.8746,667.2745],[-87.4965,13.8815,693.452],[-87.4985,13.8886,807.5414],[-87.4987,13.8956,681.0609],[-87.4946,13.901,701.5713],[-87.4971,13.9071,947.382],[-87.4928,13.9136,870.9077],[-87.4914,13.9231,915.6904],[-87.4936,13.928,883.8445],[-87.5605,13.9193,1093.7731],[-87.6059,13.9451,1568.8367],[-87.6096,13.9357,1341.8093],[-87.6083,13.93,1433.4772],[-87.6094,13.9257,1289.9697],[-87.6085,13.9136,1202.0676],[-87.6135,13.9028,1189.2937],[-87.6118,13.8993,1081.8497],[-87.6117,13.8899,1166.1924],[-87.6186,13.8864,1272.2173],[-87.6249,13.8806,1213.4305],[-87.624,13.8625,1178.2451],[-87.631,13.8473,1180.8965],[-87.6361,13.8411,1280.8392],[-87.646,13.8341,1086.1165],[-87.6505,13.8229,999.4595],[-87.6521,13.801,530.1112],[-87.6491,13.7756,677.1892],[-87.6512,13.7743,567.9739],[-87.6529,13.7686,328.1311],[-87.6554,13.7395,645.3732],[-87.653,13.7394,650.9254],[-87.6456,13.7441,992.9487],[-87.6344,13.7432,979.6266],[-87.6271,13.7365,940.3657],[-87.6196,13.735,1128.6681],[-87.6145,13.7294,1037.5636],[-87.6036,13.7223,750.5218],[-87.5887,13.7165,500.5797],[-87.568,13.7174,569.8235],[-87.551,13.7205,382.3859],[-87.5467,13.7285,427.4713],[-87.5401,13.7305,331.1767],[-87.5372,13.737,338.8551],[-87.5291,13.7395,270.0735],[-87.5284,13.742,276.4408],[-87.5249,13.7417,241.5286],[-87.5321,13.7492,309.9702],[-87.5294,13.7645,352.1566],[-87.5299,13.8015,806.076],[-87.5271,13.8044,721.9999],[-87.5264,13.8113,726.7537],[-87.52,13.82,490.7043],[-87.4961,13.8211,504.7566]]]]}}