{"type":"Feature","properties":{"GID_2":"HND.12.13_1","GID_0":"HND","country":"Honduras","GID_1":"HND.12_1","province":"LaPaz","NL_NAME_1":"NA","county":"SanJuan","VARNAME_2":"NA","NL_NAME_2":"NA","TYPE_2":"Municipio","ENGTYPE_2":"Municipality","CC_2":"NA","HASC_2":"HN.IN.SJ","name":"San_Juan.county"},
"geometry":{"type": "MultiPolygon","coordinates": [[[[-87.7004,13.9766,382.0017],[-87.7398,13.9678,556.5277],[-87.7424,13.9658,669.2624],[-87.7483,13.9662,577.4426],[-87.7523,13.9641,627.3805],[-87.7627,13.9623,1008.0747],[-87.7649,13.9636,1060.105],[-87.7675,13.9626,1156.3198],[-87.7757,13.9636,1018.9467],[-87.7829,13.9602,763.3177],[-87.7806,13.9485,940.6035],[-87.7773,13.9434,1001.6982],[-87.7733,13.9423,1018.1259],[-87.7734,13.9393,1035.9266],[-87.7709,13.9364,1101.2844],[-87.7717,13.9292,1218.2473],[-87.7693,13.9179,880.5428],[-87.7645,13.9208,939.1641],[-87.7574,13.9138,731.9217],[-87.753,13.9132,648.675],[-87.7327,13.9217,544.0881],[-87.71,13.9196,399.0637],[-87.7051,13.9213,401.0605],[-87.6967,13.9279,403.6678],[-87.6916,13.9261,577.1778],[-87.6874,13.9266,456.6039],[-87.6898,13.9289,547.4327],[-87.6856,13.9328,381.3619],[-87.6851,13.9392,309.1486],[-87.6871,13.9403,337.0391],[-87.6914,13.9394,346.8474],[-87.6936,13.9445,400.2454],[-87.7013,13.9528,379.1823],[-87.7025,13.9589,357.2196],[-87.7003,13.964,348.9907],[-87.7004,13.9687,345.3036],[-87.701,13.9702,338.3571],[-87.7035,13.9703,348.1002],[-87.7004,13.9766,382.0017]]]]}}