{"type":"Feature","properties":{"GID_2":"HND.5.8_1","GID_0":"HND","country":"Honduras","GID_1":"HND.5_1","province":"Copán","NL_NAME_1":"NA","county":"ElParaíso","VARNAME_2":"NA","NL_NAME_2":"NA","TYPE_2":"Municipio","ENGTYPE_2":"Municipality","CC_2":"NA","HASC_2":"HN.CP.EP","name":"El_Paraíso.county"},
"geometry":{"type": "MultiPolygon","coordinates": [[[[-89.0734,15.0972,678.0217],[-89.0824,15.0888,458.5553],[-89.0827,15.0854,481.3096],[-89.0797,15.087,483.6749],[-89.0782,15.0827,499.4492],[-89.0818,15.0777,608.4084],[-89.0753,15.0788,546.3],[-89.0725,15.0757,568.9518],[-89.0709,15.0768,515.0495],[-89.0444,15.0668,596.3162],[-89.0437,15.0352,598.9258],[-89.0289,15.0153,671.4052],[-89.0409,15.0093,779.229],[-89.0509,15.0087,838.0547],[-89.054,15.0071,828.7479],[-89.0555,15.0037,777.3042],[-89.0564,14.9951,811.2147],[-89.0509,14.9867,785.2963],[-89.052,14.9817,854.2993],[-89.0449,14.9742,845.7155],[-89.0416,14.9612,974.4261],[-88.9968,14.9505,828.307],[-88.9883,14.9504,985.967],[-88.9864,14.9531,923.3543],[-88.9839,14.9537,994.9468],[-88.9605,14.945,1017.0095],[-88.9566,14.9512,1140.7756],[-88.9337,14.9755,1175.6328],[-88.9294,14.9853,1121.4568],[-88.925,14.9858,1111.2462],[-88.9225,14.9901,1062.1924],[-88.9273,15.0185,877.2443],[-88.924,15.0764,1212.5361],[-88.9116,15.1129,2067.0559],[-88.9157,15.1173,1871.8555],[-88.9139,15.1211,1727.7373],[-88.915,15.1344,1157.8198],[-88.9191,15.1372,982.0945],[-88.9248,15.1482,629.2357],[-88.9318,15.1506,784.5433],[-88.934,15.1537,696.8748],[-88.9445,15.1564,677.4446],[-88.9671,15.1371,229.8875],[-89.0734,15.0972,678.0217]]]]}}