{"type":"Feature","properties":{"GID_2":"HND.16.22_1","GID_0":"HND","country":"Honduras","GID_1":"HND.16_1","province":"SantaBárbara","NL_NAME_1":"NA","county":"SanMarcos","VARNAME_2":"NA","NL_NAME_2":"NA","TYPE_2":"Municipio","ENGTYPE_2":"Municipality","CC_2":"NA","HASC_2":"HN.OC.SM","name":"San_Marcos.county"},
"geometry":{"type": "MultiPolygon","coordinates": [[[[-88.5105,15.2199,231.8811],[-88.5053,15.2168,234.6197],[-88.5037,15.2129,234.7892],[-88.5011,15.2118,234.7812],[-88.5001,15.2024,258.5084],[-88.4964,15.1965,324.3045],[-88.4816,15.1898,952.7524],[-88.4638,15.1867,889.1876],[-88.4537,15.1889,661.8857],[-88.4556,15.1934,610.1085],[-88.4544,15.196,677.6693],[-88.4232,15.1975,941.114],[-88.402,15.1861,929.8367],[-88.3902,15.178,765.5552],[-88.3849,15.1774,913.7619],[-88.3741,15.1798,852.3679],[-88.369,15.1742,976.3719],[-88.3572,15.167,1287.97],[-88.3479,15.1814,1320.8234],[-88.3288,15.2061,952.5551],[-88.3359,15.2271,768.6885],[-88.3122,15.261,524.9264],[-88.3005,15.281,373.475],[-88.3023,15.2796,367.1882],[-88.3069,15.2838,339.7903],[-88.3073,15.2908,298.1868],[-88.3119,15.2995,217.8841],[-88.3217,15.3014,251.0438],[-88.331,15.3079,207.5923],[-88.3425,15.308,200.8521],[-88.349,15.3042,211.4131],[-88.3547,15.3058,198.2815],[-88.36,15.3011,214.4136],[-88.3683,15.3032,205.357],[-88.3781,15.3147,175.7633],[-88.3815,15.3133,188.8952],[-88.3823,15.308,198.9788],[-88.3944,15.3037,209.6948],[-88.3998,15.3039,233.7147],[-88.4051,15.3101,227.3994],[-88.4131,15.309,212.744],[-88.416,15.3071,209.2989],[-88.4169,15.3006,226.3881],[-88.4197,15.2971,212.5571],[-88.4247,15.2938,204.1832],[-88.4305,15.293,220.7816],[-88.4356,15.2893,231.1581],[-88.4359,15.2824,225.7862],[-88.4413,15.2805,225.7754],[-88.4477,15.2811,215.5629],[-88.4476,15.2761,226.1859],[-88.452,15.2742,223.8464],[-88.4501,15.2686,232.8405],[-88.4565,15.2696,220.004],[-88.4595,15.2654,215.2489],[-88.463,15.2675,206.4124],[-88.464,15.2639,212.712],[-88.4695,15.2636,207.9728],[-88.4691,15.2678,203.6149],[-88.473,15.2706,199.8065],[-88.4762,15.2679,203.4816],[-88.4793,15.2691,212.2521],[-88.4797,15.2648,204.5622],[-88.4883,15.2598,206.2201],[-88.4897,15.2526,209.4655],[-88.4912,15.2501,209.1435],[-88.4946,15.2491,210.0568],[-88.4974,15.2414,215.4261],[-88.5062,15.2381,218.1366],[-88.5093,15.2266,224.9312],[-88.5118,15.2259,225.6634],[-88.5134,15.2232,228.4884],[-88.5105,15.2199,231.8811]]]]}}