{"type":"Feature","properties":{"GID_2":"HND.10.6_1","GID_0":"HND","country":"Honduras","GID_1":"HND.10_1","province":"Intibucá","NL_NAME_1":"NA","county":"JesúsdeOtoro","VARNAME_2":"NA","NL_NAME_2":"NA","TYPE_2":"Municipio","ENGTYPE_2":"Municipality","CC_2":"NA","HASC_2":"HN.IN.JO","name":"Jesúsde_Otoro.county"},
"geometry":{"type": "MultiPolygon","coordinates": [[[[-87.8937,14.4897,1912.3141],[-87.8964,14.4956,2065.4888],[-87.8967,14.5006,2001.2869],[-87.8928,14.5058,1962.9979],[-87.8921,14.5108,1856.8845],[-87.8966,14.5211,1898.6826],[-87.9238,14.5323,1790.7301],[-87.9331,14.5312,1726.7776],[-87.9351,14.5332,1679.5525],[-87.9425,14.5581,1493.4664],[-87.9426,14.5728,1365.2252],[-87.9484,14.5786,1432.6191],[-87.9502,14.5834,1374.229],[-87.9536,14.5853,1301.7539],[-87.9535,14.601,969.2027],[-87.9609,14.6015,1054.611],[-87.9661,14.6047,995.4443],[-87.9713,14.6033,1197.7916],[-87.973,14.6043,1134.4828],[-87.9731,14.6014,1241.8452],[-87.9767,14.6013,1147.2302],[-87.9858,14.6114,895.4387],[-88.0126,14.6169,882.6598],[-88.0384,14.6256,601.1574],[-88.0574,14.6228,410.7419],[-88.0629,14.629,464.1466],[-88.0658,14.6401,443.3742],[-88.0734,14.6472,559.0668],[-88.0824,14.6447,814.3697],[-88.0939,14.6291,814.1061],[-88.1216,14.6355,806.2424],[-88.1241,14.6309,838.8746],[-88.129,14.6273,836.5748],[-88.1304,14.6182,900.3861],[-88.1243,14.6164,1010.9854],[-88.1258,14.6133,1017.0717],[-88.1195,14.6063,902.5288],[-88.108,14.5982,912.9642],[-88.0993,14.5965,830.5346],[-88.0952,14.5921,760.5699],[-88.0856,14.5861,645.5438],[-88.0829,14.5799,638.9095],[-88.0741,14.5728,554.3264],[-88.0712,14.5635,642.6404],[-88.0554,14.5572,593.3944],[-88.0574,14.5558,656.4427],[-88.0582,14.5509,719.8511],[-88.0623,14.5495,772.5857],[-88.0643,14.5432,810.8896],[-88.0767,14.5348,1048.1841],[-88.0781,14.5256,1084.1172],[-88.0841,14.5196,1156.4014],[-88.0896,14.5195,1144.6633],[-88.0918,14.5165,1090.3899],[-88.1029,14.5162,1287.454],[-88.1231,14.4951,1711.0897],[-88.1243,14.4916,1867.8116],[-88.1114,14.4297,1504.0591],[-88.0624,14.4148,840.2488],[-88.055,14.4098,1086.6855],[-88.0476,14.4075,1033.0923],[-88.0309,14.4078,832.5493],[-88.0138,14.4178,696.2723],[-88.0132,14.4204,685.0863],[-88.0155,14.4207,680.4509],[-88.0139,14.4224,657.5681],[-88.0039,14.4222,755.1736],[-87.9978,14.4198,757.6852],[-87.9751,14.427,747.8495],[-87.9606,14.414,697.1724],[-87.9469,14.4153,780.6384],[-87.9333,14.4243,910.8196],[-87.9124,14.4461,1067.7391],[-87.9125,14.448,1121.9371],[-87.9215,14.4541,1284.0674],[-87.9214,14.458,1306.1376],[-87.8791,14.4799,2003.7794],[-87.8816,14.4833,2143.3027],[-87.8937,14.4897,1912.3141]]]]}}