{"type":"Feature","properties":{"GID_2":"HND.5.13_1","GID_0":"HND","country":"Honduras","GID_1":"HND.5_1","province":"Copán","NL_NAME_1":"NA","county":"SanAgustín","VARNAME_2":"NA","NL_NAME_2":"NA","TYPE_2":"Municipio","ENGTYPE_2":"Municipality","CC_2":"NA","HASC_2":"HN.CP.SG","name":"San_Agustín.county"},
"geometry":{"type": "MultiPolygon","coordinates": [[[[-88.9345,14.8623,1373.8677],[-88.9337,14.8535,1375.6968],[-88.9491,14.8416,1511.4835],[-88.9592,14.8226,1452.9875],[-88.9555,14.8105,1395.7257],[-88.9747,14.7861,1671.2112],[-88.9625,14.7738,1340.8131],[-88.9526,14.774,1342.7266],[-88.9485,14.7815,1293.2655],[-88.942,14.7823,1034.035],[-88.9338,14.7786,903.9011],[-88.9319,14.7742,995.2224],[-88.8946,14.7655,936.8342],[-88.8949,14.7935,988.9216],[-88.9017,14.8218,1085.3309],[-88.9005,14.8271,1114.1506],[-88.9068,14.8405,1171.5852],[-88.8925,14.8573,1283.7974],[-88.8938,14.8677,1344.8904],[-88.9345,14.8623,1373.8677]]]]}}