{"type": "Feature","bbox": [-88.2191,15.071,-88.0916,15.1989],"geometry": {"type": "MultiPolygon","coordinates": [[[[-88.0995,15.14,247.1293],[-88.1054,15.1429,200.2331],[-88.1206,15.1384,251.6187],[-88.1259,15.1339,276.0231],[-88.1279,15.1251,369.703],[-88.135,15.1242,585.6775],[-88.1395,15.1191,472.3238],[-88.1495,15.1142,502.8185],[-88.152,15.1103,472.4312],[-88.1585,15.1129,404.6513],[-88.1677,15.1102,291.8412],[-88.1713,15.1136,291.1494],[-88.1752,15.1148,283.8326],[-88.1821,15.1228,214.6992],[-88.1802,15.127,136.8164],[-88.1811,15.1308,143.7193],[-88.1777,15.1367,139.9431],[-88.186,15.147,177.365],[-88.1847,15.153,205.5387],[-88.1907,15.1543,307.5693],[-88.1943,15.1589,300.6599],[-88.1961,15.1739,467.5596],[-88.2016,15.1806,506.7963],[-88.2007,15.1945,769.87],[-88.2021,15.1989,940.9539],[-88.2191,15.1947,716.6468],[-88.2121,15.1583,260.6899],[-88.189,15.1438,220.0187],[-88.1893,15.1406,278.4648],[-88.1827,15.1344,220.211],[-88.193,15.1117,353.4118],[-88.2165,15.1053,147.2439],[-88.2093,15.0953,215.2269],[-88.1877,15.0861,305.1087],[-88.1792,15.0781,239.1759],[-88.1678,15.0716,333.954],[-88.1525,15.071,704.386],[-88.1093,15.0746,1323.3044],[-88.0916,15.0898,966.5823],[-88.0988,15.0952,721.6317],[-88.1145,15.1181,492.6949],[-88.0995,15.14,247.1293]]]]}
,"properties": {"GID_2": "HND.16.5_1","GID_0": "HND","country": "Honduras","GID_1": "HND.16_1","province": "SantaBárbara","NL_NAME_1": "NA","county": "Chinda","VARNAME_2": "NA","NL_NAME_2": "NA","TYPE_2": "Municipio","ENGTYPE_2": "Municipality","CC_2": "NA","HASC_2": "HN.SB.CH","name": "Chinda.county","area_km2": 66.54499,"hist_schema_id": "Elevation0-9000","hist_area_km2": {"100": 0.49127,"125": 0.59362,"150": 1.22816,"175": 1.20763,"200": 1.67843,"225": 2.23107,"250": 2.8041,"275": 2.70176,"300": 2.76319,"325": 2.80415,"350": 2.61995,"375": 2.57904,"400": 2.45626,"425": 2.21064,"450": 2.3949,"475": 2.53815,"500": 2.39488,"525": 2.12877,"550": 1.82173,"575": 1.98553,"600": 1.71944,"625": 1.49429,"650": 1.82179,"675": 1.43287,"700": 1.53521,"725": 1.45328,"750": 1.26908,"775": 1.51476,"800": 1.28954,"825": 1.1667,"850": 1.16673,"875": 1.41232,"900": 0.75733,"925": 0.88024,"950": 0.75743,"975": 0.75745,"1000": 0.65509,"1025": 0.63462,"1050": 0.5732,"1075": 0.67556,"1100": 0.36849,"1125": 0.32755,"1150": 0.30708,"1175": 0.14331,"1200": 0.28661,"1225": 0.20472,"1250": 0.22519,"1275": 0.06142,"1325": 0.02047}}}