{"type": "Feature","bbox": [-86.8175,14.9193,-86.5838,15.2812],"geometry": {"type": "MultiPolygon","coordinates": [[[[-86.644,14.9209,1095.3569],[-86.597,14.9251,1012.6713],[-86.5908,14.9319,1025.5854],[-86.5856,14.939,1007.6108],[-86.5838,14.9924,990.4926],[-86.5884,15.0028,922.7748],[-86.6001,15.0049,886.1063],[-86.5983,15.0176,878.6742],[-86.605,15.0432,976.1937],[-86.605,15.0632,1135.4312],[-86.6093,15.0687,1154.144],[-86.6106,15.0756,1242.6035],[-86.6135,15.0793,1090.4885],[-86.6266,15.0833,1266.2526],[-86.6261,15.0956,1319.698],[-86.6297,15.1035,1526.6936],[-86.6338,15.1064,1698.8435],[-86.6448,15.1093,1831.4077],[-86.6461,15.1113,1861.3132],[-86.6451,15.1451,1332.0223],[-86.6469,15.1485,1252.1279],[-86.6544,15.1551,1129.8003],[-86.6588,15.1646,1043.4169],[-86.6669,15.1697,1186.7593],[-86.671,15.175,1270.0763],[-86.6674,15.1967,1043.0806],[-86.6855,15.2011,964.9771],[-86.6835,15.256,922.8257],[-86.6775,15.2588,899.8125],[-86.6829,15.2725,1235.7781],[-86.6913,15.2812,1376.4333],[-86.692,15.2754,1360.4777],[-86.7007,15.273,1340.1071],[-86.7268,15.2571,730.5359],[-86.7247,15.2511,933.3756],[-86.7302,15.2438,1085.0093],[-86.7328,15.2344,1181.4016],[-86.7443,15.2242,1359.944],[-86.7571,15.2067,1501.1326],[-86.7717,15.1903,1435.4324],[-86.7796,15.1689,1026.3154],[-86.7914,15.1596,991.6582],[-86.8017,15.1444,893.9873],[-86.8086,15.1396,852.4222],[-86.8162,15.1097,890.0853],[-86.8175,15.0948,1228.838],[-86.8106,15.0782,880.3587],[-86.7991,15.0589,945.0229],[-86.7896,15.0348,872.6282],[-86.7816,15.0061,730.6908],[-86.7653,15.0063,663.0165],[-86.7587,15.003,668.6257],[-86.7435,14.9897,669.9103],[-86.7155,14.9848,725.3094],[-86.7152,14.9753,682.3759],[-86.7191,14.9597,821.8636],[-86.7147,14.957,780.0913],[-86.7141,14.9533,771.0212],[-86.7111,14.9513,771.9778],[-86.7089,14.9459,765.554],[-86.7015,14.9448,715.9333],[-86.694,14.9377,743.7667],[-86.6956,14.9334,735.8001],[-86.6929,14.9305,767.1404],[-86.6877,14.9287,778.871],[-86.6861,14.9193,836.2556],[-86.644,14.9209,1095.3569]]]]}
,"properties": {"GID_2": "HND.15.13_1","GID_0": "HND","country": "Honduras","GID_1": "HND.15_1","province": "Olancho","NL_NAME_1": "NA","county": "LaUnión","VARNAME_2": "NA","NL_NAME_2": "NA","TYPE_2": "Municipio","ENGTYPE_2": "Municipality","CC_2": "NA","HASC_2": "HN.CP.LU","name": "La_Unión.county","area_km2": 558.429,"hist_schema_id": "Elevation0-9000","hist_area_km2": {"575": 0.0205,"600": 0.1228,"625": 0.1842,"650": 0.8804,"675": 2.7031,"700": 5.7753,"725": 9.6051,"750": 16.1586,"775": 19.9269,"800": 19.0871,"825": 19.9259,"850": 19.844,"875": 21.3177,"900": 20.1902,"925": 21.6021,"950": 22.1337,"975": 22.0102,"1000": 21.6203,"1025": 19.7361,"1050": 17.4421,"1075": 17.5848,"1100": 17.5025,"1125": 16.9703,"1150": 17.3992,"1175": 16.0473,"1200": 15.8015,"1225": 15.4117,"1250": 14.2651,"1275": 13.5694,"1300": 12.7709,"1325": 11.5636,"1350": 11.236,"1375": 11.113,"1400": 10.2743,"1425": 10.2537,"1450": 8.4324,"1475": 7.2248,"1500": 7.1225,"1525": 5.4444,"1550": 4.6668,"1575": 3.7663,"1600": 3.4797,"1625": 3.3979,"1650": 3.5003,"1675": 2.9476,"1700": 2.8862,"1725": 2.3131,"1750": 2.2926,"1775": 1.9651,"1800": 1.7604,"1825": 1.5352,"1850": 1.1463,"1875": 0.7983,"1900": 0.7574,"1925": 0.5527,"1950": 0.2252,"1975": 0.1023,"2000": 0.0409,"2025": 0.0205}}}