{"type": "Feature","bbox": [-88.5278,13.9394,-88.3745,14.1219],"geometry": {"type": "MultiPolygon","coordinates": [[[[-88.5079,13.9394,91.302],[-88.4969,13.9402,180.263],[-88.4986,13.949,80.6888],[-88.4978,13.951599999999999,63.0],[-88.4946,13.9525,169.0266],[-88.4909,13.9499,195.3485],[-88.4874,13.9604,91.5426],[-88.4845,13.9624,145.8443],[-88.4798,13.9622,123.7698],[-88.4785,13.9646,128.8612],[-88.4754,13.9654,146.6676],[-88.4757,13.9725,208.5442],[-88.4789,13.9784,99.9459],[-88.4724,13.9789,175.2666],[-88.4672,13.9812,193.9382],[-88.4614,13.994,387.9581],[-88.4436,13.9955,316.0041],[-88.4368,14.0038,192.5926],[-88.4251,14.0047,443.2687],[-88.4154,14.0124,516.9099],[-88.4062,14.0151,445.7136],[-88.4005,14.0205,408.1964],[-88.3963,14.0207,318.8127],[-88.3895,14.0241,356.3008],[-88.3814,14.0247,431.9561],[-88.3795,14.0371,290.3185],[-88.3751,14.0405,289.3452],[-88.3745,14.0482,191.29],[-88.3802,14.05,267.3985],[-88.385,14.0596,362.2432],[-88.3916,14.059,498.5761],[-88.4048,14.0701,462.6261],[-88.4054,14.0777,458.2679],[-88.4105,14.0826,547.7103],[-88.4116,14.0899,519.0],[-88.4178,14.0962,432.6121],[-88.417,14.0982,413.6582],[-88.4194,14.1062,471.2292],[-88.422,14.1084,483.2736],[-88.4245,14.1073,558.989],[-88.4299,14.1145,627.3149],[-88.428,14.1172,568.5046],[-88.4302,14.1219,512.744],[-88.4368,14.1216,609.6335],[-88.4404,14.1195,640.0542],[-88.4471,14.1202,778.8715],[-88.4545,14.1178,919.4951],[-88.4652,14.1218,1128.4814],[-88.4703,14.1211,1464.0376],[-88.4721,14.1193,1509.6505],[-88.473,14.1135,1462.5403],[-88.4776,14.1105,1444.5076],[-88.479,14.0928,1223.4556],[-88.4814,14.0888,1209.4032],[-88.486,14.0867,1132.599],[-88.5059,14.0838,940.2928],[-88.5096,14.0841,925.2474],[-88.5112,14.0859,838.6085],[-88.515,14.0851,818.4756],[-88.5217,14.0802,777.3007],[-88.5218,14.078,756.0026],[-88.5258,14.0771,610.4767],[-88.5268,14.0713,549.0034],[-88.5235,14.0634,464.8674],[-88.5278,14.0628,498.9808],[-88.5265,14.0586,501.3948],[-88.5222,14.0569,422.375],[-88.5227,14.0481,395.0513],[-88.5174,14.0429,367.0546],[-88.5181,14.038,433.2578],[-88.5165,14.033,424.8862],[-88.5214,14.0272,235.1461],[-88.5219,14.0198,215.6624],[-88.5191,14.0184,271.2946],[-88.5186,14.0156,256.1395],[-88.5212,14.0123,174.0747],[-88.5166,14.0104,240.583],[-88.5208,14.0055,173.0508],[-88.5187,14.0018,274.442],[-88.5204,13.9977,274.215],[-88.5193,13.9957,329.9651],[-88.5242,13.9897,132.3981],[-88.5224,13.9876,207.3701],[-88.5245,13.9821,112.7489],[-88.5077,13.9719,131.0949],[-88.4978,13.9619,151.8196],[-88.4976,13.9566,81.0795],[-88.5079,13.9394,91.302]]]]}
,"properties": {"GID_2": "HND.13.15_1","GID_0": "HND","country": "Honduras","GID_1": "HND.13_1","province": "Lempira","NL_NAME_1": "NA","county": "Piraera","VARNAME_2": "NA","NL_NAME_2": "NA","TYPE_2": "Municipio","ENGTYPE_2": "Municipality","CC_2": "NA","HASC_2": "HN.LE.PI","name": "Piraera.county","area_km2": 175.3262,"hist_schema_id": "Elevation0-9000","hist_area_km2": {"50": 0.0412,"75": 1.1522,"100": 1.646,"125": 2.613,"150": 3.7238,"175": 4.4847,"200": 5.8013,"225": 5.2457,"250": 5.472,"275": 5.6159,"300": 5.2867,"325": 4.9575,"350": 5.0809,"375": 4.6077,"400": 5.2452,"425": 5.0394,"450": 5.06,"475": 5.5329,"500": 5.4505,"525": 5.6149,"550": 5.7382,"575": 5.1213,"600": 5.2652,"625": 5.1007,"650": 5.8001,"675": 5.2447,"700": 5.2653,"725": 4.6688,"750": 4.1751,"775": 3.9694,"800": 3.1055,"825": 3.3729,"850": 2.9615,"875": 2.8381,"900": 3.1465,"925": 3.3316,"950": 2.797,"975": 2.2211,"1000": 2.3856,"1025": 1.7686,"1050": 1.3985,"1075": 1.3985,"1100": 1.2545,"1125": 0.9254,"1150": 0.9048,"1175": 0.8637,"1200": 0.473,"1225": 0.3907,"1250": 0.3085,"1275": 0.2879,"1300": 0.1851,"1325": 0.0823,"1350": 0.2879,"1375": 0.1439,"1400": 0.1234,"1425": 0.1234,"1450": 0.2262}}}