{"type":"Feature","properties":{"GID_2":"HND.12.12_1","GID_0":"HND","country":"Honduras","GID_1":"HND.12_1","province":"LaPaz","NL_NAME_1":"NA","county":"SanJosé","VARNAME_2":"NA","NL_NAME_2":"NA","TYPE_2":"Municipio","ENGTYPE_2":"Municipality","CC_2":"NA","HASC_2":"HN.CH.SJ","name":"San_José.county"},
"geometry":{"type": "MultiPolygon","coordinates": [[[[-88.0037,14.237,1065.4652],[-88.0088,14.2162,1032.067],[-88.0051,14.2158,1112.0409],[-88.0047,14.2126,1061.77],[-88.0016,14.213,1082.7466],[-88.0011,14.2103,1098.2646],[-87.9983,14.2109,1168.437],[-87.9825,14.2031,1428.8739],[-87.9771,14.1907,1534.6716],[-87.9771,14.184,1427.8911],[-87.957,14.1899,1559.5345],[-87.9528,14.1871,1608.0474],[-87.9457,14.1858,1796.2758],[-87.9149,14.1897,1844.7029],[-87.9052,14.1851,1583.468],[-87.8951,14.1844,1661.6658],[-87.892,14.1855,1685.9194],[-87.8878,14.1907,1750.7147],[-87.8826,14.2024,1673.8047],[-87.8803,14.2253,1607.7334],[-87.8969,14.2256,1529.9458],[-87.9,14.2205,1726.7524],[-87.9012,14.2132,1649.5182],[-87.9056,14.2133,1708.799],[-87.9045,14.2178,1766.114],[-87.9122,14.2205,1700.6746],[-87.9257,14.2189,1535.0597],[-87.9345,14.2318,1457.1821],[-87.9484,14.237,1420.7323],[-87.9495,14.2469,1362.5903],[-87.9512,14.2503,1297.0122],[-87.9663,14.2577,1199.0527],[-87.9613,14.2619,1183.0349],[-87.9617,14.2728,1081.9805],[-87.966,14.2758,1031.1669],[-87.9669,14.2801,1051.7532],[-87.9701,14.2816,1023.0624],[-87.9732,14.277,1055.901],[-87.9772,14.2793,983.4844],[-87.9808,14.2764,1035.7784],[-87.9942,14.272,1004.1486],[-87.9973,14.2686,1032.6698],[-88.0021,14.2571,1012.6605],[-87.9998,14.2533,1134.1791],[-88.0037,14.237,1065.4652]]]]}}