{"type":"Feature","properties":{"GID_2":"HND.4.13_1","GID_0":"HND","country":"Honduras","GID_1":"HND.4_1","province":"Comayagua","NL_NAME_1":"NA","county":"OjodeAgua","VARNAME_2":"NA","NL_NAME_2":"NA","TYPE_2":"Municipio","ENGTYPE_2":"Municipality","CC_2":"NA","HASC_2":"HN.CM.OA","name":"Ojode_Agua.county"},
"geometry":{"type": "MultiPolygon","coordinates": [[[[-87.6087,14.7927,683.4314],[-87.6184,14.8049,655.1872],[-87.6234,14.8081,661.2731],[-87.6266,14.8128,614.4542],[-87.6281,14.8194,608.908],[-87.6323,14.8232,546.6039],[-87.6416,14.8253,519.9307],[-87.6555,14.8251,496.8541],[-87.6585,14.8258,515.8313],[-87.6594,14.8283,429.0144],[-87.6683,14.8234,376.2727],[-87.6707,14.8202,528.0516],[-87.6817,14.8214,425.1821],[-87.6878,14.8201,312.6818],[-87.6892,14.8068,435.9122],[-87.6844,14.8017,300.6432],[-87.6886,14.7898,386.5518],[-87.6885,14.7859,385.0726],[-87.7059,14.7828,655.6924],[-87.713,14.7787,719.1153],[-87.7155,14.7727,749.0472],[-87.715,14.7664,700.9714],[-87.7284,14.7353,843.7803],[-87.6691,14.7333,641.2679],[-87.6563,14.7281,383.154],[-87.6515,14.7198,339.1123],[-87.6547,14.7135,414.3539],[-87.6518,14.7114,395.844],[-87.6528,14.7156,378.0962],[-87.6486,14.7218,335.8712],[-87.6401,14.7258,425.5653],[-87.6391,14.7298,382.3923],[-87.6423,14.7361,484.1782],[-87.64,14.7389,371.1425],[-87.6383,14.7459,444.6659],[-87.6326,14.7488,319.6996],[-87.6336,14.7582,383.7615],[-87.6271,14.7651,478.4565],[-87.6087,14.7927,683.4314]]]]}}