{"type":"Feature","properties":{"GID_2":"HND.14.13_1","GID_0":"HND","country":"Honduras","GID_1":"HND.14_1","province":"Ocotepeque","NL_NAME_1":"NA","county":"SanMarcos","VARNAME_2":"NA","NL_NAME_2":"NA","TYPE_2":"Municipio","ENGTYPE_2":"Municipality","CC_2":"NA","HASC_2":"HN.OC.SM","name":"San_Marcos.county"},
"geometry":{"type": "MultiPolygon","coordinates": [[[[-88.801,14.3727,2234.5862],[-88.8199,14.3899,2184.2378],[-88.8152,14.4007,2151.6177],[-88.8139,14.4115,2148.75],[-88.8341,14.4153,2120.8489],[-88.8349,14.4166,2010.8328],[-88.8391,14.4301,1947.623],[-88.8356,14.4446,1757.6715],[-88.8425,14.4486,1699.7842],[-88.8452,14.4545,1731.4385],[-88.8501,14.4524,1691.344],[-88.862799999999993,14.4332,1433.7194],[-88.8689,14.4338,1327.665],[-88.8717,14.4318,1368.7739],[-88.8977,14.4305,1150.4919],[-88.8974,14.4292,1164.9637],[-88.9034,14.4267,1123.1544],[-88.9053,14.429,1094.8445],[-88.9097,14.4296,1047.0406],[-88.9145,14.4255,1024.1765],[-88.9557,14.4048,967.8005],[-88.9919,14.3779,1115.8833],[-88.9838,14.3713,1203.0621],[-88.9847,14.3654,1199.4524],[-88.9861,14.3627,1194.0312],[-88.9895,14.363,1208.1715],[-88.9918,14.3581,1243.152],[-88.9977,14.3538,1371.1293],[-89.009,14.354,1552.1775],[-89.0151,14.3566,1628.1267],[-89.0461,14.3821,1935.7452],[-89.0558,14.387,2116.8225],[-89.0543,14.3838,2099.1765],[-89.056,14.3797,1990.6184],[-89.0612,14.3791,2127.7544],[-89.0692,14.3736,1995.3276],[-89.0716,14.3707,1950.6609],[-89.0728,14.3649,1906.1503],[-89.0705,14.3635,1907.03],[-89.0644,14.3639,1983.5693],[-89.0567,14.3582,1955.365],[-89.0487,14.3568,1954.3262],[-89.0433,14.3588,1719.2351],[-89.0395,14.3579,1645.95],[-89.0376,14.3508,1778.7002],[-89.0342,14.3461,1602.8661],[-89.028,14.3427,1410.4391],[-89.0249,14.3369,1211.9918],[-89.0208,14.3349,1411.3749],[-89.0183,14.3306,1383.2507],[-88.9991,14.3294,1450.8801],[-88.9931,14.3321,1480.1411],[-88.9861,14.3327,1453.559],[-88.9824,14.3304,1413.4957],[-88.9674,14.3272,1499.631],[-88.9446,14.3263,1551.4197],[-88.9431,14.329,1624.4641],[-88.9385,14.3307,1583.5671],[-88.9272,14.3321,1297.5422],[-88.9212,14.3304,1296.6234],[-88.9031,14.3341,1138.5206],[-88.8912,14.3409,1105.6135],[-88.8821,14.3437,1199.9873],[-88.8783,14.3484,1240.2151],[-88.8721,14.3612,1354.4805],[-88.8715,14.396,1302.4961],[-88.8637,14.3932,1433.0682],[-88.8524,14.3929,1551.6188],[-88.8499,14.384,1437.1184],[-88.8312,14.3712,1799.7913],[-88.8177,14.373,2292.9375],[-88.801,14.3727,2234.5862]]]]}}