{"type": "Feature","bbox": [-88.9272,14.9673,-88.8242,15.133],"geometry": {"type": "MultiPolygon","coordinates": [[[[-88.9225,14.9903,1062.1924],[-88.8781,14.9716,962.5344],[-88.8682,14.9722,951.4228],[-88.8476,14.9677,774.3181],[-88.8321,14.9673,733.7472],[-88.8259,14.97,638.3101],[-88.8242,14.9734,648.1176],[-88.8432,14.9773,663.84],[-88.8427,15.002,637.166],[-88.8406,15.0127,504.1688],[-88.8548,15.0346,545.2191],[-88.8459,15.0495,493.8656],[-88.8488,15.052,499.2318],[-88.8536,15.0706,604.3271],[-88.859,15.0815,639.9978],[-88.8583,15.0921,780.2692],[-88.8632,15.1156,948.3546],[-88.861,15.128,1144.771],[-88.8626,15.133,1128.7715],[-88.8736,15.1317,1465.2291],[-88.8782,15.1285,1580.5396],[-88.8832,15.1277,1647.9913],[-88.8982,15.1202,1913.0558],[-88.9168,15.0994,1997.2369],[-88.924,15.0764,1212.5361],[-88.9272,15.0228,1000.1886],[-88.9225,14.9903,1062.1924]]]]}
,"properties": {"GID_2": "HND.5.14_1","GID_0": "HND","country": "Honduras","GID_1": "HND.5_1","province": "Copán","NL_NAME_1": "NA","county": "SanAntonio","VARNAME_2": "NA","NL_NAME_2": "NA","TYPE_2": "Municipio","ENGTYPE_2": "Municipality","CC_2": "NA","HASC_2": "HN.CP.SA","name": "San_Antonio.county","area_km2": 126.27324,"hist_schema_id": "Elevation0-9000","hist_area_km2": {"500": 0.75762,"525": 2.29343,"550": 3.41965,"575": 4.01348,"600": 5.36499,"625": 4.79175,"650": 4.23897,"675": 4.42337,"700": 4.52573,"725": 4.46435,"750": 4.62818,"775": 4.23897,"800": 4.19795,"825": 3.39939,"850": 3.768,"875": 3.07174,"900": 3.50184,"925": 3.23551,"950": 3.54258,"975": 3.33786,"1000": 2.47774,"1025": 1.96566,"1050": 1.45366,"1075": 1.18745,"1100": 1.0851,"1125": 1.12601,"1150": 1.14649,"1175": 1.3102,"1200": 1.12597,"1225": 1.18735,"1250": 1.00315,"1275": 1.59683,"1300": 1.88344,"1325": 2.23152,"1350": 2.14964,"1375": 1.88342,"1400": 1.80156,"1425": 2.10864,"1450": 1.84251,"1475": 1.47401,"1500": 1.20783,"1525": 1.12593,"1550": 0.8598,"1575": 0.90076,"1600": 1.14639,"1625": 1.433,"1650": 1.31018,"1675": 1.41249,"1700": 1.31014,"1725": 1.00305,"1750": 1.39201,"1775": 1.00304,"1800": 0.75742,"1825": 0.69601,"1850": 0.67555,"1875": 0.59365,"1900": 0.47082,"1925": 0.4708,"1950": 0.28658,"1975": 0.2661,"2000": 0.12282,"2025": 0.16376,"2050": 0.2047,"2075": 0.06141,"2100": 0.10235,"2150": 0.02047,"2200": 0.02047}}}