{"type":"Feature","properties":{"GID_2":"HND.4.18_1","GID_0":"HND","country":"Honduras","GID_1":"HND.4_1","province":"Comayagua","NL_NAME_1":"NA","county":"SanSebastián","VARNAME_2":"NA","NL_NAME_2":"NA","TYPE_2":"Municipio","ENGTYPE_2":"Municipality","CC_2":"NA","HASC_2":"HN.CM.SS","name":"San_Sebastián.county"},
"geometry":{"type": "MultiPolygon","coordinates": [[[[-87.7614,14.2217,1259.7961],[-87.7596,14.2266,1178.436],[-87.764,14.2238,1202.6704],[-87.7701,14.2254,1279.3644],[-87.7747,14.2232,1222.8605],[-87.7796,14.2319,1167.0972],[-87.8129,14.2172,1545.1199],[-87.8142,14.2228,1544.5043],[-87.8254,14.2169,1694.6394],[-87.829,14.2106,1793.7521],[-87.8216,14.2012,1786.9222],[-87.821,14.1882,1905.2449],[-87.7971,14.1799,1610.9563],[-87.7858,14.1783,1580.2429],[-87.7687,14.1516,1308.3219],[-87.7639,14.159,1237.6816],[-87.7521,14.1631,1243.4568],[-87.7495,14.1696,1210.6677],[-87.7341,14.1749,1036.9473],[-87.7338,14.1764,1030.2974],[-87.7372,14.1802,1021.3303],[-87.7355,14.1904,1058.5065],[-87.7377,14.1982,962.8794],[-87.7344,14.1992,979.3334],[-87.7346,14.2014,1035.4648],[-87.7302,14.2033,961.4883],[-87.7388,14.2113,943.119],[-87.7451,14.2122,1029.6687],[-87.762,14.2201,1271.6606],[-87.7614,14.2217,1259.7961]]],
[[[-87.6838,14.1964,749.4047],[-87.6686,14.2089,733.7747],[-87.5995,14.2209,669.0266],[-87.5984,14.226,667.6262],[-87.6021,14.2314,659.3927],[-87.6019,14.2409,652.9019],[-87.6218,14.2589,653.3412],[-87.6457,14.2607,623.5103],[-87.6454,14.2586,629.1086],[-87.6497,14.255,620.9799],[-87.6569,14.2523,646.9626],[-87.652,14.2446,643.5154],[-87.6614,14.2428,667.1754],[-87.6609,14.2394,706.5873],[-87.6628,14.2383,706.7858],[-87.6684,14.2405,710.2167],[-87.666,14.2455,704.0696],[-87.6696,14.2452,677.0134],[-87.6714,14.2409,660.0674],[-87.675,14.2384,658.1755],[-87.6741,14.235,691.31],[-87.6788,14.2305,669.4828],[-87.6796,14.2265,704.8553],[-87.6836,14.2267,688.4447],[-87.6828,14.222,700.02],[-87.6857,14.2222,681.9298],[-87.6889,14.2198,694.5733],[-87.687,14.2186,697.2078],[-87.6872,14.2032,742.9402],[-87.684,14.2007,751.3323],[-87.6838,14.1964,749.4047]]]]}}