{"type":"Feature","properties":{"GID_2":"HND.12.18_1","GID_0":"HND","country":"Honduras","GID_1":"HND.12_1","province":"LaPaz","NL_NAME_1":"NA","county":"SantiagodePuringla","VARNAME_2":"NA","NL_NAME_2":"NA","TYPE_2":"Municipio","ENGTYPE_2":"Municipality","CC_2":"NA","HASC_2":"HN.LP.SP","name":"Santiagode_Puringla.county"},
"geometry":{"type": "MultiPolygon","coordinates": [[[[-87.8484,14.415,1888.6617],[-87.8506,14.415,1828.1678],[-87.8528,14.4114,1819.1646],[-87.857,14.4087,1698.3347],[-87.8631,14.3997,1462.8248],[-87.8786,14.3911,1221.0293],[-87.8886,14.3834,1129.8273],[-87.8965,14.381,1092.8706],[-87.9011,14.3741,1065.7844],[-87.9068,14.3716,951.2413],[-87.9087,14.369,1063.7166],[-87.9158,14.3685,1063.8868],[-87.9197,14.3715,1073.439],[-87.9252,14.3689,1033.2491],[-87.9273,14.3703,980.7188],[-87.9409,14.3707,906.7267],[-87.94,14.373,941.0081],[-87.9419,14.3754,836.8599],[-87.9449,14.3742,828.7168],[-87.9451,14.3754,828.7168],[-87.9502,14.3763,885.3467],[-87.9507,14.3701,889.7836],[-87.9494,14.3678,898.084],[-87.951,14.3656,890.0853],[-87.9478,14.3605,838.6547],[-87.9511,14.3593,877.0658],[-87.95,14.3566,899.5384],[-87.9514,14.355,884.8961],[-87.9537,14.3553,740.4711],[-87.9561,14.3529,722.1064],[-87.9511,14.351,854.2009],[-87.9523,14.3475,845.9008],[-87.95,14.3467,927.662],[-87.951,14.3445,858.2875],[-87.9491,14.3426,812.2346],[-87.9523,14.3392,766.1171],[-87.952,14.3351,779.5428],[-87.9477,14.3352,853.6498],[-87.9477,14.3325,874.7018],[-87.9441,14.3279,878.1627],[-87.9478,14.3226,798.5733],[-87.9467,14.3205,797.9564],[-87.9482,14.3174,821.9021],[-87.9464,14.3157,831.2675],[-87.9495,14.3146,843.9243],[-87.949,14.3133,882.9584],[-87.9412,14.3107,844.7521],[-87.9411,14.3085,859.1445],[-87.891,14.3018,1097.0859],[-87.8862,14.3027,1047.2595],[-87.8859,14.2993,979.6331],[-87.8832,14.2963,1043.5264],[-87.8779,14.2949,1104.6646],[-87.876,14.2971,1086.3282],[-87.875,14.2939,1129.9595],[-87.8713,14.2955,1103.7507],[-87.8686,14.29,1161.8943],[-87.8726,14.2781,1166.9893],[-87.8712,14.2694,1093.9053],[-87.875,14.2645,1144.3254],[-87.8753,14.2614,1121.311],[-87.871,14.2568,1211.2344],[-87.8658,14.2573,1164.3763],[-87.8614,14.2612,1159.5413],[-87.8644,14.2689,1238.6552],[-87.861,14.2718,1235.7869],[-87.8581,14.284,1231.595],[-87.8585,14.2859,1169.2224],[-87.864,14.288,1108.3004],[-87.8646,14.292,1108.697],[-87.8495,14.2985,1180.7578],[-87.8442,14.3039,1221.1846],[-87.841,14.3126,1220.9032],[-87.8353,14.317,1316.8047],[-87.8343,14.3223,1377.1771],[-87.8165,14.335,1808.5967],[-87.8018,14.3532,2215.3687],[-87.7882,14.3807,1764.4835],[-87.7998,14.3806,2044.3901],[-87.8103,14.3841,2082.0889],[-87.8305,14.3829,2037.5879],[-87.8383,14.3982,2097.6987],[-87.8382,14.4026,2101.9126],[-87.8484,14.415,1888.6617]]]]}}