{"type":"Feature","properties":{"GID_2":"HND.17.5_1","GID_0":"HND","country":"Honduras","GID_1":"HND.17_1","province":"Valle","NL_NAME_1":"NA","county":"Goascorán","VARNAME_2":"NA","NL_NAME_2":"NA","TYPE_2":"Municipio","ENGTYPE_2":"Municipality","CC_2":"NA","HASC_2":"HN.VA.GO","name":"Goascorán.county"},
"geometry":{"type": "MultiPolygon","coordinates": [[[[-87.7571,13.6137,45.9659],[-87.7568,13.6005,57.1156],[-87.7636,13.5945,59.4213],[-87.7746,13.5791,45.1009],[-87.7768,13.5695,39.2304],[-87.7863,13.5661,48.1717],[-87.7862,13.5637,35.1572],[-87.7808,13.5607,31.8771],[-87.7857,13.5564,26.5696],[-87.7877,13.5521,35.6366],[-87.7867,13.5449,28.8516],[-87.7893,13.5359,34.5133],[-87.7849,13.5267,26.2455],[-87.7913,13.5188,58.1637],[-87.7909,13.5155,61.4556],[-87.7834,13.5111,22.7559],[-87.7819,13.5043,37.5416],[-87.745,13.5329,21.2023],[-87.7384,13.5337,24.1299],[-87.7289,13.5377,31.5391],[-87.7153,13.536,50.6731],[-87.6798,13.5443,251.2597],[-87.675,13.5317,56.4334],[-87.6751,13.5276,45.8981],[-87.6711,13.521,29.0491],[-87.6706,13.5153,22.2282],[-87.6635,13.5125,17.8864],[-87.6602,13.5077,17.2782],[-87.6582,13.5073,12.5821],[-87.654,13.5003,6.8819],[-87.6548,13.4914,3.978],[-87.6533,13.4902,7.4143],[-87.6515,13.4919,4.0773],[-87.6505,13.4891,10.3507],[-87.6471,13.4895,11.5061],[-87.648,13.4913,9.0937],[-87.6458,13.4939,7.8552],[-87.6451,13.5002,10.7874],[-87.6389,13.5067,21.5084],[-87.6429,13.5143,19.8835],[-87.6421,13.5227,22.6868],[-87.6397,13.5285,16.7351],[-87.6437,13.5299,28.5483],[-87.6453,13.5345,23.1815],[-87.6491,13.5373,23.7459],[-87.6511,13.5713,58.7758],[-87.6491,13.5765,90.707],[-87.663,13.6052,151.1661],[-87.6656,13.6062,157.4132],[-87.6692,13.6116,170.1579],[-87.6745,13.6119,176.1032],[-87.6845,13.6287,280.6311],[-87.6854,13.6565,264.8637],[-87.6906,13.6593,304.4059],[-87.7006,13.6716,206.1371],[-87.7077,13.6752,174.8297],[-87.7125,13.6747,216.4608],[-87.7142,13.6774,162.6418],[-87.7187,13.6787,160.1156],[-87.7253,13.6849,106.7051],[-87.7295,13.6857,104.7043],[-87.7288,13.6823,128.7905],[-87.7363,13.6824,133.6976],[-87.7532,13.6863,81.3874],[-87.7548,13.6772,68.7641],[-87.7517,13.6552,62.1522],[-87.7544,13.634,51.0259],[-87.7566,13.6285,66.5493],[-87.7571,13.6137,45.9659]]]]}}