{"type": "Feature","bbox": [-87.4327,14.9979,-87.1851,15.1282],"geometry": {"type": "MultiPolygon","coordinates": [[[[-87.1851,15.0145,1439.5107],[-87.1867,15.0169,1422.78],[-87.1914,15.0183,1323.5027],[-87.1996,15.0247,1163.609],[-87.2097,15.0256,972.096],[-87.2153,15.0277,946.2235],[-87.2164,15.0307,902.808],[-87.2648,15.0427,809.3921],[-87.2679,15.0617,732.34],[-87.2828,15.079,807.4696],[-87.2868,15.1019,774.9838],[-87.2893,15.1058,928.99],[-87.2979,15.1013,933.1283],[-87.3038,15.1005,1100.4702],[-87.316,15.1074,922.6569],[-87.3305,15.1047,1062.7642],[-87.3338,15.1023,1013.5504],[-87.3405,15.1098,1166.094],[-87.3525,15.1178,985.5572],[-87.3922,15.126,1396.2578],[-87.3958,15.1282,1349.0845],[-87.412,15.1169,1432.0067],[-87.4188,15.1158,1480.9575],[-87.4226,15.1056,1402.3595],[-87.4225,15.0959,1353.4055],[-87.4273,15.0842,1403.6837],[-87.425,15.067,1451.5127],[-87.4307,15.0398,742.3126],[-87.4288,15.0262,552.7379],[-87.4325,15.0234,485.4923],[-87.4327,15.0205,466.32],[-87.4189,15.0179,569.7736],[-87.4124,15.0131,795.5022],[-87.4104,15.0216,763.0481],[-87.4002,15.0314,961.7756],[-87.3909,15.0333,1077.4375],[-87.3844,15.0406,1261.6333],[-87.3669,15.0435,1510.2372],[-87.3662,15.0248,1381.9897],[-87.3639,15.0224,1411.772],[-87.3588,15.0222,1453.7859],[-87.3557,15.0194,1431.1531],[-87.356,15.0083,1388.4219],[-87.3539,15.0065,1364.9576],[-87.3398,15.0076,1127.0847],[-87.3387,15.009,1171.1519],[-87.3333,15.0063,999.2164],[-87.3267,15.0083,1020.0387],[-87.3197,15.0067,1023.5137],[-87.3148,15.008,1032.6311],[-87.3075,15.006,851.799],[-87.3026,14.9997,729.5151],[-87.2962,15.0044,881.6807],[-87.294,15.01,896.6949],[-87.283,15.007,760.6146],[-87.2725,15.0107,611.4694],[-87.2538,15.0038,747.6306],[-87.2343,15.0013,1047.5818],[-87.2216,15.0026,1165.3357],[-87.2134,14.9979,1187.6967],[-87.2087,15.0032,1250.5608],[-87.2033,15.0053,1143.733],[-87.2004,15.0108,1183.0959],[-87.1969,15.0116,1273.0034],[-87.1919,15.01,1291.1478],[-87.1851,15.0145,1439.5107]]]]}
,"properties": {"GID_2": "HND.18.10_1","GID_0": "HND","country": "Honduras","GID_1": "HND.18_1","province": "Yoro","NL_NAME_1": "NA","county": "Yorito","VARNAME_2": "NA","NL_NAME_2": "NA","TYPE_2": "Municipio","ENGTYPE_2": "Municipality","CC_2": "NA","HASC_2": "HN.YO.YT","name": "Yorito.county","area_km2": 201.7739,"hist_schema_id": "Elevation0-9000","hist_area_km2": {"450": 0.1024,"475": 0.2253,"500": 0.2253,"525": 0.4095,"550": 0.6348,"575": 0.6348,"600": 0.8805,"625": 1.3515,"650": 2.3958,"675": 2.703,"700": 2.8463,"725": 3.6858,"750": 5.7537,"775": 6.4293,"800": 5.6104,"825": 5.7332,"850": 5.3032,"875": 5.0984,"900": 4.9959,"925": 4.095,"950": 5.1596,"975": 5.9377,"1000": 6.6339,"1025": 6.081,"1050": 5.4258,"1075": 5.4258,"1100": 5.5281,"1125": 5.5486,"1150": 5.6305,"1175": 5.6508,"1200": 4.7295,"1225": 4.6885,"1250": 4.8317,"1275": 5.0157,"1300": 4.7292,"1325": 4.8725,"1350": 5.7936,"1375": 6.592,"1400": 7.2676,"1425": 5.3637,"1450": 4.3402,"1475": 3.4804,"1500": 2.8662,"1525": 3.1529,"1550": 3.4192,"1575": 3.1326,"1600": 2.6207,"1625": 1.6584,"1650": 1.3922,"1675": 1.2488,"1700": 0.8803,"1725": 0.6346,"1750": 0.6551,"1775": 0.5937,"1800": 0.2866,"1825": 0.4709,"1850": 0.2047,"1875": 0.2661,"1900": 0.3276,"1925": 0.0614,"1950": 0.0409,"1975": 0.0205}}}