{"type":"Feature","properties":{"GID_2":"HND.4.9_1","GID_0":"HND","country":"Honduras","GID_1":"HND.4_1","province":"Comayagua","NL_NAME_1":"NA","county":"LasLajas","VARNAME_2":"NA","NL_NAME_2":"NA","TYPE_2":"Municipio","ENGTYPE_2":"Municipality","CC_2":"NA","HASC_2":"HN.CM.LJ","name":"Las_Lajas.county"},
"geometry":{"type": "MultiPolygon","coordinates": [[[[-87.6921,14.9197,269.0],[-87.696,14.912,335.5208],[-87.6964,14.9075,293.728],[-87.6956,14.9054,342.9496],[-87.6925,14.904,290.2362],[-87.6915,14.8992,273.3381],[-87.6966,14.8946,356.9352],[-87.7023,14.894,414.6273],[-87.71,14.8895,269.0],[-87.7107,14.8821,343.416],[-87.7058,14.8778,269.0],[-87.7061,14.869,350.9825],[-87.7112,14.8673,269.0],[-87.7211,14.8484,281.5768],[-87.7205,14.8442,376.3797],[-87.718,14.8434,356.529],[-87.716,14.8389,417.845],[-87.7102,14.8411,274.4861],[-87.7081,14.8395,269.0],[-87.709,14.8299,328.0897],[-87.7075,14.8351,280.265],[-87.7063,14.8313,404.2104],[-87.7039,14.8307,552.7385],[-87.7017,14.8374,302.0415],[-87.6945,14.8381,362.8247],[-87.6941,14.8342,334.304],[-87.6894,14.8321,272.2263],[-87.6929,14.829,388.9246],[-87.6883,14.8243,320.4439],[-87.6878,14.8201,312.6818],[-87.6817,14.8214,425.1821],[-87.6707,14.8202,528.0516],[-87.6683,14.8234,376.2727],[-87.6594,14.8283,429.0144],[-87.6585,14.8258,515.8313],[-87.6555,14.8251,496.8541],[-87.6416,14.8253,519.9307],[-87.6323,14.8232,546.6039],[-87.6281,14.8194,608.908],[-87.6266,14.8128,614.4542],[-87.6234,14.8081,661.2731],[-87.6184,14.8049,655.1872],[-87.6087,14.7927,683.4314],[-87.6084,14.8171,659.8409],[-87.5995,14.8144,716.7375],[-87.5731,14.8123,842.3463],[-87.5639,14.8213,1034.906],[-87.5683,14.8345,1041.1526],[-87.5791,14.8442,989.8054],[-87.5675,14.8667,1202.5288],[-87.5678,14.8797,1080.1256],[-87.6205,14.9303,913.2637],[-87.643,14.9237,463.6131],[-87.6484,14.9204,396.9777],[-87.6527,14.9139,391.9138],[-87.6612,14.9164,398.5111],[-87.6664,14.9155,422.7216],[-87.6712,14.9185,405.1731],[-87.6801,14.9172,387.6863],[-87.6858,14.9208,287.8345],[-87.6921,14.9197,269.0]]]]}}