{"type":"Feature","properties":{"GID_2":"HND.8.7_1","GID_0":"HND","country":"Honduras","GID_1":"HND.8_1","province":"FranciscoMorazán","NL_NAME_1":"NA","county":"LaLibertad","VARNAME_2":"NA","NL_NAME_2":"NA","TYPE_2":"Municipio","ENGTYPE_2":"Municipality","CC_2":"NA","HASC_2":"HN.CM.LB","name":"La_Libertad.county"},
"geometry":{"type": "MultiPolygon","coordinates": [[[[-87.4617,13.7076,729.649],[-87.4682,13.7155,462.268],[-87.4744,13.7153,441.1193],[-87.485,13.7187,278.3318],[-87.4942,13.7248,204.5321],[-87.5062,13.7233,224.0429],[-87.5129,13.7256,276.4194],[-87.5187,13.7298,268.8737],[-87.5178,13.7355,250.6692],[-87.5189,13.7395,306.2367],[-87.5248,13.7417,241.5286],[-87.5284,13.742,276.4408],[-87.5291,13.7395,270.0735],[-87.5372,13.737,338.8551],[-87.5401,13.7305,331.1767],[-87.5467,13.7285,427.4713],[-87.551,13.7205,382.3859],[-87.5486,13.7198,357.8462],[-87.5466,13.7127,479.6787],[-87.526,13.7001,469.9639],[-87.5209,13.6934,480.6306],[-87.5086,13.6884,227.0766],[-87.5038,13.6892,171.4007],[-87.4963,13.687,191.6755],[-87.493,13.683,228.8456],[-87.4906,13.6846,249.2158],[-87.4859,13.6813,383.1543],[-87.4783,13.681,403.0313],[-87.4735,13.6746,467.3655],[-87.4691,13.6723,580.8535],[-87.4616,13.6721,648.7072],[-87.4626,13.6796,798.1551],[-87.468,13.6872,601.9135],[-87.4624,13.6985,851.335],[-87.4617,13.7076,729.649]]]]}}