{"type":"Feature","properties":{"GID_2":"HND.8.28_1","GID_0":"HND","country":"Honduras","GID_1":"HND.8_1","province":"FranciscoMorazán","NL_NAME_1":"NA","county":"VilladeSanFrancisco","VARNAME_2":"NA","NL_NAME_2":"NA","TYPE_2":"Municipio","ENGTYPE_2":"Municipality","CC_2":"NA","HASC_2":"HN.FM.VS","name":"Villade_San_Francisco.county"},
"geometry":{"type": "MultiPolygon","coordinates": [[[[-86.9068,14.2226,1013.4417],[-86.9591,14.2168,623.972],[-86.9669,14.2195,647.8484],[-86.97,14.2225,668.5137],[-86.9772,14.2208,703.793],[-87.0173,14.2275,767.3029],[-87.011,14.1841,1499.2966],[-87.0005,14.1516,1447.8097],[-86.9467,14.1403,669.4238],[-86.9405,14.1379,645.865],[-86.935,14.1388,641.181],[-86.9324,14.1367,628.3352],[-86.9269,14.1375,623.9722],[-86.9158,14.1334,602.9821],[-86.9046,14.1497,655.8742],[-86.9195,14.1596,640.5961],[-86.9301,14.1617,631.192],[-86.9348,14.1588,644.3475],[-86.9371,14.1634,645.0239],[-86.9325,14.1703,611.2057],[-86.9317,14.1748,593.6454],[-86.925,14.1793,596.1789],[-86.9161,14.1818,610.7701],[-86.9115,14.1853,630.32],[-86.9085,14.1901,663.5652],[-86.9129,14.1995,746.3779],[-86.9068,14.2044,908.8461],[-86.9068,14.2226,1013.4417]]]]}}