{"type": "Feature","bbox": [-87.2318,13.8333,-87.1519,13.958],"geometry": {"type": "MultiPolygon","coordinates": [[[[-87.1988,13.958,1407.6901],[-87.2003,13.9471,1486.4406],[-87.2248,13.9153,1317.6611],[-87.2318,13.8897,1089.3683],[-87.2052,13.8674,1159.8862],[-87.2049,13.8643,1139.1714],[-87.2081,13.8571,1048.5356],[-87.2026,13.8508,1051.1385],[-87.2027,13.847,1040.3186],[-87.205,13.8434,923.172],[-87.2013,13.8333,952.5198],[-87.1785,13.8414,1190.0488],[-87.1598,13.8398,854.0018],[-87.1519,13.8631,1247.8071],[-87.1578,13.8756,1469.988],[-87.1602,13.8941,1301.9021],[-87.1677,13.9012,1133.2648],[-87.1718,13.9094,1418.8376],[-87.1768,13.9368,1558.2881],[-87.1801,13.9436,1509.9353],[-87.1865,13.9489,1469.8104],[-87.1873,13.9559,1344.1234],[-87.1988,13.958,1407.6901]]]]}
,"properties": {"GID_2": "HND.8.18_1","GID_0": "HND","country": "Honduras","GID_1": "HND.8_1","province": "FranciscoMorazán","NL_NAME_1": "NA","county": "SanBuenaventura","VARNAME_2": "NA","NL_NAME_2": "NA","TYPE_2": "Municipio","ENGTYPE_2": "Municipality","CC_2": "NA","HASC_2": "HN.FM.SB","name": "San_Buenaventura.county","area_km2": 67.36537,"hist_schema_id": "Elevation0-9000","hist_area_km2": {"675": 0.04117,"700": 0.10293,"725": 0.12351,"750": 0.20585,"775": 0.30878,"800": 0.22644,"825": 0.47347,"850": 0.32937,"875": 0.53523,"900": 0.7205,"925": 0.59698,"950": 0.47345,"975": 0.76163,"1000": 1.25563,"1025": 1.44089,"1050": 1.74963,"1075": 1.81138,"1100": 2.75827,"1125": 2.59356,"1150": 2.36713,"1175": 2.90226,"1200": 3.35504,"1225": 3.58143,"1250": 4.21937,"1275": 4.40459,"1300": 4.5281,"1325": 5.76282,"1350": 4.96,"1375": 3.39573,"1400": 3.00464,"1425": 2.88108,"1450": 1.58456,"1475": 1.09068,"1500": 0.76142,"1525": 1.33759,"1550": 0.61737,"1575": 0.1029}}}