{"type": "Feature","bbox": [-87.468,13.6721,-87.3641,13.7635],"geometry": {"type": "MultiPolygon","coordinates": [[[[-87.3641,13.6902,126.0838],[-87.365,13.6929,181.0082],[-87.3729,13.6934,256.8784],[-87.3767,13.6974,192.574],[-87.3809,13.6981,220.7152],[-87.3891,13.7089,190.278],[-87.39,13.7158,176.3233],[-87.3939,13.714,261.7292],[-87.397,13.7148,259.3955],[-87.3965,13.732,175.1218],[-87.392,13.736,143.433],[-87.391,13.7435,163.1849],[-87.3846,13.749,157.934],[-87.3836,13.7556,165.2082],[-87.3971,13.7565,255.9533],[-87.4029,13.7525,390.4115],[-87.4143,13.7555,551.0869],[-87.4233,13.7617,568.509],[-87.4372,13.7617,735.0324],[-87.4428,13.7635,752.9863],[-87.4512,13.7602,822.1931],[-87.4564,13.7604,929.5724],[-87.4592,13.7576,776.615],[-87.4586,13.7402,761.2994],[-87.4534,13.7318,808.8494],[-87.4571,13.7268,766.2059],[-87.4558,13.7219,836.8829],[-87.4625,13.7153,645.1121],[-87.4624,13.6985,851.335],[-87.468,13.6872,601.9135],[-87.4626,13.6796,798.1551],[-87.4616,13.6721,648.7072],[-87.4207,13.6896,486.2994],[-87.3641,13.6902,126.0838]]]]}
,"properties": {"GID_2": "HND.2.14_1","GID_0": "HND","country": "Honduras","GID_1": "HND.2_1","province": "Choluteca","NL_NAME_1": "NA","county": "SanJosé","VARNAME_2": "NA","NL_NAME_2": "NA","TYPE_2": "Municipio","ENGTYPE_2": "Municipality","CC_2": "NA","HASC_2": "HN.CH.SJ","name": "San_José.county","area_km2": 64.26341,"hist_schema_id": "Elevation0-9000","hist_area_km2": {"125": 0.06179,"150": 0.26776,"175": 0.28836,"200": 0.59732,"225": 0.96806,"250": 1.79195,"275": 1.95672,"300": 2.38927,"325": 2.78064,"350": 3.08958,"375": 4.67553,"400": 4.67559,"425": 3.99588,"450": 4.49028,"475": 3.68698,"500": 2.86303,"525": 2.7807,"550": 2.90426,"575": 1.89497,"600": 2.14205,"625": 2.38925,"650": 2.53347,"675": 1.85371,"700": 1.23585,"725": 1.25641,"750": 1.11223,"775": 1.27702,"800": 1.2976,"825": 0.84448,"850": 0.70029,"875": 0.5973,"900": 0.28833,"925": 0.22657,"950": 0.18537,"975": 0.16479}}}