{"type": "Feature","bbox": [-87.138,15.5043,-86.9887,15.7876],"geometry": {"type": "MultiPolygon","coordinates": [[[[-87.0402,15.7757,0.0],[-87.0671,15.7799,1.6808],[-87.0921,15.7871,0.0],[-87.0904,15.7835,2.0466],[-87.0757,15.7754,2.6694],[-87.0768,15.7749,3.5475],[-87.0857,15.779,0.0],[-87.0876,15.7785,2.0472],[-87.0885,15.7807,0.0],[-87.1046,15.7835,2.7451],[-87.1029,15.7843,2.455],[-87.0929,15.7829,0.0],[-87.0926,15.7863,1.3663],[-87.0943,15.7874,0.0],[-87.1217,15.7876,0.0],[-87.1219,15.7845,1.7112],[-87.1172,15.7779,3.5008],[-87.1184,15.774,5.0777],[-87.1162,15.7756,1.9581],[-87.1068,15.7721,1.2394],[-87.1025,15.7727,4.6832],[-87.1017,15.7699,3.1231],[-87.1096,15.7658,0.9664],[-87.1302,15.7301,6.3979],[-87.1311,15.7268,8.7895],[-87.1293,15.7195,7.8539],[-87.1325,15.713,12.1959],[-87.138,15.6922,9.6064],[-87.1374,15.6842,11.6262],[-87.1318,15.6853,12.19],[-87.1278,15.6836,11.8111],[-87.1223,15.6784,13.9251],[-87.1157,15.6685,14.515],[-87.1097,15.6634,17.8963],[-87.111,15.6593,17.8959],[-87.105,15.6435,22.1227],[-87.1071,15.6392,23.3682],[-87.1028,15.6371,23.5262],[-87.1043,15.6327,25.1551],[-87.1022,15.6308,24.3404],[-87.1015,15.6256,23.1383],[-87.0978,15.6223,28.6884],[-87.098,15.6168,30.7215],[-87.0954,15.6124,29.6229],[-87.0971,15.5991,179.8763],[-87.1018,15.5902,562.2738],[-87.0988,15.5864,306.3103],[-87.1008,15.5798,375.2104],[-87.0999,15.5771,347.0674],[-87.094,15.5757,212.1016],[-87.0918,15.5734,136.3611],[-87.092,15.5718,133.4335],[-87.0959,15.5716,225.4559],[-87.098,15.5671,251.5225],[-87.0967,15.5661,180.1659],[-87.0907,15.5695,84.475],[-87.0891,15.5672,78.6869],[-87.0946,15.5549,99.1007],[-87.088,15.5507,211.1442],[-87.0872,15.5459,452.0134],[-87.0844,15.5436,688.093],[-87.0846,15.5401,737.6001],[-87.0875,15.5373,569.7665],[-87.0865,15.528,430.8793],[-87.0836,15.5258,595.0722],[-87.0784,15.526,639.9749],[-87.0763,15.5244,660.9129],[-87.0758,15.5155,819.2579],[-87.0783,15.5097,599.4386],[-87.0756,15.5043,487.5327],[-87.0644,15.507,680.6432],[-87.0621,15.5117,897.0846],[-87.0558,15.5166,1247.3473],[-87.0443,15.5223,1126.031],[-87.0358,15.5356,829.6075],[-87.0317,15.5383,612.9163],[-87.0264,15.5461,602.3487],[-87.02,15.5506,994.801],[-87.0184,15.5468,1004.5892],[-87.0153,15.5447,927.3608],[-87.0148,15.5474,1108.5691],[-87.0037,15.5583,1444.3857],[-86.9988,15.5666,1729.2334],[-86.9934,15.5681,1712.8767],[-86.9887,15.5742,1774.1985],[-86.9899,15.5859,1374.6282],[-86.9943,15.5898,1541.4296],[-86.9952,15.5939,1324.6018],[-87.0007,15.5949,1241.7029],[-86.999,15.6003,1027.1733],[-86.9954,15.6041,1190.2739],[-86.9958,15.6101,1115.8198],[-87.0003,15.6135,838.2115],[-86.9992,15.6197,694.936],[-87.0023,15.6261,1035.6173],[-86.9983,15.6347,828.3563],[-87.0041,15.638,645.5176],[-86.9971,15.6431,369.978],[-86.9966,15.6486,320.8719],[-86.998,15.6511,367.2744],[-86.9937,15.6523,467.2922],[-86.9948,15.6584,312.9419],[-87.0005,15.6589,144.5497],[-87.0018,15.6605,123.0561],[-86.9957,15.6649,182.7665],[-86.9945,15.6733,20.8977],[-86.9955,15.6773,6.352],[-86.991,15.6817,3.7581],[-86.9902,15.6942,6.4932],[-86.9946,15.6964,8.9947],[-87.0082,15.6909,2.9715],[-87.0213,15.6886,9.8223],[-87.035,15.6899,5.9708],[-87.0376,15.6927,11.2266],[-87.0374,15.6973,9.35],[-87.0431,15.7024,14.2138],[-87.0422,15.7073,3.3334],[-87.0465,15.7075,12.0402],[-87.0481,15.7113,5.786],[-87.0485,15.7189,10.0898],[-87.046,15.7203,9.5288],[-87.0474,15.7221,8.7201],[-87.0451,15.73,11.8912],[-87.0539,15.7431,-0.0972],[-87.0449,15.7522,6.8095],[-87.046,15.7539,10.4125],[-87.0434,15.7564,8.6856],[-87.0331,15.7609,6.3968],[-87.0345,15.7655,6.1274],[-87.0357,15.7647,8.2392],[-87.0426,15.7685,9.1152],[-87.0413,15.7686,8.7682],[-87.0355,15.7661,7.4971],[-87.0351,15.7666,6.1274],[-87.042,15.7701,8.3133],[-87.0402,15.7757,0.0]]]]}
,"properties": {"GID_2": "HND.1.7_1","GID_0": "HND","country": "Honduras","GID_1": "HND.1_1","province": "Atlántida","NL_NAME_1": "NA","county": "SanFrancisco","VARNAME_2": "NA","NL_NAME_2": "NA","TYPE_2": "Municipio","ENGTYPE_2": "Municipality","CC_2": "NA","HASC_2": "HN.AT.SF","name": "San_Francisco.county","area_km2": 288.642,"hist_schema_id": "Elevation0-9000","hist_area_km2": {"0": 92.9827,"25": 69.0804,"50": 5.656,"75": 4.6148,"100": 4.4926,"125": 4.4312,"150": 3.7166,"175": 3.492,"200": 3.5532,"225": 4.1046,"250": 4.0026,"275": 3.8188,"300": 3.39,"325": 3.4105,"350": 2.9408,"375": 2.9,"400": 3.4514,"425": 3.0429,"450": 2.941,"475": 2.7572,"500": 2.9205,"525": 2.7163,"550": 2.9001,"575": 2.4713,"600": 2.3078,"625": 2.696,"650": 2.4917,"675": 2.4509,"700": 2.3488,"725": 2.2263,"750": 2.1446,"775": 2.2467,"800": 2.0424,"825": 1.7974,"850": 1.8382,"875": 1.5727,"900": 1.3888,"925": 1.7156,"950": 1.4705,"975": 1.1846,"1000": 1.0825,"1025": 1.1846,"1050": 1.1029,"1075": 0.8578,"1100": 0.8783,"1125": 0.7557,"1150": 0.7761,"1175": 0.6128,"1200": 0.7353,"1225": 0.5923,"1250": 0.5515,"1275": 0.4085,"1300": 0.5719,"1325": 0.6127,"1350": 0.3064,"1375": 0.388,"1400": 0.3676,"1425": 0.388,"1450": 0.3472,"1475": 0.4697,"1500": 0.388,"1525": 0.3472,"1550": 0.2655,"1575": 0.2859,"1600": 0.1838,"1625": 0.1838,"1650": 0.143,"1675": 0.2042,"1700": 0.1021,"1725": 0.1838,"1750": 0.1634,"1775": 0.143,"1800": 0.1634,"1825": 0.1634,"1850": 0.143,"1875": 0.2042,"1900": 0.0817,"1925": 0.0613,"1950": 0.1225,"1975": 0.1021,"2000": 0.1021,"2025": 0.0817,"2050": 0.0817,"2075": 0.0408}}}