{"type":"Feature","properties":{"GID_2":"HND.15.19_1","GID_0":"HND","country":"Honduras","GID_1":"HND.15_1","province":"Olancho","NL_NAME_1":"NA","county":"SanFranciscodeBecerra","VARNAME_2":"NA","NL_NAME_2":"NA","TYPE_2":"Municipio","ENGTYPE_2":"Municipality","CC_2":"NA","HASC_2":"HN.OL.SB","name":"San_Franciscode_Becerra.county"},
"geometry":{"type": "MultiPolygon","coordinates": [[[[-85.9545,14.6359,495.4142],[-85.9656,14.657,448.4558],[-85.9699,14.6795,397.3628],[-85.9748,14.686,369.1266],[-85.9758,14.6947,340.9823],[-85.9795,14.702,337.366],[-85.9796,14.7061,330.8491],[-85.974,14.7123,318.3271],[-85.972,14.7119,318.9901],[-85.9796,14.7168,320.0604],[-85.9779,14.7235,327.2914],[-85.9798,14.7289,326.8134],[-85.9882,14.7318,318.5],[-85.9938,14.7289,324.5661],[-85.9949,14.7191,325.899],[-86.0037,14.7017,330.3175],[-86.0043,14.6901,340.5752],[-86.0065,14.6871,338.7314],[-86.0083,14.6866,339.3714],[-86.0094,14.6914,328.6022],[-86.0111,14.6923,327.0493],[-86.0178,14.6893,330.1465],[-86.0239,14.6833,329.3585],[-86.0261,14.689,332.9061],[-86.0301,14.6912,328.4167],[-86.031,14.6896,329.8912],[-86.0294,14.6845,329.865],[-86.0315,14.6825,334.4311],[-86.0488,14.6791,331.8419],[-86.0517,14.6766,334.8635],[-86.0535,14.6716,335.0488],[-86.0554,14.6719,335.4072],[-86.0571,14.6764,338.4345],[-86.0592,14.6762,337.48],[-86.0627,14.67,337.8186],[-86.0674,14.6701,335.3317],[-86.0771,14.6658,336.9227],[-86.0841,14.6652,351.262],[-86.0897,14.6673,341.3865],[-86.107,14.6657,340.592],[-86.1118,14.6576,342.6805],[-86.1139,14.6579,341.3],[-86.1127,14.6626,340.0764],[-86.1172,14.6634,342.115],[-86.1189,14.6624,341.5824],[-86.1203,14.6545,346.8976],[-86.1236,14.6537,342.7178],[-86.1248,14.6512,345.8217],[-86.1264,14.6444,355.6126],[-86.1278,14.6433,354.6597],[-86.1309,14.6456,346.7932],[-86.132,14.6448,344.8796],[-86.1338,14.6387,355.2663],[-86.14,14.6398,348.1863],[-86.14,14.6347,352.0612],[-86.1448,14.6282,353.7208],[-86.1428,14.6239,358.4471],[-86.1353,14.6172,371.4271],[-86.1365,14.5979,393.2902],[-86.1347,14.5914,404.0007],[-86.1274,14.5864,422.469],[-86.1269,14.5808,425.5678],[-86.123,14.5757,451.7433],[-86.1246,14.5755,434.6054],[-86.1252,14.5732,438.977],[-86.1199,14.5701,450.3082],[-86.1177,14.5656,460.7414],[-86.102,14.5492,531.0386],[-86.0994,14.5382,577.9621],[-86.0897,14.5227,712.9722],[-86.0114,14.5235,574.9502],[-85.9884,14.5246,396.1389],[-85.9627,14.566,571.6034],[-85.9626,14.6073,440.9892],[-85.9573,14.6298,558.6311],[-85.9545,14.6359,495.4142]]]]}}