{"type": "Feature","bbox": [-89.2717,14.4455,-89.121,14.5837],"geometry": {"type": "MultiPolygon","coordinates": [[[[-89.2717,14.5384,997.644],[-89.2585,14.5371,927.1589],[-89.2539,14.5343,960.796],[-89.2539,14.5305,944.8034],[-89.2519,14.5274,927.1749],[-89.247,14.5304,896.7349],[-89.2487,14.5255,894.6039],[-89.2449,14.5239,876.022],[-89.2436,14.5212,864.577],[-89.2411,14.5229,832.9929],[-89.2394,14.5193,837.5098],[-89.2354,14.5208,831.5679],[-89.2364,14.514099999999999,875.7635],[-89.2273,14.5133,845.005],[-89.2302,14.5097,841.824],[-89.2335,14.5101,841.6069],[-89.2353,14.5079,853.8331],[-89.2278,14.507,834.2353],[-89.2243,14.5027,802.2081],[-89.2183,14.5013,803.7278],[-89.2191,14.4971,819.4551],[-89.2159,14.4957,791.5549],[-89.2152,14.4936,811.8646],[-89.2215,14.4921,838.1698],[-89.2139,14.489,808.6175],[-89.2109,14.4845,804.7272],[-89.2111,14.4812,802.4303],[-89.2131,14.4806,808.2125],[-89.2149,14.477,826.4406],[-89.223,14.4759,870.6188],[-89.2431,14.4816,1030.2072],[-89.2462,14.4709,1197.406],[-89.2527,14.4664,1296.6899],[-89.2571,14.4579,1160.207],[-89.2551,14.4549,1145.3215],[-89.2445,14.4505,1168.3715],[-89.2412,14.4471,1116.2593],[-89.2257,14.447,935.8236],[-89.2177,14.4514,900.2732],[-89.2098,14.4523,837.8133],[-89.2063,14.451599999999999,761.552],[-89.2044,14.4475,779.9482],[-89.2002,14.4455,781.4418],[-89.1952,14.4515,807.7179],[-89.1943,14.459,833.8864],[-89.1909,14.462,850.1318],[-89.1851,14.4601,887.6448],[-89.1801,14.4615,912.0216],[-89.1809,14.4657,899.6086],[-89.1764,14.4754,840.8234],[-89.1685,14.4718,917.1746],[-89.1597,14.4763,1207.225],[-89.1536,14.476,1213.4272],[-89.1428,14.4807,1333.3618],[-89.138,14.4808,1371.7009],[-89.1344,14.4889,1346.9512],[-89.1352,14.4955,1398.5027],[-89.1328,14.5011,1412.4839],[-89.1264,14.5055,1536.9507],[-89.123,14.5052,1550.2078],[-89.121,14.5067,1519.9678],[-89.144,14.506,1426.6035],[-89.1468,14.5079,1306.6019],[-89.1562,14.508,1172.9456],[-89.1607,14.5111,1216.8571],[-89.1622,14.5103,1178.7142],[-89.1638,14.513,1185.3185],[-89.1603,14.5179,1290.5093],[-89.1564,14.5192,1258.2961],[-89.1529,14.5246,1301.2983],[-89.141,14.531,1570.4916],[-89.1434,14.5374,1613.5073],[-89.1509,14.5375,1489.0664],[-89.1514,14.5461,1610.2626],[-89.1571,14.5486,1595.0806],[-89.1577,14.5717,1800.7551],[-89.1685,14.5696,1791.5503],[-89.1777,14.5709,1606.6886],[-89.2176,14.5837,1343.2705],[-89.2273,14.5828,1109.2957],[-89.238,14.5778,1185.1752],[-89.2491,14.568,1024.6147],[-89.252,14.5569,962.1865],[-89.2554,14.5519,958.0651],[-89.2717,14.5384,997.644]]]]}
,"properties": {"GID_2": "HND.14.2_1","GID_0": "HND","country": "Honduras","GID_1": "HND.14_1","province": "Ocotepeque","NL_NAME_1": "NA","county": "Concepción","VARNAME_2": "NA","NL_NAME_2": "NA","TYPE_2": "Municipio","ENGTYPE_2": "Municipality","CC_2": "NA","HASC_2": "HN.CP.CN","name": "Concepción.county","area_km2": 131.5049,"hist_schema_id": "Elevation0-9000","hist_area_km2": {"750": 0.0821,"775": 3.1615,"800": 5.9327,"825": 5.9531,"850": 5.9733,"875": 6.9176,"900": 5.727,"925": 5.501,"950": 5.6034,"975": 5.4187,"1000": 4.1256,"1025": 4.2281,"1050": 4.146,"1075": 3.756,"1100": 4.1667,"1125": 4.1256,"1150": 5.1108,"1175": 5.3366,"1200": 5.1724,"1225": 4.3103,"1250": 4.3102,"1275": 3.2839,"1300": 3.4685,"1325": 2.9964,"1350": 3.0374,"1375": 3.1194,"1400": 2.319,"1425": 1.8265,"1450": 1.9291,"1475": 1.7239,"1500": 1.5186,"1525": 1.5802,"1550": 1.1698,"1575": 0.7798,"1600": 0.6157,"1625": 0.5746,"1650": 0.513,"1675": 0.513,"1700": 0.4309,"1725": 0.4309,"1750": 0.1847,"1775": 0.1642,"1800": 0.1231,"1825": 0.1026,"1850": 0.041}}}