{"type": "Feature","bbox": [-87.7841,14.0359,-87.4746,14.2365],"geometry": {"type": "MultiPolygon","coordinates": [[[[-87.7343,14.1745,1036.9473],[-87.7495,14.1696,1210.6677],[-87.7521,14.1631,1243.4568],[-87.7639,14.159,1237.6816],[-87.7662,14.1537,1283.1635],[-87.7841,14.1421,1496.2129],[-87.784,14.1268,1401.5017],[-87.7594,14.1208,849.4103],[-87.7397,14.1202,873.9279],[-87.717,14.0839,703.9139],[-87.7013,14.0937,661.2979],[-87.6999,14.0875,676.88],[-87.6912,14.0715,568.0531],[-87.6915,14.0701,578.9532],[-87.6948,14.0695,604.8644],[-87.6947,14.0562,584.702],[-87.6976,14.0552,592.4783],[-87.6947,14.0526,575.9531],[-87.6948,14.0433,613.6146],[-87.6921,14.0419,584.452],[-87.695,14.0408,574.8369],[-87.6933,14.0359,560.4919],[-87.6849,14.0413,513.8777],[-87.6857,14.0448,523.5524],[-87.6832,14.0481,531.5263],[-87.6663,14.0617,694.593],[-87.6655,14.0683,621.478],[-87.6591,14.0746,654.5342],[-87.6526,14.077,737.3397],[-87.6425,14.0744,821.1254],[-87.6247,14.0753,1152.5905],[-87.6239,14.0807,1166.6206],[-87.6257,14.0975,1257.6489],[-87.6047,14.1205,1636.901],[-87.5989,14.1295,1623.3572],[-87.5893,14.1344,1451.5254],[-87.5521,14.1281,1002.4575],[-87.5095,14.1591,1431.9769],[-87.4888,14.169,1762.6973],[-87.4826,14.182,1875.4814],[-87.4834,14.1865,1826.0662],[-87.481,14.1896,1825.8418],[-87.4811,14.1926,1790.7676],[-87.4746,14.2019,1651.2363],[-87.5049,14.1983,1375.4253],[-87.5143,14.2061,1372.5034],[-87.5231,14.2056,1179.437],[-87.5309,14.2012,1106.0208],[-87.5359,14.2055,980.8456],[-87.547,14.2032,899.6711],[-87.5533,14.2043,888.5996],[-87.562,14.209,762.5688],[-87.5642,14.2122,757.0204],[-87.5698,14.2135,746.1589],[-87.5807,14.2365,663.1754],[-87.6022,14.2358,655.347],[-87.6021,14.2314,659.3927],[-87.5985,14.2268,667.6262],[-87.5995,14.2209,669.0266],[-87.6686,14.2089,733.7747],[-87.6838,14.1959,749.4047],[-87.6837,14.1866,811.1219],[-87.7023,14.1763,837.3095],[-87.7071,14.1763,819.4789],[-87.7092,14.1735,878.6508],[-87.7122,14.1724,925.9727],[-87.7248,14.1776,1034.2915],[-87.7281,14.1776,1032.0131],[-87.7343,14.1745,1036.9473]]]]}
,"properties": {"GID_2": "HND.4.8_1","GID_0": "HND","country": "Honduras","GID_1": "HND.4_1","province": "Comayagua","NL_NAME_1": "NA","county": "Lamaní","VARNAME_2": "NA","NL_NAME_2": "NA","TYPE_2": "Municipio","ENGTYPE_2": "Municipality","CC_2": "NA","HASC_2": "HN.CM.LA","name": "Lamaní.county","area_km2": 307.7648,"hist_schema_id": "Elevation0-9000","hist_area_km2": {"500": 0.4525,"525": 1.3369,"550": 1.9539,"575": 2.2006,"600": 1.6864,"625": 2.7557,"650": 5.4077,"675": 12.1286,"700": 16.1783,"725": 15.7673,"750": 13.2597,"775": 12.3351,"800": 10.7112,"825": 11.0402,"850": 11.2044,"875": 12.7054,"900": 15.9743,"925": 14.2269,"950": 13.6305,"975": 13.5483,"1000": 12.6232,"1025": 11.1634,"1050": 10.3822,"1075": 8.3058,"1100": 7.9769,"1125": 7.9769,"1150": 6.7022,"1175": 6.5171,"1200": 4.8519,"1225": 4.7903,"1250": 3.4333,"1275": 3.7211,"1300": 3.1249,"1325": 2.7754,"1350": 2.3231,"1375": 2.1792,"1400": 1.6036,"1425": 2.1998,"1450": 2.138,"1475": 1.5419,"1500": 1.0074,"1525": 1.1718,"1550": 1.0074,"1575": 0.9251,"1600": 1.0896,"1625": 1.0691,"1650": 1.0691,"1675": 0.7812,"1700": 0.5756,"1725": 0.555,"1750": 0.6989,"1775": 0.74,"1800": 0.6167,"1825": 0.5961,"1850": 0.4522,"1875": 0.2672,"1900": 0.1233,"1925": 0.1439,"1975": 0.0411}}}