{"type":"Feature","properties":{"GID_2":"HND.6.6_1","GID_0":"HND","country":"Honduras","GID_1":"HND.6_1","province":"Cortés","NL_NAME_1":"NA","county":"PuertoCortés","VARNAME_2":"NA","NL_NAME_2":"NA","TYPE_2":"Municipio","ENGTYPE_2":"Municipality","CC_2":"NA","HASC_2":"HN.CR.PC","name":"Puerto_Cortés.county"},
"geometry":{"type": "MultiPolygon","coordinates": [[[[-87.7309,15.9197,1.3418],[-87.7363,15.914,1.4107],[-87.7349,15.9118,1.6125],[-87.7412,15.9076,0.3457],[-87.7457,15.8979,3.7414],[-87.7493,15.8963,9.5209],[-87.7568,15.894,2.9056],[-87.7668,15.8935,1.8412],[-87.7868,15.8982,0.0],[-87.7921,15.8926,3.6858],[-87.7949,15.8918,1.4296],[-87.7924,15.8965,1.0116],[-87.794,15.8993,0.0],[-87.7971,15.9001,1.2652],[-87.8135,15.9015,1.6306],[-87.8179,15.8985,9.6138],[-87.8324,15.8988,0.0],[-87.8374,15.8935,3.748],[-87.8426,15.891,1.4654],[-87.8529,15.8885,2.699],[-87.8699,15.889,0.0],[-87.8882,15.8768,0.8486],[-87.8985,15.8657,2.4196],[-87.9051,15.8632,3.5398],[-87.9385,15.8654,1.5743],[-87.9526,15.864,0.3818],[-87.9585,15.859,0.4539],[-87.9635,15.8493,0.0],[-87.9626,15.8435,0.0],[-87.9488,15.8432,1.4129],[-87.9485,15.8415,0.0],[-87.9457,15.8407,0.0],[-87.9432,15.8421,0.9395],[-87.9415,15.8404,0.0],[-87.936,15.8399,0.2402],[-87.9329,15.8354,1.1752],[-87.9335,15.831,1.1833],[-87.9276,15.8285,0.6884],[-87.9271,15.8304,1.3252],[-87.9307,15.8357,0.9882],[-87.9315,15.8399,0.0],[-87.9276,15.8421,1.3373],[-87.9274,15.8446,1.8498],[-87.9235,15.8468,0.0],[-87.9224,15.8493,0.7265],[-87.9193,15.8504,0.0],[-87.9187,15.8538,3.0484],[-87.9143,15.856,0.6388],[-87.9135,15.8582,0.3565],[-87.911,15.8579,0.7009],[-87.9107,15.8599,2.8884],[-87.9026,15.8601,0.4068],[-87.8974,15.8582,2.3975],[-87.9021,15.8535,0.0],[-87.9001,15.851,0.0],[-87.8938,15.8571,5.059],[-87.8965,15.8479,0.9723],[-87.9062,15.8329,0.6144],[-87.9171,15.8293,0.0],[-87.9221,15.8346,0.0],[-87.9238,15.8346,0.0],[-87.9265,15.831,0.0],[-87.9268,15.8279,0.6884],[-87.9337,15.8282,0.6016],[-87.9357,15.8188,0.0],[-87.9513,15.8047,3.5138],[-87.966,15.7969,35.7463],[-87.9701,15.798,3.83],[-87.9608,15.7773,68.0045],[-87.9623,15.7664,96.6768],[-87.9676,15.7609,73.7788],[-87.9696,15.749,158.2169],[-87.9587,15.748,382.0408],[-87.9539,15.7502,246.2812],[-87.9418,15.7511,233.7616],[-87.9353,15.7496,294.7457],[-87.8673,15.7479,4.458],[-87.8674,15.746,4.2674],[-87.8691,15.746,4.3081],[-87.8733,15.7407,4.979],[-87.8671,15.7401,3.9817],[-87.8741,15.7239,6.0993],[-87.872,15.7165,5.7646],[-87.8758,15.716,5.6292],[-87.8764,15.7193,5.6009],[-87.8826,15.7183,3.7576],[-87.8811,15.7064,3.736],[-87.885,15.7036,3.8413],[-87.8847,15.7011,3.8299],[-87.8753,15.697,4.0467],[-87.8742,15.692,6.0359],[-87.8693,15.6881,5.6796],[-87.8696,15.683,5.4856],[-87.8675,15.6808,5.7198],[-87.8689,15.6749,5.6132],[-87.8609,15.6625,9.8368],[-87.8549,15.6572,8.2622],[-87.8476,15.6537,9.4068],[-87.8417,15.6475,9.4912],[-87.8317,15.6428,8.8732],[-87.8289,15.6367,10.0178],[-87.8295,15.6246,10.8094],[-87.8201,15.6243,10.8699],[-87.7957,15.6197,11.3122],[-87.7887,15.5909,15.2939],[-87.7841,15.5905,16.0689],[-87.7762,15.5867,15.6477],[-87.7743,15.5892,19.0446],[-87.7742,15.6049,14.7377],[-87.7839,15.6144,11.6566],[-87.7841,15.62,14.8904],[-87.7812,15.6266,13.1376],[-87.7833,15.6339,16.2462],[-87.7856,15.6358,12.5066],[-87.7909,15.6363,13.3129],[-87.8071,15.6325,10.4386],[-87.8157,15.6365,9.9328],[-87.8199,15.6435,12.2794],[-87.8192,15.6468,10.0328],[-87.8137,15.6538,11.1847],[-87.8139,15.6577,10.1711],[-87.8158,15.6596,11.3556],[-87.8206,15.6588,10.6024],[-87.825,15.6496,11.0116],[-87.8274,15.648,9.3321],[-87.835,15.6517,8.6012],[-87.8374,15.6556,9.1766],[-87.8373,15.6625,12.339],[-87.833,15.6743,10.1895],[-87.8266,15.679,12.7221],[-87.8158,15.6784,10.4034],[-87.8153,15.6849,10.2645],[-87.8174,15.6863,9.8827],[-87.8211,15.6852,10.6559],[-87.8295,15.6794,11.2265],[-87.8385,15.6821,11.1742],[-87.8444,15.6794,11.8419],[-87.8468,15.6805,7.6232],[-87.8437,15.6861,13.1467],[-87.8346,15.695,9.0072],[-87.8198,15.6995,8.6001],[-87.815,15.7024,7.7706],[-87.8132,15.7062,15.8972],[-87.8134,15.7172,7.8782],[-87.8111,15.7213,10.2739],[-87.8068,15.7218,8.6053],[-87.8032,15.7202,8.2176],[-87.7961,15.7092,8.9624],[-87.7906,15.7071,6.3316],[-87.7862,15.7098,7.8195],[-87.7836,15.7144,8.3452],[-87.7839,15.7281,5.6363],[-87.7807,15.7294,7.0499],[-87.7665,15.7291,7.8045],[-87.765,15.7306,9.0584],[-87.7649,15.7337,8.0395],[-87.7736,15.7434,5.1913],[-87.7735,15.7568,3.7552],[-87.7786,15.7619,7.3064],[-87.7808,15.7683,5.3344],[-87.7833,15.7703,3.9981],[-87.7851,15.7694,6.002],[-87.7904,15.7561,2.4388],[-87.7938,15.7563,7.2864],[-87.7947,15.759,3.6761],[-87.7895,15.7715,4.4355],[-87.7963,15.7784,3.7082],[-87.7978,15.7848,7.1464],[-87.8068,15.7836,11.7676],[-87.8087,15.7861,14.7088],[-87.8028,15.7939,5.9176],[-87.8036,15.8084,4.6974],[-87.7993,15.8081,7.2944],[-87.7941,15.8032,5.0182],[-87.79,15.8044,5.6498],[-87.7887,15.8064,7.443],[-87.7885,15.8098,4.5529],[-87.7927,15.8231,3.5232],[-87.7895,15.8241,5.6468],[-87.7827,15.818,3.6824],[-87.7784,15.8184,5.9243],[-87.7815,15.8225,5.3908],[-87.7803,15.8398,3.908],[-87.7744,15.8442,6.941],[-87.7803,15.8497,11.0197],[-87.781,15.8569,11.7154],[-87.7674,15.8693,4.594],[-87.7587,15.8819,2.1885],[-87.7541,15.8787,2.3024],[-87.7488,15.878,1.7552],[-87.7428,15.8805,4.0341],[-87.7394,15.8839,3.3578],[-87.7381,15.8883,7.9354],[-87.7389,15.9001,11.8216],[-87.7351,15.9039,4.3347],[-87.7309,15.9197,1.3418]]],
[[[-88.0001,15.9999,0.0],[-87.9999,15.9999,0.0],[-87.9999,16.0001,0.0],[-88.0001,16.0001,0.0],[-88.0001,15.9999,0.0]]]]}}