{"type": "Feature","bbox": [-86.7,13.7596,-86.053,14.3456],"geometry": {"type": "MultiPolygon","coordinates": [[[[-86.3579,13.7603,1518.5929],[-86.3521,13.7596,1672.3105],[-86.3462,13.7618,1631.9656],[-86.3288,13.7734,1557.9808],[-86.3214,13.7812,1363.4872],[-86.313,13.8009,1111.6667],[-86.3013,13.814,1152.1283],[-86.2985,13.8269,1234.9042],[-86.3028,13.8416,1155.7482],[-86.3004,13.8455,1284.3367],[-86.2979,13.8481,1321.0581],[-86.2829,13.8531,1175.139],[-86.2801,13.8554,1014.8315],[-86.2758,13.8689,1084.488],[-86.2521,13.8842,1290.592],[-86.2422,13.9018,1027.191],[-86.2297,13.911,1257.3401],[-86.2222,13.9274,1476.1449],[-86.2186,13.9305,1570.0753],[-86.2021,13.9376,1645.1873],[-86.1954,13.9503,1499.5695],[-86.1859,13.9551,1398.8297],[-86.1859,13.9613,1416.4171],[-86.19,13.9731,1199.3528],[-86.1884,13.9795,1552.4099],[-86.1861,13.9821,1576.217],[-86.1699,13.9832,1394.3535],[-86.1587,13.9862,1340.1506],[-86.1553,13.9878,1260.566],[-86.1489,13.9948,1339.2147],[-86.1404,13.998,1397.6725],[-86.1375,14.0009,1426.2103],[-86.1357,14.004,1374.4152],[-86.1359,14.0085,1255.4882],[-86.1468,14.0152,1251.4927],[-86.1518,14.0206,1346.1521],[-86.1505,14.0325,1147.0084],[-86.1431,14.0364,1036.9691],[-86.1472,14.1242,679.9833],[-86.053,14.178,1102.8824],[-86.0688,14.2469,596.5406],[-86.0724,14.2467,553.1458],[-86.1438,14.2654,381.9871],[-86.1789,14.3456,435.6801],[-86.2335,14.3419,462.0861],[-86.2754,14.3304,664.1647],[-86.2817,14.3219,866.1903],[-86.299,14.3177,859.6066],[-86.3055,14.3132,860.1559],[-86.3169,14.301,986.692],[-86.3429,14.2878,903.6542],[-86.3557,14.2777,1187.4033],[-86.3635,14.2797,918.7979],[-86.3704,14.2747,1044.8401],[-86.4549,14.2814,659.7415],[-86.4584,14.2937,722.0956],[-86.4713,14.2894,805.3629],[-86.499,14.2922,844.3415],[-86.5048,14.2908,607.5141],[-86.5211,14.2965,510.207],[-86.5237,14.288,549.316],[-86.5288,14.2868,583.2117],[-86.5306,14.283,545.7688],[-86.5364,14.2832,516.468],[-86.5349,14.2868,509.9087],[-86.5379,14.288,513.7479],[-86.5394,14.2847,510.5984],[-86.5436,14.2851,514.6169],[-86.5412,14.2816,517.6756],[-86.5435,14.2787,567.071],[-86.5481,14.2777,525.6008],[-86.552,14.2794,513.641],[-86.5512,14.275,605.652],[-86.5541,14.2725,619.7863],[-86.5589,14.2724,526.4918],[-86.5595,14.2754,529.3833],[-86.5654,14.2713,519.9006],[-86.5707,14.2723,594.337],[-86.5701,14.2674,549.1899],[-86.5747,14.2665,628.1411],[-86.5768,14.2643,608.6161],[-86.5789,14.254,525.5347],[-86.5821,14.256,523.6499],[-86.5855,14.2554,526.6564],[-86.5861,14.2503,532.1786],[-86.5915,14.245,547.2531],[-86.5964,14.2465,540.9244],[-86.6006,14.2432,551.5837],[-86.604,14.2453,537.9089],[-86.6052,14.2407,552.8312],[-86.6084,14.2406,548.564],[-86.6112,14.2429,551.4128],[-86.6162,14.2373,559.1664],[-86.628,14.239,546.4929],[-86.6289,14.2366,565.8754],[-86.6271,14.2319,642.0134],[-86.6378,14.2285,656.7882],[-86.6403,14.226,641.7061],[-86.642,14.2172,635.5498],[-86.6417,14.2075,785.9417],[-86.6842,14.182,890.6737],[-86.6871,14.1693,867.4567],[-86.6926,14.1566,976.8377],[-86.6956,14.1538,1065.4552],[-86.7,14.1312,1274.3298],[-86.6931,14.0685,1082.6914],[-86.6493,14.0376,882.7053],[-86.621,13.9857,815.2927],[-86.5897,13.961,756.6709],[-86.5676,13.9521,736.7919],[-86.5838,13.9357,744.6797],[-86.5835,13.9306,769.8657],[-86.5774,13.9268,795.6899],[-86.5226,13.9102,1052.9067],[-86.4616,13.8753,615.6988],[-86.4245,13.8705,928.8708],[-86.3655,13.8496,882.5122],[-86.3649,13.8478,922.1537],[-86.3697,13.8407,955.718],[-86.3708,13.8364,1017.3853],[-86.3689,13.8311,1057.1064],[-86.3694,13.8273,1169.27],[-86.3642,13.8183,1120.6779],[-86.362,13.8011,1091.0754],[-86.3634,13.7962,1047.8356],[-86.367,13.7938,1201.5521],[-86.368,13.7774,1377.1101],[-86.3671,13.7736,1418.5466],[-86.3603,13.7675,1546.802],[-86.3579,13.7603,1518.5929]]]]}
,"properties": {"GID_2": "HND.7.2_1","GID_0": "HND","country": "Honduras","GID_1": "HND.7_1","province": "ElParaíso","NL_NAME_1": "NA","county": "Danlí","VARNAME_2": "NA","NL_NAME_2": "NA","TYPE_2": "Municipio","ENGTYPE_2": "Municipality","CC_2": "NA","HASC_2": "HN.EP.DA","name": "Danlí.county","area_km2": 2565.406,"hist_schema_id": "Elevation0-9000","hist_area_km2": {"325": 1.377,"350": 10.585,"375": 18.232,"400": 26.579,"425": 40.316,"450": 91.489,"475": 101.298,"500": 83.176,"525": 74.887,"550": 78.587,"575": 76.492,"600": 75.546,"625": 78.711,"650": 76.944,"675": 76.759,"700": 76.267,"725": 82.892,"750": 102.994,"775": 95.544,"800": 92.315,"825": 94.964,"850": 95.148,"875": 84.208,"900": 76.705,"925": 71.296,"950": 66.301,"975": 60.812,"1000": 57.912,"1025": 56.186,"1050": 57.173,"1075": 54.643,"1100": 49.07,"1125": 44.319,"1150": 40.04,"1175": 36.462,"1200": 32.925,"1225": 30.663,"1250": 26.838,"1275": 24.595,"1300": 20.893,"1325": 19.453,"1350": 16.78,"1375": 15.67,"1400": 12.852,"1425": 10.488,"1450": 9.089,"1475": 7.855,"1500": 5.902,"1525": 5.47,"1550": 4.463,"1575": 4.051,"1600": 2.653,"1625": 2.982,"1650": 1.686,"1675": 1.152,"1700": 0.905,"1725": 0.637,"1750": 0.411,"1775": 0.349,"1800": 0.308,"1825": 0.062,"1850": 0.041}}}