{"type":"Feature","properties":{"GID_2":"HND.13.26_1","GID_0":"HND","country":"Honduras","GID_1":"HND.13_1","province":"Lempira","NL_NAME_1":"NA","county":"Tomalá","VARNAME_2":"NA","NL_NAME_2":"NA","TYPE_2":"Municipio","ENGTYPE_2":"Municipality","CC_2":"NA","HASC_2":"HN.LE.TO","name":"Tomalá.county"},
"geometry":{"type": "MultiPolygon","coordinates": [[[[-88.6816,14.2492,906.9071],[-88.724,14.2498,999.1418],[-88.7626,14.2689,1019.812],[-88.7749,14.2691,996.216],[-88.78,14.2642,1057.0269],[-88.778,14.26,1156.1602],[-88.7736,14.2594,1021.3507],[-88.7709,14.2566,962.4288],[-88.7705,14.2532,1003.8074],[-88.7658,14.2499,1027.3213],[-88.7625,14.2445,966.0888],[-88.758,14.2435,835.1488],[-88.7592,14.2315,868.4878],[-88.7868,14.2178,1169.9675],[-88.7796,14.2116,1159.2372],[-88.7711,14.2102,1124.665],[-88.7657,14.212,1036.9573],[-88.7613,14.2097,1015.3015],[-88.7499,14.2113,846.8429],[-88.7407,14.2161,613.9753],[-88.7348,14.2145,518.0615],[-88.7332,14.2099,522.9811],[-88.7199,14.2097,591.0834],[-88.7036,14.2166,586.3613],[-88.6862,14.2068,363.6721],[-88.6848,14.2139,464.5103],[-88.6878,14.2149,443.3715],[-88.6874,14.2184,519.2217],[-88.6917,14.2277,435.6183],[-88.6902,14.2308,468.552],[-88.6908,14.2331,453.1092],[-88.6872,14.2347,667.2661],[-88.6859,14.2384,641.3204],[-88.6879,14.2411,507.3404],[-88.686,14.2438,724.9735],[-88.6824,14.2443,731.9391],[-88.6816,14.2492,906.9071]]]]}}