{"type": "Feature","bbox": [-87.8696,14.4816,-87.6259,14.6974],"geometry": {"type": "MultiPolygon","coordinates": [[[[-87.6349,14.5883,499.8052],[-87.6334,14.5948,412.8787],[-87.6296,14.6003,401.4089],[-87.6317,14.6073,400.7379],[-87.6309,14.613,445.1566],[-87.6259,14.6195,395.9449],[-87.6336,14.6227,428.3755],[-87.6393,14.6304,452.4402],[-87.64,14.6337,464.1287],[-87.6389,14.6372,412.019],[-87.6327,14.6376,387.0598],[-87.6314,14.6394,388.2022],[-87.6363,14.6438,401.414],[-87.6362,14.6557,436.8626],[-87.6265,14.6604,393.2743],[-87.6262,14.6638,381.6681],[-87.6314,14.6633,392.5907],[-87.6339,14.6659,460.9182],[-87.6357,14.6638,390.7782],[-87.6445,14.6652,532.4053],[-87.6536,14.6637,596.7308],[-87.657,14.6564,534.5204],[-87.672,14.6595,947.0027],[-87.6779,14.6581,1055.9653],[-87.696,14.6846,577.8617],[-87.7005,14.6803,773.6058],[-87.7041,14.6803,711.603],[-87.7062,14.6835,598.4316],[-87.708,14.6822,598.4316],[-87.7139,14.685,702.6616],[-87.7146,14.6826,720.6819],[-87.7175,14.6861,714.5159],[-87.7441,14.6916,793.0538],[-87.7487,14.6911,831.4594],[-87.7744,14.6974,1093.1489],[-87.7758,14.6915,1117.9368],[-87.7785,14.6884,1079.5208],[-87.7787,14.6779,1120.9475],[-87.7831,14.6737,1017.8876],[-87.7836,14.6696,1090.3301],[-87.7862,14.6668,1226.288],[-87.7853,14.6652,1258.0774],[-87.7925,14.662,1162.7432],[-87.7913,14.6579,1191.353],[-87.7929,14.6422,1453.1543],[-87.7902,14.6365,1552.5696],[-87.7926,14.6265,1496.0747],[-87.7863,14.6162,1376.9321],[-87.7801,14.6104,1453.3865],[-87.7809,14.6068,1454.9702],[-87.7851,14.6009,1443.1196],[-87.7888,14.6005,1420.188],[-87.7797,14.5828,1369.3993],[-87.7797,14.5801,1325.2179],[-87.7836,14.5743,1243.8003],[-87.7836,14.5704,1223.3032],[-87.7771,14.5623,1254.1409],[-87.7775,14.5588,1242.6154],[-87.7817,14.5567,1170.6885],[-87.7859,14.5583,1208.4919],[-87.7861,14.5601,1229.6672],[-87.7964,14.5562,1172.6776],[-87.7982,14.5595,1142.3784],[-87.8013,14.5585,1145.2383],[-87.8261,14.5617,1143.551],[-87.8282,14.5416,1104.6383],[-87.8264,14.539,1086.02],[-87.8279,14.5336,1173.8992],[-87.8254,14.5301,1221.3052],[-87.8417,14.5303,1286.3207],[-87.862,14.5194,1454.5448],[-87.8593,14.5178,1475.3486],[-87.8603,14.5127,1567.6306],[-87.8586,14.5043,1462.467],[-87.8639,14.5025,1479.4324],[-87.8696,14.4982,1644.2889],[-87.8376,14.4968,1469.1136],[-87.8344,14.4987,1388.8326],[-87.8264,14.496,1189.113],[-87.8215,14.4966,1190.2913],[-87.8122,14.4873,1365.4453],[-87.7967,14.4865,1246.6305],[-87.7831,14.4816,1218.5105],[-87.7691,14.4864,968.9719],[-87.7637,14.486,956.1108],[-87.7602,14.4894,868.2253],[-87.7639,14.4947,932.0293],[-87.7634,14.5005,869.928],[-87.7657,14.5043,923.4711],[-87.7706,14.5038,872.0908],[-87.7696,14.5066,893.7497],[-87.7726,14.5052,875.5302],[-87.773,14.5075,940.759],[-87.7769,14.5091,945.3871],[-87.7799,14.5128,984.1161],[-87.7827,14.5132,1024.3125],[-87.7809,14.5216,913.2526],[-87.7772,14.5269,1016.1819],[-87.775,14.5349,1146.5314],[-87.7763,14.5414,1113.3591],[-87.7629,14.5423,1206.7241],[-87.7617,14.5463,1123.5602],[-87.712,14.546,623.8916],[-87.7078,14.5486,582.7717],[-87.7044,14.5541,669.7359],[-87.7022,14.5539,670.106],[-87.6936,14.5589,918.7293],[-87.6919,14.5628,757.3362],[-87.6941,14.5696,557.769],[-87.6865,14.5636,857.2623],[-87.6768,14.566,727.9607],[-87.6708,14.5685,730.7363],[-87.6721,14.5736,566.3187],[-87.6674,14.5816,517.0211],[-87.6637,14.5823,666.1346],[-87.6552,14.58,740.6335],[-87.6485,14.5841,538.4363],[-87.6374,14.5859,435.5641],[-87.6349,14.5883,499.8052]]]]}
,"properties": {"GID_2": "HND.4.3_1","GID_0": "HND","country": "Honduras","GID_1": "HND.4_1","province": "Comayagua","NL_NAME_1": "NA","county": "ElRosario","VARNAME_2": "NA","NL_NAME_2": "NA","TYPE_2": "Municipio","ENGTYPE_2": "Municipality","CC_2": "NA","HASC_2": "HN.CM.ER","name": "El_Rosario.county","area_km2": 275.7789,"hist_schema_id": "Elevation0-9000","hist_area_km2": {"375": 0.5128,"400": 2.5029,"425": 3.0979,"450": 4.6365,"475": 4.1647,"500": 4.3906,"525": 3.7752,"550": 4.4112,"575": 4.7601,"600": 5.3552,"625": 6.4427,"650": 6.2169,"675": 5.786,"700": 6.0114,"725": 6.1754,"750": 6.5445,"775": 5.9494,"800": 5.2724,"825": 6.1957,"850": 5.6828,"875": 6.2986,"900": 6.791,"925": 7.0579,"950": 7.3657,"975": 7.4481,"1000": 7.9406,"1025": 8.0637,"1050": 7.8586,"1075": 7.8588,"1100": 8.4541,"1125": 8.146,"1150": 7.7763,"1175": 7.5507,"1200": 7.202,"1225": 8.9053,"1250": 9.9721,"1275": 7.3661,"1300": 6.1761,"1325": 5.7248,"1350": 5.6018,"1375": 5.2121,"1400": 3.6525,"1425": 3.7962,"1450": 3.0164,"1475": 3.2625,"1500": 2.0929,"1525": 2.0722,"1550": 1.7234,"1575": 1.4566,"1600": 1.2514,"1625": 0.6564,"1650": 0.1436}}}