{"type": "Feature","bbox": [-88.4701,14.9096,-88.2505,15.0008],"geometry": {"type": "MultiPolygon","coordinates": [[[[-88.4243,14.9096,1261.926],[-88.4018,14.9233,1000.9427],[-88.3927,14.9173,1114.126],[-88.379,14.9207,1117.113],[-88.376,14.9234,1062.5845],[-88.3774,14.9289,833.268],[-88.3436,14.932,779.8643],[-88.343,14.9383,681.2165],[-88.3352,14.935,764.3552],[-88.3205,14.9367,547.8582],[-88.311,14.9302,483.1777],[-88.3017,14.9302,569.8066],[-88.2972,14.9271,562.0896],[-88.2945,14.9333,464.0676],[-88.2924,14.95,407.3362],[-88.2905,14.9514,400.7921],[-88.2875,14.9488,385.8536],[-88.283,14.9501,375.0738],[-88.2781,14.9425,337.2606],[-88.2728,14.9407,331.5407],[-88.2687,14.9369,279.578],[-88.2646,14.937,248.2047],[-88.2621,14.9338,215.0719],[-88.257,14.9366,216.0378],[-88.2527,14.9351,301.5757],[-88.2512,14.9365,348.0905],[-88.2527,14.9458,344.4529],[-88.2505,14.9526,265.0277],[-88.2595,14.9637,215.0977],[-88.2641,14.9749,251.2655],[-88.2712,14.9779,266.9084],[-88.2773,14.9833,318.1045],[-88.2826,14.991,307.9986],[-88.2841,14.9969,260.3196],[-88.2887,15.0,250.0849],[-88.2924,14.9963,324.3732],[-88.3098,15.0008,315.0733],[-88.3173,14.997,379.6672],[-88.326,14.9972,533.1872],[-88.3284,14.9926,665.7856],[-88.3352,14.9928,566.6461],[-88.3374,14.9893,429.8682],[-88.3497,14.9819,477.6911],[-88.3534,14.9834,400.0212],[-88.3602,14.9897,365.9843],[-88.3733,14.9921,277.0069],[-88.3809,14.9961,366.5516],[-88.3851,15.0004,464.6996],[-88.3956,14.9915,544.2458],[-88.3985,14.9918,571.7975],[-88.4009,14.9953,704.1331],[-88.4058,14.995,608.722],[-88.4158,14.9912,530.2213],[-88.4296,14.99,570.4087],[-88.4419,14.9846,556.6067],[-88.4478,14.9852,722.2372],[-88.4507,14.9885,619.7881],[-88.4557,14.988,742.8231],[-88.4599,14.9851,865.8804],[-88.4591,14.9783,1058.6882],[-88.4631,14.9669,784.7462],[-88.4621,14.9599,765.9948],[-88.4701,14.9508,839.3558],[-88.4634,14.9449,992.7795],[-88.4626,14.9412,1062.4287],[-88.4601,14.9407,1023.5026],[-88.4558,14.9343,1080.8975],[-88.4523,14.933,1036.7111],[-88.4538,14.9277,1034.8103],[-88.4515,14.92,1139.0457],[-88.4408,14.918,1216.2255],[-88.4315,14.9214,1165.4248],[-88.4243,14.9096,1261.926]]]]}
,"properties": {"GID_2": "HND.16.15_1","GID_0": "HND","country": "Honduras","GID_1": "HND.16_1","province": "SantaBárbara","NL_NAME_1": "NA","county": "NuevoCelilac","VARNAME_2": "NA","NL_NAME_2": "NA","TYPE_2": "Municipio","ENGTYPE_2": "Municipality","CC_2": "NA","HASC_2": "HN.SB.NC","name": "Nuevo_Celilac.county","area_km2": 151.8659,"hist_schema_id": "Elevation0-9000","hist_area_km2": {"125": 0.0819,"150": 0.676,"175": 0.594,"200": 1.0652,"225": 1.0037,"250": 1.6591,"275": 1.864,"300": 2.7447,"325": 3.6868,"350": 5.1821,"375": 4.8543,"400": 4.5675,"425": 6.5953,"450": 8.746,"475": 8.9099,"500": 7.6606,"525": 6.9643,"550": 7.0668,"575": 6.4113,"600": 5.551,"625": 5.3257,"650": 4.6293,"675": 3.9124,"700": 2.6834,"725": 2.663,"750": 2.9497,"775": 3.0931,"800": 2.622,"825": 2.5606,"850": 2.4581,"875": 1.8846,"900": 2.1918,"925": 2.5401,"950": 1.8232,"975": 1.7207,"1000": 2.3558,"1025": 3.0933,"1050": 3.5235,"1075": 2.8271,"1100": 2.6427,"1125": 2.192,"1150": 1.7413,"1175": 1.1882,"1200": 1.2087,"1225": 1.1677,"1250": 0.6556,"1275": 0.2254,"1300": 0.082,"1325": 0.0205}}}