{"type": "Feature","bbox": [-87.4758,15.4301,-87.2961,15.8431],"geometry": {"type": "MultiPolygon","coordinates": [[[[-87.3826,15.8287,8.4544],[-87.3874,15.8204,3.7487],[-87.388,15.815,4.8538],[-87.3883,15.8062,7.0076],[-87.3844,15.788,5.459],[-87.3963,15.7791,225.59],[-87.3993,15.7699,99.6754],[-87.4088,15.7671,115.2853],[-87.4125,15.7635,68.5464],[-87.4155,15.7535,131.2236],[-87.4201,15.7454,255.8426],[-87.433,15.7365,350.1013],[-87.434,15.7318,456.8724],[-87.4399,15.7282,294.42],[-87.4413,15.7227,377.2872],[-87.4398,15.7156,452.1437],[-87.4326,15.7029,312.5582],[-87.4335,15.6974,440.5493],[-87.4309,15.6928,590.3077],[-87.4294,15.6921,531.5165],[-87.423,15.6954,317.9893],[-87.4183,15.7047,223.7461],[-87.416,15.7054,232.983],[-87.4026,15.6643,118.9007],[-87.4249,15.613,153.3587],[-87.4225,15.596,55.3834],[-87.4184,15.5914,46.8128],[-87.4227,15.5863,52.386],[-87.4269,15.5849,69.7835],[-87.4278,15.58,65.0532],[-87.4323,15.5798,97.0211],[-87.4352,15.578,107.2718],[-87.4393,15.566,195.4611],[-87.4461,15.5642,76.724],[-87.4484,15.5618,63.7635],[-87.4489,15.5577,63.5811],[-87.4602,15.5526,63.5473],[-87.4644,15.548,66.7738],[-87.4739,15.5443,99.8829],[-87.4758,15.5414,75.585],[-87.4659,15.5278,90.1612],[-87.4568,15.5262,123.9293],[-87.4527,15.5273,89.2548],[-87.4519,15.526,103.7193],[-87.4519,15.5207,119.3132],[-87.4541,15.5183,137.685],[-87.4511,15.5134,299.0685],[-87.4546,15.5127,198.8206],[-87.4523,15.5109,313.9517],[-87.4532,15.5076,243.8433],[-87.4577,15.506,213.7569],[-87.4557,15.5011,338.9576],[-87.4574,15.4937,616.6938],[-87.4535,15.4914,676.1584],[-87.4531,15.4877,829.9105],[-87.4496,15.4854,787.0722],[-87.4553,15.4813,838.1163],[-87.4555,15.4796,866.2702],[-87.4544,15.4773,771.8992],[-87.4495,15.4768,880.091],[-87.444,15.4727,848.7518],[-87.4408,15.4649,996.0096],[-87.4422,15.458,1013.0712],[-87.4404,15.4574,1069.4242],[-87.4381,15.4594,1138.5916],[-87.4362,15.4529,1190.0469],[-87.4348,15.4524,1190.0469],[-87.4331,15.4548,1153.0671],[-87.4308,15.4531,1165.2435],[-87.4303,15.4493,1229.0911],[-87.4272,15.4493,1180.1552],[-87.4273,15.4513,1178.8861],[-87.4209,15.4488,984.3834],[-87.4236,15.4448,1156.6956],[-87.4226,15.4436,1226.1243],[-87.4205,15.4454,1202.5894],[-87.4204,15.442,1298.8901],[-87.4125,15.4454,1223.9185],[-87.4116,15.4436,1248.0461],[-87.4135,15.4386,1251.5321],[-87.4082,15.4392,1351.465],[-87.4099,15.4369,1197.3506],[-87.4077,15.4354,1276.4192],[-87.4078,15.433,1136.0469],[-87.4065,15.4315,1272.9282],[-87.4027,15.4323,1306.759],[-87.403,15.4301,1214.6763],[-87.3928,15.4345,1385.6147],[-87.3863,15.4355,1251.1016],[-87.3717,15.4485,1441.3762],[-87.3667,15.4482,1434.6157],[-87.3607,15.4435,1344.1307],[-87.3513,15.4444,1443.4581],[-87.3417,15.4322,1122.7664],[-87.3385,15.4323,1141.1531],[-87.3309,15.4369,1419.4861],[-87.3198,15.4393,1501.5447],[-87.3063,15.5916,126.4153],[-87.311,15.597,109.1404],[-87.3124,15.6048,89.1141],[-87.3148,15.6043,84.7776],[-87.3186,15.6069,73.4977],[-87.3199,15.6107,63.4052],[-87.3359,15.6096,62.4843],[-87.3394,15.6067,57.5339],[-87.3422,15.6068,70.4112],[-87.3488,15.6111,33.3261],[-87.3549,15.6101,33.8311],[-87.3588,15.612,31.9642],[-87.3619,15.6174,27.891],[-87.3683,15.621,27.9602],[-87.3689,15.6229,31.6027],[-87.3662,15.63,27.5647],[-87.3673,15.6351,30.4788],[-87.3604,15.6365,26.2916],[-87.3574,15.632,26.4026],[-87.3547,15.6313,25.3432],[-87.3492,15.6364,24.3902],[-87.346,15.6499,22.7824],[-87.3433,15.6502,23.0069],[-87.3401,15.6463,23.702],[-87.3375,15.6475,25.9805],[-87.3382,15.6563,24.5293],[-87.3343,15.6585,23.6128],[-87.3319,15.6627,22.7635],[-87.3281,15.6794,23.0821],[-87.3255,15.6848,24.452],[-87.3208,15.6849,20.2719],[-87.3207,15.6992,14.8357],[-87.3193,15.7024,14.0896],[-87.3245,15.7059,36.0032],[-87.3256,15.7084,18.7317],[-87.3174,15.7135,12.2954],[-87.3123,15.7195,13.4265],[-87.3151,15.7246,10.4306],[-87.3089,15.7235,18.498],[-87.3087,15.7317,16.9893],[-87.3041,15.7379,13.3563],[-87.3028,15.7376,9.5509],[-87.3032,15.7343,10.8446],[-87.3004,15.7361,9.6456],[-87.302,15.7421,9.7111],[-87.3005,15.7457,16.3469],[-87.3017,15.7499,9.233],[-87.2961,15.7534,14.2334],[-87.298,15.7541,8.2892],[-87.3037,15.7521,8.1305],[-87.3037,15.7563,7.0445],[-87.2985,15.7562,6.3201],[-87.3033,15.7626,11.0596],[-87.303,15.7676,9.4843],[-87.308,15.7651,9.936],[-87.3102,15.7724,11.1513],[-87.316,15.7723,5.7621],[-87.3138,15.7759,5.3891],[-87.3158,15.7777,3.5929],[-87.3199,15.7779,3.6414],[-87.3211,15.7798,3.8658],[-87.3215,15.7835,3.162],[-87.3196,15.7854,4.8061],[-87.3203,15.7903,10.0952],[-87.3249,15.7942,3.2782],[-87.3313,15.7921,3.0655],[-87.3326,15.7947,2.2822],[-87.3317,15.7977,3.1131],[-87.3351,15.7991,4.13],[-87.3356,15.811,7.4313],[-87.3335,15.8153,5.0283],[-87.3371,15.818,8.1573],[-87.3318,15.8265,4.7942],[-87.3258,15.8294,7.7102],[-87.3662,15.8431,18.1724],[-87.3709,15.8422,96.8474],[-87.3785,15.8305,7.5734],[-87.3826,15.8287,8.4544]]]]}
,"properties": {"GID_2": "HND.1.1_1","GID_0": "HND","country": "Honduras","GID_1": "HND.1_1","province": "Atlántida","NL_NAME_1": "NA","county": "Arizona","VARNAME_2": "NA","NL_NAME_2": "NA","TYPE_2": "Municipio","ENGTYPE_2": "Municipality","CC_2": "NA","HASC_2": "HN.AT.AR","name": "Arizona.county","area_km2": 490.9912,"hist_schema_id": "Elevation0-9000","hist_area_km2": {"0": 52.9041,"25": 46.8621,"50": 50.1315,"75": 42.8636,"100": 23.0333,"125": 14.7825,"150": 14.2925,"175": 12.2506,"200": 11.393,"225": 11.0049,"250": 10.5353,"275": 10.4128,"300": 8.7795,"325": 8.5348,"350": 7.9017,"375": 7.6366,"400": 6.9625,"425": 7.1056,"450": 6.1664,"475": 5.4927,"500": 4.9621,"525": 4.6971,"550": 3.2675,"575": 3.6966,"600": 2.9616,"625": 3.064,"650": 2.5535,"675": 2.2268,"700": 2.2064,"725": 2.0839,"750": 2.9012,"775": 2.4517,"800": 2.9217,"825": 2.7174,"850": 2.3496,"875": 2.4722,"900": 2.4723,"925": 2.5336,"950": 2.7378999999999998,"975": 2.6563,"1000": 2.3089,"1025": 2.6972,"1050": 2.8402,"1075": 2.3906,"1100": 2.7789,"1125": 3.0037,"1150": 2.7585,"1175": 2.7789,"1200": 2.5746,"1225": 2.7585,"1250": 2.9833,"1275": 2.5747,"1300": 2.8812,"1325": 2.6564,"1350": 2.7995,"1375": 2.493,"1400": 2.6564,"1425": 2.3295,"1450": 2.166,"1475": 2.023,"1500": 2.3704,"1525": 1.88,"1550": 1.7165,"1575": 2.1252,"1600": 1.6756,"1625": 1.7574,"1650": 1.4509,"1675": 1.5122,"1700": 1.0217,"1725": 1.41,"1750": 0.8991,"1775": 0.7152,"1800": 0.797,"1825": 0.5313,"1850": 0.5517,"1875": 0.4496,"1900": 0.3678,"1925": 0.1839,"1950": 0.0817,"1975": 0.0613}}}