{"type":"Feature","properties":{"GID_2":"HND.15.23_1","GID_0":"HND","country":"Honduras","GID_1":"HND.15_1","province":"Olancho","NL_NAME_1":"NA","county":"Yocón","VARNAME_2":"NA","NL_NAME_2":"NA","TYPE_2":"Municipio","ENGTYPE_2":"Municipality","CC_2":"NA","HASC_2":"HN.OL.YO","name":"Yocón.county"},
"geometry":{"type": "MultiPolygon","coordinates": [[[[-86.9245,14.9301,1434.8363],[-86.883,14.9099,1135.6006],[-86.8723,14.8935,1287.4199],[-86.8349,14.8814,1676.7596],[-86.8012,14.8868,1713.8726],[-86.781,14.894,1377.8076],[-86.7715,14.895,1297.5159],[-86.7623,14.8932,1237.8354],[-86.7404,14.9305,754.3069],[-86.7387,14.9322,745.9966],[-86.735,14.9324,767.2747],[-86.7335,14.9366,739.489],[-86.7239,14.9417,770.3184],[-86.7251,14.9511,794.7925],[-86.7242,14.956,814.2733],[-86.7266,14.9586,784.0784],[-86.7244,14.9614,826.5146],[-86.7191,14.9597,821.8636],[-86.7152,14.9753,682.3759],[-86.7155,14.9848,725.3094],[-86.7435,14.9897,669.9103],[-86.7619,15.0051,657.6558],[-86.7674,15.0069,663.6115],[-86.7816,15.0061,730.6908],[-86.784,15.0124,658.9976],[-86.7912,15.0062,708.381],[-86.7946,15.0005,867.3105],[-86.7976,15.0023,853.2028],[-86.8098,15.0008,691.0741],[-86.8266,15.0029,669.8267],[-86.8448,14.9968,833.2068],[-86.8476,14.9939,910.2512],[-86.8489,14.9881,796.9528],[-86.8601,14.9815,762.6199],[-86.8709,14.9873,853.5521],[-86.9094,14.9904,785.7424],[-86.9229,14.9806,1092.23],[-86.9305,14.9777,1281.0211],[-86.944,14.9805,1232.4971],[-86.9924,14.9751,1414.6035],[-86.9874,14.9637,1346.848],[-86.9822,14.9616,1307.9175],[-86.9762,14.962,1139.3333],[-86.972,14.9588,1182.5958],[-86.9659,14.9573,1211.8889],[-86.9574,14.9563,1365.2753],[-86.9544,14.9534,1396.8966],[-86.9537,14.9437,1172.1292],[-86.9396,14.9388,1245.595],[-86.9245,14.9301,1434.8363]]]]}}