{"type": "Feature","bbox": [-87.3975,13.6732,-87.2609,13.7897],"geometry": {"type": "MultiPolygon","coordinates": [[[[-87.363,13.6791,109.6288],[-87.3324,13.6816,215.7067],[-87.3282,13.6796,396.4622],[-87.3158,13.6842,170.1175],[-87.3021,13.6779,148.1459],[-87.3013,13.6747,150.3965],[-87.2924,13.6736,281.1825],[-87.2866,13.6746,298.7231],[-87.2845,13.6732,345.9825],[-87.2665,13.6787,194.4105],[-87.2668,13.6808,184.3393],[-87.2638,13.6804,241.0088],[-87.2609,13.689,225.3805],[-87.2672,13.693,397.3635],[-87.2651,13.7017,227.2389],[-87.2665,13.7104,332.421],[-87.2649,13.7133,276.4927],[-87.2684,13.7199,517.5838],[-87.2759,13.7282,510.8257],[-87.2714,13.734,353.4842],[-87.2811,13.7356,527.96],[-87.283,13.7441,542.8163],[-87.282,13.7533,528.5649],[-87.2847,13.7589,664.5264],[-87.2887,13.7626,638.0157],[-87.3184,13.7618,755.6129],[-87.3238,13.7593,833.6158],[-87.3306,13.7601,685.6229],[-87.3359,13.764,743.4381],[-87.3368,13.7671,631.1256],[-87.3437,13.77,513.6563],[-87.3454,13.7752,535.2964],[-87.3531,13.7796,462.5642],[-87.3573,13.7878,388.8133],[-87.3805,13.7897,201.2666],[-87.3829,13.7888,235.8632],[-87.3809,13.7837,268.5729],[-87.3811,13.7767,235.3424],[-87.3866,13.7756,324.0214],[-87.3853,13.7702,213.6426],[-87.39,13.7685,289.8741],[-87.3881,13.7651,419.1856],[-87.3806,13.7614,217.7555],[-87.3795,13.758,150.3817],[-87.3832,13.7549,244.5145],[-87.3846,13.749,157.934],[-87.391,13.7435,163.1849],[-87.392,13.736,143.433],[-87.3965,13.732,175.1218],[-87.3975,13.717,199.0215],[-87.3962,13.714,259.3955],[-87.3918,13.7157,190.5113],[-87.3892,13.7152,150.423],[-87.3891,13.7089,190.278],[-87.3809,13.6981,220.7152],[-87.3767,13.6974,192.574],[-87.3729,13.6934,256.8784],[-87.365,13.6929,181.0082],[-87.3649,13.6832,108.9994],[-87.363,13.6791,109.6288]]]]}
,"properties": {"GID_2": "HND.8.8_1","GID_0": "HND","country": "Honduras","GID_1": "HND.8_1","province": "FranciscoMorazán","NL_NAME_1": "NA","county": "LaVenta","VARNAME_2": "NA","NL_NAME_2": "NA","TYPE_2": "Municipio","ENGTYPE_2": "Municipality","CC_2": "NA","HASC_2": "HN.FM.LV","name": "La_Venta.county","area_km2": 123.93083,"hist_schema_id": "Elevation0-9000","hist_area_km2": {"100": 0.86521,"125": 5.45876,"150": 7.16849,"175": 7.80679,"200": 7.35348,"225": 7.41518,"250": 7.37385,"275": 6.15865,"300": 6.05548,"325": 6.0348,"350": 5.51982,"375": 5.16968,"400": 5.02546,"425": 4.83997,"450": 5.02534,"475": 4.71635,"500": 4.32507,"525": 4.59286,"550": 3.99557,"575": 3.46005,"600": 2.88335,"625": 3.29528,"650": 3.6042,"675": 2.26548,"700": 1.42105,"725": 0.90615,"750": 0.70021,"775": 0.35011,"800": 0.10297,"825": 0.04119}}}