{"type": "Feature","bbox": [-88.5122,13.855,-88.4112,14.0045],"geometry": {"type": "MultiPolygon","coordinates": [[[[-88.4905,13.8578,73.2998],[-88.4825,13.8573,63.2961],[-88.4781,13.855,158.7929],[-88.478,13.8566,70.809],[-88.4727,13.8589,186.8021],[-88.4723,13.8637,260.2202],[-88.4641,13.8701,197.1487],[-88.4639,13.8732,281.2203],[-88.4607,13.8739,280.2927],[-88.4612,13.8789,251.5793],[-88.4567,13.879,270.257],[-88.4538,13.8813,326.1998],[-88.4512,13.8886,376.2339],[-88.4517,13.9,183.863],[-88.4464,13.901,247.9705],[-88.4359,13.9119,422.6524],[-88.4339,13.9167,558.4774],[-88.4348,13.9199,447.9231],[-88.4215,13.9205,561.1284],[-88.4183,13.933,544.6244],[-88.4251,13.9348,563.9667],[-88.426,13.9371,452.8775],[-88.4199,13.9385,405.8232],[-88.4112,13.9528,463.5036],[-88.4187,13.9671,625.7396],[-88.4268,13.9641,412.1906],[-88.4324,13.9647,402.9142],[-88.4293,13.9706,420.1127],[-88.4381,13.9896,361.0039],[-88.4285,14.0045,295.5946],[-88.4378,14.0033,234.1847],[-88.4436,13.9955,316.0041],[-88.4614,13.994,387.9581],[-88.4672,13.9812,193.9382],[-88.4724,13.9789,175.2666],[-88.4789,13.9784,99.9459],[-88.4757,13.9725,208.5442],[-88.4754,13.9654,146.6676],[-88.4785,13.9646,128.8612],[-88.4798,13.9622,123.7698],[-88.4845,13.9624,145.8443],[-88.4874,13.9604,91.5426],[-88.4909,13.9499,195.3485],[-88.4946,13.9525,169.0266],[-88.4978,13.951599999999999,63.0],[-88.4986,13.949,80.6888],[-88.4969,13.9402,180.263],[-88.5079,13.9394,91.302],[-88.5118,13.9244,100.8496],[-88.5088,13.9175,58.2766],[-88.5122,13.9107,61.4059],[-88.4959,13.8787,106.9363],[-88.4946,13.8725,58.4001],[-88.4965,13.8654,96.4501],[-88.4948,13.8591,73.353],[-88.4874,13.8585,96.0311],[-88.4905,13.8578,73.2998]]]]}
,"properties": {"GID_2": "HND.10.10_1","GID_0": "HND","country": "Honduras","GID_1": "HND.10_1","province": "Intibucá","NL_NAME_1": "NA","county": "SanAntonio","VARNAME_2": "NA","NL_NAME_2": "NA","TYPE_2": "Municipio","ENGTYPE_2": "Municipality","CC_2": "NA","HASC_2": "HN.CP.SA","name": "San_Antonio.county","area_km2": 95.30009,"hist_schema_id": "Elevation0-9000","hist_area_km2": {"50": 1.64656,"75": 2.36694,"100": 4.81612,"125": 5.82441,"150": 5.39204,"175": 6.33841,"200": 7.38764,"225": 7.16115,"250": 6.54381,"275": 6.56447,"300": 5.53552,"325": 4.36251,"350": 4.67114,"375": 4.15667,"400": 3.93031,"425": 3.18953,"450": 2.92202,"475": 2.26355,"500": 1.52272,"525": 0.98773,"550": 1.04947,"575": 1.0289,"600": 0.82312,"625": 0.80255,"650": 0.69966,"675": 0.98776,"700": 0.92604,"725": 0.92603,"750": 0.34983,"775": 0.08232,"800": 0.04116}}}