{"type": "Feature","bbox": [-87.1117,13.9413,-86.9165,14.1147],"geometry": {"type": "MultiPolygon","coordinates": [[[[-86.9449,13.9511,1302.5311],[-86.9205,13.9789,1411.533],[-86.9254,13.9902,1380.879],[-86.9168,13.9908,1356.7133],[-86.9181,14.0028,1148.6749],[-86.9165,14.0402,648.4712],[-86.9178,14.0418,650.1481],[-86.9516,14.0528,768.9672],[-86.9543,14.0647,832.4924],[-86.9541,14.0747,947.2255],[-86.9772,14.0895,991.1398],[-86.9944,14.1147,1242.8713],[-87.0173,14.0937,1134.2104],[-87.0204,14.0872,1179.2417],[-87.0245,14.0886,1210.6573],[-87.0292,14.0873,1253.2014],[-87.0298,14.0895,1226.1299],[-87.0401,14.0883,1229.7744],[-87.0484,14.0956,1108.7725],[-87.0583,14.096,1259.5524],[-87.059,14.0928,1144.7361],[-87.057,14.0872,1109.5444],[-87.0592,14.0878,1108.9258],[-87.0647,14.0833,1109.7637],[-87.0637,14.0793,1109.5929],[-87.0704,14.0781,1176.3054],[-87.0674,14.069,1141.7046],[-87.0545,14.0672,1279.3088],[-87.0517,14.0655,1356.608],[-87.061,14.0475,1437.2866],[-87.0955,14.0406,1465.731],[-87.1017,14.035,1323.5735],[-87.109,14.0316,1331.4949],[-87.1117,14.028,1259.7518],[-87.0963,14.0197,1319.3652],[-87.0743,14.0187,1705.0795],[-87.0709,14.0113,1534.7552],[-87.0681,14.0115,1523.7112],[-87.0575,14.0019,1387.8877],[-87.0447,13.9955,992.9756],[-87.0418,13.9876,945.0619],[-87.0309,13.9825,844.9617],[-87.0251,13.9835,886.7618],[-87.0215,13.9823,875.2426],[-87.0169,13.9746,850.6603],[-87.0077,13.9688,775.7197],[-87.0096,13.9631,797.7632],[-87.0093,13.958,910.462],[-86.9952,13.9478,828.478],[-86.9942,13.9484,828.478],[-86.9952,13.9533,830.3915],[-86.993,13.9542,804.2559],[-86.9917,13.958,792.915],[-86.99,13.9578,785.2725],[-86.9888,13.9538,792.7208],[-86.9858,13.9539,799.9844],[-86.9819,13.9505,815.5555],[-86.9736,13.9505,955.7263],[-86.9688,13.9482,1030.7898],[-86.9645,13.9482,1046.541],[-86.957,13.9413,1220.7228],[-86.953,13.943,1306.2833],[-86.9449,13.9511,1302.5311]]]]}
,"properties": {"GID_2": "HND.8.17_1","GID_0": "HND","country": "Honduras","GID_1": "HND.8_1","province": "FranciscoMorazán","NL_NAME_1": "NA","county": "SanAntoniodeOriente","VARNAME_2": "NA","NL_NAME_2": "NA","TYPE_2": "Municipio","ENGTYPE_2": "Municipality","CC_2": "NA","HASC_2": "HN.FM.SO","name": "San_Antoniode_Oriente.county","area_km2": 211.7078,"hist_schema_id": "Elevation0-9000","hist_area_km2": {"650": 0.1646,"675": 0.6171,"700": 0.9873,"725": 2.6122,"750": 14.3996,"775": 23.617,"800": 12.5484,"825": 11.4374,"850": 11.1903,"875": 9.483,"900": 8.8863,"925": 6.5825,"950": 5.5335,"975": 5.0192,"1000": 5.4923,"1025": 4.9369,"1050": 4.9369,"1075": 4.6488,"1100": 5.2453,"1125": 5.9035,"1150": 5.7183,"1175": 5.1628,"1200": 5.3068,"1225": 4.8131,"1250": 4.3607,"1275": 4.2166,"1300": 4.7719,"1325": 4.5043,"1350": 3.764,"1375": 3.8256,"1400": 2.6739,"1425": 2.3654,"1450": 2.5505,"1475": 2.1597,"1500": 1.8101,"1525": 1.4193,"1550": 0.9051,"1575": 1.0491,"1600": 0.8639,"1625": 0.8845,"1650": 1.0285,"1675": 0.5348,"1700": 0.4114,"1725": 0.3703,"1750": 0.3086,"1775": 0.2057,"1800": 0.3908,"1825": 0.2263,"1850": 0.1646,"1875": 0.1851,"1900": 0.144,"1925": 0.144,"1950": 0.1234,"1975": 0.0617,"2000": 0.0411}}}