{"type":"Feature","properties":{"GID_2":"HND.16.17_1","GID_0":"HND","country":"Honduras","GID_1":"HND.16_1","province":"SantaBárbara","NL_NAME_1":"NA","county":"Protección","VARNAME_2":"NA","NL_NAME_2":"NA","TYPE_2":"Municipio","ENGTYPE_2":"Municipality","CC_2":"NA","HASC_2":"HN.SB.PR","name":"Protección.county"},
"geometry":{"type": "MultiPolygon","coordinates": [[[[-88.6704,15.0185,1191.3073],[-88.6731,14.9987,1297.0925],[-88.6508,14.9985,983.84],[-88.6073,14.9815,351.666],[-88.5742,15.0077,834.4575],[-88.5624,15.0112,827.568],[-88.5398,15.0311,1389.7389],[-88.5578,15.0501,1216.1431],[-88.5586,15.0654,1369.3848],[-88.5695,15.0721,973.5638],[-88.5772,15.0794,622.6432],[-88.58,15.0943,494.8534],[-88.5744,15.1289,493.386],[-88.6259,15.1504,1096.6658],[-88.6532,15.136,515.8588],[-88.6577,15.1228,583.2334],[-88.6567,15.1146,708.0694],[-88.6584,15.1029,993.0788],[-88.6388,15.0839,842.9697],[-88.6365,15.0727,955.3528],[-88.6306,15.0648,919.5641],[-88.6307,15.0619,848.416],[-88.6347,15.0543,752.1396],[-88.6413,15.0518,960.2592],[-88.6499,15.0513,985.0001],[-88.6625,15.0403,1103.1948],[-88.6691,15.0319,1166.366],[-88.6704,15.0185,1191.3073]]]]}}