{"type":"Feature","properties":{"GID_2":"HND.5.15_1","GID_0":"HND","country":"Honduras","GID_1":"HND.5_1","province":"Copán","NL_NAME_1":"NA","county":"SanJerónimo","VARNAME_2":"NA","NL_NAME_2":"NA","TYPE_2":"Municipio","ENGTYPE_2":"Municipality","CC_2":"NA","HASC_2":"HN.CM.SJ","name":"San_Jerónimo.county"},
"geometry":{"type": "MultiPolygon","coordinates": [[[[-88.893,14.8972,1232.4678],[-88.888,14.9149,1103.9514],[-88.8808,14.9185,1080.5427],[-88.8761,14.9314,977.3116],[-88.8655,14.9407,886.5662],[-88.8623,14.9418,815.7738],[-88.8598,14.9373,888.7959],[-88.8523,14.9377,846.1292],[-88.8451,14.9446,877.269],[-88.8381,14.9444,758.4531],[-88.8386,14.948,802.0584],[-88.8373,14.9496,877.9485],[-88.8323,14.9464,995.458],[-88.8303,14.9474,908.3452],[-88.8264,14.9465,1034.4963],[-88.824,14.9548,769.2521],[-88.8153,14.9574,918.3546],[-88.8128,14.9646,856.4801],[-88.8181,14.9659,742.8201],[-88.8242,14.9714,664.1306],[-88.8242,14.9734,648.1176],[-88.8259,14.97,638.3101],[-88.8297,14.9677,711.8302],[-88.8476,14.9677,774.3181],[-88.8682,14.9722,951.4228],[-88.8785,14.9717,962.5344],[-88.9225,14.9903,1062.1924],[-88.925,14.9858,1111.2462],[-88.9294,14.9853,1121.4568],[-88.9337,14.9755,1175.6328],[-88.9566,14.9512,1140.7756],[-88.9605,14.945,1017.0095],[-88.9396,14.935,1059.1353],[-88.9404,14.9287,935.6793],[-88.9385,14.9245,995.3865],[-88.9389,14.9192,1154.6927],[-88.9326,14.9178,1022.0809],[-88.9298,14.9185,1019.4385],[-88.928,14.9214,1021.326],[-88.9243,14.9215,1057.405],[-88.9114,14.9194,1049.291],[-88.908,14.9146,1047.7037],[-88.9093,14.9052,1123.1599],[-88.9074,14.902,1147.2877],[-88.893,14.8972,1232.4678]]]]}}