{"type": "Feature","bbox": [-88.5404,14.5231,-88.3189,14.7985],"geometry": {"type": "MultiPolygon","coordinates": [[[[-88.342,14.6374,2068.7632],[-88.385,14.6447,1624.1617],[-88.4059,14.6569,1490.8163],[-88.4078,14.6819,1487.2576],[-88.4045,14.6854,1385.4595],[-88.4024,14.6916,1401.3904],[-88.3983,14.6939,1231.3344],[-88.4052,14.6969,1331.614],[-88.4121,14.7038,1211.4147],[-88.4393,14.7099,1166.759],[-88.4423,14.7162,977.1926],[-88.442,14.7263,938.2711],[-88.4466,14.7318,820.9598],[-88.4414,14.7344,905.5219],[-88.4403,14.7373,994.8324],[-88.4374,14.7366,965.8496],[-88.4358,14.7404,921.9206],[-88.4324,14.7405,969.9579],[-88.4205,14.7496,929.9167],[-88.4246,14.75,910.3121],[-88.4309,14.7473,849.504],[-88.4363,14.7481,876.1332],[-88.44,14.7502,830.9837],[-88.4436,14.7584,759.6166],[-88.4504,14.7613,780.5906],[-88.4565,14.761,916.2239],[-88.4622,14.7793,1263.5142],[-88.4794,14.789,1410.4993],[-88.4807,14.7946,1318.8162],[-88.482,14.794,1286.1029],[-88.4843,14.7968,1256.6614],[-88.4872,14.795,1404.821],[-88.492,14.7953,1251.9003],[-88.4994,14.7985,1268.2667],[-88.5084,14.7942,1421.9875],[-88.5074,14.784,1449.2457],[-88.5088,14.7827,1465.0145],[-88.5119,14.784,1456.9835],[-88.5142,14.7826,1491.9598],[-88.5404,14.7289,1773.6157],[-88.4894,14.7308,1340.1934],[-88.4896,14.6988,1401.2477],[-88.52,14.6906,932.0144],[-88.5349,14.6697,882.4987],[-88.5196,14.6314,761.6046],[-88.5222,14.628,889.6623],[-88.523,14.6227,895.3007],[-88.521,14.6218,888.074],[-88.5191,14.6129,974.4014],[-88.516,14.6107,980.2562],[-88.5136,14.6039,1033.5654],[-88.5212,14.6004,1023.8138],[-88.5316,14.5822,799.5815],[-88.5291,14.5765,878.4595],[-88.5293,14.5732,928.4553],[-88.5228,14.5696,823.886],[-88.5201,14.5656,874.0258],[-88.5154,14.5643,870.9663],[-88.5158,14.558,842.1302],[-88.519,14.5564,867.9012],[-88.5188,14.5545,889.3705],[-88.5154,14.556,854.9479],[-88.5068,14.5521,809.5674],[-88.5062,14.5497,809.6409],[-88.4719,14.5443,1088.6575],[-88.465,14.5438,1022.0132],[-88.4628,14.5479,1076.6108],[-88.4566,14.5483,1076.8186],[-88.4555,14.5466,1085.9008],[-88.4518,14.5462,1084.4252],[-88.4506,14.5418,1116.4805],[-88.4464,14.5402,1047.0258],[-88.4466,14.5378,1072.3088],[-88.4389,14.537,1110.9775],[-88.4353,14.5271,1175.0256],[-88.4293,14.5244,1311.6515],[-88.4124,14.5231,1791.6418],[-88.3978,14.5297,2141.8545],[-88.4008,14.569,1152.7777],[-88.3937,14.578,1305.0228],[-88.3854,14.5758,1447.3882],[-88.3839,14.5727,1497.9131],[-88.3801,14.5713,1461.3162],[-88.3583,14.5752,1399.7712],[-88.3513,14.573,1555.7236],[-88.3372,14.5643,1696.8838],[-88.3189,14.5559,1579.4696],[-88.3217,14.5872,1802.3215],[-88.3249,14.6044,1917.7286],[-88.342,14.6374,2068.7632]]]]}
,"properties": {"GID_2": "HND.13.9_1","GID_0": "HND","country": "Honduras","GID_1": "HND.13_1","province": "Lempira","NL_NAME_1": "NA","county": "LaIguala","VARNAME_2": "NA","NL_NAME_2": "NA","TYPE_2": "Municipio","ENGTYPE_2": "Municipality","CC_2": "NA","HASC_2": "HN.LE.LI","name": "La_Iguala.county","area_km2": 370.1479,"hist_schema_id": "Elevation0-9000","hist_area_km2": {"725": 0.4306,"750": 1.579,"775": 2.5637,"800": 3.1998,"825": 5.2308,"850": 7.4262,"875": 9.2316,"900": 10.7086,"925": 10.4213,"950": 9.6012,"975": 10.6682,"1000": 11.6323,"1025": 12.2477,"1050": 11.9399,"1075": 11.1601,"1100": 10.4008,"1125": 10.0518,"1150": 10.4207,"1175": 9.8669,"1200": 10.6874,"1225": 10.482,"1250": 11.7742,"1275": 11.5075,"1300": 11.8766,"1325": 9.9485,"1350": 10.7071,"1375": 9.3531,"1400": 10.3586,"1425": 10.3794,"1450": 9.2098,"1475": 9.5793,"1500": 7.836,"1525": 6.8517,"1550": 8.1236,"1575": 7.5493,"1600": 6.4417,"1625": 6.1342,"1650": 5.6004,"1675": 4.2258,"1700": 4.1845,"1725": 4.041,"1750": 3.1178,"1775": 2.8718,"1800": 2.4822,"1825": 2.072,"1850": 1.7437,"1875": 1.5388,"1900": 1.1694,"1925": 1.3131,"1950": 1.3951,"1975": 1.272,"2000": 1.272,"2025": 1.3745,"2050": 1.1489,"2075": 0.8616,"2100": 0.6155,"2125": 0.1847,"2150": 0.041,"2200": 0.0205,"2225": 0.0205}}}