{"type": "Feature","bbox": [-88.1585,14.6294,-87.9892,14.8063],"geometry": {"type": "MultiPolygon","coordinates": [[[[-88.0218,14.7519,1050.0786],[-87.9972,14.7752,1038.0447],[-87.9892,14.7851,698.9485],[-87.996,14.7968,634.0],[-87.9976,14.8057,634.0],[-88.0444,14.8028,793.4647],[-88.0723,14.7988,841.1957],[-88.0803,14.8002,930.3862],[-88.1172,14.7981,424.5715],[-88.1226,14.8018,419.8907],[-88.1227,14.8063,504.8897],[-88.1235,14.8055,504.8897],[-88.1253,14.7879,390.1428],[-88.1275,14.7807,381.2344],[-88.1315,14.7776,369.0246],[-88.1309,14.7618,439.229],[-88.1346,14.7578,442.4694],[-88.1449,14.7551,278.2648],[-88.1478,14.7524,256.1498],[-88.1552,14.7514,398.4005],[-88.1585,14.7491,349.3852],[-88.1564,14.7444,369.9017],[-88.1502,14.7394,308.4921],[-88.1422,14.7378,340.539],[-88.1395,14.7351,314.7889],[-88.1387,14.7328,286.2569],[-88.1418,14.7307,265.0782],[-88.142,14.7283,279.5549],[-88.139,14.724,283.7298],[-88.1384,14.7196,308.2965],[-88.1319,14.7137,320.502],[-88.131,14.7104,350.3129],[-88.1331,14.7049,412.2994],[-88.1394,14.7029,478.3511],[-88.14,14.7011,528.3286],[-88.14,14.6976,556.2397],[-88.1381,14.6953,569.5637],[-88.1389,14.6892,568.2071],[-88.1434,14.6794,786.6257],[-88.1532,14.6441,882.0132],[-88.0935,14.6294,814.1061],[-88.0824,14.6447,814.3697],[-88.0763,14.6455,653.0251],[-88.0705,14.6486,546.9874],[-88.0689,14.6518,482.4414],[-88.0501,14.6668,1042.1016],[-88.0526,14.6723,937.0468],[-88.0684,14.6942,690.3202],[-88.0797,14.6964,468.7823],[-88.0799,14.7029,438.1068],[-88.0422,14.7437,897.6237],[-88.0218,14.7519,1050.0786]]]]}
,"properties": {"GID_2": "HND.16.24_1","GID_0": "HND","country": "Honduras","GID_1": "HND.16_1","province": "SantaBárbara","NL_NAME_1": "NA","county": "SanPedroZacapa","VARNAME_2": "NA","NL_NAME_2": "NA","TYPE_2": "Municipio","ENGTYPE_2": "Municipality","CC_2": "NA","HASC_2": "HN.SB.SP","name": "San_Pedro_Zacapa.county","area_km2": 190.2909,"hist_schema_id": "Elevation0-9000","hist_area_km2": {"250": 0.2665,"275": 2.1736,"300": 4.7575,"325": 7.2796,"350": 7.9358,"375": 9.7811,"400": 11.6262,"425": 9.8219,"450": 7.792,"475": 6.7874,"500": 5.8235,"525": 4.819,"550": 4.327,"575": 4.3887,"600": 4.4501,"625": 6.8895,"650": 10.9286,"675": 11.0523,"700": 8.3868,"725": 7.1976,"750": 7.977,"775": 7.3209,"800": 6.767,"825": 5.2085,"850": 4.9827,"875": 4.06,"900": 3.1783,"925": 2.7476,"950": 2.9937,"975": 2.317,"1000": 1.9889,"1025": 1.2507,"1050": 1.0046,"1075": 0.8201,"1100": 0.5331,"1125": 0.328,"1150": 0.1845,"1175": 0.1435}}}