{"type":"Feature","properties":{"GID_2":"HND.15.16_1","GID_0":"HND","country":"Honduras","GID_1":"HND.15_1","province":"Olancho","NL_NAME_1":"NA","county":"Patuca","VARNAME_2":"NA","NL_NAME_2":"NA","TYPE_2":"Municipio","ENGTYPE_2":"Municipality","CC_2":"NA","HASC_2":"HN.OL.PA","name":"Patuca.county"},
"geometry":{"type": "MultiPolygon","coordinates": [[[[-86.0688,14.2469,596.5406],[-86.0685,14.2487,506.3493],[-86.0708,14.2515,554.0544],[-86.0701,14.2615,568.3241],[-86.0689,14.2644,596.7844],[-86.0616,14.2697,665.5541],[-86.0529,14.2689,653.2115],[-86.051,14.2655,675.8345],[-86.0404,14.2643,724.4196],[-86.0362,14.2618,801.5433],[-86.0308,14.2626,841.2056],[-86.0268,14.2563,983.8051],[-86.0181,14.2342,1061.8088],[-86.0041,14.2161,854.7673],[-86.0006,14.2086,884.7173],[-85.9998,14.1931,979.7464],[-85.9931,14.1818,1129.5851],[-85.9884,14.1763,1044.5245],[-85.9832,14.1739,863.3528],[-85.9561,14.1667,904.2509],[-85.9491,14.167,964.7072],[-85.9317,14.1454,969.3798],[-85.9266,14.1335,1035.9561],[-85.9217,14.131,979.7937],[-85.9157,14.1469,1020.1033],[-85.9089,14.1591,872.0526],[-85.8922,14.184,665.9459],[-85.8868,14.1867,587.5778],[-85.8782,14.1844,576.1548],[-85.8778,14.1892,465.3726],[-85.8738,14.1948,451.5305],[-85.8605,14.1997,436.3427],[-85.859,14.1983,467.1206],[-85.8543,14.204,444.0636],[-85.8489,14.2062,431.1157],[-85.8461,14.2118,409.3396],[-85.8381,14.2126,400.6238],[-85.8267,14.2209,366.5424],[-85.8209,14.2295,382.8498],[-85.8197,14.2366,338.4413],[-85.8208,14.245,389.4776],[-85.8202,14.248,348.0091],[-85.8168,14.2508,331.5822],[-85.8216,14.2662,309.9116],[-85.8196,14.2748,333.7389],[-85.8255,14.2848,299.7497],[-85.8252,14.2911,291.6323],[-85.8176,14.3149,286.5811],[-85.8126,14.3166,280.5005],[-85.804,14.325,244.9855],[-85.8063,14.3392,239.6974],[-85.8139,14.3487,281.3997],[-85.8225,14.3554,273.1018],[-85.8346,14.3586,328.1166],[-85.8414,14.3557,279.0348],[-85.8561,14.3624,254.9113],[-85.8568,14.3682,225.0163],[-85.8603,14.3759,229.9925],[-85.8704,14.383,236.6341],[-85.8748,14.3952,240.9231],[-85.8886,14.4045,253.4452],[-85.8925,14.406,277.7841],[-85.9321,14.4087,265.7133],[-85.9386,14.4186,312.0199],[-85.9496,14.4275,285.0313],[-85.9531,14.4388,274.5956],[-85.9565,14.4428,258.8952],[-85.9614,14.4431,445.0799],[-85.9731,14.4379,434.5412],[-85.9794,14.4372,315.658],[-85.989,14.4398,275.0601],[-85.9975,14.4468,263.5399],[-85.9996,14.451599999999999,259.6173],[-85.9983,14.4568,263.4956],[-85.9882,14.4647,262.5842],[-85.9763,14.4801,300.4361],[-85.975,14.4835,292.2866],[-85.9776,14.4872,273.0797],[-85.9772,14.4892,279.0037],[-85.9671,14.494,307.7769],[-85.9654,14.4976,283.254],[-85.9606,14.5173,282.8138],[-85.9702,14.5226,332.1867],[-85.9728,14.5231,348.2932],[-85.98,14.5205,354.3924],[-85.987799999999993,14.5244,371.8365],[-86.0415,14.4743,374.9075],[-86.0633,14.4266,318.5961],[-86.0678,14.4197,323.2385],[-86.0798,14.4099,341.7298],[-86.1117,14.3556,443.5709],[-86.1097,14.3369,367.548],[-86.1532,14.2867,405.984],[-86.1438,14.2654,381.9871],[-86.0724,14.2467,553.1458],[-86.0688,14.2469,596.5406]]]]}}