{"type":"Feature","properties":{"GID_2":"HND.8.21_1","GID_0":"HND","country":"Honduras","GID_1":"HND.8_1","province":"FranciscoMorazán","NL_NAME_1":"NA","county":"SanMiguelito","VARNAME_2":"NA","NL_NAME_2":"NA","TYPE_2":"Municipio","ENGTYPE_2":"Municipality","CC_2":"NA","HASC_2":"HN.FM.SM","name":"San_Miguelito.county"},
"geometry":{"type": "MultiPolygon","coordinates": [[[[-87.4594,13.7535,752.41],[-87.5304,13.7932,938.5374],[-87.5294,13.7645,352.1566],[-87.5321,13.7492,309.9702],[-87.5249,13.7417,241.5286],[-87.5189,13.7395,306.2367],[-87.5178,13.7355,250.6692],[-87.5187,13.7298,268.8737],[-87.5129,13.7256,276.4194],[-87.5062,13.7233,224.0429],[-87.4942,13.7248,204.5321],[-87.485,13.7187,278.3318],[-87.4744,13.7153,441.1193],[-87.4682,13.7155,462.268],[-87.4617,13.7076,729.649],[-87.4625,13.7153,645.1121],[-87.4558,13.7219,836.8829],[-87.4571,13.7268,766.2059],[-87.4534,13.7318,808.8494],[-87.4586,13.7402,761.2994],[-87.4594,13.7535,752.41]]]]}}