{"type":"Feature","properties":{"GID_2":"HND.6.2_1","GID_0":"HND","country":"Honduras","GID_1":"HND.6_1","province":"Cortés","NL_NAME_1":"NA","county":"LaLima","VARNAME_2":"NA","NL_NAME_2":"NA","TYPE_2":"Municipio","ENGTYPE_2":"Municipality","CC_2":"NA","HASC_2":"HN.CR.LL","name":"La_Lima.county"},
"geometry":{"type": "MultiPolygon","coordinates": [[[[-87.859,15.5375,14.6104],[-87.8562,15.5323,16.922],[-87.8567,15.5279,17.2672],[-87.8596,15.5269,18.358],[-87.8577,15.5214,16.1871],[-87.8593,15.5178,17.0771],[-87.8781,15.509,19.4192],[-87.8804,15.5042,20.3164],[-87.8875,15.5039,21.5072],[-87.8887,15.5025,21.453],[-87.8887,15.4962,21.7494],[-87.8938,15.4848,24.1113],[-87.9025,15.4765,33.6479],[-87.9114,15.4719,22.5951],[-87.906,15.4592,27.2117],[-87.9113,15.4479,24.0343],[-87.916,15.4484,25.4462],[-87.9331,15.4304,30.9343],[-87.9386,15.4301,28.6719],[-87.9393,15.4337,27.2383],[-87.9429,15.4323,26.6668],[-87.9463,15.44,31.2301],[-87.9391,15.4428,27.5802],[-87.9464,15.4482,27.0397],[-87.9496,15.4484,27.5623],[-87.9518,15.4442,28.4877],[-87.9554,15.444,29.6033],[-87.9563,15.4414,29.8605],[-87.959,15.4398,30.6632],[-87.9613,15.418,30.143],[-87.9577,15.4144,30.2191],[-87.9616,15.4123,30.8954],[-87.9572,15.4103,29.1961],[-87.9542,15.413,30.0138],[-87.9513,15.4132,29.3899],[-87.9495,15.3981,209.5047],[-87.9375,15.4008,30.9711],[-87.9315,15.407,29.1948],[-87.9263,15.408,29.0252],[-87.9216,15.4123,29.0256],[-87.9151,15.4133,28.4973],[-87.9083,15.4108,28.366],[-87.9009,15.4107,27.772],[-87.8952,15.4178,23.9974],[-87.8905,15.4162,24.507],[-87.8874,15.411,27.4644],[-87.8854,15.4107,27.8358],[-87.8832,15.4222,23.3867],[-87.8804,15.4216,24.4007],[-87.8763,15.4152,25.8806],[-87.8732,15.4153,25.94],[-87.8674,15.4267,23.1187],[-87.861,15.4296,23.7155],[-87.8609,15.4337,24.5895],[-87.8665,15.4356,23.6536],[-87.8687,15.4407,24.5959],[-87.8669,15.4438,21.678],[-87.8618,15.4456,24.0191],[-87.8402,15.4467,25.3235],[-87.8376,15.4423,24.7809],[-87.8369,15.4335,24.4712],[-87.8347,15.4277,24.1303],[-87.8285,15.4268,23.349],[-87.8254,15.4297,23.0491],[-87.822,15.4373,24.3592],[-87.8153,15.4452,21.8234],[-87.8142,15.4539,23.3366],[-87.8187,15.4609,22.3488],[-87.8316,15.4638,22.8432],[-87.8335,15.4664,22.5249],[-87.8295,15.4762,18.5],[-87.8293,15.4816,19.2979],[-87.84,15.4871,20.5303],[-87.8422,15.4917,19.8939],[-87.8411,15.4964,20.6925],[-87.8345,15.5026,25.8283],[-87.8336,15.5057,26.8088],[-87.8342,15.5111,25.6549],[-87.8384,15.518,17.7643],[-87.8363,15.52,19.9823],[-87.8313,15.5207,23.3289],[-87.8283,15.5194,19.7327],[-87.8202,15.5108,19.3012],[-87.8158,15.5103,16.3027],[-87.813,15.5129,16.1673],[-87.8134,15.5197,19.2493],[-87.822,15.5278,25.117],[-87.8233,15.5399,19.039],[-87.8211,15.545,19.2771],[-87.8122,15.5468,16.898],[-87.807,15.5519,16.1371],[-87.8067,15.5568,17.6989],[-87.8137,15.5675,16.2561],[-87.8134,15.5715,15.4996],[-87.8113,15.5744,18.5433],[-87.8072,15.5753,18.1697],[-87.8005,15.5731,17.7716],[-87.7939,15.5685,15.6389],[-87.7883,15.56,17.4444],[-87.7841,15.5608,20.6589],[-87.7816,15.5632,17.9596],[-87.7808,15.5674,16.6016],[-87.7922,15.5833,19.4725],[-87.7953,15.596,15.6718],[-87.8201,15.5824,14.9543],[-87.8255,15.5814,15.8589],[-87.8346,15.573,15.1145],[-87.8412,15.5721,14.8691],[-87.8421,15.5702,15.0759],[-87.8461,15.5698,14.2667],[-87.8463,15.5678,14.5943],[-87.8583,15.5651,14.3238],[-87.8578,15.5574,15.0131],[-87.8524,15.5515,14.5736],[-87.8555,15.5434,15.2474],[-87.8547,15.5393,15.0274],[-87.859,15.5375,14.6104]]]]}}