{"type":"Feature","properties":{"GID_2":"HND.5.10_1","GID_0":"HND","country":"Honduras","GID_1":"HND.5_1","province":"Copán","NL_NAME_1":"NA","county":"LaJigua","VARNAME_2":"NA","NL_NAME_2":"NA","TYPE_2":"Municipio","ENGTYPE_2":"Municipality","CC_2":"NA","HASC_2":"HN.CP.LJ","name":"La_Jigua.county"},
"geometry":{"type": "MultiPolygon","coordinates": [[[[-88.8099,15.0072,680.2027],[-88.7754,15.0144,621.5519],[-88.7673,15.056,531.5414],[-88.7631,15.0565,489.2215],[-88.763,15.0614,451.3481],[-88.7593,15.0623,471.7605],[-88.7591,15.0645,470.3276],[-88.7619,15.065,445.0634],[-88.757,15.0667,466.7264],[-88.7584,15.0714,450.8033],[-88.7546,15.0704,458.3849],[-88.752,15.0723,457.7841],[-88.7495,15.0778,449.0241],[-88.7474,15.0785,447.1077],[-88.7493,15.0822,438.0835],[-88.7445,15.0816,442.6525],[-88.734,15.084,435.317],[-88.7316,15.0802,446.1354],[-88.7286,15.0829,435.7848],[-88.7265,15.0828,435.5688],[-88.7273,15.0844,435.0848],[-88.7315,15.0856,436.1509],[-88.7312,15.087,436.1509],[-88.7276,15.0895,434.7402],[-88.7246,15.0884,430.1765],[-88.725,15.0907,426.1596],[-88.7229,15.0916,428.0072],[-88.7225,15.0942,421.4216],[-88.7189,15.0917,424.9604],[-88.7181,15.0927,422.524],[-88.7199,15.0951,420.8242],[-88.7157,15.0942,421.8804],[-88.7151,15.0963,421.1071],[-88.717,15.0997,419.1007],[-88.7144,15.0984,420.084],[-88.7103,15.1018,415.5188],[-88.7107,15.1094,411.9504],[-88.7029,15.1171,550.1835],[-88.7004,15.1312,670.9686],[-88.7038,15.1401,545.8418],[-88.7041,15.1599,766.4514],[-88.7102,15.1584,756.4204],[-88.7151,15.1622,921.5102],[-88.7253,15.1651,1006.3494],[-88.732,15.1699,981.3732],[-88.7385,15.172,965.4995],[-88.7436,15.178,945.2264],[-88.7462,15.1871,922.5356],[-88.7483,15.189,915.9672],[-88.7611,15.19,502.6363],[-88.7642,15.1859,491.744],[-88.7641,15.1846,491.6154],[-88.76,15.1824,516.3815],[-88.7599,15.1804,520.9597],[-88.7624,15.1763,524.4996],[-88.765,15.1754,510.7132],[-88.766,15.1702,503.5221],[-88.7691,15.1675,496.7914],[-88.7706,15.1589,487.0362],[-88.7686,15.153,547.8222],[-88.7739,15.1488,511.908],[-88.7724,15.1432,575.3771],[-88.7743,15.1425,548.465],[-88.7752,15.1392,645.4628],[-88.7783,15.1378,584.313],[-88.7793,15.1274,591.2573],[-88.7813,15.1266,495.3856],[-88.7801,15.1232,529.4157],[-88.7826,15.1208,471.1289],[-88.7853,15.1135,453.1256],[-88.7852,15.1088,453.3909],[-88.7917,15.0955,451.956],[-88.7911,15.087,441.2945],[-88.7863,15.0794,462.5761],[-88.7885,15.079,470.9579],[-88.7875,15.0753,451.5663],[-88.7924,15.0696,479.0752],[-88.7975,15.0687,463.9575],[-88.7984,15.0654,464.3406],[-88.8041,15.0655,457.7722],[-88.8038,15.0617,464.3885],[-88.8069,15.0622,461.7184],[-88.8064,15.0584,468.0607],[-88.8175,15.0566,460.3981],[-88.8173,15.0552,460.6961],[-88.8151,15.0551,460.5635],[-88.8164,15.0517,465.4511],[-88.8127,15.051,470.9344],[-88.8153,15.0502,467.0099],[-88.8141,15.0473,473.7625],[-88.8169,15.0476,471.3867],[-88.8163,15.0456,469.3176],[-88.819,15.0409,480.2453],[-88.8159,15.0353,639.637],[-88.8198,15.0333,547.7675],[-88.8235,15.0353,488.2807],[-88.8216,15.0129,589.6726],[-88.8099,15.0072,680.2027]]]]}}