{"type":"Feature","properties":{"GID_2":"HND.15.4_1","GID_0":"HND","country":"Honduras","GID_1":"HND.15_1","province":"Olancho","NL_NAME_1":"NA","county":"DulceNombredeCulmí","VARNAME_2":"NA","NL_NAME_2":"NA","TYPE_2":"Municipio","ENGTYPE_2":"Municipality","CC_2":"NA","HASC_2":"HN.OL.DN","name":"Dulce_Nombrede_Culmí.county"},
"geometry":{"type": "MultiPolygon","coordinates": [[[[-85.4704,15.431,1138.3618],[-85.473,15.3013,781.1175],[-85.4962,15.2753,855.9788],[-85.5028,15.2643,900.9171],[-85.6119,15.186,1146.9592],[-85.616,15.1635,1027.0485],[-85.6178,15.1357,920.9787],[-85.6161,15.1308,838.737],[-85.6164,15.1209,757.1061],[-85.6177,15.1179,788.3008],[-85.6911,15.0717,923.406],[-85.6634,15.052,1046.5249],[-85.6085,15.0175,575.8236],[-85.5554,14.9963,525.4278],[-85.5229,14.9813,591.2211],[-85.4861,14.919,827.191],[-85.4786,14.9122,794.144],[-85.4713,14.9099,653.7296],[-85.4655,14.9046,652.3667],[-85.4559,14.8991,533.6841],[-85.4552,14.8894,628.8066],[-85.4512,14.8915,519.8472],[-85.4497,14.8888,581.4663],[-85.4346,14.883,384.9456],[-85.4344,14.8783,470.52],[-85.4274,14.8744,414.0152],[-85.4268,14.8668,401.1742],[-85.4245,14.864,405.9384],[-85.4179,14.8638,386.6635],[-85.4154,14.8616,448.1652],[-85.4052,14.8589,305.9761],[-85.4019,14.8603,304.1295],[-85.4004,14.8676,334.2839],[-85.3938,14.863,277.8963],[-85.3914,14.8652,282.4534],[-85.3894,14.8648,259.5643],[-85.3852,14.8572,280.2414],[-85.3801,14.8595,256.753],[-85.3785,14.8569,284.5779],[-85.374,14.857,272.4143],[-85.3709,14.8591,276.4179],[-85.3732,14.8647,248.9307],[-85.3659,14.8673,328.6034],[-85.3664,14.8687,328.6034],[-85.3633,14.8703,384.8849],[-85.3629,14.8739,314.802],[-85.3611,14.8745,286.9153],[-85.3582,14.8802,240.5787],[-85.3548,14.8824,301.6507],[-85.3475,14.8806,256.2332],[-85.3438,14.8812,227.4323],[-85.3361,14.8782,250.5634],[-85.3332,14.8795,189.7442],[-85.328,14.8775,190.5069],[-85.3143,14.8881,245.506],[-85.3102,14.8871,310.227],[-85.3056,14.8894,326.2907],[-85.3026,14.8945,224.0611],[-85.2939,14.889,226.2271],[-85.2834,14.8916,277.5513],[-85.283,14.8934,277.3419],[-85.2813,14.8926,228.4285],[-85.2807,14.8898,238.3831],[-85.2733,14.8889,150.0752],[-85.272,14.8878,167.9775],[-85.273,14.8835,183.8636],[-85.2719,14.8818,208.3959],[-85.2677,14.883,165.2099],[-85.2674,14.8807,188.6112],[-85.2602,14.8773,146.9732],[-85.2552,14.8701,241.3138],[-85.2448,14.8685,277.1235],[-85.2422,14.8723,178.1964],[-85.2369,14.8685,218.9331],[-85.2307,14.8706,147.139],[-85.2311,14.866,148.2732],[-85.2285,14.8627,152.1949],[-85.2232,14.8617,165.6261],[-85.2114,14.854,120.3823],[-85.2052,14.8538,176.8183],[-85.2039,14.8523,174.719],[-85.2067,14.848,124.3887],[-85.2051,14.8444,181.7636],[-85.2014,14.8423,185.393],[-85.2003,14.8435,185.393],[-85.1953,14.8434,152.5421],[-85.1877,14.8338,107.7642],[-85.1863,14.829,154.3671],[-85.1795,14.8289,175.7867],[-85.1762,14.8313,149.596],[-85.1738,14.8297,185.614],[-85.1725,14.8312,231.1046],[-85.1766,14.8387,110.3936],[-85.1769,14.8405,129.8672],[-85.175299999999993,14.8406,129.8672],[-85.1783,14.8505,174.2365],[-85.1747,14.8605,165.6031],[-85.168,14.865,103.6921],[-85.1608,14.8625,115.0216],[-85.1601,14.8598,97.519],[-85.162,14.8537,142.337],[-85.1603,14.8508,145.4888],[-85.157,14.8513,144.5667],[-85.1535,14.8602,183.7195],[-85.148,14.8628,169.7601],[-85.147,14.8655,164.3877],[-85.1455,14.863,197.7841],[-85.1408,14.8658,185.2409],[-85.1333,14.8665,89.5378],[-85.1323,14.8607,96.5006],[-85.1283,14.8549,105.1583],[-85.1217,14.8539,87.2357],[-85.1184,14.8513,99.9731],[-85.1157,14.8574,102.038],[-85.1058,14.852,98.1654],[-85.1028,14.8572,137.6859],[-85.1017,14.8507,138.907],[-85.1055,14.8448,142.6131],[-85.1103,14.8431,152.3285],[-85.1135,14.8377,106.6566],[-85.124,14.8387,116.2977],[-85.1275,14.8348,126.1269],[-85.132,14.8099,121.98779999999999],[-85.144,14.7797,136.4874],[-85.1434,14.7766,141.3003],[-85.1377,14.7705,173.5539],[-85.1386,14.7627,159.0814],[-85.1439,14.7619,128.0004],[-85.146,14.7589,156.9078],[-85.1537,14.7574,164.3365],[-85.1573,14.7549,122.3697],[-85.1455,14.7415,153.3004],[-85.0513,14.6616,106.7646],[-85.05,14.6654,127.3652],[-85.0433,14.6702,124.7207],[-85.0319,14.6691,136.0429],[-85.0233,14.6844,117.0567],[-85.0242,14.6869,125.0394],[-85.0287,14.6888,120.7064],[-85.0298,14.6925,118.1783],[-85.0281,14.698,97.1908],[-85.0174,14.7069,173.5319],[-85.0117,14.7141,106.0127],[-84.9959,14.7247,116.1136],[-84.997,14.9059,156.9389],[-84.994,15.0612,163.946],[-85.0944,15.1731,318.088],[-85.2315,15.2062,877.4501],[-85.3166,15.3129,595.8499],[-85.3729,15.3959,265.9766],[-85.4704,15.431,1138.3618]]]]}}