{"type":"Feature","properties":{"featurecla":"River","scalerank":11,"rivernum":22184,"dissolve":"22184River","name":"null15","name_alt":null,"note":"ID is link back to CEC data","name_full":null,"min_zoom":6.7,"strokeweig":0.15,"uident":2172401,"min_label":7.7},
"geometry":{"type": "LineString","coordinates": [[-87.285755988666224,14.606512762494035,931.9382],[-87.2867732412704,14.565212306764877,879.5221],[-87.2740779287704,14.526638088014877,917.6403],[-87.207264777728724,14.466091213014877,791.0411],[-87.067250129291224,14.420274155723206,783.5535],[-86.987416144916224,14.339911199994035,1030.7249]]}}