{"type":"Feature","properties":{"GID_2":"HND.4.16_1","GID_0":"HND","country":"Honduras","GID_1":"HND.4_1","province":"Comayagua","NL_NAME_1":"NA","county":"SanJosédelPotrero","VARNAME_2":"NA","NL_NAME_2":"NA","TYPE_2":"Municipio","ENGTYPE_2":"Municipality","CC_2":"NA","HASC_2":"HN.CM.SP","name":"San_Josédel_Potrero.county"},
"geometry":{"type": "MultiPolygon","coordinates": [[[[-87.2713,14.7482,590.6509],[-87.2713,14.7559,630.5291],[-87.2749,14.7588,681.1117],[-87.2728,14.764,672.7258],[-87.2725,14.7763,716.9432],[-87.277,14.7845,811.0063],[-87.2812,14.7879,869.6922],[-87.2828,14.798,756.8303],[-87.2883,14.8009,907.9675],[-87.2857,14.8141,756.1967],[-87.2842,14.8174,770.0537],[-87.2789,14.8197,769.5599],[-87.2789,14.8252,750.6701],[-87.2755,14.8296,810.4474],[-87.2685,14.8349,745.0141],[-87.2586,14.8353,571.6556],[-87.2502,14.8332,733.6595],[-87.2418,14.8344,608.4537],[-87.236,14.8379,600.9368],[-87.2337,14.8474,556.896],[-87.2344,14.8504,595.496],[-87.2411,14.8594,715.7786],[-87.2459,14.8586,753.3113],[-87.2475,14.8602,789.7184],[-87.246,14.8647,704.5453],[-87.2406,14.8678,675.9104],[-87.2412,14.8732,763.7795],[-87.2556,14.8758,833.9138],[-87.2681,14.8845,805.8986],[-87.2778,14.8865,673.8636],[-87.2805,14.8904,685.772],[-87.2899,14.8948,764.7623],[-87.2983,14.9068,675.9628],[-87.2987,14.9103,567.5809],[-87.3021,14.9122,479.4944],[-87.3127,14.911,643.0775],[-87.3185,14.9004,995.718],[-87.3229,14.8984,1009.738],[-87.3271,14.9047,841.5023],[-87.3313,14.9067,780.2535],[-87.3371,14.916,729.7333],[-87.3429,14.912,799.6007],[-87.3473,14.9149,823.03],[-87.3569,14.9129,835.7599],[-87.3689,14.9151,768.1229],[-87.3799,14.9208,393.7086],[-87.3802,14.9237,395.7338],[-87.3819,14.9248,376.22],[-87.388,14.922,343.2999],[-87.3988,14.9215,330.55],[-87.412,14.9076,323.5785],[-87.4213,14.9011,363.4004],[-87.4246,14.8944,420.4555],[-87.4182,14.8955,356.4905],[-87.4172,14.894,384.415],[-87.4113,14.8933,357.9157],[-87.4061,14.8858,462.8986],[-87.4083,14.8786,475.1705],[-87.4045,14.8711,446.6218],[-87.4019,14.8698,459.7091],[-87.4024,14.8659,474.0681],[-87.3924,14.8609,490.8804],[-87.3925,14.8594,523.861],[-87.3898,14.8579,598.6198],[-87.3891,14.8541,593.3026],[-87.3335,14.7925,917.6822],[-87.3091,14.7518,726.2538],[-87.3101,14.7485,665.8553],[-87.3053,14.7484,688.7521],[-87.3026,14.7448,615.7261],[-87.2979,14.7449,612.3684],[-87.2905,14.7422,641.1942],[-87.2873,14.744,639.0461],[-87.2828,14.7439,639.2461],[-87.2846,14.7474,622.8374],[-87.2736,14.7469,591.9194],[-87.2713,14.7482,590.6509]]]]}}