{"type":"Feature","properties":{"GID_2":"HND.18.8_1","GID_0":"HND","country":"Honduras","GID_1":"HND.18_1","province":"Yoro","NL_NAME_1":"NA","county":"Sulaco","VARNAME_2":"NA","NL_NAME_2":"NA","TYPE_2":"Municipio","ENGTYPE_2":"Municipality","CC_2":"NA","HASC_2":"HN.YO.SU","name":"Sulaco.county"},
"geometry":{"type": "MultiPolygon","coordinates": [[[[-87.2406,14.8678,675.9104],[-87.2347,14.8619,714.6486],[-87.2288,14.863,643.3759],[-87.2256,14.8618,633.1575],[-87.2242,14.8632,629.3008],[-87.2249,14.8688,571.467],[-87.2212,14.8711,471.8139],[-87.2195,14.8757,436.6971],[-87.225,14.8846,462.251],[-87.2223,14.8922,428.873],[-87.2356,14.8937,422.0516],[-87.2395,14.8963,421.538],[-87.2403,14.9018,431.4908],[-87.2359,14.9052,454.967],[-87.236,14.9086,477.1644],[-87.2379,14.912,453.256],[-87.246,14.9178,478.8112],[-87.247,14.9235,475.735],[-87.2437,14.9314,488.3181],[-87.2412,14.9341,500.5156],[-87.2363,14.9352,508.8902],[-87.2269,14.9477,610.2982],[-87.218,14.95,770.9607],[-87.2125,14.9556,937.2852],[-87.214,14.9752,948.2535],[-87.2119,14.9842,902.3098],[-87.2145,14.991,1158.8076],[-87.2134,14.9979,1187.6967],[-87.2216,15.0026,1165.3357],[-87.2343,15.0013,1047.5818],[-87.2538,15.0038,747.6306],[-87.2725,15.0107,611.4694],[-87.283,15.007,760.6146],[-87.294,15.01,896.6949],[-87.2962,15.0044,881.6807],[-87.3026,14.9997,729.5151],[-87.3075,15.006,851.799],[-87.3148,15.008,1032.6311],[-87.3197,15.0067,1023.5137],[-87.3267,15.0083,1020.0387],[-87.3333,15.0063,999.2164],[-87.3381,15.009,1171.1519],[-87.3398,15.0076,1127.0847],[-87.3551,15.0068,1390.4303],[-87.3557,15.0194,1431.1531],[-87.3588,15.0222,1453.7859],[-87.3639,15.0224,1411.772],[-87.3662,15.0248,1381.9897],[-87.3669,15.0435,1510.2372],[-87.3852,15.0402,1117.068],[-87.3909,15.0333,1077.4375],[-87.4002,15.0314,961.7756],[-87.4098,15.0223,870.9353],[-87.4195,14.9922,585.056],[-87.3749,14.955,819.8854],[-87.3764,14.9528,807.5798],[-87.3919,14.946,398.1026],[-87.3892,14.9404,389.1713],[-87.3828,14.9367,381.8067],[-87.3826,14.9265,376.5525],[-87.387,14.9224,349.9122],[-87.3819,14.9248,376.22],[-87.3802,14.9237,395.7338],[-87.3799,14.9208,393.7086],[-87.3689,14.9151,768.1229],[-87.3569,14.9129,835.7599],[-87.3473,14.9149,823.03],[-87.3429,14.912,799.6007],[-87.3371,14.916,729.7333],[-87.3313,14.9067,780.2535],[-87.3271,14.9047,841.5023],[-87.3229,14.8984,1009.738],[-87.3185,14.9004,995.718],[-87.3127,14.911,643.0775],[-87.3021,14.9122,479.4944],[-87.2987,14.9103,567.5809],[-87.2983,14.9068,675.9628],[-87.2873,14.8927,756.2827],[-87.2805,14.8904,685.772],[-87.2771,14.8862,673.8636],[-87.2664,14.8836,835.8872],[-87.2569,14.8764,833.9138],[-87.2421,14.8738,779.8212],[-87.2404,14.8717,700.5621],[-87.2406,14.8678,675.9104]]]]}}