{"type": "Feature","bbox": [-88.8235,14.0791,-88.7506,14.1821],"geometry": {"type": "MultiPolygon","coordinates": [[[[-88.7614,14.0849,554.7635],[-88.7564,14.0986,504.4957],[-88.7528,14.1011,505.8679],[-88.7506,14.1064,453.0247],[-88.7555,14.1819,827.9807],[-88.7578,14.1821,808.2271],[-88.758,14.1742,744.1357],[-88.7603,14.1723,828.4401],[-88.7728,14.1757,763.433],[-88.7768,14.1649,673.8539],[-88.779,14.168,492.2543],[-88.7867,14.1682,608.0884],[-88.787,14.1706,658.7538],[-88.7901,14.172,679.2454],[-88.7961,14.1686,763.7476],[-88.8019,14.1676,873.3866],[-88.8046,14.165,806.3488],[-88.8096,14.1651,844.0513],[-88.8154,14.1596,1077.5632],[-88.8206,14.1687,1071.0867],[-88.8167,14.1782,869.5443],[-88.8235,14.1784,956.3441],[-88.8229,14.1546,787.7716],[-88.814,14.1325,748.9968],[-88.804,14.1371,665.785],[-88.7934,14.1332,648.1779],[-88.7901,14.1338,718.783],[-88.7865,14.137,657.3613],[-88.7849,14.1354,719.5616],[-88.7863,14.1323,757.657],[-88.7845,14.1179,376.7486],[-88.7945,14.1086,366.6087],[-88.7908,14.0949,359.3067],[-88.7906,14.0791,581.4742],[-88.7614,14.0849,554.7635]]]]}
,"properties": {"GID_2": "HND.13.18_1","GID_0": "HND","country": "Honduras","GID_1": "HND.13_1","province": "Lempira","NL_NAME_1": "NA","county": "SanJuanGuarita","VARNAME_2": "NA","NL_NAME_2": "NA","TYPE_2": "Municipio","ENGTYPE_2": "Municipality","CC_2": "NA","HASC_2": "HN.LE.SJ","name": "San_Juan_Guarita.county","area_km2": 50.51688,"hist_schema_id": "Elevation0-9000","hist_area_km2": {"275": 0.3907,"300": 1.1104,"325": 2.81709,"350": 3.1461,"375": 2.65255,"400": 2.32353,"425": 2.11783,"450": 1.95339,"475": 1.72717,"500": 2.11782,"525": 1.60375,"550": 1.62428,"575": 1.68598,"600": 1.89146,"625": 1.8298,"650": 1.64473,"675": 1.31577,"700": 1.66527,"725": 1.31576,"750": 1.17182,"775": 1.13073,"800": 1.31575,"825": 1.50078,"850": 0.92514,"875": 1.27463,"900": 1.08962,"925": 0.86347,"950": 1.21297,"975": 1.23353,"1000": 1.06907,"1025": 0.90458,"1050": 0.86347,"1075": 0.63732,"1100": 0.3495,"1125": 0.04112}}}