{"type": "Feature","bbox": [-86.2878,15.3698,-86.0315,15.5972],"geometry": {"type": "MultiPolygon","coordinates": [[[[-86.2846,15.5396,82.3457],[-86.2799,15.5406,78.4552],[-86.2767,15.5365,78.2912],[-86.2701,15.5364,72.9452],[-86.2693,15.5316,71.3599],[-86.267,15.5292,70.0832],[-86.2625,15.5275,69.8526],[-86.2603,15.5246,68.7147],[-86.2597,15.5281,69.8483],[-86.2577,15.5287,69.3827],[-86.2502,15.5219,65.8781],[-86.2472,15.5233,63.1147],[-86.2497,15.5312,67.4649],[-86.2277,15.5328,61.8278],[-86.2341,15.5299,64.7959],[-86.2359,15.5265,66.6135],[-86.2291,15.514,83.3372],[-86.2278,15.5086,90.0876],[-86.2241,15.5051,98.2816],[-86.2242,15.5007,104.0494],[-86.229,15.4902,120.1215],[-86.2265,15.4817,216.487],[-86.2315,15.4773,200.3855],[-86.2264,15.4648,546.4079],[-86.2286,15.4624,439.4089],[-86.2345,15.4616,477.6183],[-86.2393,15.4536,431.605],[-86.2301,15.4423,892.0783],[-86.2309,15.4126,1374.1893],[-86.1886,15.3891,1144.6665],[-86.1647,15.3732,1388.3965],[-86.1544,15.3727,1361.6449],[-86.1487,15.3699,1435.4166],[-86.1443,15.3698,1489.3853],[-86.1364,15.3751,1632.0001],[-86.1243,15.3744,1467.1785],[-86.1121,15.3801,1343.6699],[-86.1069,15.3868,1287.0253],[-86.1009,15.3913,1358.4519],[-86.0972,15.3912,1353.9885],[-86.0892,15.3864,1316.9916],[-86.0878,15.3956,1415.3098],[-86.0849,15.3986,1438.0549],[-86.0744,15.3977,1393.1747],[-86.0665,15.395,1509.9399],[-86.0627,15.3972,1472.2841],[-86.0566,15.3967,1583.9941],[-86.0462,15.3932,1604.6781],[-86.0396,15.3842,1690.7311],[-86.0315,15.3862,1619.3032],[-86.0411,15.4012,1258.0977],[-86.0434,15.408,1160.295],[-86.0491,15.4135,1082.2854],[-86.0553,15.4256,959.2169],[-86.0561,15.4298,923.4649],[-86.0536,15.4339,940.6371],[-86.0577,15.4408,863.0319],[-86.0551,15.4488,865.9667],[-86.0557,15.451,893.9464],[-86.1042,15.4934,648.7501],[-86.1187,15.5086,322.0998],[-86.1219,15.5216,693.3253],[-86.1232,15.539,318.5839],[-86.1269,15.5517,121.7711],[-86.13,15.5564,91.4203],[-86.1275,15.5645,67.3709],[-86.1281,15.571,61.4934],[-86.1301,15.5748,63.6788],[-86.1364,15.5785,60.0097],[-86.1384,15.5829,51.9552],[-86.1381,15.5887,49.927],[-86.1406,15.591,46.462],[-86.1512,15.588,49.2897],[-86.157,15.5948,51.9247],[-86.1632,15.588,52.4344],[-86.167,15.587,53.1835],[-86.1698,15.5897,54.7251],[-86.1778,15.5894,54.0303],[-86.1831,15.5956,54.2122],[-86.1841,15.5947,54.2633],[-86.1845,15.596,54.0232],[-86.1877,15.5956,54.6957],[-86.1895,15.5972,55.4523],[-86.2073,15.592,56.6687],[-86.2108,15.5837,59.1741],[-86.2133,15.5815,59.7747],[-86.2198,15.5885,63.7358],[-86.2225,15.5888,62.515],[-86.2285,15.583,60.5609],[-86.2367,15.5806,67.02],[-86.243,15.5756,64.9888],[-86.2474,15.5752,69.0794],[-86.2525,15.5786,69.4627],[-86.2603,15.58,72.8412],[-86.2646,15.5797,76.6864],[-86.2675,15.5769,75.853],[-86.2737,15.578,105.0493],[-86.2807,15.5756,91.4433],[-86.2873,15.5782,156.8287],[-86.2878,15.5758,118.549],[-86.285,15.5736,82.0184],[-86.2846,15.5396,82.3457]]]]}
,"properties": {"GID_2": "HND.3.5_1","GID_0": "HND","country": "Honduras","GID_1": "HND.3_1","province": "Colón","NL_NAME_1": "NA","county": "Sabá","VARNAME_2": "NA","NL_NAME_2": "NA","TYPE_2": "Municipio","ENGTYPE_2": "Municipality","CC_2": "NA","HASC_2": "HN.CL.SA","name": "Sabá.county","area_km2": 365.1167,"hist_schema_id": "Elevation0-9000","hist_area_km2": {"50": 34.6799,"75": 55.6199,"100": 14.9942,"125": 8.2123,"150": 4.188,"175": 2.5333,"200": 2.3699,"225": 2.1042,"250": 2.0634,"275": 1.7979,"300": 2.1861,"325": 2.3496,"350": 2.4926,"375": 2.3701,"400": 2.697,"425": 2.6766,"450": 2.8605,"475": 3.0444,"500": 3.0035,"525": 3.0036,"550": 2.9423,"575": 3.3715,"600": 3.4941,"625": 3.7393,"650": 3.8415,"675": 4.3728,"700": 5.2924,"725": 5.4971,"750": 5.8444,"775": 6.7641,"800": 6.1103,"825": 6.5804,"850": 6.8869,"875": 6.8666,"900": 6.1308,"925": 6.417,"950": 6.887,"975": 6.0287,"1000": 6.4784,"1025": 6.3354,"1050": 6.2945,"1075": 6.4581,"1100": 6.1516,"1125": 5.7225,"1150": 5.3547,"1175": 5.2935,"1200": 6.7245,"1225": 6.7655,"1250": 6.275,"1275": 6.7043,"1300": 6.9497,"1325": 6.6841,"1350": 7.1134,"1375": 5.4781,"1400": 3.6793,"1425": 2.6981,"1450": 1.8601,"1475": 1.1856,"1500": 0.879,"1525": 0.4702,"1550": 0.4702,"1575": 0.2862,"1600": 0.2249,"1625": 0.1227,"1650": 0.0818,"1675": 0.0409,"1700": 0.0204}}}