{"type":"Feature","properties":{"GID_2":"HND.13.20_1","GID_0":"HND","country":"Honduras","GID_1":"HND.13_1","province":"Lempira","NL_NAME_1":"NA","county":"SanMarcosdeCaiquín","VARNAME_2":"NA","NL_NAME_2":"NA","TYPE_2":"Municipio","ENGTYPE_2":"Municipality","CC_2":"NA","HASC_2":"HN.LE.SM","name":"San_Marcosde_Caiquín.county"},
"geometry":{"type": "MultiPolygon","coordinates": [[[[-88.6065,14.4318,1314.7736],[-88.6271,14.4011,1326.3925],[-88.6199,14.3963,1233.6182],[-88.6195,14.3886,1185.4343],[-88.6144,14.3844,1116.516],[-88.6147,14.3809,1115.9745],[-88.6185,14.3771,1151.8083],[-88.6131,14.367,937.2063],[-88.615,14.3624,916.5604],[-88.6384,14.3625,1009.044],[-88.639,14.3579,948.7125],[-88.6487,14.3576,1136.2584],[-88.6607,14.3626,1359.6381],[-88.6854,14.3532,1141.9597],[-88.6831,14.3503,1178.3866],[-88.6785,14.3485,1004.3165],[-88.6721,14.3404,947.147],[-88.6655,14.3261,845.8555],[-88.6615,14.3259,837.4013],[-88.6485,14.3301,962.9597],[-88.6441,14.327,753.3179],[-88.64,14.3276,879.2565],[-88.6397,14.3249,935.2552],[-88.6381,14.3241,1031.0242],[-88.6386,14.3211,909.8625],[-88.6345,14.3241,1050.4473],[-88.6329,14.3294,966.8923],[-88.6205,14.332,892.642],[-88.6153,14.3312,932.1734],[-88.6034,14.3376,986.9141],[-88.599,14.3354,1080.3308],[-88.5944,14.339,1033.7059],[-88.5891,14.3396,1022.3408],[-88.5806,14.3449,999.1765],[-88.5712,14.3462,1297.5134],[-88.5648,14.3503,1357.5923],[-88.5575,14.3479,1413.8916],[-88.5576,14.3518,1535.0925],[-88.5419,14.3691,1741.7134],[-88.5389,14.3702,1684.9595],[-88.5308,14.3685,1642.2371],[-88.5285,14.3704,1699.6959],[-88.5297,14.385,1809.7324],[-88.5516,14.3986,1777.7563],[-88.5582,14.4004,1815.5591],[-88.5763,14.4155,1534.5209],[-88.5873,14.42,1522.8495],[-88.5995,14.4292,1339.9529],[-88.6065,14.4318,1314.7736]]]]}}