{"type":"Feature","properties":{"GID_2":"HND.18.4_1","GID_0":"HND","country":"Honduras","GID_1":"HND.18_1","province":"Yoro","NL_NAME_1":"NA","county":"Jocón","VARNAME_2":"NA","NL_NAME_2":"NA","TYPE_2":"Municipio","ENGTYPE_2":"Municipality","CC_2":"NA","HASC_2":"HN.YO.JO","name":"Jocón.county"},
"geometry":{"type": "MultiPolygon","coordinates": [[[[-86.8439,15.2748,733.5668],[-86.8541,15.2783,936.027],[-86.8588,15.286,1059.8137],[-86.8817,15.2956,771.0342],[-86.8824,15.2977,832.4548],[-86.8881,15.3015,1024.3079],[-86.8901,15.3071,1064.2596],[-86.9016,15.317,775.499],[-86.9034,15.3203,860.9438],[-86.9128,15.3232,914.1452],[-86.92,15.3279,926.4757],[-86.9429,15.3473,904.8486],[-86.944,15.3517,801.8998],[-86.9544,15.358,818.8683],[-86.9615,15.3758,424.3884],[-86.9742,15.3743,442.0587],[-86.9779,15.3758,439.2369],[-86.9931,15.3739,264.1874],[-87.0106,15.3828,382.0532],[-87.0199,15.3829,438.8158],[-87.0201,15.3879,424.5487],[-87.0219,15.3895,384.1352],[-87.0276,15.3871,332.6663],[-87.0319,15.3727,296.3136],[-87.0399,15.373,307.7095],[-87.0395,15.3601,650.7896],[-87.0469,15.3613,752.1777],[-87.0511,15.3566,880.8688],[-87.0563,15.3568,1019.775],[-87.0586,15.3624,710.3518],[-87.0623,15.359,812.9472],[-87.0648,15.3589,755.0862],[-87.0687,15.3649,609.7715],[-87.0715,15.3619,536.9891],[-87.0774,15.3621,471.9046],[-87.0812,15.3693,499.3898],[-87.0887,15.3658,590.0826],[-87.0937,15.3679,657.402],[-87.0967,15.3653,811.5514],[-87.1032,15.3678,957.8708],[-87.1044,15.3636,1135.9993],[-87.1086,15.361,1187.2788],[-87.1102,15.3568,1034.2849],[-87.1153,15.3527,956.4778],[-87.1205,15.3513,859.7507],[-87.1166,15.3427,724.2081],[-87.1186,15.333,563.933],[-87.1173,15.3294,507.0468],[-87.1191,15.3285,451.2438],[-87.1199,15.3254,464.0924],[-87.1239,15.3248,572.2599],[-87.1315,15.3188,755.6263],[-87.1232,15.3048,987.7091],[-87.1147,15.3027,1035.0824],[-87.1146,15.2957,998.9393],[-87.1125,15.2916,987.9595],[-87.1057,15.2881,1008.1882],[-87.0984,15.2872,919.5455],[-87.0433,15.2465,880.5627],[-87.025,15.2419,835.0959],[-87.0181,15.2354,1039.3953],[-87.0191,15.23,883.5485],[-87.0137,15.2286,1060.2819],[-87.0093,15.2239,1227.7386],[-86.9983,15.2228,1316.1188],[-86.9922,15.22,1174.52],[-86.9892,15.2173,1217.5669],[-86.9872,15.2107,1376.9048],[-86.979,15.2049,1405.9338],[-86.9734,15.1967,1134.9067],[-86.9292,15.2015,1758.3406],[-86.8955,15.1697,1415.1987],[-86.8914,15.1727,1417.6272],[-86.884,15.1748,1451.4746],[-86.889,15.1855,1405.3779],[-86.8911,15.2074,1275.0262],[-86.8949,15.2225,1207.3728],[-86.8933,15.2314,1043.53],[-86.8902,15.2356,937.1711],[-86.8912,15.2393,884.4863],[-86.8827,15.248,791.6761],[-86.8736,15.2483,712.6542],[-86.8708,15.253,632.0453],[-86.8614,15.2586,408.097],[-86.8456,15.2623,380.2824],[-86.8439,15.2748,733.5668]]]]}}