{"type":"Feature","properties":{"GID_2":"HND.8.10_1","GID_0":"HND","country":"Honduras","GID_1":"HND.8_1","province":"FranciscoMorazán","NL_NAME_1":"NA","county":"Maraita","VARNAME_2":"NA","NL_NAME_2":"NA","TYPE_2":"Municipio","ENGTYPE_2":"Municipality","CC_2":"NA","HASC_2":"HN.FM.MT","name":"Maraita.county"},
"geometry":{"type": "MultiPolygon","coordinates": [[[[-86.9942,13.9484,828.478],[-86.9952,13.9478,828.478],[-87.0093,13.958,910.462],[-87.0096,13.9631,797.7632],[-87.0077,13.9688,775.7197],[-87.0177,13.9758,887.0983],[-87.0224,13.9494,1044.5223],[-87.0202,13.9453,1088.5815],[-87.0456,13.9354,927.5143],[-87.0549,13.9286,811.5543],[-87.0561,13.9286,797.0757],[-87.056,13.9333,814.8688],[-87.0609,13.9366,850.7026],[-87.0629,13.9443,899.3324],[-87.0932,13.9459,1531.5569],[-87.1413,13.8623,940.4419],[-87.1519,13.8631,1247.8071],[-87.1598,13.8398,854.0018],[-87.1451,13.839,648.0004],[-87.1318,13.8294,558.8939],[-87.1316,13.8252,551.7959],[-87.1186,13.8025,610.5643],[-87.1152,13.8025,670.6913],[-87.1125,13.7993,694.9109],[-87.1073,13.797,593.9391],[-87.0891,13.7833,800.9222],[-87.083,13.7705,734.2504],[-87.069,13.7697,854.0928],[-87.0667,13.7676,840.5419],[-87.0627,13.7681,820.5201],[-87.0522,13.7649,892.6425],[-87.0382,13.7658,995.9661],[-87.0297,13.7686,1171.4446],[-87.0186,13.7797,1468.3428],[-87.0035,13.8092,1405.5377],[-86.9989,13.8127,1361.7883],[-86.9934,13.839,1410.3022],[-86.9965,13.8422,1374.0615],[-86.9985,13.852,1375.7174],[-86.9907,13.8778,1267.9309],[-86.9942,13.8917,1262.6562],[-87.0011,13.9015,1319.2119],[-86.9993,13.9093,1010.7029],[-86.9942,13.9135,985.3881],[-86.9936,13.9168,986.8109],[-86.9908,13.9181,991.8964],[-86.9911,13.9204,913.3586],[-86.9872,13.9211,931.5695],[-86.9855,13.9245,872.7853],[-86.9891,13.9293,849.1564],[-86.9942,13.9484,828.478]]]]}}