{"type":"Feature","properties":{"GID_2":"HND.12.10_1","GID_0":"HND","country":"Honduras","GID_1":"HND.12_1","province":"LaPaz","NL_NAME_1":"NA","county":"Opatoro","VARNAME_2":"NA","NL_NAME_2":"NA","TYPE_2":"Municipio","ENGTYPE_2":"Municipality","CC_2":"NA","HASC_2":"HN.LP.OP","name":"Opatoro.county"},
"geometry":{"type": "MultiPolygon","coordinates": [[[[-87.7957,13.8859,545.2756],[-87.7927,13.8887,485.5281],[-87.7926,13.8918,620.6777],[-87.796,13.9065,856.6682],[-87.7975,13.9075,989.9786],[-87.7963,13.913,966.7121],[-87.802,13.9211,1023.7986],[-87.7975,13.9227,1071.7683],[-87.7977,13.9246,1091.7743],[-87.7943,13.9272,1099.2275],[-87.7957,13.9394,888.4023],[-87.7938,13.9489,944.2334],[-87.7966,13.9532,826.4714],[-87.7982,13.9614,761.8809],[-87.8022,13.9626,812.8127],[-87.8047,13.9666,911.4397],[-87.8087,13.966,879.9843],[-87.8152,13.9733,944.4926],[-87.8157,13.9783,898.1552],[-87.8185,13.9803,962.0948],[-87.8223,13.9908,922.053],[-87.8252,13.9938,807.6068],[-87.8249,13.9985,781.8036],[-87.8279,14.0027,883.162],[-87.8335,14.0179,841.8769],[-87.8518,14.0229,1113.5496],[-87.8618,14.0323,1021.6535],[-87.859,14.0461,1068.8723],[-87.8597,14.0504,1174.463],[-87.857,14.0531,1178.2057],[-87.8572,14.0571,1343.1968],[-87.8544,14.0621,1410.3597],[-87.8547,14.0671,1378.2651],[-87.8522,14.0687,1398.4852],[-87.8496,14.0756,1418.0472],[-87.8534,14.0837,1348.8634],[-87.8506,14.0964,1669.0265],[-87.8511,14.1038,1739.9015],[-87.8558,14.1142,1738.2057],[-87.8626,14.1127,2098.5781],[-87.864,14.1141,2102.0627],[-87.8694,14.1141,2120.9868],[-87.8706,14.13,2101.416],[-87.8694,14.1359,2119.0078],[-87.8721,14.142,2102.0122],[-87.8799,14.1466,2039.5269],[-87.8811,14.1489,1927.8569],[-87.8761,14.1653,1830.0905],[-87.8798,14.1665,1827.9203],[-87.8825,14.1645,1820.9751],[-87.891,14.1653,1730.7487],[-87.9002,14.1708,1701.6093],[-87.9053,14.1658,1673.2227],[-87.9103,14.165,1687.5421],[-87.9177,14.1602,1690.0411],[-87.9199,14.1532,1679.6321],[-87.9304,14.1474,1691.7607],[-87.931,14.1418,1714.9968],[-87.9377,14.1299,1692.0054],[-87.9393,14.1198,1706.8872],[-87.941,14.1165,1731.1838],[-87.9446,14.1143,1713.0502],[-87.9469,14.1079,1706.9155],[-87.9464,14.0989,1719.9021],[-87.9424,14.0977,1720.7771],[-87.9408,14.09,1771.7087],[-87.9383,14.09,1821.9886],[-87.9245,14.0711,1638.4656],[-87.9208,14.0702,1579.2246],[-87.9203,14.0662,1569.7246],[-87.9165,14.0596,1447.2438],[-87.911,14.0573,1370.7611],[-87.9065,14.0529,1374.1422],[-87.9101,14.0499,1381.8489],[-87.908,14.0433,1313.7576],[-87.9113,14.0399,1300.9066],[-87.9126,14.0356,1338.542],[-87.9037,14.0255,1355.2544],[-87.9096,14.011,1427.2321],[-87.9232,13.9977,1342.2495],[-87.9113,13.9879,1484.7587],[-87.9068,13.9875,1409.5933],[-87.9007,13.9833,1557.7119],[-87.8934,13.983,1580.4863],[-87.8934,13.9771,1602.8676],[-87.8794,13.9656,1598.9735],[-87.8745,13.9545,1395.5166],[-87.9034,13.9384,1074.1453],[-87.894,13.9225,832.335],[-87.8926,13.9141,807.9625],[-87.8799,13.9105,814.8644],[-87.8745,13.9124,878.9636],[-87.8695,13.9086,822.0016],[-87.8746,13.9008,848.0511],[-87.8735,13.8963,748.8085],[-87.8749,13.8937,814.8226],[-87.8737,13.8929,815.3356],[-87.8674,13.8931,795.2436],[-87.8615,13.8902,842.4718],[-87.85,13.8908,861.5539],[-87.8295,13.8839,871.7369],[-87.8199,13.8834,909.0164],[-87.7999,13.8892,736.8228],[-87.7957,13.8859,545.2756]]]]}}