{"type":"Feature","properties":{"GID_2":"HND.8.2_1","GID_0":"HND","country":"Honduras","GID_1":"HND.8_1","province":"FranciscoMorazán","NL_NAME_1":"NA","county":"Cedros","VARNAME_2":"NA","NL_NAME_2":"NA","TYPE_2":"Municipio","ENGTYPE_2":"Municipality","CC_2":"NA","HASC_2":"HN.FM.CE","name":"Cedros.county"},
"geometry":{"type": "MultiPolygon","coordinates": [[[[-87.4054,14.3706,1588.0282],[-87.4094,14.361,1484.5538],[-87.3962,14.3591,1578.734],[-87.3872,14.3623,1697.0253],[-87.3389,14.3454,1981.9867],[-87.3313,14.3522,1979.2188],[-87.3074,14.3472,1543.917],[-87.2901,14.352,1478.9902],[-87.2729,14.3512,1385.9172],[-87.2488,14.3643,1041.7943],[-87.2497,14.3813,851.9055],[-87.2409,14.3864,1127.2151],[-87.2301,14.4235,797.8184],[-87.2249,14.4248,824.0219],[-87.2243,14.4296,844.2173],[-87.2179,14.4369,843.4712],[-87.2151,14.4375,807.6041],[-87.1845,14.4639,756.0171],[-87.1632,14.4677,746.0472],[-87.1622,14.465,751.191],[-87.1595,14.4668,744.3694],[-87.1529,14.4651,756.0532],[-87.1498,14.4663,749.5205],[-87.1443,14.4653,749.8499],[-87.1418,14.4667,751.606],[-87.131,14.464,748.0443],[-87.1226,14.4587,754.7814],[-87.1054,14.4576,758.4316],[-87.097,14.4642,754.3361],[-87.0867,14.4636,756.5554],[-87.0872,14.4614,756.2375],[-87.0861,14.461,756.4969],[-87.0643,14.4616,774.4132],[-87.0577,14.4637,782.5307],[-87.051,14.4683,783.1565],[-87.044,14.468,799.2129],[-87.0389,14.4709,851.2933],[-87.0347,14.47,910.0544],[-87.0364,14.5338,1001.4984],[-87.0387,14.5411,987.8996],[-87.0434,14.5482,905.5231],[-87.0466,14.5489,939.2907],[-87.0519,14.5597,1000.9374],[-87.0498,14.5619,951.514],[-87.049,14.5713,1031.0001],[-87.046,14.5736,978.533],[-87.0454,14.58,981.5197],[-87.0427,14.5809,1007.8249],[-87.0445,14.5848,991.9511],[-87.0431,14.5911,998.7617],[-87.0449,14.5955,1037.3197],[-87.0481,14.598,1039.6119],[-87.0501,14.6097,956.5984],[-87.0491,14.6108,921.2459],[-87.056,14.6138,833.8539],[-87.0592,14.6228,799.2224],[-87.0583,14.6266,756.4039],[-87.0697,14.6349,701.6136],[-87.0689,14.6372,677.1695],[-87.0726,14.6418,658.0858],[-87.0797,14.6425,641.6913],[-87.0839,14.6393,666.4778],[-87.0882,14.6395,686.3372],[-87.0933,14.645,680.0174],[-87.1044,14.6487,641.2826],[-87.1062,14.6544,618.4078],[-87.109,14.6542,617.3043],[-87.1122,14.6502,609.7344],[-87.1157,14.65,620.087],[-87.1195,14.6522,616.0829],[-87.1206,14.6574,600.2011],[-87.125,14.6552,603.2435],[-87.1268,14.6589,601.4789],[-87.1294,14.6585,606.0271],[-87.1333,14.653,604.4799],[-87.1374,14.6576,609.5315],[-87.1439,14.6584,605.0803],[-87.147,14.657,598.5939],[-87.1512,14.659,594.4534],[-87.1544,14.6635,587.7186],[-87.1589,14.6653,584.1366],[-87.1554,14.6713,595.7968],[-87.1602,14.672,578.8512],[-87.1607,14.6747,577.59],[-87.1646,14.6713,596.2689],[-87.1665,14.6713,592.6986],[-87.167,14.6749,585.5732],[-87.1699,14.681,579.6237],[-87.1729,14.6824,582.7975],[-87.1727,14.6845,583.7961],[-87.1773,14.6835,587.9356],[-87.1774,14.6874,579.5183],[-87.1839,14.6873,593.056],[-87.1808,14.6912,594.4829],[-87.1812,14.694,595.5403],[-87.1835,14.6938,613.2716],[-87.1899,14.6875,619.6066],[-87.1924,14.6876,620.1045],[-87.1915,14.6838,653.8597],[-87.1961,14.681,628.7413],[-87.1992,14.6768,641.2226],[-87.2058,14.6796,643.6055],[-87.2062,14.6818,643.0227],[-87.2127,14.6788,649.0857],[-87.2153,14.6723,664.7622],[-87.2292,14.6653,755.6852],[-87.2314,14.662,754.7462],[-87.2318,14.6602,759.85],[-87.229,14.6569,768.6884],[-87.2307,14.6561,768.6884],[-87.2299,14.6536,783.8683],[-87.2317,14.6507,795.5675],[-87.2304,14.6483,821.3237],[-87.2276,14.6485,819.1783],[-87.2252,14.6414,876.9094],[-87.2291,14.6372,943.333],[-87.2304,14.6288,929.743],[-87.2379,14.6253,984.0028],[-87.2342,14.6232,948.3013],[-87.2392,14.6232,1038.0038],[-87.2433,14.6157,1090.6074],[-87.243,14.6116,1095.0857],[-87.2406,14.6124,1108.2266],[-87.2411,14.6109,1096.1815],[-87.2396,14.6113,1096.1815],[-87.2395,14.6097,1055.0052],[-87.2369,14.6085,1026.7894],[-87.2402,14.6065,983.0652],[-87.241,14.6024,1033.1294],[-87.2441,14.5982,1032.6875],[-87.2434,14.5955,1059.1631],[-87.2449,14.5954,1074.0101],[-87.2425,14.5933,1132.3899],[-87.2454,14.578,1273.7119],[-87.2539,14.5713,1274.4438],[-87.2542,14.5527,1157.3154],[-87.2969,14.5569,744.8217],[-87.2994,14.5594,762.9946],[-87.3148,14.554,644.6821],[-87.3177,14.5597,636.0231],[-87.3212,14.5604,623.6967],[-87.3303,14.5594,603.2078],[-87.3377,14.5558,605.0563],[-87.3448,14.5558,728.0432],[-87.3431,14.5489,623.4865],[-87.34,14.546,635.8089],[-87.3397,14.5404,664.8528],[-87.3423,14.5332,662.6639],[-87.3463,14.5333,746.3724],[-87.348,14.5305,766.3322],[-87.334,14.5273,680.7902],[-87.3335,14.5237,806.7021],[-87.3303,14.5211,896.3052],[-87.3325,14.5176,865.1646],[-87.3309,14.514,825.9824],[-87.3268,14.5104,805.113],[-87.3191,14.5076,768.8417],[-87.3177,14.5045,755.3463],[-87.3191,14.5017,758.7895],[-87.3109,14.4975,791.6518],[-87.3106,14.4941,784.9805],[-87.3196,14.4906,762.8202],[-87.3239,14.4846,848.2735],[-87.3318,14.4806,821.0802],[-87.3309,14.4782,843.2284],[-87.3399,14.4672,824.2275],[-87.3463,14.4665,858.7014],[-87.3471,14.4637,947.8854],[-87.3514,14.462,1007.0681],[-87.358,14.4606,1020.0095],[-87.3602,14.4625,1023.2026],[-87.3619,14.4594,1139.696],[-87.3654,14.4615,1119.2766],[-87.3718,14.4544,1337.1805],[-87.3696,14.4527,1389.8551],[-87.3712,14.4519,1364.2306],[-87.3714,14.4492,1308.5813],[-87.3755,14.4479,1263.8655],[-87.377,14.443,1303.3779],[-87.3812,14.4421,1366.3125],[-87.382,14.4402,1391.65],[-87.3863,14.4382,1436.9684],[-87.3924,14.4381,1661.3108],[-87.3934,14.4412,1595.9719],[-87.3996,14.4394,1507.5896],[-87.4017,14.4423,1443.2883],[-87.409,14.4411,1549.8337],[-87.4095,14.4438,1425.2046],[-87.4153,14.4428,1385.8016],[-87.4204,14.4396,1455.9456],[-87.4177,14.4397,1453.0159],[-87.4168,14.437,1587.4119],[-87.4183,14.4322,1585.8494],[-87.4173,14.4207,1772.6306],[-87.4218,14.4161,1678.6671],[-87.4313,14.4139,1707.6266],[-87.4338,14.4116,1741.6672],[-87.4201,14.4073,1672.2262],[-87.4104,14.4068,1721.2168],[-87.4063,14.3937,1721.0131],[-87.3991,14.3909,1678.7834],[-87.3992,14.3859,1559.5146],[-87.4054,14.3706,1588.0282]]]]}}