{"type": "Feature","bbox": [-87.8087,15.5038,-87.3826,15.9276],"geometry": {"type": "MultiPolygon","coordinates": [[[[-87.3826,15.8287,8.4544],[-87.3851,15.8296,1.2781],[-87.3938,15.819,0.0],[-87.4007,15.8157,0.0],[-87.4212,15.8138,0.0],[-87.4313,15.8146,3.9249],[-87.431,15.806,0.0],[-87.4399,15.7968,3.4956],[-87.444,15.789,1.4666],[-87.4593,15.781,1.6111],[-87.4715,15.7804,3.483],[-87.4871,15.7821,0.6555],[-87.5013,15.7868,2.1865],[-87.504,15.7863,2.6411],[-87.5163,15.7926,0.0],[-87.5199,15.7929,1.508],[-87.5218,15.7904,3.2904],[-87.5212,15.7876,1.427],[-87.5124,15.7796,5.295],[-87.5088,15.7788,3.8027],[-87.5124,15.7779,1.0052],[-87.5238,15.7876,6.5176],[-87.5243,15.7904,3.2246],[-87.521,15.7932,1.2166],[-87.5218,15.7946,0.0],[-87.5329,15.7996,0.4122],[-87.5496,15.8107,0.0],[-87.5879,15.8429,0.5574],[-87.5882,15.8418,0.0],[-87.5804,15.836,0.6641],[-87.5785,15.8315,1.6144],[-87.5738,15.829,2.5517],[-87.5701,15.8243,3.056],[-87.5651,15.8221,2.7004],[-87.5626,15.8162,6.1838],[-87.5668,15.8174,11.5548],[-87.5726,15.8229,0.0],[-87.576,15.8221,2.8512],[-87.5818,15.8243,3.4973],[-87.581,15.8287,7.1307],[-87.5896,15.8393,4.9306],[-87.5871,15.8407,0.0],[-87.5888,15.8413,0.0],[-87.589,15.8426,0.0],[-87.5926,15.8426,0.0],[-87.5899,15.8443,0.0],[-87.5904,15.8471,0.0],[-87.6093,15.866,0.0],[-87.6193,15.8801,0.0],[-87.6251,15.8915,1.373],[-87.629,15.9074,4.0981],[-87.6279,15.9087,0.0],[-87.6196,15.9096,0.0],[-87.6185,15.9121,10.8552],[-87.611,15.9165,0.0],[-87.6093,15.9204,0.0],[-87.6035,15.9229,4.137],[-87.6015,15.9276,0.0],[-87.6062,15.9243,26.4705],[-87.6082,15.9249,8.9174],[-87.6115,15.9213,67.4679],[-87.6146,15.9213,16.6152],[-87.6151,15.9193,87.976],[-87.6201,15.921,0.0],[-87.6226,15.919,0.0],[-87.6215,15.9162,10.5707],[-87.624,15.9132,41.3728],[-87.6268,15.9137,17.4954],[-87.6257,15.9182,0.0],[-87.6301,15.9124,0.0],[-87.6326,15.9115,0.0],[-87.6301,15.9101,0.0],[-87.6324,15.9054,12.3661],[-87.6349,15.9046,7.2497],[-87.6387,15.9065,6.7082],[-87.6365,15.9104,23.4494],[-87.644,15.906,28.5899],[-87.644,15.9007,6.4876],[-87.6471,15.896,0.0],[-87.6418,15.9004,0.0],[-87.6418,15.9046,3.6304],[-87.6401,15.9063,6.7082],[-87.6396,15.9024,1.1362],[-87.6357,15.8979,5.0867],[-87.6374,15.8932,0.0],[-87.6346,15.8912,0.8702],[-87.6343,15.8782,0.0],[-87.6401,15.8751,6.9154],[-87.6462,15.8763,7.5929],[-87.6521,15.8824,0.0],[-87.646,15.8943,0.0],[-87.6468,15.8957,0.0],[-87.6507,15.8926,38.6047],[-87.6537,15.8924,6.873],[-87.6554,15.8879,1.1728],[-87.656,15.8887,1.1728],[-87.6554,15.8907,1.6504],[-87.6649,15.8921,1.1245],[-87.6782,15.8982,1.9319],[-87.6796,15.8982,1.9069],[-87.6807,15.8943,1.8892],[-87.684,15.8935,2.5438],[-87.681,15.8968,1.2805],[-87.6821,15.9004,4.2085],[-87.7135,15.9185,1.6499],[-87.7171,15.919,0.0],[-87.7204,15.9171,0.0],[-87.7201,15.9196,0.0],[-87.7279,15.921,0.0],[-87.7307,15.9201,3.3604],[-87.7322,15.9174,7.0574],[-87.7351,15.9039,4.3347],[-87.7389,15.9001,11.8216],[-87.7381,15.8883,7.9354],[-87.7394,15.8839,3.3578],[-87.7428,15.8805,4.0341],[-87.7488,15.878,1.7552],[-87.7541,15.8787,2.3024],[-87.7587,15.8819,2.1885],[-87.7674,15.8693,4.594],[-87.781,15.8569,11.7154],[-87.7803,15.8497,11.0197],[-87.7744,15.8442,6.941],[-87.7803,15.8398,3.908],[-87.7815,15.8225,5.3908],[-87.7784,15.8184,5.9243],[-87.7827,15.818,3.6824],[-87.7895,15.8241,5.6468],[-87.7927,15.8231,3.5232],[-87.7885,15.8098,4.5529],[-87.7887,15.8064,7.443],[-87.79,15.8044,5.6498],[-87.7941,15.8032,5.0182],[-87.7993,15.8081,7.2944],[-87.8036,15.8084,4.6974],[-87.8028,15.7939,5.9176],[-87.8073,15.7895,7.7098],[-87.8087,15.7853,9.2856],[-87.8056,15.7835,11.7676],[-87.7978,15.7848,7.1464],[-87.7963,15.7784,3.7082],[-87.7895,15.7715,4.4355],[-87.7947,15.759,3.6761],[-87.7938,15.7563,7.2864],[-87.7904,15.7561,2.4388],[-87.7851,15.7694,6.002],[-87.7833,15.7703,3.9981],[-87.7808,15.7683,5.3344],[-87.7786,15.7619,7.3064],[-87.7735,15.7568,3.7552],[-87.7736,15.7434,5.1913],[-87.7649,15.7337,8.0395],[-87.7665,15.7291,7.8045],[-87.7807,15.7294,7.0499],[-87.7844,15.7273,5.9999],[-87.7819,15.7133,7.193],[-87.7844,15.7068,9.5557],[-87.7832,15.7028,7.1821],[-87.779,15.6999,9.5899],[-87.7725,15.7006,11.1815],[-87.7711,15.6988,11.5121],[-87.767,15.6999,10.9744],[-87.7622,15.6973,7.6929],[-87.7568,15.697,5.8104],[-87.7552,15.6938,5.7714],[-87.752,15.6922,5.7275],[-87.7518,15.689,6.3808],[-87.7497,15.6878,7.3187],[-87.7502,15.685,6.0416],[-87.747,15.6808,5.6943],[-87.7429,15.6813,6.33],[-87.7421,15.6784,7.1123],[-87.7395,15.679,6.7223],[-87.7353,15.6766,7.8546],[-87.7344,15.6733,11.6182],[-87.7285,15.6687,12.3589],[-87.7146,15.6678,5.9629],[-87.7159,15.6641,5.8499],[-87.7136,15.6633,6.202],[-87.7097,15.6664,6.1135],[-87.7072,15.6657,6.6372],[-87.7051,15.6604,9.5739],[-87.705,15.6538,7.5358],[-87.7022,15.6498,8.4671],[-87.6994,15.6503,7.8534],[-87.6986,15.6474,7.9232],[-87.6921,15.644,12.1055],[-87.6928,15.6149,16.0143],[-87.6886,15.6012,26.6017],[-87.6906,15.5968,22.6819],[-87.6908,15.5912,22.2286],[-87.6867,15.5829,24.6681],[-87.688,15.5806,22.8616],[-87.6855,15.5757,21.8435],[-87.6877,15.5724,25.2785],[-87.6835,15.5671,36.7321],[-87.6847,15.5641,30.6532],[-87.6779,15.5538,26.8967],[-87.6766,15.5466,37.9832],[-87.6722,15.544,34.1262],[-87.6687,15.5445,36.0088],[-87.6653,15.5399,40.8352],[-87.6665,15.5376,39.3872],[-87.6616,15.5322,53.7952],[-87.6546,15.5312,63.0046],[-87.6516,15.5287,69.923],[-87.6451,15.5145,297.8262],[-87.6412,15.5121,414.4436],[-87.6388,15.5078,454.6971],[-87.634,15.5048,359.4137],[-87.6254,15.5038,502.8465],[-87.5871,15.5057,276.6333],[-87.5794,15.5082,236.7325],[-87.5723,15.5084,221.7877],[-87.5726,15.5107,255.1541],[-87.563,15.5144,219.9411],[-87.5591,15.5116,201.1005],[-87.554,15.5125,186.1947],[-87.548,15.5177,176.4643],[-87.5403,15.5198,167.458],[-87.5336,15.5186,158.1221],[-87.5283,15.5107,201.349],[-87.5242,15.5151,167.7521],[-87.5023,15.5215,105.5214],[-87.4988,15.5279,120.1996],[-87.4944,15.5299,96.888],[-87.4904,15.5363,102.9196],[-87.4867,15.5375,89.0747],[-87.4792,15.5367,78.3254],[-87.4739,15.5443,99.8829],[-87.4644,15.548,66.7738],[-87.4602,15.5526,63.5473],[-87.4489,15.5577,63.5811],[-87.4469,15.5635,63.9417],[-87.4387,15.5668,195.4611],[-87.4383,15.5717,191.9238],[-87.4347,15.5786,107.2718],[-87.4278,15.58,65.0532],[-87.4269,15.5849,69.7835],[-87.4227,15.5863,52.386],[-87.4184,15.5914,46.8128],[-87.4225,15.596,55.3834],[-87.4249,15.613,153.3587],[-87.4026,15.6643,118.9007],[-87.416,15.7054,232.983],[-87.4183,15.7047,223.7461],[-87.423,15.6954,317.9893],[-87.4294,15.6921,531.5165],[-87.4309,15.6928,590.3077],[-87.4335,15.6974,440.5493],[-87.4326,15.7029,312.5582],[-87.4398,15.7156,452.1437],[-87.4413,15.7227,377.2872],[-87.4399,15.7282,294.42],[-87.434,15.7318,456.8724],[-87.433,15.7365,350.1013],[-87.4201,15.7454,255.8426],[-87.4155,15.7535,131.2236],[-87.4125,15.7635,68.5464],[-87.4088,15.7671,115.2853],[-87.3993,15.7699,99.6754],[-87.3963,15.7791,225.59],[-87.3844,15.788,5.459],[-87.3883,15.8062,7.0076],[-87.388,15.815,4.8538],[-87.3874,15.8204,3.7487],[-87.3826,15.8287,8.4544]]]]}
,"properties": {"GID_2": "HND.1.8_1","GID_0": "HND","country": "Honduras","GID_1": "HND.1_1","province": "Atlántida","NL_NAME_1": "NA","county": "Tela","VARNAME_2": "NA","NL_NAME_2": "NA","TYPE_2": "Municipio","ENGTYPE_2": "Municipality","CC_2": "NA","HASC_2": "HN.AT.TE","name": "Tela.county","area_km2": 1233.4175,"hist_schema_id": "Elevation0-9000","hist_area_km2": {"0": 425.8622,"25": 173.6586,"50": 54.2559,"75": 42.0933,"100": 50.1418,"125": 43.7943,"150": 45.553,"175": 39.2634,"200": 34.7092,"225": 32.5439,"250": 27.9503,"275": 24.4799,"300": 21.601,"325": 17.4569,"350": 16.9262,"375": 15.13,"400": 13.5173,"425": 11.9655,"450": 11.0061,"475": 10.9858,"500": 9.9038,"525": 9.9036,"550": 9.0458,"575": 8.6582,"600": 7.9435,"625": 7.9229,"650": 7.3922,"675": 6.7999,"700": 6.3915,"725": 5.7179,"750": 4.9827,"775": 5.2074,"800": 4.2884,"825": 4.4519,"850": 3.7168,"875": 3.1449,"900": 2.9612,"925": 2.7978,"950": 2.0831,"975": 1.8584,"1000": 1.593,"1025": 1.5113,"1050": 0.6535,"1075": 0.4902,"1100": 0.6331,"1125": 0.3064,"1150": 0.1021,"1175": 0.0613}}}