{"type":"Feature","properties":{"GID_2":"HND.6.12_1","GID_0":"HND","country":"Honduras","GID_1":"HND.6_1","province":"Cortés","NL_NAME_1":"NA","county":"Villanueva","VARNAME_2":"NA","NL_NAME_2":"NA","TYPE_2":"Municipio","ENGTYPE_2":"Municipality","CC_2":"NA","HASC_2":"HN.CR.VI","name":"Villanueva.county"},
"geometry":{"type": "MultiPolygon","coordinates": [[[[-87.9463,15.2938,115.1647],[-87.9601,15.3485,57.6409],[-87.9588,15.3511,63.1285],[-87.9527,15.3518,59.8711],[-87.9444,15.3597,92.0625],[-87.9437,15.3627,128.2606],[-87.951,15.382,157.2662],[-87.9569,15.3894,76.8587],[-87.9673,15.3982,59.9095],[-87.9707,15.4076,31.1193],[-87.9745,15.412,31.8023],[-87.9753,15.4171,33.4962],[-87.9791,15.416,34.6426],[-87.9875,15.4096,33.8207],[-87.9893,15.412,32.9198],[-87.9861,15.4145,34.2987],[-87.9914,15.4194,37.876],[-87.9984,15.4081,40.3324],[-88.0027,15.4061,45.1781],[-88.0151,15.4067,59.249],[-88.0198,15.4144,146.0394],[-88.0233,15.4166,299.0262],[-88.0253,15.4161,337.886],[-88.026,15.4121,321.8473],[-88.0322,15.4121,383.5477],[-88.0347,15.417,334.395],[-88.0366,15.4177,265.9287],[-88.0407,15.4094,287.9733],[-88.0457,15.4059,186.1842],[-88.0478,15.4072,201.24],[-88.0475,15.4133,131.3342],[-88.0513,15.4143,164.9712],[-88.0575,15.4013,170.8651],[-88.0608,15.3992,148.7386],[-88.0645,15.4007,192.1158],[-88.0654,15.4061,209.7957],[-88.0695,15.4088,145.5566],[-88.0721,15.4082,154.2412],[-88.0771,15.4022,220.6533],[-88.0866,15.4081,122.7076],[-88.0956,15.404,138.8968],[-88.1013,15.4067,58.3164],[-88.1084,15.3996,135.2332],[-88.1114,15.3943,270.4323],[-88.1197,15.3945,280.8265],[-88.1275,15.3977,73.8643],[-88.1315,15.3971,73.5898],[-88.1332,15.393,118.9134],[-88.1279,15.3901,174.9698],[-88.1307,15.3796,111.476],[-88.136,15.3773,88.2134],[-88.1392,15.3718,79.766],[-88.1444,15.3707,80.0159],[-88.1462,15.3672,75.993],[-88.1295,15.3608,113.3043],[-88.1222,15.252,456.4755],[-88.1086,15.2364,589.1641],[-88.099,15.205,418.76],[-88.059,15.2,282.3427],[-88.0558,15.2025,461.6064],[-88.0511,15.2023,412.2967],[-88.026,15.2094,290.9077],[-88.0235,15.2122,257.9121],[-88.0213,15.2195,443.5055],[-88.0174,15.2224,97.9948],[-88.0145,15.2221,100.7962],[-88.0117,15.2179,155.0306],[-88.0063,15.219,190.0187],[-88.0042,15.2214,242.7182],[-88.0054,15.2246,221.6316],[-88.0124,15.2269,172.8047],[-88.0141,15.2298,91.5885],[-88.0146,15.2346,51.9949],[-88.0125,15.242,47.0717],[-88.0156,15.248,43.8022],[-88.0135,15.2555,43.4202],[-88.0224,15.271,154.8179],[-88.0215,15.2736,156.2773],[-88.0087,15.284,59.4698],[-88.005,15.2888,64.1866],[-87.9858,15.2877,40.6272],[-87.9758,15.2825,46.0255],[-87.9463,15.2938,115.1647]]]]}}