{"type":"Feature","properties":{"ISO3166-1-Alpha-3":"HND","country":"Honduras","fill":"#F00","id":"653","name":"Ocotepeque"},
"geometry":{"type": "Polygon","coordinates": [[[-88.83682,14.5003,1676.6191],[-88.8492,14.50268,1639.6311],[-88.86121,14.51255,1435.9481],[-88.8748,14.51591,1171.0377],[-88.89266,14.52325,1210.4717],[-88.90992,14.54087,1069.8442],[-88.92322,14.56128,839.0814],[-88.92482,14.56872,844.7028],[-88.92426,14.59487,786.1633],[-88.93056,14.60857,1094.5872],[-88.99456,14.65564,2249.6499],[-89.00309,14.66985,2048.4541],[-89.01027,14.69998,1576.2034],[-89.02565,14.72081,1734.6417],[-89.08556,14.72892,1135.1383],[-89.09866,14.72448,932.2674],[-89.13104,14.71507,764.6265],[-89.14621,14.71086,700.3133],[-89.1445,14.7083,837.0081],[-89.14269,14.69127,856.2941],[-89.14523,14.68345,805.1095],[-89.15585,14.67226,685.9433],[-89.15941,14.66598,852.4449],[-89.15523,14.61559,1352.3787],[-89.15574,14.59784,1321.3923],[-89.16039,14.58128,1677.1943],[-89.17215,14.5704,1630.0715],[-89.1837,14.56953,1475.7441],[-89.20881,14.57795,1467.5553],[-89.22109,14.58009,1240.9861],[-89.23811,14.57795,1185.1752],[-89.24568,14.57299,1076.8433],[-89.25054,14.56518,964.4305],[-89.25961,14.55425,989.2291],[-89.29093,14.528,1007.3899],[-89.30485,14.51335,1461.5188],[-89.3148,14.49596,1349.1967],[-89.32304,14.48746,1263.9376],[-89.34527,14.48196,1629.7321],[-89.3555,14.47545,1592.7004],[-89.36198,14.4624,1768.634],[-89.36379,14.44656,2013.173],[-89.36162,14.41548,2300.9746],[-89.34621,14.41308,2084.1677],[-89.30757,14.40705,1529.1904],[-89.27654,14.39274,1419.8573],[-89.22553,14.38215,879.8015],[-89.20016,14.36468,774.0937],[-89.15398,14.3513,1418.1906],[-89.1445,14.35972,1638.1116],[-89.13011,14.38675,2666.2771],[-89.12218,14.39468,2395.1099],[-89.11334,14.39706,2173.9004],[-89.10748,14.39597,2159.5737],[-89.10257,14.39153,2168.4102],[-89.09683,14.38401,1990.6421],[-89.09184,14.37483,1938.3077],[-89.08967,14.36489,1859.3824],[-89.09055,14.35471,1817.7323],[-89.09448,14.34486,2042.252],[-89.08308,14.33533,1808.2908],[-89.04898,14.33145,1433.7968],[-89.03298,14.32367,1148.4421],[-89.0266,14.3113,1089.1982],[-89.02262,14.28065,1058.9093],[-89.01813,14.27169,800.9907],[-88.99275,14.25296,908.7018],[-88.98353,14.24213,707.5001],[-88.97456,14.22738,692.0203],[-88.97079,14.21484,621.7289],[-88.97023,14.21018,609.3156],[-88.96906,14.23696,688.8265],[-88.9712,14.26931,942.2796],[-88.97888,14.2938,1064.6936],[-88.97787,14.3014,1128.822],[-88.97389,14.30678,1224.467],[-88.96684,14.31262,1305.6083],[-88.96077,14.31923,1387.2876],[-88.95211,14.33287,1638.1792],[-88.94596,14.3398,1566.6058],[-88.9394,14.34424,1474.5106],[-88.9234,14.346,1367.9105],[-88.89067,14.36078,1174.983],[-88.8855,14.36925,1101.1991],[-88.87919,14.38315,1190.5779],[-88.87795,14.39612,1234.5167],[-88.87563,14.40589,1318.7135],[-88.8701,14.4078,1303.7529],[-88.86286,14.4077,1378.8914],[-88.85328,14.39654,1577.4656],[-88.84785,14.39142,1575.46],[-88.83641,14.38636,1982.7632],[-88.81065,14.38682,2159.5225],[-88.82297,14.40315,2185.2222],[-88.82349,14.40801,2247.8042],[-88.82318,14.41493,2224.1343],[-88.82088,14.42424,2268.9563],[-88.81946,14.42656,2297.634],[-88.81739,14.42687,2285.0645],[-88.81075,14.42238,2168.8015],[-88.78959,14.41938,2118.3586],[-88.76065,14.42878,1457.6699],[-88.75269,14.43323,1377.0146],[-88.74714,14.43809,1281.439],[-88.74375,14.44217,1275.4879],[-88.7414,14.4538,1480.5234],[-88.71533,14.52805,2189.7859],[-88.71869,14.54335,2361.6875],[-88.7213,14.54526,2383.3271],[-88.73052,14.54878,2150.7266],[-88.75432,14.54676,2009.0968],[-88.77377,14.54991,1864.8182],[-88.78181,14.55002,1767.042],[-88.79098,14.54857,1502.7263],[-88.80059,14.54599,1574.5308],[-88.81708,14.53999,1355.9509],[-88.82434,14.53519,1333.6907],[-88.82772,14.52743,1436.5541],[-88.82762,14.5155,1420.6268],[-88.82721,14.51141,1542.8812],[-88.82483,14.50831,1558.1764],[-88.82403,14.50501,1512.0764],[-88.826669999999993,14.5033,1607.5087],[-88.83682,14.5003,1676.6191]]]}}