{"type":"Feature","properties":{"GID_1":"HND.14_1","GID_0":"HND","country":"Honduras","province":"Ocotepeque","VARNAME_1":"NA","NL_NAME_1":"NA","TYPE_1":"Departamento","ENGTYPE_1":"Department","CC_1":"NA","HASC_1":"HN.OC","ISO_1":"HN-OC","name":"Ocotepeque.province"},
"geometry":{"type": "MultiPolygon","coordinates": [[[[-88.9782,14.2171,726.3393],[-88.9759,14.2129,691.8348],[-88.9664,14.2107,561.6926],[-88.966,14.2135,571.0901],[-88.9626,14.2172,791.9359],[-88.9688,14.2451,785.0328],[-88.9659,14.2502,1038.6864],[-88.9657,14.255,1033.2418],[-88.9618,14.2592,1063.1277],[-88.9637,14.2655,1059.0785],[-88.9682,14.2702,905.4953],[-88.972,14.2812,1016.8367],[-88.9746,14.2823,1105.5554],[-88.977,14.2888,1063.5265],[-88.9717,14.2909,1184.0239],[-88.9659,14.2909,1221.8745],[-88.9556,14.2997,1369.2042],[-88.9511,14.3011,1321.5002],[-88.9502,14.3038,1386.8783],[-88.9531,14.3048,1323.7853],[-88.9503,14.309,1392.0736],[-88.9469,14.3103,1395.4474],[-88.9479,14.3131,1431.0425],[-88.9432,14.3197,1558.9315],[-88.9446,14.3254,1589.431],[-88.9438,14.3283,1577.2827],[-88.9385,14.3307,1583.5671],[-88.9272,14.3321,1297.5422],[-88.9212,14.3304,1296.6234],[-88.9031,14.3341,1138.5206],[-88.8912,14.3409,1105.6135],[-88.8821,14.3437,1199.9873],[-88.8783,14.3484,1240.2151],[-88.8721,14.3612,1354.4805],[-88.8715,14.396,1302.4961],[-88.8637,14.3932,1433.0682],[-88.8524,14.3929,1551.6188],[-88.8499,14.384,1437.1184],[-88.8312,14.3712,1799.7913],[-88.8177,14.373,2292.9375],[-88.8006,14.3719,2246.1851],[-88.8199,14.3899,2184.2378],[-88.8152,14.4007,2151.6177],[-88.8136,14.4145,2100.5566],[-88.79,14.4004,1956.4545],[-88.7491,14.4155,1556.8271],[-88.7468,14.4181,1645.9894],[-88.7427,14.4192,1598.6102],[-88.7364,14.4288,1589.377],[-88.7316,14.4262,1355.3982],[-88.7345,14.437,1312.4893],[-88.7325,14.4398,1248.9095],[-88.7334,14.4414,1275.4459],[-88.7317,14.4443,1393.7661],[-88.7286,14.4442,1505.9709],[-88.727,14.446,1512.7966],[-88.7261,14.4536,1626.0425],[-88.7281,14.4558,1711.4045],[-88.7285,14.46,1655.8396],[-88.7253,14.4659,1725.3313],[-88.723,14.4662,1740.4894],[-88.723,14.4718,1827.8479],[-88.7188,14.4764,1832.9435],[-88.7196,14.479,2030.0273],[-88.7172,14.4889,2145.5913],[-88.7117,14.4979,2262.4595],[-88.7131,14.5084,2177.073],[-88.7125,14.5117,1993.769],[-88.7099,14.513,2031.2349],[-88.7107,14.5182,2161.5767],[-88.7095,14.5209,2208.5962],[-88.7185,14.5298,2283.8931],[-88.7263,14.5315,2184.7791],[-88.737,14.5309,2039.8069],[-88.7477,14.5267,2026.2944],[-88.7589,14.5295,2194.4717],[-88.7723,14.5354,1967.4309],[-88.7943,14.5291,1840.1141],[-88.809,14.5186,1758.3923],[-88.823,14.5228,1503.028],[-88.8286,14.5206,1326.4817],[-88.8296,14.5186,1441.228],[-88.8283,14.5116,1479.8671],[-88.8236,14.505,1512.0764],[-88.8274,14.4975,1621.4634],[-88.8221,14.4893,1724.6056],[-88.8223,14.4869,1753.7083],[-88.8437,14.4813,1748.7969],[-88.8509,14.4964,1587.3983],[-88.8919,14.5038,1314.7938],[-88.9125,14.5268,1034.327],[-88.9094,14.5423,1052.051],[-88.9118,14.5412,1039.1354],[-88.9218,14.5427,920.7943],[-88.9284,14.5481,878.9276],[-88.9226,14.5514,886.1065],[-88.9246,14.5611,819.1488],[-88.9222,14.5676,846.3962],[-88.9199,14.5689,872.0972],[-88.9221,14.5757,900.5314],[-88.917,14.5779,977.3639],[-88.9178,14.5842,1061.7511],[-88.9545,14.6168,1311.9944],[-88.9676,14.6221,1198.536],[-88.9707,14.6256,1337.629],[-88.9786,14.6286,1534.4768],[-88.9914,14.643,1908.0933],[-88.9971,14.6529,2209.29],[-88.9958,14.664,1981.7087],[-88.9975,14.6647,2019.0031],[-88.9983,14.6693,1949.1198],[-89.0028,14.6771,1692.2172],[-89.001,14.684,1559.2686],[-89.0069,14.7009,1514.1549],[-89.0137,14.6997,1616.7211],[-89.0249,14.7045,1682.6425],[-89.035,14.7047,1515.7339],[-89.0465,14.7013,1345.585],[-89.0544,14.7039,1311.8628],[-89.0629,14.7037,1298.7881],[-89.0716,14.7089,1244.0967],[-89.075,14.7132,1390.3738],[-89.0784,14.7139,1377.7771],[-89.0813,14.7137,1327.0928],[-89.0845,14.7108,1276.98],[-89.0966,14.7111,1211.7153],[-89.1232,14.703,913.0975],[-89.1356,14.6969,894.2108],[-89.147,14.6768,690.4388],[-89.153,14.6629,870.847],[-89.1519,14.6479,1142.5328],[-89.1477,14.6274,1424.1133],[-89.1463,14.6025,1529.4078],[-89.1554,14.5722,1751.385],[-89.1685,14.5696,1791.5503],[-89.1777,14.5709,1606.6886],[-89.2176,14.5837,1343.2705],[-89.2273,14.5828,1109.2957],[-89.2401,14.5762,1227.282],[-89.2491,14.568,1024.6147],[-89.252,14.5569,962.1865],[-89.2554,14.5519,958.0651],[-89.2733,14.5368,1015.153],[-89.2778,14.5295,1060.772],[-89.2805,14.5177,1170.9366],[-89.2981,14.5049,1497.4437],[-89.2964,14.4944,1224.3254],[-89.3039,14.491,1220.4587],[-89.3048,14.4882,1335.9652],[-89.3087,14.487,1392.8452],[-89.3155,14.4809,1613.6071],[-89.338,14.4723,1539.7318],[-89.3485,14.466,1680.3843],[-89.3481,14.4628,1675.3737],[-89.3503,14.463,1628.5557],[-89.3508,14.4575,1710.5183],[-89.3498,14.4226,2141.8704],[-89.3312,14.4065,1914.785],[-89.2983,14.3903,1659.5856],[-89.259,14.3803,995.2068],[-89.224,14.3781,843.2387],[-89.2175,14.3758,732.0111],[-89.2069,14.3701,772.5886],[-89.1762,14.3434,1031.3737],[-89.1676,14.3401,1107.1932],[-89.1542,14.3372,1417.674],[-89.1361,14.3369,1736.6389],[-89.1233,14.3382,1978.3092],[-89.0903,14.3463,1907.0623],[-89.0876,14.3459,1853.1702],[-89.079,14.3391,1696.0227],[-89.0525,14.3279,1568.5717],[-89.0433,14.3273,1325.0182],[-89.0308,14.3188,1120.0314],[-89.0262,14.3089,1064.0167],[-89.0236,14.2894,1028.823],[-89.0299,14.2793,907.9009],[-89.0273,14.2738,861.7314],[-88.9902,14.2507,858.2867],[-88.9743,14.2253,826.7634],[-88.9746,14.2211,647.3682],[-88.9782,14.2171,726.3393]]]]}}