{"type":"Feature","properties":{"GID_2":"HND.6.9_1","GID_0":"HND","country":"Honduras","GID_1":"HND.6_1","province":"Cortés","NL_NAME_1":"NA","county":"SanManuel","VARNAME_2":"NA","NL_NAME_2":"NA","TYPE_2":"Municipio","ENGTYPE_2":"Municipality","CC_2":"NA","HASC_2":"HN.CR.SM","name":"San_Manuel.county"},
"geometry":{"type": "MultiPolygon","coordinates": [[[[-87.9613,15.418,30.143],[-87.9665,15.42,31.6382],[-87.967,15.4161,32.0581],[-87.9708,15.4148,32.0203],[-87.9739,15.4113,31.8023],[-87.9707,15.4076,31.1193],[-87.9673,15.3982,59.9095],[-87.9569,15.3894,76.8587],[-87.951,15.382,157.2662],[-87.9437,15.3627,128.2606],[-87.9444,15.3597,92.0625],[-87.9527,15.3518,59.8711],[-87.9588,15.3511,63.1285],[-87.9601,15.3485,57.6409],[-87.9463,15.2938,115.1647],[-87.9323,15.2941,48.2311],[-87.9241,15.2883,33.8945],[-87.9175,15.2906,35.6223],[-87.9079,15.2887,33.5506],[-87.9078,15.2942,32.749],[-87.9177,15.3027,33.1775],[-87.9175,15.3089,33.9275],[-87.9102,15.3114,35.3661],[-87.8958,15.3086,33.2831],[-87.8914,15.3128,29.9392],[-87.8895,15.327,32.4201],[-87.8863,15.3309,32.299],[-87.8758,15.3223,28.4905],[-87.8692,15.3226,27.4104],[-87.8676,15.3295,28.8358],[-87.8811,15.332,30.6957],[-87.8815,15.337,30.9881],[-87.8625,15.3497,27.893],[-87.8521,15.3624,24.9983],[-87.8443,15.3831,25.9989],[-87.8434,15.3907,28.2216],[-87.8309,15.3874,25.3374],[-87.8254,15.3897,26.1546],[-87.8239,15.3993,26.579],[-87.828,15.4162,26.0624],[-87.8339,15.4226,22.2544],[-87.8429,15.426,25.1032],[-87.8511,15.4317,22.1177],[-87.8609,15.4337,24.5895],[-87.8612,15.4291,23.7155],[-87.8674,15.4267,23.1187],[-87.8699,15.42,24.3754],[-87.8741,15.4148,25.94],[-87.8763,15.4152,25.8806],[-87.8804,15.4216,24.4007],[-87.8832,15.4222,23.3867],[-87.8854,15.4107,27.8358],[-87.8874,15.411,27.4644],[-87.8905,15.4162,24.507],[-87.8952,15.4178,23.9974],[-87.9009,15.4107,27.772],[-87.9083,15.4108,28.366],[-87.9151,15.4133,28.4973],[-87.9216,15.4123,29.0256],[-87.9263,15.408,29.0252],[-87.9315,15.407,29.1948],[-87.9375,15.4008,30.9711],[-87.9495,15.3981,209.5047],[-87.9513,15.4132,29.3899],[-87.9542,15.413,30.0138],[-87.9572,15.4103,29.1961],[-87.9608,15.4109,30.2811],[-87.9611,15.4136,30.6969],[-87.9577,15.4149,30.2191],[-87.9613,15.418,30.143]]]]}}