{"type": "Feature","bbox": [-88.8307,14.8306,-88.75,14.916],"geometry": {"type": "MultiPolygon","coordinates": [[[[-88.7892,14.8306,962.3724],[-88.7537,14.8463,860.1559],[-88.75,14.8722,892.1012],[-88.7563,14.8755,896.4864],[-88.7604,14.8881,642.6127],[-88.7815,14.8937,735.2935],[-88.8307,14.916,1047.3335],[-88.8299,14.9102,945.7661],[-88.8097,14.8947,1047.2919],[-88.7892,14.8306,962.3724]]]]}
,"properties": {"GID_2": "HND.5.23_1","GID_0": "HND","country": "Honduras","GID_1": "HND.5_1","province": "Copán","NL_NAME_1": "NA","county": "Veracruz","VARNAME_2": "NA","NL_NAME_2": "NA","TYPE_2": "Municipio","ENGTYPE_2": "Municipality","CC_2": "NA","HASC_2": "HN.CP.VE","name": "Veracruz.county","area_km2": 33.99639,"hist_schema_id": "Elevation0-9000","hist_area_km2": {"650": 0.36883,"675": 0.63521,"700": 0.90159,"725": 0.94257,"750": 0.75817,"775": 0.79915,"800": 1.00408,"825": 1.0041,"850": 1.20902,"875": 1.57791,"900": 1.22955,"925": 2.17223,"950": 2.23376,"975": 1.88538,"1000": 2.0698,"1025": 1.90582,"1050": 2.15172,"1075": 2.23368,"1100": 1.84433,"1125": 1.5984,"1150": 1.06558,"1175": 0.9836,"1200": 0.81967,"1225": 0.53278,"1250": 0.4508,"1275": 0.32785,"1300": 0.32784,"1325": 0.2049,"1350": 0.32783,"1375": 0.20489,"1400": 0.1844,"1425": 0.04098}}}