{"type": "Feature","bbox": [-86.8892,13.5555,-86.7507,13.6945],"geometry": {"type": "MultiPolygon","coordinates": [[[[-86.7887,13.5555,1263.5015],[-86.7507,13.5618,1038.2208],[-86.767,13.5701,1189.0564],[-86.7683,13.573,1157.9614],[-86.7674,13.5841,1049.7516],[-86.7515,13.6359,648.3293],[-86.7556,13.6415,666.3701],[-86.7659,13.6473,757.5928],[-86.7794,13.6507,847.7892],[-86.7832,13.6532,799.9449],[-86.785,13.6567,755.5912],[-86.7852,13.6651,694.647],[-86.7837,13.6695,570.3827],[-86.7708,13.6934,363.1124],[-86.7761,13.692,399.4],[-86.7832,13.6926,338.6069],[-86.7885,13.689,449.5405],[-86.793,13.6945,386.2498],[-86.8055,13.6786,293.9524],[-86.8082,13.6656,507.3766],[-86.8155,13.6661,388.6856],[-86.8216,13.6731,359.9598],[-86.8414,13.6721,244.7164],[-86.844,13.6701,248.7331],[-86.8481,13.6617,252.5155],[-86.8527,13.6575,313.7288],[-86.8657,13.6529,336.1523],[-86.8711,13.6481,316.489],[-86.8849,13.6421,228.5912],[-86.8845,13.6384,227.7274],[-86.8889,13.6341,290.2285],[-86.8875,13.6284,252.3379],[-86.8892,13.6256,268.2125],[-86.8869,13.6212,333.8459],[-86.8804,13.6213,253.2897],[-86.8764,13.6109,348.5534],[-86.8704,13.6055,247.9078],[-86.8656,13.6059,247.0805],[-86.8599,13.6165,319.299],[-86.8565,13.6185,393.8837],[-86.8526,13.6171,439.2462],[-86.8453,13.6206,417.9655],[-86.8398,13.6178,553.1827],[-86.8341,13.62,623.2462],[-86.8301,13.618,775.7443],[-86.8063,13.5949,769.6373],[-86.7887,13.5555,1263.5015]]]]}
,"properties": {"GID_2": "HND.2.4_1","GID_0": "HND","country": "Honduras","GID_1": "HND.2_1","province": "Choluteca","NL_NAME_1": "NA","county": "Duyure","VARNAME_2": "NA","NL_NAME_2": "NA","TYPE_2": "Municipio","ENGTYPE_2": "Municipality","CC_2": "NA","HASC_2": "HN.CH.DU","name": "Duyure.county","area_km2": 105.33402,"hist_schema_id": "Elevation0-9000","hist_area_km2": {"200": 0.47394,"225": 1.33935,"250": 1.27746,"275": 1.66888,"300": 1.73075,"325": 1.68951,"350": 2.10155,"375": 2.32823,"400": 2.78147,"425": 2.65786,"450": 2.90503,"475": 3.54376,"500": 3.23467,"525": 2.74019,"550": 2.20452,"575": 1.79249,"600": 1.91612,"625": 2.20457,"650": 2.26641,"675": 2.34884,"700": 2.80216,"725": 2.86397,"750": 3.77058,"775": 3.72941,"800": 3.11126,"825": 3.07009,"850": 2.55505,"875": 2.36965,"900": 2.47279,"925": 3.29701,"950": 3.29709,"975": 4.12138,"1000": 3.40023,"1025": 2.82318,"1050": 3.17354,"1075": 2.6584,"1100": 1.83406,"1125": 2.0814,"1150": 1.73106,"1175": 2.10205,"1200": 0.72131,"1225": 0.51526,"1250": 0.53589,"1275": 0.7626,"1300": 0.82444,"1325": 0.98933,"1350": 0.47405,"1375": 0.04122}}}