{"type": "Feature","bbox": [-89.1302,14.7579,-88.9337,14.9612],"geometry": {"type": "MultiPolygon","coordinates": [[[[-89.0064,14.7626,1269.7621],[-88.9885,14.7579,1070.3068],[-88.9864,14.7611,1142.6277],[-88.9869,14.7716,1555.7148],[-88.9844,14.782,1390.1664],[-88.9747,14.7861,1671.2112],[-88.9555,14.8105,1395.7257],[-88.9592,14.8226,1452.9875],[-88.9491,14.8416,1511.4835],[-88.9337,14.8535,1375.6968],[-88.9351,14.8736,1541.1514],[-88.9555,14.9035,1204.3186],[-88.9389,14.9192,1154.6927],[-88.9385,14.9245,995.3865],[-88.9404,14.9287,935.6793],[-88.9396,14.935,1059.1353],[-88.9611,14.9452,1017.0095],[-88.9839,14.9537,994.9468],[-88.9864,14.9531,923.3543],[-88.9883,14.9504,985.967],[-88.9968,14.9505,828.307],[-89.0416,14.9612,974.4261],[-89.0532,14.954,1080.335],[-89.0609,14.9555,1183.6383],[-89.0884,14.9551,1294.7087],[-89.1088,14.9366,1205.4351],[-89.124,14.9393,1315.7798],[-89.1294,14.9236,1174.3303],[-89.1302,14.9152,1172.031],[-89.1191,14.9049,954.1895],[-89.1176,14.8976,907.7795],[-89.1211,14.8836,996.7277],[-89.1126,14.8659,704.7473],[-89.1054,14.8567,804.2],[-89.1176,14.852,849.0814],[-89.1237,14.8474,631.8803],[-89.1278,14.8407,634.9846],[-89.1125,14.8343,984.336],[-89.1081,14.8245,757.7062],[-89.0844,14.8429,689.0389],[-89.0681,14.8425,908.4142],[-89.0463,14.7947,986.8729],[-89.0322,14.7928,975.0599],[-89.0306,14.7839,1126.9292],[-89.0151,14.7757,1351.486],[-89.0104,14.7706,1367.0879],[-89.0064,14.7626,1269.7621]]]]}
,"properties": {"GID_2": "HND.5.20_1","GID_0": "HND","country": "Honduras","GID_1": "HND.5_1","province": "Copán","NL_NAME_1": "NA","county": "SantaRita","VARNAME_2": "NA","NL_NAME_2": "NA","TYPE_2": "Municipio","ENGTYPE_2": "Municipality","CC_2": "NA","HASC_2": "HN.CP.SR","name": "Santa_Rita.county","area_km2": 307.9268,"hist_schema_id": "Elevation0-9000","hist_area_km2": {"625": 0.5738,"650": 2.4387,"675": 4.4673,"700": 9.856,"725": 15.1011,"750": 15.1829,"775": 14.6913,"800": 14.6711,"825": 14.2821,"850": 13.6675,"875": 13.5447,"900": 12.5817,"925": 12.6433,"950": 11.762,"975": 11.68,"1000": 10.2663,"1025": 9.3644,"1050": 9.815,"1075": 8.7087,"1100": 7.9503,"1125": 6.9053,"1150": 7.2947,"1175": 7.1717,"1200": 6.6594,"1225": 6.7005,"1250": 6.045,"1275": 5.4507,"1300": 4.7338,"1325": 4.2422,"1350": 3.5252,"1375": 3.2998,"1400": 2.9515,"1425": 2.5006,"1450": 2.3366,"1475": 2.644,"1500": 3.9145,"1525": 3.6071,"1550": 3.1153,"1575": 2.5415,"1600": 2.111,"1625": 1.3732,"1650": 1.1683,"1675": 0.9019,"1700": 0.9224,"1725": 0.8404,"1750": 0.7379,"1775": 0.6354,"1800": 0.205,"1825": 0.1025,"1850": 0.0205,"1875": 0.0205}}}