{"type":"Feature","properties":{"GID_2":"HND.16.28_1","GID_0":"HND","country":"Honduras","GID_1":"HND.16_1","province":"SantaBárbara","NL_NAME_1":"NA","county":"TrinidaddeCopán","VARNAME_2":"Trinidad","NL_NAME_2":"NA","TYPE_2":"Municipio","ENGTYPE_2":"Municipality","CC_2":"NA","HASC_2":"HN.CP.TC","name":"Trinidadde_Copán.county"},
"geometry":{"type": "MultiPolygon","coordinates": [[[[-88.2021,15.1989,940.9539],[-88.201,15.2022,1009.881],[-88.2025,15.2071,1189.6499],[-88.2003,15.2159,1197.0817],[-88.196,15.2194,983.4298],[-88.1841,15.2237,1218.3051],[-88.1751,15.214,1230.2511],[-88.1563,15.237,796.1882],[-88.2,15.2349,689.0428],[-88.2347,15.2095,723.4691],[-88.2439,15.2011,1031.8717],[-88.2527,15.1963,994.7245],[-88.2493,15.1849,635.4324],[-88.2663,15.189,725.7983],[-88.2772,15.2012,509.4831],[-88.3177,15.172,1089.6125],[-88.3298,15.1615,1527.6147],[-88.341,15.1899,1225.0474],[-88.3662,15.1537,1214.0767],[-88.368,15.1456,1095.6289],[-88.3174,15.1338,1559.3938],[-88.3066,15.1239,1182.4072],[-88.3166,15.1115,1216.1199],[-88.3105,15.0978,904.7823],[-88.2793,15.0697,549.7457],[-88.232,15.0477,198.2964],[-88.2297,15.0406,201.3341],[-88.2236,15.0417,233.4972],[-88.2216,15.046,288.1881],[-88.2167,15.0499,378.6877],[-88.2183,15.0534,342.1155],[-88.2163,15.0581,246.4453],[-88.2113,15.061,379.525],[-88.2075,15.0657,257.04],[-88.1994,15.0682,376.0211],[-88.1981,15.0744,379.8309],[-88.1927,15.0794,185.0803],[-88.1991,15.0867,220.4791],[-88.198,15.0901,177.3259],[-88.2093,15.0953,215.2269],[-88.2165,15.1053,147.2439],[-88.193,15.1117,353.4118],[-88.1827,15.1344,220.211],[-88.1893,15.1406,278.4648],[-88.189,15.1438,220.0187],[-88.2126,15.1599,312.4429],[-88.2191,15.1947,716.6468],[-88.2021,15.1989,940.9539]]]]}}