{"type": "Feature","bbox": [-87.64,14.5526,-87.4874,14.724],"geometry": {"type": "MultiPolygon","coordinates": [[[[-87.5182,14.5526,1949.1292],[-87.5124,14.5578,1669.7124],[-87.4993,14.5762,1244.4197],[-87.4906,14.5817,1000.4777],[-87.4877,14.5918,926.5593],[-87.4874,14.6022,797.9385],[-87.4967,14.6097,968.6866],[-87.5021,14.6186,941.1474],[-87.5021,14.6216,957.8503],[-87.5049,14.6227,989.6129],[-87.5035,14.6258,961.7519],[-87.499,14.6272,970.8485],[-87.4971,14.6297,950.5892],[-87.4972,14.6419,997.9394],[-87.5007,14.646,996.2654],[-87.5036,14.6455,1012.7831],[-87.5087,14.6499,1021.1065],[-87.5198,14.653,980.584],[-87.5218,14.6545,1006.3385],[-87.523,14.6588,1005.4397],[-87.5311,14.6616,1039.0607],[-87.5309,14.6652,1022.5264],[-87.5339,14.673,1077.6544],[-87.5325,14.689,1238.6134],[-87.5453,14.7085,1115.7729],[-87.5452,14.7141,1076.0137],[-87.5546,14.7198,1035.2168],[-87.567,14.724,917.1864],[-87.5928,14.716,603.4237],[-87.6084,14.7176,606.0952],[-87.6059,14.7139,564.5327],[-87.6082,14.7053,584.5247],[-87.6065,14.6991,515.1756],[-87.6079,14.6934,564.3594],[-87.6064,14.6913,576.8655],[-87.6187,14.6893,453.3342],[-87.6211,14.6862,373.0818],[-87.6256,14.684,394.5623],[-87.6262,14.6734,441.2198],[-87.6339,14.6659,460.9182],[-87.6314,14.6633,392.5907],[-87.6262,14.6638,381.6681],[-87.626,14.661,408.7896],[-87.6362,14.6557,436.8626],[-87.6363,14.6438,401.414],[-87.6314,14.6394,388.2022],[-87.6327,14.6376,387.0598],[-87.6389,14.6372,412.019],[-87.64,14.6337,464.1287],[-87.6393,14.6304,452.4402],[-87.6336,14.6227,428.3755],[-87.6259,14.6195,395.9449],[-87.6309,14.613,445.1566],[-87.6317,14.6073,400.7379],[-87.6296,14.6003,401.4089],[-87.6334,14.5948,412.8787],[-87.6349,14.5883,499.8052],[-87.6309,14.5797,462.7526],[-87.633,14.5706,548.0425],[-87.629,14.5679,617.4384],[-87.6201,14.5672,591.3434],[-87.6191,14.5648,658.1083],[-87.6135,14.5657,569.8272],[-87.6076,14.5643,550.0927],[-87.5936,14.5709,757.4623],[-87.5856,14.5672,897.6803],[-87.5787,14.5574,968.2826],[-87.5619,14.5588,966.8353],[-87.5182,14.5526,1949.1292]]]]}
,"properties": {"GID_2": "HND.4.14_1","GID_0": "HND","country": "Honduras","GID_1": "HND.4_1","province": "Comayagua","NL_NAME_1": "NA","county": "SanJerónimo","VARNAME_2": "NA","NL_NAME_2": "NA","TYPE_2": "Municipio","ENGTYPE_2": "Municipality","CC_2": "NA","HASC_2": "HN.CM.SJ","name": "San_Jerónimo.county","area_km2": 215.3025,"hist_schema_id": "Elevation0-9000","hist_area_km2": {"350": 0.0615,"375": 4.328,"400": 12.0006,"425": 11.2421,"450": 9.9293,"475": 8.8823,"500": 10.2153,"525": 8.6152,"550": 7.4666,"575": 6.8511,"600": 5.3948,"625": 4.1849,"650": 3.5901,"675": 3.9799,"700": 3.631,"725": 3.9389,"750": 4.1441,"775": 4.1441,"800": 4.1235,"825": 3.6312,"850": 3.549,"875": 3.5902,"900": 3.7542,"925": 3.9185,"950": 4.3289,"975": 5.9085,"1000": 8.7189,"1025": 8.2674,"1050": 7.8161,"1075": 6.2159,"1100": 5.8671,"1125": 4.5953,"1150": 2.7901,"1175": 2.4208,"1200": 1.6823,"1225": 1.6823,"1250": 1.1695,"1275": 0.7591,"1300": 0.8823,"1325": 0.7592,"1350": 0.6566,"1375": 0.8002,"1400": 0.5745,"1425": 0.6771,"1450": 0.6361,"1475": 0.6361,"1500": 0.6156,"1525": 0.7182,"1550": 0.8823,"1575": 0.513,"1600": 0.554,"1625": 0.7592,"1650": 0.6977,"1675": 0.4514,"1700": 0.472,"1725": 0.5746,"1750": 0.5746,"1775": 0.5335,"1800": 0.472,"1825": 0.5335,"1850": 0.3694,"1875": 0.4925,"1900": 0.4104,"1925": 0.513,"1950": 0.3078,"1975": 0.2668,"2000": 0.3078,"2025": 0.2052,"2050": 0.1436,"2075": 0.2463,"2100": 0.1436,"2125": 0.2463,"2150": 0.1436,"2175": 0.0821,"2200": 0.041,"2225": 0.0205}}}