{"type": "Feature","bbox": [-87.0418,13.1264,-86.8935,13.2904],"geometry": {"type": "MultiPolygon","coordinates": [[[[-87.0418,13.183,397.7301],[-87.0226,13.1637,201.7746],[-87.0207,13.1539,144.0402],[-87.0185,13.1502,167.037],[-86.9862,13.1627,183.6092],[-86.9803,13.1609,164.7876],[-86.9792,13.1586,131.6821],[-86.9758,13.1594,123.7845],[-86.97,13.1576,111.1372],[-86.9697,13.1519,140.5052],[-86.966,13.1518,172.7298],[-86.9644,13.1543,115.0139],[-86.9605,13.1524,117.6599],[-86.9568,13.1532,92.7084],[-86.9561,13.1489,108.657],[-86.9538,13.146,96.7979],[-86.9478,13.1488,92.8457],[-86.9449,13.1481,85.5574],[-86.942,13.1448,74.3445],[-86.9381,13.1435,84.6389],[-86.943,13.1397,95.3],[-86.933,13.1327,76.9271],[-86.9294,13.1264,69.3355],[-86.9258,13.1291,76.9418],[-86.9234,13.1337,67.8762],[-86.926,13.1415,90.224],[-86.9224,13.1452,71.1206],[-86.9183,13.1455,89.258],[-86.9286,13.1707,111.9625],[-86.929,13.1823,142.4279],[-86.9165,13.203,187.8768],[-86.9152,13.2091,173.954],[-86.9164,13.2155,165.0097],[-86.9111,13.2219,237.0778],[-86.9053,13.2463,275.1997],[-86.9087,13.2542,264.2302],[-86.9079,13.2563,251.759],[-86.8935,13.2659,383.593],[-86.8947,13.2698,325.5244],[-86.8977,13.2743,348.3426],[-86.9159,13.2871,663.2963],[-86.9508,13.2904,361.6045],[-86.9694,13.2626,501.4305],[-86.989,13.2599,348.2897],[-87.0273,13.2401,792.8664],[-87.0228,13.2076,551.5449],[-87.0418,13.183,397.7301]]]]}
,"properties": {"GID_2": "HND.2.3_1","GID_0": "HND","country": "Honduras","GID_1": "HND.2_1","province": "Choluteca","NL_NAME_1": "NA","county": "ConcepcióndeMaria","VARNAME_2": "NA","NL_NAME_2": "NA","TYPE_2": "Municipio","ENGTYPE_2": "Municipality","CC_2": "NA","HASC_2": "HN.CH.CM","name": "Concepciónde_Maria.county","area_km2": 162.1337,"hist_schema_id": "Elevation0-9000","hist_area_km2": {"50": 0.1239,"75": 4.6248,"100": 6.0697,"125": 8.7946,"150": 9.4342,"175": 10.5281,"200": 11.6218,"225": 11.5183,"250": 9.6187,"275": 10.4025,"300": 10.5879,"325": 9.5559,"350": 8.4826,"375": 7.0998,"400": 5.8614,"425": 5.9645,"450": 5.4693,"475": 4.8707,"500": 5.9851,"525": 4.7467,"550": 3.9419,"575": 1.9607,"600": 1.2796,"625": 1.1145,"650": 0.6605,"675": 0.516,"700": 0.5572,"725": 0.2889,"750": 0.227,"775": 0.0825,"800": 0.0826,"825": 0.0413,"850": 0.0206}}}