{"type": "Feature","bbox": [-86.9183,15.54,-86.6279,15.7999],"geometry": {"type": "MultiPolygon","coordinates": [[[[-86.8998,15.5598,2113.1169],[-86.8928,15.5648,1878.6216],[-86.8857,15.5639,2051.5742],[-86.8831,15.5561,1979.7571],[-86.8829,15.5463,1712.0693],[-86.8728,15.5474,1802.8762],[-86.8589,15.54,1647.7063],[-86.8452,15.5521,1975.9952],[-86.8401,15.5534,2029.334],[-86.8359,15.5527,2025.5991],[-86.8316,15.5461,1900.9535],[-86.8081,15.5428,1432.0365],[-86.8047,15.5406,1382.8673],[-86.8008,15.542,1337.2593],[-86.7959,15.5407,1269.6147],[-86.7924,15.5424,1229.7169],[-86.791,15.5462,1374.6072],[-86.7883,15.5474,1301.8997],[-86.7608,15.5548,969.192],[-86.7256,15.5776,628.0202],[-86.664,15.6002,546.0876],[-86.6587,15.6048,530.7758],[-86.6532,15.6047,455.0265],[-86.642,15.6078,707.6742],[-86.6381,15.6398,404.0291],[-86.6465,15.662,505.3604],[-86.6482,15.6783,337.5499],[-86.6474,15.6847,471.91],[-86.6386,15.6938,615.0069],[-86.6552,15.7211,1482.259],[-86.6396,15.7342,1001.8079],[-86.6314,15.7484,736.871],[-86.6294,15.7732,294.7155],[-86.6318,15.7778,240.1335],[-86.6319,15.7822,78.9407],[-86.6312,15.7852,41.5132],[-86.6279,15.7868,40.2639],[-86.6292,15.7921,5.6954],[-86.6279,15.7974,0.0],[-86.641,15.7968,3.0138],[-86.6479,15.7926,0.8997],[-86.6593,15.7915,2.5889],[-86.6665,15.7885,2.0463],[-86.7021,15.7874,0.0],[-86.744,15.7921,1.5973],[-86.7585,15.7971,0.0],[-86.7604,15.7949,0.654],[-86.7599,15.7926,0.0],[-86.7618,15.7921,1.4364],[-86.7621,15.7976,0.0],[-86.7668,15.799,0.0],[-86.7787,15.7812,2.4325],[-86.7785,15.776,3.8333],[-86.7796,15.776,3.8333],[-86.7801,15.7818,2.4325],[-86.7757,15.7901,0.0],[-86.776,15.7954,0.0],[-86.7787,15.7993,0.0],[-86.7843,15.7951,1.9627],[-86.7921,15.7926,0.0],[-86.7929,15.7904,3.0765],[-86.8043,15.781,0.5087],[-86.8151,15.7776,0.0],[-86.8185,15.7754,0.1021],[-86.8171,15.7735,0.5971],[-86.8226,15.774,0.0],[-86.8313,15.7674,0.3132],[-86.8749,15.7632,1.0616],[-86.8832,15.7637,0.6861],[-86.8835,15.7621,0.6861],[-86.8854,15.7632,0.0],[-86.8968,15.7571,0.797],[-86.9057,15.756,0.0],[-86.9033,15.7334,10.6231],[-86.8993,15.7254,18.6707],[-86.8977,15.7106,31.6846],[-86.894,15.7038,49.0268],[-86.8937,15.6997,69.351],[-86.8889,15.6952,63.0159],[-86.888,15.6895,233.8272],[-86.8834,15.6836,494.4773],[-86.8851,15.6774,585.2727],[-86.8838,15.6735,741.264],[-86.8858,15.6708,722.2407],[-86.8869,15.6581,1400.7629],[-86.8846,15.6496,1355.8096],[-86.8827,15.6479,1741.4846],[-86.8828,15.6418,1880.3085],[-86.8883,15.6348,1758.5049],[-86.8872,15.6291,1938.7874],[-86.8915,15.6264,1598.9343],[-86.896,15.6283,1388.5225],[-86.8961,15.6224,1692.8298],[-86.9009,15.6202,1872.0312],[-86.9016,15.615,1651.121],[-86.9037,15.6152,1687.2603],[-86.9036,15.6119,1464.7495],[-86.9108,15.6107,1785.3418],[-86.9149,15.6074,1790.7906],[-86.9183,15.6068,1655.1975],[-86.9132,15.6022,1496.7509],[-86.913,15.5942,1514.5959],[-86.9094,15.5927,1456.4209],[-86.9112,15.5901,1417.1227],[-86.9101,15.5863,1432.9603],[-86.9069,15.5852,1851.1708],[-86.905,15.5804,2118.4312],[-86.9004,15.5762,2074.8069],[-86.8986,15.5692,1843.8667],[-86.8998,15.5598,2113.1169]]],
[[[-86.7749,15.7999,0.0],[-86.774,15.794,0.0],[-86.7712,15.7946,0.0327],[-86.769,15.7996,0.0],[-86.7749,15.7999,0.0]]]]}
,"properties": {"GID_2": "HND.1.5_1","GID_0": "HND","country": "Honduras","GID_1": "HND.1_1","province": "Atlántida","NL_NAME_1": "NA","county": "LaCeiba","VARNAME_2": "NA","NL_NAME_2": "NA","TYPE_2": "Municipio","ENGTYPE_2": "Municipality","CC_2": "NA","HASC_2": "HN.AT.LC","name": "La_Ceiba.county","area_km2": 662.489,"hist_schema_id": "Elevation0-9000","hist_area_km2": {"0": 53.5614,"25": 31.5893,"50": 14.6934,"75": 10.2646,"100": 8.6117,"125": 8.9791,"150": 8.8569,"175": 8.5304,"200": 8.3265,"225": 7.7143,"250": 7.9593,"275": 11.471,"300": 11.5938,"325": 12.0021,"350": 11.4511,"375": 12.7168,"400": 12.2885,"425": 11.3904,"450": 11.4519,"475": 10.0639,"500": 10.8193,"525": 11.1051,"550": 9.4313,"575": 10.1052,"600": 10.2685,"625": 9.5133,"650": 9.1457,"675": 9.207,"700": 8.4109,"725": 9.1866,"750": 8.37,"775": 8.0842,"800": 8.3088,"825": 7.819,"850": 7.5128,"875": 7.819,"900": 8.3091,"925": 8.0235,"950": 7.3294,"975": 7.0437,"1000": 7.4521,"1025": 6.3496,"1050": 6.6968,"1075": 5.5533,"1100": 6.7173,"1125": 5.676,"1150": 5.2677,"1175": 5.3494,"1200": 5.2472,"1225": 4.7573,"1250": 5.1248,"1275": 4.5123,"1300": 5.227,"1325": 4.7983,"1350": 5.1454,"1375": 5.0229,"1400": 4.6555,"1425": 5.064,"1450": 4.9619,"1475": 5.5133,"1500": 5.738,"1525": 6.024,"1550": 6.3303,"1575": 6.6776,"1600": 6.0447,"1625": 5.8405,"1650": 5.9834,"1675": 4.9011,"1700": 5.3913,"1725": 4.9421,"1750": 4.6154,"1775": 4.452,"1800": 3.8393,"1825": 3.9211,"1850": 3.8189,"1875": 2.9409,"1900": 3.0837,"1925": 2.7162,"1950": 2.3894,"1975": 2.226,"2000": 2.1852,"2025": 1.6746,"2050": 1.5725,"2075": 1.45,"2100": 1.205,"2125": 0.8782,"2150": 0.6536,"2175": 0.4289,"2200": 0.388,"2225": 0.2655,"2250": 0.2655,"2275": 0.2042,"2300": 0.143,"2325": 0.2859,"2350": 0.143,"2375": 0.2655,"2400": 0.0817,"2425": 0.0613,"2450": 0.0409}}}