{"type":"Feature","properties":{"GID_2":"HND.17.3_1","GID_0":"HND","country":"Honduras","GID_1":"HND.17_1","province":"Valle","NL_NAME_1":"NA","county":"Aramecina","VARNAME_2":"NA","NL_NAME_2":"NA","TYPE_2":"Municipio","ENGTYPE_2":"Municipality","CC_2":"NA","HASC_2":"HN.VA.AR","name":"Aramecina.county"},
"geometry":{"type": "MultiPolygon","coordinates": [[[[-87.7361,13.707,98.5522],[-87.7494,13.6941,79.5175],[-87.7534,13.6868,81.3874],[-87.7547,13.6778,68.7641],[-87.7532,13.6863,81.3874],[-87.7363,13.6824,133.6976],[-87.7288,13.6823,128.7905],[-87.7289,13.6857,104.7043],[-87.7271,13.6842,111.3754],[-87.7253,13.6849,106.7051],[-87.7187,13.6787,160.1156],[-87.7142,13.6774,162.6418],[-87.7125,13.6747,216.4608],[-87.7077,13.6752,174.8297],[-87.7006,13.6716,206.1371],[-87.6945,13.6662,242.0932],[-87.69,13.6677,275.4832],[-87.6868,13.6663,362.2654],[-87.6838,13.6676,333.5041],[-87.6699,13.6819,526.1216],[-87.6619,13.6842,314.039],[-87.6603,13.6877,235.8241],[-87.6619,13.6894,272.089],[-87.6593,13.6914,257.163],[-87.6593,13.6978,350.5304],[-87.6531,13.7098,434.1709],[-87.6593,13.7222,319.8931],[-87.6585,13.7279,373.2081],[-87.6638,13.7349,433.7025],[-87.6554,13.7395,645.3732],[-87.6529,13.7686,328.1311],[-87.6512,13.7743,567.9739],[-87.6491,13.7756,677.1892],[-87.6499,13.7843,767.3551],[-87.6607,13.7819,560.0668],[-87.6676,13.7776,371.7914],[-87.678,13.7759,224.6481],[-87.6831,13.7761,240.0649],[-87.6859,13.7788,226.6965],[-87.6918,13.776,180.3092],[-87.6941,13.7775,166.3231],[-87.6983,13.7763,152.7765],[-87.7051,13.7778,143.8315],[-87.711,13.7765,126.2581],[-87.7216,13.7592,132.2664],[-87.7301,13.7515,109.7045],[-87.7343,13.7421,105.6099],[-87.7339,13.7357,110.5461],[-87.7278,13.7309,88.909],[-87.727,13.7255,104.1272],[-87.7331,13.71,99.0163],[-87.7361,13.707,98.5522]]]]}}