{"type": "Feature","bbox": [-87.0136,14.9751,-86.7247,15.2877],"geometry": {"type": "MultiPolygon","coordinates": [[[[-86.9924,14.9751,1414.6035],[-86.944,14.9805,1232.4971],[-86.9305,14.9777,1281.0211],[-86.9229,14.9806,1092.23],[-86.9094,14.9904,785.7424],[-86.8709,14.9873,853.5521],[-86.8601,14.9815,762.6199],[-86.8489,14.9881,796.9528],[-86.8457,14.9961,833.2068],[-86.8301,15.0022,625.105],[-86.8205,15.0029,681.1945],[-86.8123,15.0009,714.5979],[-86.7976,15.0023,853.2028],[-86.7938,15.0011,779.9796],[-86.7912,15.0062,708.381],[-86.784,15.0124,658.9976],[-86.7842,15.0137,658.9976],[-86.7896,15.0348,872.6282],[-86.7991,15.0589,945.0229],[-86.8106,15.0782,880.3587],[-86.8175,15.0948,1228.838],[-86.8162,15.1097,890.0853],[-86.812,15.1294,599.4169],[-86.8094,15.133,643.5463],[-86.8086,15.1396,852.4222],[-86.8017,15.1444,893.9873],[-86.7914,15.1596,991.6582],[-86.7796,15.1689,1026.3154],[-86.7717,15.1903,1435.4324],[-86.7571,15.2067,1501.1326],[-86.7443,15.2242,1359.944],[-86.7328,15.2344,1181.4016],[-86.7302,15.2438,1085.0093],[-86.7247,15.2511,933.3756],[-86.7268,15.2571,730.5359],[-86.733,15.2566,796.5262],[-86.7471,15.2598,683.813],[-86.7535,15.2573,601.374],[-86.7554,15.2588,552.0381],[-86.7573,15.2571,614.9583],[-86.7627,15.2572,863.1031],[-86.7795,15.262,902.7117],[-86.7857,15.2703,653.4959],[-86.7876,15.2802,373.4552],[-86.7895,15.282,316.2133],[-86.7935,15.2815,314.2526],[-86.7942,15.2839,412.9282],[-86.8021,15.2877,553.2222],[-86.8082,15.2772,487.3599],[-86.8114,15.2766,587.2616],[-86.8138,15.2735,523.3768],[-86.818,15.273,350.4241],[-86.8194,15.2692,391.1669],[-86.8239,15.2715,414.973],[-86.8357,15.2729,522.2495],[-86.8428,15.2765,791.9995],[-86.8456,15.2623,380.2824],[-86.8614,15.2586,408.097],[-86.8708,15.253,632.0453],[-86.8736,15.2483,712.6542],[-86.8827,15.248,791.6761],[-86.8908,15.24,884.4863],[-86.8902,15.2356,937.1711],[-86.8933,15.2314,1043.53],[-86.8949,15.2225,1207.3728],[-86.8911,15.2074,1275.0262],[-86.889,15.1855,1405.3779],[-86.881,15.1679,1411.4752],[-86.8811,15.151,908.942],[-86.8838,15.1495,857.3139],[-86.8856,15.1437,820.1395],[-86.8887,15.1427,830.0404],[-86.8905,15.1369,727.1177],[-86.89,15.1348,673.5245],[-86.8864,15.1352,669.5345],[-86.8842,15.1337,636.0924],[-86.8865,15.1248,549.7692],[-86.8908,15.1235,632.6021],[-86.8919,15.1193,540.744],[-86.8989,15.1158,542.4242],[-86.9028,15.1101,603.5348],[-86.9021,15.094,816.5597],[-86.9075,15.0925,858.465],[-86.9038,15.0722,1054.817],[-86.9092,15.067,1145.4655],[-86.9194,15.0699,1205.5387],[-86.927,15.0624,1136.1462],[-86.9418,15.0579,1418.4504],[-86.9443,15.0517,1563.469],[-86.9441,15.0353,1625.3838],[-86.9472,15.0301,1370.9537],[-86.955,15.0336,1448.9307],[-86.9651,15.0306,1502.6455],[-86.9747,15.0348,1679.6708],[-86.9841,15.0354,1719.234],[-86.9919,15.0323,1651.7671],[-86.9992,15.0258,1642.7854],[-87.0136,15.0042,1713.4446],[-87.0077,14.9935,1554.432],[-86.9929,14.9777,1342.3433],[-86.9924,14.9751,1414.6035]]]]}
,"properties": {"GID_2": "HND.15.14_1","GID_0": "HND","country": "Honduras","GID_1": "HND.15_1","province": "Olancho","NL_NAME_1": "NA","county": "Mangulile","VARNAME_2": "NA","NL_NAME_2": "NA","TYPE_2": "Municipio","ENGTYPE_2": "Municipality","CC_2": "NA","HASC_2": "HN.OL.MG","name": "Mangulile.county","area_km2": 440.7073,"hist_schema_id": "Elevation0-9000","hist_area_km2": {"275": 0.1636,"300": 0.225,"325": 0.5318,"350": 0.8795,"375": 1.125,"400": 1.7796,"425": 1.7796,"450": 1.7592,"475": 2.4548,"500": 4.7878,"525": 6.5278,"550": 7.3873,"575": 9.3522,"600": 11.7479,"625": 12.9767,"650": 14.2052,"675": 16.4781,"700": 16.3759,"725": 15.4957,"750": 16.212,"775": 15.4752,"800": 15.5366,"825": 15.1274,"850": 14.0218,"875": 13.3463,"900": 12.4243,"925": 12.0762,"950": 11.1961,"975": 10.6841,"1000": 10.3566,"1025": 9.7636,"1050": 9.5994,"1075": 9.3537,"1100": 8.9447,"1125": 8.5353,"1150": 6.877,"1175": 7.5123,"1200": 6.8361,"1225": 7.2656,"1250": 6.8769,"1275": 6.5496,"1300": 5.6905,"1325": 5.7514,"1350": 5.3631,"1375": 5.5064,"1400": 5.3836,"1425": 7.021,"1450": 7.2263,"1475": 6.8372,"1500": 5.8955,"1525": 5.1994,"1550": 4.5449,"1575": 2.8461,"1600": 2.4365,"1625": 2.3958,"1650": 3.1124,"1675": 2.4162,"1700": 1.1671,"1725": 0.4504,"1750": 0.3685,"1775": 0.2867,"1800": 0.1229,"1825": 0.041,"1850": 0.041}}}