{"type":"Feature","properties":{"GID_2":"HND.5.21_1","GID_0":"HND","country":"Honduras","GID_1":"HND.5_1","province":"Copán","NL_NAME_1":"NA","county":"SantaRosadeCopán","VARNAME_2":"NA","NL_NAME_2":"NA","TYPE_2":"Municipio","ENGTYPE_2":"Municipality","CC_2":"NA","HASC_2":"HN.CP.SC","name":"Santa_Rosade_Copán.county"},
"geometry":{"type": "MultiPolygon","coordinates": [[[[-88.8925,14.8573,1283.7974],[-88.9068,14.8405,1171.5852],[-88.9005,14.8271,1114.1506],[-88.9017,14.8218,1085.3309],[-88.8949,14.7935,988.9216],[-88.8946,14.7655,936.8342],[-88.8897,14.7416,917.2644],[-88.8882,14.7419,933.0329],[-88.8863,14.7363,894.2231],[-88.8841,14.7366,910.3433],[-88.8829,14.7391,995.6268],[-88.8791,14.7415,950.5651],[-88.8656,14.7433,962.0865],[-88.8618,14.74,979.7038],[-88.8584,14.7424,859.3519],[-88.8556,14.7398,947.4313],[-88.8549,14.7423,927.5316],[-88.8531,14.7425,885.0305],[-88.853,14.7389,929.4055],[-88.8481,14.74,828.0492],[-88.8485,14.7352,834.5123],[-88.8449,14.7376,792.4863],[-88.8397,14.7354,737.6993],[-88.8383,14.7322,758.8981],[-88.8359,14.7313,767.2876],[-88.8344,14.7347,627.9017],[-88.8325,14.7349,631.7063],[-88.8295,14.7208,705.3304],[-88.8218,14.7206,732.0659],[-88.8235,14.7174,793.708],[-88.8185,14.7135,946.3322],[-88.8148,14.7154,854.9307],[-88.8113,14.7118,937.3583],[-88.7927,14.71,684.8639],[-88.7891,14.7064,793.1628],[-88.7814,14.7054,758.1605],[-88.7773,14.7017,789.8771],[-88.7717,14.7001,770.7754],[-88.7682,14.6973,811.873],[-88.7563,14.6971,790.9881],[-88.7499,14.699,743.6219],[-88.7381,14.6937,1023.5756],[-88.7298,14.694,892.2318],[-88.7257,14.6914,995.3453],[-88.6981,14.6972,569.9136],[-88.6844,14.696,757.9796],[-88.6807,14.698,674.6365],[-88.6788,14.7026,671.2804],[-88.6744,14.7067,643.8165],[-88.6681,14.7047,644.2158],[-88.6668,14.7029,653.7863],[-88.6603,14.7049,584.2542],[-88.6593,14.7009,567.0999],[-88.6573,14.7014,570.1623],[-88.6552,14.7055,561.3779],[-88.6506,14.7044,535.3556],[-88.6505,14.7006,519.2128],[-88.6466,14.7017,518.7522],[-88.6475,14.7066,540.1257],[-88.646,14.7122,506.98],[-88.6502,14.7153,488.7558],[-88.6501,14.7194,477.1824],[-88.6521,14.7209,481.6013],[-88.653,14.7249,479.1899],[-88.6575,14.7266,568.119],[-88.6527,14.7345,532.8266],[-88.658,14.7392,472.0147],[-88.6586,14.748,533.0052],[-88.6854,14.7482,700.5902],[-88.6875,14.7507,767.3894],[-88.6924,14.7501,807.4095],[-88.6936,14.7522,843.6792],[-88.6995,14.7528,859.2997],[-88.7025,14.7549,936.2628],[-88.7202,14.7553,1032.9347],[-88.7237,14.7568,997.9746],[-88.7374,14.773,1094.5344],[-88.7453,14.7944,949.4993],[-88.7616,14.8205,903.7203],[-88.7592,14.8247,912.6969],[-88.7567,14.8251,897.3052],[-88.7482,14.8221,764.21],[-88.7416,14.8175,784.8217],[-88.7122,14.8272,680.4896],[-88.7116,14.8314,671.2511],[-88.7089,14.8356,703.95],[-88.7026,14.8381,826.908],[-88.6916,14.8376,726.8313],[-88.681,14.8406,829.5822],[-88.6724,14.8365,535.8519],[-88.6603,14.8383,516.5712],[-88.6499,14.8377,614.7597],[-88.6482,14.8389,650.3489],[-88.6499,14.8428,586.1439],[-88.6459,14.8503,547.6534],[-88.6366,14.849,796.793],[-88.6381,14.8535,872.2887],[-88.6413,14.8564,723.5857],[-88.6428,14.8666,491.1262],[-88.6327,14.8807,454.7131],[-88.651,14.8779,435.0045],[-88.6578,14.8742,664.6846],[-88.693,14.8778,788.9814],[-88.724,14.8746,631.1537],[-88.7258,14.8717,734.8883],[-88.7332,14.8725,799.0673],[-88.7411,14.8704,1041.4104],[-88.743,14.8707,1030.9818],[-88.7438,14.8738,872.4398],[-88.7489,14.8729,824.9641],[-88.75,14.8722,892.1012],[-88.7537,14.8463,860.1559],[-88.7919,14.8292,939.1581],[-88.797,14.8232,879.6907],[-88.7942,14.8173,929.1045],[-88.795,14.8116,997.0674],[-88.8031,14.8075,1131.2124],[-88.8068,14.803,1054.5525],[-88.8089,14.8027,1031.5522],[-88.8097,14.7994,955.2256],[-88.8136,14.7952,942.4263],[-88.8173,14.7942,919.2535],[-88.8183,14.7872,957.2253],[-88.8251,14.7872,972.4632],[-88.8256,14.7891,921.5743],[-88.8315,14.7892,836.7562],[-88.8385,14.7865,838.7881],[-88.8425,14.7798,724.4196],[-88.845,14.7814,780.3707],[-88.8442,14.7859,780.9382],[-88.8478,14.7894,704.6799],[-88.8531,14.791,749.5435],[-88.857,14.796,826.7977],[-88.8576,14.807,755.233],[-88.8556,14.8179,928.8195],[-88.8581,14.8177,911.369],[-88.8607,14.8239,924.9628],[-88.8925,14.8573,1283.7974]]]]}}