{"type":"Feature","properties":{"GID_2":"HND.6.3_1","GID_0":"HND","country":"Honduras","GID_1":"HND.6_1","province":"Cortés","NL_NAME_1":"NA","county":"Omoa","VARNAME_2":"NA","NL_NAME_2":"NA","TYPE_2":"Municipio","ENGTYPE_2":"Municipality","CC_2":"NA","HASC_2":"HN.CR.OM","name":"Omoa.county"},
"geometry":{"type": "MultiPolygon","coordinates": [[[[-88.226,15.723,0.6847],[-88.245,15.7205,4.1677],[-88.2383,15.7116,4.6443],[-88.239,15.6962,2.4462],[-88.2426,15.6949,4.6839],[-88.2427,15.691,2.8022],[-88.2484,15.6878,2.5633],[-88.2507,15.6887,2.595],[-88.2561,15.6839,1.3159],[-88.2609,15.6826,5.2498],[-88.2688,15.6839,2.1029],[-88.2739,15.6826,4.7769],[-88.2811,15.6753,3.523],[-88.3004,15.6704,4.354],[-88.3079,15.6792,5.7202],[-88.312,15.672,5.3191],[-88.3188,15.6695,2.8958],[-88.3192,15.6592,4.2],[-88.3175,15.6538,3.4839],[-88.3287,15.6351,6.7197],[-88.3548,15.604,7.8357],[-88.4303,15.5452,201.4309],[-88.3253,15.568,245.5633],[-88.276,15.585,653.7693],[-88.2112,15.6183,727.6127],[-88.1891,15.6272,423.2827],[-88.1629,15.6281,146.7428],[-88.1477,15.6113,400.8498],[-88.1361,15.6112,411.3126],[-88.1286,15.6074,615.6624],[-88.1264,15.6046,713.5909],[-88.1059,15.6,1075.3938],[-88.0935,15.6103,1298.293],[-88.075,15.6469,891.873],[-88.0659,15.6745,709.6593],[-88.0568,15.6921,296.6946],[-88.0517,15.6944,395.8409],[-88.0454,15.7003,470.7383],[-88.0249,15.7026,652.7343],[-87.9977,15.7219,545.9458],[-87.9927,15.7327,354.714],[-87.9831,15.7412,333.9873],[-87.9745,15.7449,318.5842],[-87.9696,15.749,158.2169],[-87.9676,15.7609,73.7788],[-87.9623,15.7664,96.6768],[-87.9608,15.7773,68.0045],[-87.9701,15.798,3.83],[-87.966,15.7969,35.7463],[-87.9513,15.8047,3.5138],[-87.944,15.8121,0.0],[-87.9568,15.8043,2.9297],[-87.9643,15.8026,0.0],[-87.9754,15.8029,0.0],[-87.9779,15.8007,0.0],[-87.9785,15.7968,8.1598],[-87.999,15.7865,4.8852],[-88.0232,15.7865,0.4142],[-88.036,15.784,0.6639],[-88.0418,15.7846,0.0],[-88.0424,15.7788,2.516],[-88.0446,15.7832,0.1821],[-88.0476,15.7826,0.615],[-88.049,15.7799,0.0],[-88.046,15.7774,0.7286],[-88.0457,15.7749,0.0],[-88.0476,15.764,6.7619],[-88.059,15.7554,15.7175],[-88.066,15.7549,2.301],[-88.0696,15.7496,6.1696],[-88.076,15.7487,1.0321],[-88.0804,15.7371,7.9222],[-88.0854,15.7329,1.1567],[-88.0974,15.7321,0.0],[-88.0996,15.7307,0.0],[-88.1026,15.7257,0.0],[-88.1054,15.7243,0.0],[-88.1087,15.7168,1.8472],[-88.1076,15.7126,1.2677],[-88.1026,15.7151,0.0],[-88.1026,15.706,0.9765],[-88.1096,15.701,0.0],[-88.1151,15.691,6.4078],[-88.1218,15.6865,4.001],[-88.131,15.6851,3.0996],[-88.1396,15.6818,3.0775],[-88.151,15.6812,1.595],[-88.1601,15.6835,1.8283],[-88.1771,15.6915,0.7167],[-88.184,15.6965,1.6593],[-88.1871,15.6968,2.1943],[-88.1915,15.7024,0.0],[-88.2018,15.7099,0.0],[-88.206,15.7107,0.0],[-88.2079,15.7143,0.0],[-88.2182,15.7218,0.0],[-88.226,15.723,0.6847]]]]}}