{"type":"Feature","properties":{"GID_2":"HND.5.6_1","GID_0":"HND","country":"Honduras","GID_1":"HND.5_1","province":"Copán","NL_NAME_1":"NA","county":"Dolores","VARNAME_2":"NA","NL_NAME_2":"NA","TYPE_2":"Municipio","ENGTYPE_2":"Municipality","CC_2":"NA","HASC_2":"HN.CP.DO","name":"Dolores.county"},
"geometry":{"type": "MultiPolygon","coordinates": [[[[-88.8686,14.8961,956.4205],[-88.864,14.8981,940.5519],[-88.8462,14.8981,836.9366],[-88.8424,14.8961,927.5615],[-88.8402,14.8923,955.6838],[-88.8375,14.8924,968.5125],[-88.8307,14.855,1134.6786],[-88.7892,14.8306,962.3724],[-88.8097,14.8947,1047.2919],[-88.8299,14.9102,945.7661],[-88.832,14.9202,978.1738],[-88.8362,14.9229,964.8961],[-88.8354,14.9261,971.7316],[-88.832,14.9267,1035.0232],[-88.8353,14.9291,991.3594],[-88.8354,14.9343,789.2483],[-88.8447,14.9384,834.1711],[-88.8457,14.9436,870.1105],[-88.8523,14.9377,846.1292],[-88.8598,14.9373,888.7959],[-88.8623,14.9418,815.7738],[-88.8655,14.9407,886.5662],[-88.8761,14.9314,977.3116],[-88.8808,14.9185,1080.5427],[-88.888,14.9149,1103.9514],[-88.893,14.8972,1232.4678],[-88.8832,14.8934,1281.8478],[-88.8686,14.8961,956.4205]]]]}}