{"type":"Feature","properties":{"GID_2":"HND.9.3_1","GID_0":"HND","country":"Honduras","GID_1":"HND.9_1","province":"GraciasaDios","NL_NAME_1":"NA","county":"JuanFranciscoBulnes","VARNAME_2":"NA","NL_NAME_2":"NA","TYPE_2":"Municipio","ENGTYPE_2":"Municipality","CC_2":"NA","HASC_2":"HN.GD.JF","name":"Juan_Francisco_Bulnes.county"},
"geometry":{"type": "MultiPolygon","coordinates": [[[[-84.6066,15.2071,45.3655],[-84.5979,15.2176,44.6764],[-84.5981,15.2227,53.0698],[-84.6015,15.2273,32.8303],[-84.6043,15.2272,35.9214],[-84.6045,15.2152,47.4629],[-84.6079,15.2116,47.735],[-84.6135,15.2133,37.2995],[-84.6134,15.219,39.106],[-84.618,15.2238,36.7306],[-84.6249,15.2187,36.3084],[-84.6226,15.2071,32.7438],[-84.6115,15.2047,47.9273],[-84.6066,15.2071,45.3655]]],
[[[-84.9964,15.585,220.3859],[-84.9961,15.4635,232.4648],[-84.9789,15.462,205.7943],[-84.9703,15.457,188.629],[-84.9681,15.4578,233.0508],[-84.9662,15.4614,214.5683],[-84.9592,15.4591,336.4364],[-84.9539,15.463,303.7476],[-84.9524,15.4668,228.651],[-84.9482,15.4703,231.0226],[-84.9455,15.4801,269.5555],[-84.9482,15.4803,268.5571],[-84.9498,15.4825,209.2846],[-84.9595,15.4838,196.5331],[-84.9615,15.4858,216.8392],[-84.9616,15.49,157.3768],[-84.9666,15.4908,151.6584],[-84.9686,15.4929,121.1365],[-84.965,15.4973,174.0741],[-84.9692,15.5028,175.8377],[-84.9675,15.5067,174.4023],[-84.9703,15.508,178.8587],[-84.9744,15.5179,124.8593],[-84.9761,15.5321,144.3198],[-84.9793,15.5395,196.1894],[-84.9768,15.5415,193.1408],[-84.976,15.5494,195.7843],[-84.974,15.5511,206.3936],[-84.9674,15.5521,234.9723],[-84.9628,15.5502,261.3515],[-84.9616,15.5527,271.5243],[-84.9551,15.553,338.4403],[-84.9519,15.5551,276.3677],[-84.9531,15.5598,292.1534],[-84.9511,15.5646,280.529],[-84.967,15.5693,213.7062],[-84.9673,15.5718,198.8607],[-84.9583,15.5746,131.8455],[-84.9564,15.5804,198.4449],[-84.9501,15.579,269.1341],[-84.9492,15.5813,288.3647],[-84.9463,15.5806,220.422],[-84.9444,15.5822,187.9165],[-84.9435,15.5913,245.2827],[-84.948,15.5994,222.5625],[-84.9471,15.6012,245.7964],[-84.943,15.6012,97.4197],[-84.9419,15.6054,85.9379],[-84.9383,15.6036,70.873],[-84.9334,15.5947,99.475],[-84.9272,15.5908,189.0055],[-84.9233,15.5916,352.4665],[-84.9115,15.5992,111.1225],[-84.9122,15.6097,83.2702],[-84.9052,15.6166,85.4238],[-84.9054,15.6319,82.0928],[-84.9013,15.6382,69.0102],[-84.8939,15.6404,70.9706],[-84.8857,15.6478,101.1044],[-84.8808,15.6495,109.5291],[-84.8848,15.6571,107.0493],[-84.8848,15.6605,165.7546],[-84.8774,15.6723,26.2193],[-84.8732,15.6728,43.9029],[-84.8666,15.6614,75.875],[-84.8623,15.6572,48.9307],[-84.858,15.6608,57.7984],[-84.8512,15.6583,62.297],[-84.8449,15.67,32.0348],[-84.842,15.6691,40.6168],[-84.8391,15.6632,39.4983],[-84.831,15.6639,37.8332],[-84.8273,15.6607,45.7744],[-84.8253,15.6651,46.5581],[-84.8241,15.6763,55.0676],[-84.8148,15.6825,35.8494],[-84.8186,15.6856,48.349],[-84.8186,15.6875,43.023],[-84.8085,15.6905,50.6976],[-84.8058,15.694,47.0654],[-84.8059,15.697,34.7332],[-84.8037,15.6986,54.5497],[-84.8087,15.6986,33.7369],[-84.813,15.7022,18.704],[-84.8087,15.7131,19.8196],[-84.8085,15.7261,13.3289],[-84.813,15.7389,60.3575],[-84.8162,15.7571,14.4098],[-84.8203,15.7637,16.7753],[-84.8201,15.7701,22.2589],[-84.8242,15.7796,19.4486],[-84.8276,15.794,28.7493],[-84.8377,15.8099,6.1762],[-84.838,15.8163,3.2524],[-84.8434,15.8331,11.9488],[-84.8507,15.8465,4.9251],[-84.8562,15.8527,13.567],[-84.8604,15.8729,12.1645],[-84.8567,15.8841,5.9825],[-84.8572,15.9164,1.625],[-84.8824,15.9273,9.3464],[-84.8968,15.9264,9.5939],[-84.8993,15.9211,9.9382],[-84.9038,15.9191,5.0764],[-84.9173,15.9191,4.5658],[-84.9182,15.9174,5.8065],[-84.9165,15.9155,6.6759],[-84.9028,15.9135,15.46],[-84.902,15.9068,8.4145],[-84.9055,15.9038,9.4955],[-84.9118,15.9034,10.983],[-84.9139,15.8947,9.0528],[-84.916,15.8926,9.2946],[-84.9221,15.891,13.8741],[-84.9338,15.8842,16.0033],[-84.9412,15.8831,9.5542],[-84.9502,15.8766,7.1249],[-84.9594,15.8751,7.4098],[-84.9593,15.8707,7.732],[-84.9537,15.8698,6.4962],[-84.9512,15.8653,8.6586],[-84.9519,15.8618,7.3325],[-84.9549,15.8591,27.7114],[-84.9641,15.8573,16.1125],[-84.9729,15.8593,7.6677],[-84.9777,15.8586,6.2918],[-84.9767,15.85,7.1785],[-84.9806,15.8439,9.9331],[-84.9977,15.8469,12.7344],[-84.9964,15.585,220.3859]]],
[[[-84.8684,15.923,10.8791],[-84.8572,15.9187,2.2187],[-84.8577,15.9255,2.1338],[-84.9064,15.9437,2.3064],[-84.902,15.9383,5.2557],[-84.892,15.9356,4.8995],[-84.8857,15.9293,5.2295],[-84.8813,15.9288,5.4291],[-84.8684,15.923,10.8791]]],
[[[-84.9415,15.9569,1.4799],[-84.9415,15.9571,0.0],[-84.9418,15.957,1.4799],[-84.9415,15.9569,1.4799]]],
[[[-84.9977,15.889,8.5295],[-84.9977,15.8486,14.9104],[-84.982,15.8462,10.2814],[-84.9792,15.8505,10.6736],[-84.9813,15.8559,7.4346],[-84.9801,15.8604,8.42],[-84.9763,15.8615,8.019],[-84.9645,15.8596,11.8626],[-84.9544,15.8624,13.378],[-84.9541,15.8667,6.1228],[-84.9626,15.8716,5.9259],[-84.9616,15.8767,8.1911],[-84.9504,15.8793,7.4931],[-84.9415,15.885,8.7787],[-84.9309,15.888,9.9487],[-84.9239,15.8924,15.7002],[-84.9166,15.8945,8.8787],[-84.9141,15.9049,13.2609],[-84.9038,15.9071,8.6718],[-84.9037,15.9095,11.2118],[-84.9062,15.9117,9.2996],[-84.919,15.9146,9.8226],[-84.919,15.9205,4.5349],[-84.9132,15.9232,7.0585],[-84.9096,15.9203,12.7985],[-84.9039,15.9213,12.1317],[-84.8985,15.927,9.4704],[-84.8916,15.9285,10.4472],[-84.8896,15.9312,5.6221],[-84.8909,15.9334,6.7409],[-84.8994,15.9345,3.608],[-84.9034,15.9366,2.3883],[-84.9093,15.947,2.554],[-84.9129,15.9491,5.435],[-84.9152,15.9443,1.2997],[-84.9105,15.9432,4.8881],[-84.9099,15.9401,9.7378],[-84.9154,15.9359,13.9967],[-84.9142,15.9274,7.5926],[-84.9163,15.9232,5.1236],[-84.9173,15.9252,7.9748],[-84.9157,15.9287,7.5926],[-84.9177,15.932,2.489],[-84.9178,15.9365,7.1589],[-84.9118,15.9415,6.3443],[-84.9209,15.9415,3.0552],[-84.9336,15.9483,3.7422],[-84.9374,15.9427,1.6014],[-84.9304,15.9315,1.0383],[-84.9319,15.9226,5.2255],[-84.9282,15.9173,4.8343],[-84.929,15.9132,7.2396],[-84.932,15.9115,4.9871],[-84.9293,15.9082,8.307],[-84.9307,15.9067,5.935],[-84.9346,15.9117,5.6379],[-84.9305,15.9139,7.3127],[-84.9305,15.9175,9.1957],[-84.9331,15.9194,4.3499],[-84.9371,15.9183,4.1325],[-84.9382,15.9193,4.2705],[-84.9346,15.9213,2.8328],[-84.9315,15.9298,2.6644],[-84.9382,15.9367,0.732],[-84.9391,15.9411,1.2625],[-84.9402,15.9413,1.2625],[-84.9413,15.9371,1.0745],[-84.9424,15.9424,8.3215],[-84.9493,15.9465,4.8854],[-84.9488,15.9501,4.3412],[-84.9504,15.9507,0.0],[-84.951,15.9485,6.7334],[-84.9593,15.941,1.2883],[-84.959,15.939,11.3582],[-84.9624,15.9396,5.2322],[-84.9546,15.9471,0.6401],[-84.9549,15.949,1.0827],[-84.9532,15.949,1.0827],[-84.9493,15.9565,1.5403],[-84.951,15.9601,1.4823],[-84.9579,15.9618,3.3565],[-84.959,15.9654,0.9038],[-84.9329,15.9543,2.5094],[-84.9282,15.9538,0.6488],[-84.9262,15.9571,2.738],[-84.9899,15.9785,1.5369],[-84.9938,15.9796,0.0],[-84.9972,15.9783,0.7938],[-84.9977,15.889,8.5295]]],
[[[-84.943,15.9503,6.6763],[-84.9474,15.9522,0.0],[-84.9482,15.9496,2.2924],[-84.9471,15.9463,1.101],[-84.9437,15.9437,0.6689],[-84.9414,15.947,4.5997],[-84.943,15.9503,6.6763]]],
[[[-84.9418,15.957,1.4799],[-84.9418,15.9574,0.0],[-84.9429,15.9574,0.0],[-84.9418,15.957,1.4799]]],
[[[-84.9429,15.9574,0.0],[-84.9429,15.9576,0.0],[-84.9435,15.9576,0.0],[-84.9429,15.9574,0.0]]]]}}