{"type": "Feature","bbox": [-87.7453,13.7759,-87.6499,13.8431],"geometry": {"type": "MultiPolygon","coordinates": [[[[-87.711,13.7765,126.2581],[-87.7051,13.7778,143.8315],[-87.6983,13.7763,152.7765],[-87.6941,13.7775,166.3231],[-87.6918,13.776,180.3092],[-87.6859,13.7788,226.6965],[-87.6831,13.7761,240.0649],[-87.678,13.7759,224.6481],[-87.6676,13.7776,371.7914],[-87.6607,13.7819,560.0668],[-87.6499,13.7843,767.3551],[-87.6521,13.801,530.1112],[-87.6505,13.8229,999.4595],[-87.674,13.823,377.2673],[-87.6821,13.8331,221.8602],[-87.6942,13.8381,173.708],[-87.6973,13.8431,170.7178],[-87.7222,13.8421,432.7535],[-87.7453,13.8342,220.2048],[-87.7413,13.8273,280.8575],[-87.7288,13.8177,227.9876],[-87.7197,13.8165,172.9981],[-87.7103,13.8108,159.8418],[-87.7089,13.802,139.2446],[-87.711,13.7765,126.2581]]]]}
,"properties": {"GID_2": "HND.17.4_1","GID_0": "HND","country": "Honduras","GID_1": "HND.17_1","province": "Valle","NL_NAME_1": "NA","county": "Caridad","VARNAME_2": "NA","NL_NAME_2": "NA","TYPE_2": "Municipio","ENGTYPE_2": "Municipality","CC_2": "NA","HASC_2": "HN.VA.CA","name": "Caridad.county","area_km2": 46.01715,"hist_schema_id": "Elevation0-9000","hist_area_km2": {"125": 0.59714,"150": 3.52095,"175": 4.63261,"200": 4.96193,"225": 4.92077,"250": 3.85014,"275": 2.90302,"300": 2.73831,"325": 2.0589,"350": 1.72948,"375": 1.4824,"400": 1.21478,"425": 0.90594,"450": 0.98832,"475": 1.17362,"500": 0.70006,"525": 0.80302,"550": 0.76184,"575": 0.55593,"600": 0.55593,"625": 0.6177,"650": 0.65888,"675": 0.70004,"700": 0.67945,"725": 0.59708,"750": 0.45296,"775": 0.43237,"800": 0.24707,"825": 0.14412,"850": 0.28825,"875": 0.06177,"900": 0.04118,"925": 0.04118}}}