{"type": "Feature","bbox": [-86.2018,15.7561,-85.9896,15.9049],"geometry": {"type": "MultiPolygon","coordinates": [[[[-86.1572,15.7561,219.973],[-86.121,15.7845,323.9264],[-86.0966,15.8122,347.4725],[-86.0382,15.8524,704.8792],[-85.995,15.871,204.0972],[-85.9909,15.8764,161.6557],[-85.9902,15.8834,104.0838],[-85.9924,15.8947,30.2],[-85.9915,15.9013,9.2292],[-85.994,15.9034,6.5888],[-85.9896,15.9049,3.7171],[-85.9968,15.9049,0.0],[-86.0124,15.901,2.1225],[-86.0324,15.9007,0.0],[-86.0663,15.8973,1.5279],[-86.1124,15.8999,11.9457],[-86.1199,15.9035,2.2638],[-86.1218,15.9024,7.8522],[-86.1232,15.9049,3.5485],[-86.1263,15.904,0.0],[-86.126,15.9012,3.3394],[-86.1304,15.8982,7.5025],[-86.1435,15.8965,18.9294],[-86.1582,15.889,5.0631],[-86.1657,15.8874,0.0],[-86.1796,15.8885,10.0746],[-86.1835,15.8846,11.3036],[-86.1893,15.8843,0.0],[-86.2018,15.8773,36.4356],[-86.1985,15.8724,115.7429],[-86.1988,15.8624,287.1823],[-86.1968,15.8599,488.6138],[-86.1907,15.8573,509.9838],[-86.1845,15.8477,886.7368],[-86.1865,15.8399,1083.7631],[-86.1938,15.8372,978.7486],[-86.1947,15.8347,799.7526],[-86.1919,15.8309,738.0463],[-86.1851,15.8262,911.1693],[-86.1572,15.7561,219.973]]]]}
,"properties": {"GID_2": "HND.3.6_1","GID_0": "HND","country": "Honduras","GID_1": "HND.3_1","province": "Colón","NL_NAME_1": "NA","county": "SantaFé","VARNAME_2": "NA","NL_NAME_2": "NA","TYPE_2": "Municipio","ENGTYPE_2": "Municipality","CC_2": "NA","HASC_2": "HN.CL.SF","name": "Santa_Fé.county","area_km2": 189.2346,"hist_schema_id": "Elevation0-9000","hist_area_km2": {"0": 5.9746,"25": 5.5669,"50": 3.3647,"75": 2.7326,"100": 2.7937,"125": 3.059,"150": 4.3441,"175": 5.2823,"200": 5.7923,"225": 5.8333,"250": 6.2616,"275": 6.3227,"300": 7.0775,"325": 6.7918,"350": 7.1998,"375": 7.0978,"400": 7.057,"425": 5.5885,"450": 6.5064,"475": 5.9762,"500": 5.9762,"525": 6.1802,"550": 5.344,"575": 6.7309,"600": 6.0784,"625": 5.8337,"650": 4.5281,"675": 4.0794,"700": 3.5696,"725": 3.4064,"750": 3.1208,"775": 2.8352,"800": 2.2641,"825": 2.2846,"850": 2.1622,"875": 1.9378,"900": 1.897,"925": 1.6727,"950": 1.3667,"975": 1.3055,"1000": 1.1832,"1025": 1.1424,"1050": 1.1628,"1075": 0.9384,"1100": 0.7956,"1125": 0.3876,"1150": 0.1836,"1175": 0.102,"1200": 0.0816,"1225": 0.0408,"1250": 0.0204}}}