{"type":"Feature","properties":{"GID_2":"HND.2.9_1","GID_0":"HND","country":"Honduras","GID_1":"HND.2_1","province":"Choluteca","NL_NAME_1":"NA","county":"Namasigue","VARNAME_2":"NA","NL_NAME_2":"NA","TYPE_2":"Municipio","ENGTYPE_2":"Municipality","CC_2":"NA","HASC_2":"HN.CH.NA","name":"Namasigue.county"},
"geometry":{"type": "MultiPolygon","coordinates": [[[[-87.1315,13.0331,3.2267],[-87.1261,13.04,4.5363],[-87.1246,13.0454,8.0545],[-87.1182,13.0555,11.6704],[-87.1145,13.0571,13.3068],[-87.1093,13.0564,14.1402],[-87.1057,13.0621,16.2361],[-87.102,13.0643,20.4179],[-87.0961,13.062,28.8662],[-87.0894,13.0684,26.8372],[-87.0873,13.0773,35.9588],[-87.0882,13.0913,48.036],[-87.0873,13.094,54.8283],[-87.0823,13.0978,84.4749],[-87.079,13.1067,163.6478],[-87.0795,13.1168,147.6482],[-87.0819,13.1223,254.1181],[-87.0808,13.1363,341.2971],[-87.0788,13.1404,294.8863],[-87.0907,13.1473,192.6852],[-87.079,13.1599,437.123],[-87.0728,13.1694,399.2765],[-87.0814,13.201599999999999,342.938],[-87.0862,13.208,324.5586],[-87.0956,13.2072,161.1305],[-87.0916,13.2249,339.8371],[-87.0867,13.2336,425.6101],[-87.0817,13.2363,458.0667],[-87.0846,13.2401,417.6531],[-87.0958,13.2467,380.067],[-87.0984,13.2501,471.79],[-87.1098,13.256,595.7769],[-87.1457,13.2457,385.6251],[-87.1886,13.1914,10.7233],[-87.1894,13.1859,11.3141],[-87.1873,13.1809,12.7235],[-87.2019,13.1656,7.4545],[-87.2011,13.1627,7.4072],[-87.2056,13.1573,4.2858],[-87.2051,13.1541,5.6182],[-87.2098,13.1521,2.8644],[-87.2129,13.1468,1.7346],[-87.2177,13.1445,1.4885],[-87.2144,13.1408,1.5286],[-87.2109,13.1438,1.8938],[-87.2024,13.1439,2.2729],[-87.1979,13.139099999999999,1.7406],[-87.1871,13.1357,4.8406],[-87.1864,13.1326,1.9493],[-87.1798,13.1238,1.2848],[-87.1736,13.1227,1.0],[-87.1671,13.1194,1.0],[-87.1571,13.1099,1.1728],[-87.1534,13.1039,7.5763],[-87.153,13.0996,5.6994],[-87.1548,13.0932,5.6981],[-87.1609,13.0881,2.7718],[-87.1603,13.0811,2.1575],[-87.1486,13.0731,2.6716],[-87.1503,13.0721,2.6716],[-87.1528,13.0643,3.0542],[-87.1511,13.0602,2.0],[-87.1469,13.0591,2.0],[-87.1385,13.0624,2.177],[-87.1361,13.0607,8.1082],[-87.1356,13.0423,3.2128],[-87.1342,13.0355,3.0929],[-87.1315,13.0331,3.2267]]]]}}