{"type":"Feature","properties":{"GID_2":"HND.10.14_1","GID_0":"HND","country":"Honduras","GID_1":"HND.10_1","province":"Intibucá","NL_NAME_1":"NA","county":"SanMarcosdelaSierra","VARNAME_2":"SanMarcosdeSierra","NL_NAME_2":"NA","TYPE_2":"Municipio","ENGTYPE_2":"Municipality","CC_2":"NA","HASC_2":"HN.IN.SS","name":"San_Marcosdela_Sierra.county"},
"geometry":{"type": "MultiPolygon","coordinates": [[[[-88.2325,14.0709,852.8044],[-88.2285,14.0705,850.786],[-88.2239,14.0737,824.1968],[-88.2201,14.0696,974.0685],[-88.2186,14.0754,883.1385],[-88.2153,14.0777,781.2449],[-88.2135,14.0833,786.6969],[-88.2092,14.0868,965.8325],[-88.2013,14.0872,1062.8342],[-88.2021,14.0904,1128.6887],[-88.1988,14.0938,991.8831],[-88.1988,14.0964,921.8391],[-88.1934,14.0975,776.7765],[-88.1881,14.1105,1179.5117],[-88.1832,14.1128,1294.6526],[-88.1812,14.116,1223.6781],[-88.1814,14.1202,1293.4484],[-88.1788,14.1236,1183.6095],[-88.1745,14.1237,1410.3828],[-88.1714,14.128,1327.46],[-88.1671,14.1274,1201.5911],[-88.1625,14.1344,1033.7097],[-88.1591,14.1344,1025.9454],[-88.1585,14.1378,1167.8655],[-88.1547,14.1401,1228.316],[-88.1538,14.1436,1185.8452],[-88.1513,14.1444,1237.7874],[-88.1513,14.15,1053.1947],[-88.1611,14.159,1086.8651],[-88.1609,14.1675,979.2137],[-88.1778,14.1617,1345.02],[-88.1837,14.1635,1221.8934],[-88.1924,14.161,1153.7737],[-88.2757,14.1623,1220.1754],[-88.3038,14.1558,960.5504],[-88.3135,14.1561,523.2932],[-88.3184,14.1527,441.3046],[-88.3253,14.1514,521.0692],[-88.3252,14.1492,527.6887],[-88.3199,14.1473,397.2457],[-88.3162,14.1418,509.925],[-88.3153,14.1351,531.5545],[-88.3201,14.1209,316.8748],[-88.3178,14.1176,333.8663],[-88.3177,14.107,286.7458],[-88.314,14.1039,354.9338],[-88.3136,14.0914,677.4941],[-88.2869,14.0828,790.0153],[-88.2661,14.0536,669.3005],[-88.2609,14.0583,954.7676],[-88.2537,14.0604,907.5319],[-88.249,14.0651,758.8108],[-88.2488,14.0702,790.5403],[-88.2453,14.0731,918.9288],[-88.2325,14.0709,852.8044]]]]}}