{"type":"Feature","properties":{"GID_2":"HND.9.4_1","GID_0":"HND","country":"Honduras","GID_1":"HND.9_1","province":"GraciasaDios","NL_NAME_1":"NA","county":"PuertoLempira","VARNAME_2":"NA","NL_NAME_2":"NA","TYPE_2":"Municipio","ENGTYPE_2":"Municipality","CC_2":"NA","HASC_2":"HN.GD.PL","name":"Puerto_Lempira.county"},
"geometry":{"type": "MultiPolygon","coordinates": [[[[-84.3933,15.1709,59.6235],[-84.3974,15.1695,58.6663],[-84.4031,15.1709,45.2623],[-84.4037,15.1615,41.5448],[-84.4015,15.1578,46.8924],[-84.403,15.1459,51.4029],[-84.4078,15.1406,55.3541],[-84.4168,15.1365,65.3392],[-84.434,15.113,56.7155],[-84.4351,15.1093,60.8392],[-84.434,15.1018,70.246],[-84.431,15.0974,71.8995],[-84.4265,15.0966,61.2979],[-84.4183,15.0858,61.9278],[-84.4131,15.0746,61.901],[-84.409,15.0735,62.4848],[-84.4075,15.0705,65.7497],[-84.4093,15.0586,66.2046],[-84.4205,15.0481,88.5643],[-84.4284,15.0451,73.1897],[-84.4519,15.0451,77.2259],[-84.452,15.0403,77.6191],[-84.4606,15.0295,79.8318],[-84.4617,15.0205,82.1795],[-84.4651,15.0146,86.2787],[-84.4774,15.003,87.2583],[-84.4852,14.9993,88.4509],[-84.4938,14.9978,100.9677],[-84.5004,14.9944,104.2963],[-84.5074,14.9944,95.6476],[-84.513,14.9974,99.6088],[-84.5321,15.0008,115.1863],[-84.5403,15.0004,121.4258],[-84.5531,14.9918,135.0983],[-84.5591,14.9896,135.641],[-84.5889,14.9873,139.0306],[-84.5999,14.9829,189.522],[-84.6123,14.975,167.5679],[-84.6468,14.9623,145.1314],[-84.6591,14.9538,126.2092],[-84.6691,14.9504,127.1406],[-84.6706,14.947,116.1324],[-84.6699,14.9396,124.4303],[-84.6775,14.9273,116.8793],[-84.6831,14.9221,119.5198],[-84.7003,14.912,145.2033],[-84.7001,14.9008,151.143],[-84.7214,14.8728,222.3675],[-84.7331,14.8516,147.5708],[-84.7398,14.8433,136.1671],[-84.7473,14.8381,157.7979],[-84.7603,14.8329,128.5813],[-84.7762,14.8161,109.9334],[-84.7829,14.8154,96.5325],[-84.7921,14.8058,75.9096],[-84.7895,14.7937,90.2646],[-84.7823,14.7837,82.8916],[-84.7756,14.7777,78.1876],[-84.775,14.779,80.7329],[-84.7546,14.7664,71.2667],[-84.7521,14.7574,70.2055],[-84.7565,14.7514,66.3147],[-84.7653,14.7531,72.0972],[-84.769,14.7512,68.5479],[-84.7713,14.7471,71.9008],[-84.7665,14.7403,75.826],[-84.7609,14.7389,70.5129],[-84.749,14.7445,71.4196],[-84.7458,14.7375,63.6946],[-84.7506,14.7257,68.6674],[-84.7468,14.7115,71.2458],[-84.7227,14.691,83.7182],[-84.7122,14.6887,61.6832],[-84.7059,14.671,64.0845],[-84.705,14.6617,72.1547],[-84.6958,14.6609,68.5586],[-84.6888,14.6708,65.3061],[-84.681,14.687,62.0642],[-84.6754,14.6853,61.7147],[-84.6765,14.6799,62.4173],[-84.6706,14.6737,64.7592],[-84.6595,14.6678,66.68],[-84.6539,14.6684,66.258],[-84.6427,14.6727,52.0],[-84.6374,14.6723,56.0302],[-84.6339,14.6678,53.244],[-84.6326,14.662,67.8118],[-84.6284,14.6604,76.7279],[-84.6152,14.6611,56.1729],[-84.6054,14.6556,65.5249],[-84.5985,14.6545,62.2633],[-84.5903,14.6576,54.3459],[-84.5818,14.6501,63.5753],[-84.5693,14.6535,55.8329],[-84.5605,14.6463,64.8],[-84.5538,14.6507,62.6583],[-84.542,14.6512,55.0262],[-84.5354,14.654,55.4734],[-84.5245,14.6538,49.9888],[-84.5232,14.6503,52.2314],[-84.5279,14.6443,55.5183],[-84.5369,14.6415,53.0844],[-84.5376,14.6367,58.7703],[-84.5344,14.6287,59.39],[-84.5271,14.6311,52.0766],[-84.5212,14.6301,61.2191],[-84.511,14.6344,55.8359],[-84.507,14.6334,56.6915],[-84.5058,14.6267,48.2438],[-84.498,14.621,44.0],[-84.4691,14.6145,60.6441],[-84.4661,14.6155,61.0003],[-84.4624,14.6253,51.019],[-84.4577,14.6302,57.0832],[-84.4331,14.6319,50.1233],[-84.41,14.6433,51.2118],[-84.4084,14.6538,63.2268],[-84.3832,14.6773,51.1759],[-84.3773,14.6908,43.6309],[-84.3708,14.6966,48.8026],[-84.3676,14.702,47.388],[-84.3683,14.7087,43.1792],[-84.3646,14.7117,43.413],[-84.3539,14.7042,46.926],[-84.3431,14.7017,45.8911],[-84.351,14.6858,43.6739],[-84.3511,14.6791,46.0807],[-84.3483,14.676,55.0424],[-84.3411,14.6724,55.5432],[-84.3267,14.671,62.7753],[-84.3207,14.6728,52.5458],[-84.317,14.679,54.106],[-84.3093,14.6817,46.929],[-84.3034,14.6769,41.3214],[-84.3004,14.6644,36.4361],[-84.2964,14.6604,51.9502],[-84.2788,14.6551,47.7265],[-84.2573,14.6704,50.8787],[-84.2545,14.6746,45.4806],[-84.2624,14.6818,42.5183],[-84.2631,14.6853,38.6762],[-84.2594,14.693,47.6229],[-84.2593,14.6977,57.007],[-84.269,14.7189,45.5908],[-84.2676,14.7322,44.0018],[-84.2635,14.7376,46.9452],[-84.2388,14.7544,40.6633],[-84.2336,14.7551,40.8684],[-84.2292,14.7535,41.4283],[-84.2225,14.7483,30.3062],[-84.2233,14.7425,46.5496],[-84.2287,14.7312,37.7782],[-84.2188,14.7268,46.8921],[-84.2061,14.7157,40.3305],[-84.1902,14.7092,38.4497],[-84.1802,14.7079,43.5263],[-84.1464,14.7136,47.1763],[-84.1398,14.7213,38.922],[-84.1289,14.7259,45.5374],[-84.1241,14.7262,40.3435],[-84.1021,14.7212,37.3204],[-84.0985,14.7223,43.1282],[-84.1003,14.7344,34.1164],[-84.0992,14.7376,31.5617],[-84.1066,14.7431,36.8619],[-84.1152,14.7604,30.0471],[-84.1182,14.7702,42.7904],[-84.1177,14.7784,25.9952],[-84.1136,14.7838,30.9701],[-84.0991,14.7851,44.433],[-84.0871,14.7818,34.1117],[-84.0848,14.7783,35.1891],[-84.0862,14.767,32.0908],[-84.0847,14.756,32.66],[-84.0824,14.7533,39.9755],[-84.0776,14.7524,39.8161],[-84.0647,14.7573,29.4411],[-84.0521,14.7649,31.0002],[-84.0485,14.7644,29.7858],[-84.0458,14.7597,28.5242],[-84.0471,14.7531,22.007],[-84.0459,14.7484,36.1523],[-84.0436,14.7425,35.446],[-84.0412,14.7409,37.0952],[-84.0273,14.7384,32.9733],[-84.0074,14.749,27.1357],[-84.0034,14.7493,29.3381],[-83.9887,14.7421,34.5673],[-83.9803,14.74,34.9743],[-83.9548,14.7505,23.439],[-83.95,14.7504,20.3022],[-83.9401,14.7433,38.6297],[-83.9321,14.7427,32.3203],[-83.9304,14.7466,36.5792],[-83.9385,14.7655,28.6353],[-83.9365,14.7682,19.5296],[-83.9237,14.7676,25.5918],[-83.918,14.7722,17.9923],[-83.8989,14.759,33.8247],[-83.8897,14.7624,26.4702],[-83.8924,14.7671,16.8354],[-83.889,14.7799,20.828],[-83.8857,14.7806,24.1117],[-83.881,14.7763,23.53],[-83.8792,14.7626,34.0741],[-83.8772,14.7618,31.8086],[-83.8635,14.7678,31.2039],[-83.8515,14.7668,33.4913],[-83.8355,14.7837,11.5],[-83.8169,14.787,24.3663],[-83.7994,14.7851,21.386],[-83.7962,14.787,21.8147],[-83.8013,14.7918,20.2649],[-83.8184,14.8006,24.0949],[-83.8195,14.8038,19.1671],[-83.8151,14.8061,16.2345],[-83.7952,14.7979,18.7444],[-83.7883,14.8021,19.5618],[-83.7881,14.8119,24.2971],[-83.7852,14.8145,15.7494],[-83.7742,14.8038,17.7169],[-83.7634,14.8021,19.3871],[-83.7613,14.8071,17.8586],[-83.7628,14.8161,18.7998],[-83.757,14.8235,16.9385],[-83.7522,14.8226,8.9343],[-83.7399,14.8154,17.0383],[-83.7359,14.8157,27.8859],[-83.735,14.8184,14.1471],[-83.7366,14.8227,16.6936],[-83.7405,14.8255,16.2595],[-83.742,14.8298,16.0551],[-83.7388,14.8314,19.234],[-83.7284,14.83,15.0818],[-83.7203,14.8322,14.0031],[-83.7148,14.8302,14.4452],[-83.7112,14.8258,13.6353],[-83.7052,14.8257,4.5],[-83.7063,14.8308,6.6723],[-83.7034,14.8378,16.4991],[-83.7062,14.8402,14.3951],[-83.7138,14.8411,17.6939],[-83.7177,14.8435,16.6899],[-83.714,14.8481,12.5461],[-83.706,14.8488,16.4399],[-83.6999,14.8533,9.6038],[-83.7014,14.8592,14.496],[-83.7009,14.8662,14.76],[-83.6973,14.867,13.1873],[-83.6897,14.8606,13.4665],[-83.6715,14.8712,15.2086],[-83.6595,14.8706,11.7529],[-83.6542,14.8752,14.232],[-83.6473,14.8751,17.5786],[-83.6337,14.8729,11.2094],[-83.6302,14.8694,12.507],[-83.6308,14.86,9.7121],[-83.6252,14.8548,11.3252],[-83.6216,14.8567,10.2702],[-83.6246,14.8673,8.7718],[-83.6168,14.8758,12.8231],[-83.6147,14.8804,3.0],[-83.6195,14.886,9.4265],[-83.6194,14.8903,10.391],[-83.5988,14.8961,11.1373],[-83.598,14.8989,10.0814],[-83.6027,14.9048,9.4505],[-83.6018,14.9083,8.6946],[-83.5977,14.9102,9.7592],[-83.5922,14.9089,11.638],[-83.5874,14.9045,10.5278],[-83.5838,14.9041,13.1875],[-83.5785,14.9087,11.2426],[-83.5749,14.909,9.9458],[-83.5689,14.905,10.5849],[-83.5653,14.9053,9.9132],[-83.5636,14.91,8.1991],[-83.5649,14.926,9.2923],[-83.5628,14.9314,9.2001],[-83.5588,14.9337,9.6793],[-83.5544,14.9328,11.7455],[-83.5551,14.9489,7.865],[-83.5574,14.9558,8.158],[-83.5614,14.9614,7.212],[-83.5616,14.9707,6.8962],[-83.5649,14.9757,10.1318],[-83.5654,14.9997,7.5533],[-83.5612,15.0059,7.6238],[-83.5596,15.0147,3.0639],[-83.5506,15.024,2.5917],[-83.5477,15.0326,1.9155],[-83.5489,15.0393,11.0913],[-83.5469,15.0462,4.162],[-83.5491,15.0542,4.6925],[-83.5484,15.0691,6.2871],[-83.5422,15.0829,2.5903],[-83.5502,15.0911,3.0671],[-83.5483,15.101,7.8605],[-83.545,15.104,4.4901],[-83.5349,15.1022,1.951],[-83.5297,15.1028,2.3834],[-83.527,15.1093,3.9378],[-83.5308,15.1136,4.2689],[-83.5446,15.1116,4.3002],[-83.546,15.1122,7.7579],[-83.5455,15.1149,6.7946],[-83.539,15.1229,4.4619],[-83.5217,15.1221,6.7809],[-83.5066,15.1127,2.6776],[-83.5013,15.1135,2.554],[-83.4969,15.1178,3.4164],[-83.4918,15.1323,8.0247],[-83.4852,15.142,2.1228],[-83.4856,15.1501,2.0519],[-83.4901,15.1624,4.4723],[-83.4893,15.1648,15.6172],[-83.4807,15.171,1.7517],[-83.4738,15.1856,4.9648],[-83.4602,15.1844,1.8291],[-83.4511,15.19,5.6667],[-83.4391,15.1918,2.5014],[-83.4383,15.2022,4.6395],[-83.4294,15.2163,0.7909],[-83.4212,15.2251,14.0667],[-83.4226,15.2326,0.3887],[-83.4274,15.2424,1.1926],[-83.4267,15.2627,2.1465],[-83.4201,15.2699,1.2351],[-83.471,15.2887,0.0],[-83.5768,15.3193,2.3142],[-83.6182,15.3343,0.0],[-83.646,15.3474,0.0],[-83.6771,15.3646,2.6181],[-83.704,15.3835,1.9757],[-83.7151,15.3946,0.0],[-83.7149,15.3965,0.0],[-83.7185,15.3976,0.0],[-83.7201,15.3968,0.7053],[-83.7207,15.3901,0.0],[-83.7257,15.3843,0.0],[-83.7254,15.3835,1.3405],[-83.724,15.3843,3.1942],[-83.7249,15.3801,0.8658],[-83.7307,15.3788,0.0],[-83.7362,15.3721,0.0],[-83.7399,15.361,3.7238],[-83.7363,15.3554,0.0],[-83.7304,15.3535,0.0],[-83.724,15.3546,0.8789],[-83.7063,15.3499,1.4703],[-83.7026,15.3465,0.0],[-83.6976,15.3451,4.3095],[-83.6949,15.3415,0.0],[-83.6896,15.3421,8.1062],[-83.6876,15.3395,1.0316],[-83.6879,15.3365,0.0],[-83.6824,15.3304,0.0],[-83.6804,15.3315,0.0],[-83.6813,15.3379,4.6049],[-83.6787,15.3404,1.1927],[-83.6779,15.3351,0.0],[-83.6715,15.3318,1.0786],[-83.669,15.326,0.0],[-83.6665,15.3246,1.0776],[-83.6674,15.3204,0.0],[-83.6632,15.314,1.25],[-83.6565,15.324,0.0],[-83.661,15.3263,0.0],[-83.6646,15.3251,1.3319],[-83.6649,15.3271,2.6962],[-83.656,15.3307,2.705],[-83.6549,15.3321,2.1997],[-83.656,15.3338,4.8713],[-83.6537,15.3343,9.3174],[-83.6524,15.3276,2.4448],[-83.6543,15.3226,1.7724],[-83.6507,15.3176,0.0],[-83.6465,15.316,0.0],[-83.6496,15.314,0.7246],[-83.6479,15.3126,0.7425],[-83.6418,15.3126,2.4348],[-83.6379,15.3096,1.1435],[-83.6299,15.3088,2.2295],[-83.6276,15.3049,6.0506],[-83.6274,15.3001,0.0],[-83.6132,15.3046,0.0],[-83.6113,15.3113,3.3059],[-83.6085,15.3138,2.4935],[-83.6057,15.3146,1.0823],[-83.6004,15.3129,0.0],[-83.5968,15.3154,0.5959],[-83.5924,15.3124,5.825],[-83.5874,15.3049,0.0],[-83.5843,15.3049,0.0],[-83.5804,15.3079,2.5469],[-83.571,15.3057,4.149],[-83.5718,15.2988,1.5081],[-83.5704,15.2932,0.0],[-83.5726,15.2904,0.0],[-83.5715,15.2879,0.0],[-83.5707,15.2915,0.0],[-83.5679,15.2937,0.0],[-83.559,15.2971,6.2384],[-83.5535,15.2968,0.0],[-83.5537,15.3007,1.6153],[-83.551,15.2988,2.1233],[-83.5515,15.2954,0.0],[-83.549,15.2924,4.5841],[-83.5496,15.286,0.0],[-83.5532,15.2796,2.108],[-83.5557,15.2854,2.8567],[-83.5604,15.2835,4.6614],[-83.5651,15.2876,0.0],[-83.569,15.2829,1.0485],[-83.5738,15.2846,0.0],[-83.5788,15.2835,5.0885],[-83.5835,15.2857,0.0],[-83.586,15.2826,0.0],[-83.5882,15.2829,0.9047],[-83.5899,15.286,0.0],[-83.589,15.2913,1.5986],[-83.5901,15.2932,0.0],[-83.5921,15.2932,0.0],[-83.5957,15.2888,0.0],[-83.5999,15.291,0.0],[-83.6057,15.291,2.1903],[-83.6087,15.2937,2.0734],[-83.6151,15.2913,1.5648],[-83.6212,15.2949,0.8421],[-83.6279,15.2913,1.1161],[-83.6321,15.2913,1.8656],[-83.6343,15.2951,1.7258],[-83.6343,15.2971,4.1499],[-83.631,15.3007,1.868],[-83.6324,15.3043,0.0],[-83.6382,15.2988,0.0],[-83.6418,15.2976,1.2332],[-83.6449,15.2926,1.1593],[-83.6487,15.2904,0.0],[-83.6474,15.2887,0.8381],[-83.6493,15.2876,0.0],[-83.6476,15.2849,0.0],[-83.6485,15.2785,0.0],[-83.6454,15.2757,3.4379],[-83.6454,15.2735,0.6542],[-83.6485,15.2654,0.0],[-83.6524,15.2612,0.1887],[-83.6635,15.2549,0.2528],[-83.6724,15.2554,0.5333],[-83.6724,15.251,1.2565],[-83.676,15.2457,0.0],[-83.6815,15.2463,0.0],[-83.6868,15.2432,1.0495],[-83.6963,15.2424,0.0],[-83.7038,15.2349,0.3916],[-83.7082,15.234,0.0],[-83.7126,15.2276,0.0],[-83.714,15.2215,1.3503],[-83.714,15.2126,1.4233],[-83.7124,15.2071,0.0],[-83.714,15.2032,0.8783],[-83.721,15.1985,0.3322],[-83.7293,15.1965,0.5505],[-83.7335,15.1974,0.0],[-83.7393,15.2029,0.319],[-83.756,15.2085,0.6619],[-83.7579,15.2057,0.2842],[-83.7579,15.2021,0.275],[-83.7571,15.2001,0.0],[-83.7538,15.2007,2.2863],[-83.7529,15.1982,0.4136],[-83.7613,15.1976,0.6064],[-83.7618,15.2032,1.2719],[-83.7637,15.206,0.0],[-83.7657,15.2035,0.0],[-83.7651,15.1976,1.2816],[-83.7671,15.1965,0.224],[-83.7676,15.1938,0.7449],[-83.7696,15.1938,0.0],[-83.7724,15.1968,5.5737],[-83.7735,15.2026,0.4352],[-83.7693,15.2063,0.8903],[-83.7671,15.2054,0.0],[-83.7668,15.2076,0.0],[-83.7701,15.2118,2.9533],[-83.7729,15.2182,0.7674],[-83.7721,15.2199,0.4499],[-83.7771,15.2296,0.0],[-83.7754,15.2365,0.0],[-83.7721,15.2374,0.6113],[-83.7715,15.2404,0.0],[-83.7668,15.2437,0.0],[-83.7682,15.2537,0.0],[-83.7657,15.2568,1.0736],[-83.7682,15.2651,0.0],[-83.7757,15.2729,0.0],[-83.7787,15.2738,0.5561],[-83.7826,15.281,0.0],[-83.7871,15.2818,2.7825],[-83.7871,15.2849,2.216],[-83.7921,15.2876,0.0],[-83.7896,15.2838,2.7536],[-83.7907,15.281,0.0],[-83.789,15.2788,0.0],[-83.7937,15.2776,0.0],[-83.7926,15.2735,0.4475],[-83.7996,15.2687,1.877],[-83.8043,15.2671,0.2237],[-83.8126,15.2679,0.0],[-83.8182,15.2654,0.0],[-83.8251,15.2668,0.4812],[-83.8215,15.2726,2.1276],[-83.8187,15.2724,0.4775],[-83.8096,15.2774,0.2622],[-83.8079,15.2801,0.1477],[-83.8037,15.2813,0.0],[-83.8004,15.2907,0.0],[-83.8104,15.296,0.0],[-83.8129,15.2954,1.8317],[-83.8165,15.2996,0.0],[-83.819,15.2996,1.0107],[-83.8216,15.3035,1.3069],[-83.8235,15.3032,1.5848],[-83.8321,15.3176,0.0],[-83.8354,15.3151,2.6333],[-83.8388,15.3149,0.896],[-83.8424,15.3196,0.0],[-83.8607,15.3193,0.6167],[-83.8701,15.3254,0.0],[-83.8774,15.3279,0.9373],[-83.8835,15.3324,1.0741],[-83.8874,15.339,0.0],[-83.8962,15.3485,0.0],[-83.9137,15.354,0.0],[-83.9201,15.3612,1.1488],[-83.9235,15.3629,0.0],[-83.9282,15.3699,2.0897],[-83.9457,15.3779,1.3497],[-83.9585,15.3893,0.0],[-83.9657,15.3929,1.2226],[-83.9679,15.3921,0.0],[-83.9687,15.3943,0.0],[-83.9721,15.394,2.1939],[-83.9732,15.396,0.0],[-83.9793,15.3979,0.0],[-83.9876,15.3968,2.1008],[-83.9968,15.3999,0.0],[-84.006,15.3999,2.3667],[-84.0107,15.4021,0.0],[-84.019,15.4012,4.7945],[-84.0215,15.4026,0.0],[-84.0235,15.396,0.0],[-84.0215,15.3943,3.515],[-84.0151,15.3993,6.8465],[-84.0121,15.386,2.8427],[-84.0096,15.3843,0.6656],[-84.0043,15.3865,1.1928],[-83.9985,15.3835,5.3124],[-84.0062,15.3849,8.3588],[-84.0137,15.3804,4.2987],[-84.016,15.3851,4.9856],[-84.0257,15.3879,8.9908],[-84.0257,15.3907,9.9463],[-84.0229,15.3929,6.2538],[-84.0243,15.3946,2.4001],[-84.0488,15.389,2.2421],[-84.0479,15.3824,1.2454],[-84.0443,15.3821,12.8688],[-84.044,15.3804,7.5366],[-84.0501,15.3821,0.0],[-84.0504,15.3768,0.0],[-84.041,15.3676,5.5075],[-84.0421,15.3618,0.0],[-84.0362,15.3499,2.2649],[-84.0299,15.3413,8.7155],[-84.0299,15.3276,8.2911],[-84.0357,15.3224,0.0],[-84.0426,15.3212,10.2541],[-84.0471,15.3235,7.0134],[-84.0512,15.329,0.0],[-84.0549,15.3285,8.0317],[-84.0537,15.334,0.0],[-84.0629,15.3343,1.7378],[-84.0768,15.3321,1.1739],[-84.0957,15.3382,10.525],[-84.1043,15.3446,1.9219],[-84.1157,15.3571,2.7716],[-84.1276,15.3749,0.0],[-84.1335,15.3863,0.6098],[-84.1338,15.3899,0.0],[-84.1385,15.396,12.5335],[-84.1385,15.4046,1.5151],[-84.1396,15.4054,1.5151],[-84.1349,15.4026,0.5208],[-84.1299,15.4049,0.2008],[-84.1263,15.404,1.1973],[-84.1243,15.4101,0.4195],[-84.1276,15.4146,0.0],[-84.1351,15.419,0.0],[-84.1335,15.4201,0.0],[-84.1343,15.4229,0.6328],[-84.1329,15.4246,0.0],[-84.1368,15.4249,1.6704],[-84.1254,15.431,6.0241],[-84.1196,15.4282,1.1712],[-84.121,15.4271,1.1712],[-84.1243,15.4296,1.2795],[-84.1226,15.4257,2.5902],[-84.1157,15.4249,0.4439],[-84.1096,15.4265,1.4001999999999999],[-84.1054,15.4299,2.8521],[-84.1024,15.436,0.0],[-84.1038,15.4476,2.6147],[-84.1057,15.4513,2.7731],[-84.1101,15.4529,1.4073],[-84.1124,15.4562,2.6194],[-84.1079,15.454,1.6021],[-84.1074,15.456,1.1385],[-84.114,15.4587,7.9247],[-84.114,15.4604,3.6447],[-84.1168,15.4624,0.0],[-84.1196,15.4679,11.9702],[-84.1196,15.4751,10.6263],[-84.1168,15.476,10.4147],[-84.1146,15.4738,6.6629],[-84.1121,15.4738,10.5739],[-84.1029,15.4757,12.8713],[-84.0954,15.4738,7.9329],[-84.0926,15.4774,5.2261],[-84.0888,15.4785,2.8201],[-84.0876,15.4846,8.6942],[-84.0857,15.4874,5.2815],[-84.0826,15.4882,6.5392],[-84.0765,15.4868,0.0],[-84.0707,15.4818,0.0],[-84.0704,15.4921,10.8385],[-84.0668,15.4924,2.2517],[-84.0582,15.4999,3.8032],[-84.0435,15.5238,1.1434],[-84.0451,15.5246,1.1434],[-84.0543,15.5238,1.4772],[-84.0546,15.5263,4.2779],[-84.0404,15.5263,2.7595],[-84.0287,15.5168,0.0],[-84.0154,15.5174,3.2847],[-84.0107,15.5143,1.5112],[-84.0018,15.5046,1.854],[-83.9932,15.5024,3.6611],[-83.9874,15.499,3.7532],[-83.9743,15.4971,8.6286],[-83.9788,15.4965,4.2068],[-83.9799,15.4932,0.0],[-83.9788,15.4921,2.322],[-83.9676,15.4935,0.0],[-83.9674,15.496,0.8973],[-83.9699,15.4979,1.5023],[-83.9657,15.5004,0.0],[-83.9629,15.5065,1.8489],[-83.9607,15.5043,8.5525],[-83.959,15.4938,2.8809],[-83.9524,15.4885,0.5396],[-83.9401,15.4832,2.5155],[-83.9313,15.4754,0.558],[-83.9268,15.469,0.3807],[-83.9229,15.4554,2.0073],[-83.9238,15.451,3.7647],[-83.9346,15.4557,0.0],[-83.9365,15.4546,0.0],[-83.9299,15.4504,1.604],[-83.9238,15.4429,1.695],[-83.9024,15.4385,0.0],[-83.8832,15.4413,2.1381],[-83.8696,15.4363,0.7589],[-83.8593,15.4296,0.0],[-83.8404,15.4276,1.9752],[-83.834,15.4251,0.0],[-83.8165,15.4151,0.0],[-83.8087,15.4126,4.9473],[-83.8076,15.4104,0.0],[-83.8049,15.4096,0.4185],[-83.7768,15.3863,3.6412],[-83.7743,15.3826,0.6335],[-83.7626,15.3762,2.5047],[-83.7568,15.3701,0.0],[-83.7401,15.3746,0.0],[-83.7276,15.3932,0.0],[-83.7296,15.3949,0.0],[-83.7479,15.3974,0.0],[-83.7715,15.4029,1.5097],[-83.7988,15.4129,4.2187],[-83.7999,15.4146,0.0],[-83.8057,15.416,1.3689],[-83.8374,15.4321,0.0],[-83.8801,15.4593,0.0],[-83.9099,15.4818,3.5327],[-83.9668,15.5299,0.4463],[-84.0357,15.5915,4.3119],[-84.0943,15.6471,0.0],[-84.1535,15.696,0.0],[-84.1588,15.6965,8.2822],[-84.1574,15.6985,1.0769],[-84.1593,15.7004,3.4331],[-84.1826,15.7185,3.0575],[-84.1904,15.7151,1.9861],[-84.1887,15.7134,1.9295],[-84.1891,15.71,1.6917],[-84.1929,15.7048,2.3632],[-84.1935,15.6904,1.7031],[-84.1929,15.6483,3.012],[-84.1847,15.6326,2.0172],[-84.1853,15.6235,2.4073],[-84.1838,15.6127,2.5065],[-84.1809,15.6045,2.1227],[-84.1815,15.5796,1.8425],[-84.1856,15.5717,3.0125],[-84.1848,15.5317,0.0],[-84.1895,15.5241,1.1687],[-84.1898,15.5206,0.0],[-84.1898,15.5174,0.0],[-84.1873,15.5209,0.0],[-84.1901,15.4886,2.5665],[-84.1916,15.487,0.0],[-84.1888,15.4825,0.0],[-84.1909,15.4823,0.5591],[-84.191,15.4733,6.1833],[-84.1934,15.4688,9.5012],[-84.1918,15.4573,16.8833],[-84.1925,15.4463,15.2995],[-84.1936,15.4441,15.3704],[-84.1935,15.4486,14.0742],[-84.1959,15.444,14.7402],[-84.1924,15.4227,1.2941],[-84.188,15.4101,2.9504],[-84.1886,15.3963,10.012],[-84.1921,15.389,15.3483],[-84.188,15.3811,10.6842],[-84.1872,15.368,10.2429],[-84.188,15.3651,8.8686],[-84.1971,15.3572,4.737],[-84.2032,15.3493,11.3669],[-84.2029,15.3355,13.8996],[-84.2073,15.3314,20.7989],[-84.2073,15.3133,23.9408],[-84.2149,15.3025,26.6362],[-84.2203,15.2978,26.9788],[-84.2221,15.2876,21.3229],[-84.2274,15.2867,28.8923],[-84.2393,15.2712,23.7036],[-84.2399,15.2642,15.7437],[-84.2355,15.2586,16.228],[-84.2364,15.2548,16.6864],[-84.2426,15.2537,17.1091],[-84.2461,15.2493,16.0999],[-84.2532,15.2458,16.8943],[-84.2602,15.2338,18.5824],[-84.2722,15.2277,32.7579],[-84.2852,15.2256,27.6809],[-84.2978,15.2177,38.6407],[-84.3053,15.2084,25.3414],[-84.317,15.2005,43.0113],[-84.3228,15.1993,43.3431],[-84.3304,15.2034,37.237],[-84.3336,15.2028,42.0383],[-84.3405,15.1902,41.8647],[-84.3499,15.182,41.8786],[-84.3583,15.1815,46.935],[-84.376,15.1742,57.218],[-84.3933,15.1709,59.6235]]],
[[[-84.0796,15.486,3.4438],[-84.0843,15.4851,11.2258],[-84.084,15.4746,5.2125],[-84.0815,15.471,0.6869],[-84.0782,15.4713,5.212],[-84.0718,15.4685,6.4818],[-84.0668,15.4604,4.1261],[-84.0663,15.4568,0.8099],[-84.0599,15.4501,0.0],[-84.059,15.4446,1.041],[-84.0618,15.4413,2.6209],[-84.0615,15.4376,1.7669],[-84.0596,15.4321,2.6195],[-84.0556,15.4288,5.2615],[-84.0512,15.4201,2.2777],[-84.0537,15.4057,0.0],[-84.0496,15.404,3.1078],[-84.0376,15.4149,1.2518],[-84.0371,15.4171,0.0],[-84.0432,15.4357,0.0],[-84.0465,15.4388,0.0],[-84.051,15.4496,6.3409],[-84.0549,15.4729,1.0599],[-84.0582,15.4757,0.0],[-84.0721,15.4779,2.3112],[-84.0796,15.486,3.4438]]],
[[[-84.1096,15.4688,0.7535],[-84.1118,15.4693,0.6215],[-84.1121,15.4685,0.0],[-84.1094,15.4668,0.3665],[-84.1096,15.4688,0.7535]]],
[[[-84.1018,15.4743,0.7957],[-84.111,15.4738,5.7198],[-84.1124,15.4715,0.2169],[-84.1062,15.4704,2.1617],[-84.1079,15.4693,0.0],[-84.1068,15.4668,0.0],[-84.1035,15.4688,1.2781],[-84.1004,15.4679,0.0],[-84.0968,15.4724,0.0],[-84.1018,15.4743,0.7957]]],
[[[-83.3024,15.8315,0.0],[-83.3037,15.8324,0.0],[-83.3057,15.829,0.0],[-83.304,15.8285,0.0],[-83.3024,15.8315,0.0]]],
[[[-82.4088,15.8588,0.0],[-82.4101,15.859,0.0],[-82.4074,15.8576,0.0],[-82.4068,15.856,0.0],[-82.4088,15.8543,0.21],[-82.4071,15.8538,0.0],[-82.4057,15.8568,0.0],[-82.4088,15.8588,0.0]]],
[[[-83.306,15.8604,3.4734],[-83.3076,15.8612,0.0],[-83.3076,15.859,0.0],[-83.3057,15.8585,0.0],[-83.306,15.8604,3.4734]]],
[[[-83.2565,15.9157,0.0],[-83.2588,15.916,3.1394],[-83.2574,15.9132,0.0],[-83.2557,15.9135,0.0],[-83.2565,15.9157,0.0]]]]}}