{"type": "Feature","bbox": [-87.6081,14.7257,-87.2707,15.0491],"geometry": {"type": "MultiPolygon","coordinates": [[[[-87.2769,14.7264,643.2823],[-87.2766,14.729,658.6916],[-87.2713,14.7346,610.4224],[-87.2721,14.7419,576.7155],[-87.2707,14.7476,590.6509],[-87.2846,14.7474,622.8374],[-87.2828,14.7439,639.2461],[-87.2873,14.744,639.0461],[-87.2905,14.7422,641.1942],[-87.2979,14.7449,612.3684],[-87.3026,14.7448,615.7261],[-87.3053,14.7484,688.7521],[-87.3101,14.7485,665.8553],[-87.3091,14.7518,726.2538],[-87.3335,14.7925,917.6822],[-87.3891,14.8541,593.3026],[-87.3898,14.8579,598.6198],[-87.3925,14.8594,523.861],[-87.3924,14.8609,490.8804],[-87.4024,14.8659,474.0681],[-87.4019,14.8698,459.7091],[-87.4045,14.8711,446.6218],[-87.4083,14.8786,475.1705],[-87.4061,14.8858,462.8986],[-87.4122,14.8942,360.4879],[-87.4153,14.8935,369.3436],[-87.4182,14.8955,356.4905],[-87.4298,14.893,497.7625],[-87.4335,14.8946,480.9532],[-87.4354,14.8924,447.1631],[-87.4476,14.8885,355.6462],[-87.4551,14.8931,362.0761],[-87.4583,14.8913,413.2516],[-87.4605,14.894,382.8344],[-87.4709,14.8943,568.6578],[-87.4719,14.8976,383.3066],[-87.475,14.8998,386.8607],[-87.473,14.9105,488.2781],[-87.4765,14.9115,543.8745],[-87.4778,14.9136,551.585],[-87.4769,14.917,503.5177],[-87.4723,14.9205,484.4678],[-87.4722,14.9223,513.6388],[-87.4787,14.925,634.9698],[-87.4827,14.9323,614.3966],[-87.4787,14.9403,414.9771],[-87.4821,14.9511,548.8523],[-87.4808,14.957,443.1828],[-87.4934,14.9571,797.704],[-87.4936,14.9605,670.0676],[-87.4908,14.9637,627.4254],[-87.4913,14.9659,515.1226],[-87.496,14.9665,568.1305],[-87.5004,14.9648,685.5116],[-87.5033,14.9688,611.4978],[-87.5097,14.9717,685.7585],[-87.5101,14.9786,466.1701],[-87.5159,14.9822,571.8845],[-87.5172,14.9851,598.476],[-87.5161,14.9948,449.6889],[-87.5179,15.0015,486.5987],[-87.5144,15.0063,384.3882],[-87.5199,15.0189,585.9455],[-87.5272,15.0262,576.1018],[-87.5294,15.0331,628.9931],[-87.5359,15.0384,720.0977],[-87.5415,15.0386,578.8653],[-87.5477,15.0468,427.7317],[-87.5527,15.0491,316.215],[-87.5569,15.0453,450.1969],[-87.5609,15.0442,401.3351],[-87.5709,15.0452,269.0],[-87.5734,15.0407,269.0],[-87.5784,15.038,269.0],[-87.5809,15.0316,269.0],[-87.5879,15.0335,269.0],[-87.5906,15.0313,269.0],[-87.5968,15.0308,350.6355],[-87.5898,15.0225,269.0],[-87.591,15.0193,269.0],[-87.5943,15.0176,269.0],[-87.6081,15.0161,269.0],[-87.6002,15.0014,299.9536],[-87.6014,14.9925,328.7267],[-87.5988,14.9819,393.1837],[-87.5925,14.9739,448.9902],[-87.5902,14.9665,594.2617],[-87.5861,14.9602,758.5833],[-87.5853,14.9542,802.3729],[-87.5792,14.9504,851.9927],[-87.5771,14.9466,834.2054],[-87.5732,14.9455,742.9615],[-87.5696,14.9421,788.2094],[-87.5713,14.9383,742.5491],[-87.5619,14.9237,718.1664],[-87.5645,14.9228,741.3676],[-87.5671,14.9181,891.2367],[-87.5664,14.9096,855.3772],[-87.5629,14.906,950.0593],[-87.5588,14.9045,979.1425],[-87.557,14.8987,1050.1469],[-87.5221,14.8672,944.1146],[-87.5103,14.821,1131.4811],[-87.4588,14.7853,1035.0515],[-87.3739,14.7632,864.0212],[-87.3422,14.7297,601.2069],[-87.283,14.7257,618.6624],[-87.2769,14.7264,643.2823]]]]}
,"properties": {"GID_2": "HND.4.12_1","GID_0": "HND","country": "Honduras","GID_1": "HND.4_1","province": "Comayagua","NL_NAME_1": "NA","county": "MinasdeOro","VARNAME_2": "NA","NL_NAME_2": "NA","TYPE_2": "Municipio","ENGTYPE_2": "Municipality","CC_2": "NA","HASC_2": "HN.CM.MO","name": "Minasde_Oro.county","area_km2": 377.2277,"hist_schema_id": "Elevation0-9000","hist_area_km2": {"275": 7.1469,"300": 1.8841,"325": 2.007,"350": 2.1506,"375": 4.5889,"400": 7.5193,"425": 7.9087,"450": 7.5398,"475": 8.0314,"500": 7.5396,"525": 7.5806,"550": 7.6623,"575": 8.8309,"600": 10.7786,"625": 14.3244,"650": 15.267,"675": 15.1434,"700": 16.987,"725": 17.0692,"750": 17.233,"775": 19.3843,"800": 21.6994,"825": 20.0816,"850": 16.9468,"875": 14.529,"900": 12.8078,"925": 11.9061,"950": 11.9887,"975": 11.1285,"1000": 8.1979,"1025": 7.1939,"1050": 5.7801,"1075": 5.0629,"1100": 4.4687,"1125": 3.5053,"1150": 3.5053,"1175": 3.1364,"1200": 2.3779,"1225": 1.7014,"1250": 1.2299,"1275": 1.1069,"1300": 1.0864,"1325": 0.6969,"1350": 0.41,"1375": 0.1025}}}