{"type":"Feature","properties":{"GID_2":"HND.16.25_1","GID_0":"HND","country":"Honduras","GID_1":"HND.16_1","province":"SantaBárbara","NL_NAME_1":"NA","county":"SanVicenteCentenario","VARNAME_2":"NA","NL_NAME_2":"NA","TYPE_2":"Municipio","ENGTYPE_2":"Municipality","CC_2":"NA","HASC_2":"HN.SB.SV","name":"San_Vicente_Centenario.county"},
"geometry":{"type": "MultiPolygon","coordinates": [[[[-88.2573,14.855,175.6076],[-88.2624,14.8593,207.5405],[-88.2623,14.8629,207.7536],[-88.2566,14.864,181.9732],[-88.2487,14.8698,205.0091],[-88.248,14.8747,204.1532],[-88.2573,14.8778,186.4942],[-88.2651,14.8759,176.3315],[-88.274,14.8783,216.8924],[-88.2868,14.8902,413.1094],[-88.2878,14.8927,411.4219],[-88.2901,14.8922,445.6761],[-88.2935,14.8964,476.2299],[-88.304,14.9013,574.5118],[-88.3155,14.903,698.7687],[-88.323,14.9009,656.2914],[-88.321,14.8916,497.9902],[-88.3234,14.8889,493.9937],[-88.3234,14.8498,430.091],[-88.3195,14.8512,376.801],[-88.3118,14.8508,380.9561],[-88.3057,14.8473,415.1625],[-88.3004,14.8473,421.1138],[-88.2974,14.849,453.3148],[-88.2838,14.846,369.9187],[-88.2743,14.8498,379.938],[-88.2709,14.8542,241.6124],[-88.2641,14.8504,214.0015],[-88.2573,14.855,175.6076]]]]}}