{"type":"Feature","properties":{"GID_2":"HND.14.15_1","GID_0":"HND","country":"Honduras","GID_1":"HND.14_1","province":"Ocotepeque","NL_NAME_1":"NA","county":"Sensenti","VARNAME_2":"NA","NL_NAME_2":"NA","TYPE_2":"Municipio","ENGTYPE_2":"Municipality","CC_2":"NA","HASC_2":"HN.OC.SE","name":"Sensenti.county"},
"geometry":{"type": "MultiPolygon","coordinates": [[[[-88.9035,14.5166,1153.3406],[-88.9268,14.5188,906.9609],[-88.9352,14.5176,897.9537],[-88.9333,14.5201,916.0974],[-88.9347,14.5229,884.7378],[-88.9665,14.5231,848.8519],[-88.9661,14.5249,853.8293],[-88.9728,14.5354,884.8298],[-88.972,14.5374,901.4376],[-88.9753,14.5455,904.7062],[-88.9774,14.5472,914.401],[-88.9785,14.5517,944.3422],[-88.9807,14.5523,963.4482],[-88.9806,14.5566,982.8771],[-88.9858,14.5653,1041.0703],[-88.9852,14.5717,1075.0619],[-88.9802,14.5751,1119.9274],[-88.9807,14.5815,1182.9385],[-88.9866,14.5845,1267.3503],[-88.9859,14.5915,1306.8325],[-88.9914,14.5931,1333.796],[-88.9944,14.6036,1506.3595],[-88.9955,14.6025,1506.3595],[-89.0019,14.5811,1187.5244],[-88.9973,14.5817,1244.1439],[-88.9954,14.5798,1187.5393],[-88.9967,14.5681,1140.2605],[-88.9932,14.5639,1112.9395],[-88.9903,14.5561,1021.3125],[-88.993,14.5499,1000.0249],[-88.9931,14.5453,936.7922],[-88.9865,14.5388,907.4296],[-88.985,14.5343,899.1599],[-88.9893,14.5261,957.5393],[-88.988,14.5205,941.7683],[-88.9919,14.5188,956.8334],[-88.9902,14.5156,936.9067],[-88.9924,14.5119,960.967],[-88.993,14.5038,956.1918],[-88.995,14.5015,980.9351],[-88.9747,14.4737,911.6243],[-88.9779,14.4666,961.1451],[-88.9679,14.4648,919.2068],[-88.9612,14.4591,911.2128],[-88.9368,14.4497,909.4219],[-88.929,14.4522,930.5023],[-88.9277,14.4513,927.5868],[-88.9241,14.4551,999.5706],[-88.9208,14.4551,1028.5936],[-88.915,14.452,1085.9415],[-88.8908,14.4459,1198.2979],[-88.8972,14.4352,1104.563],[-88.8977,14.4305,1150.4919],[-88.8717,14.4318,1368.7739],[-88.8689,14.4338,1327.665],[-88.862799999999993,14.4332,1433.7194],[-88.8501,14.4524,1691.344],[-88.8452,14.4545,1731.4385],[-88.8539,14.48,1605.1005],[-88.8464,14.4864,1650.8428],[-88.8483,14.4916,1602.6377],[-88.8509,14.4964,1587.3983],[-88.8919,14.5038,1314.7938],[-88.9035,14.5166,1153.3406]]]]}}