{"type": "Feature","bbox": [-88.1227,14.7984,-87.991,14.923],"geometry": {"type": "MultiPolygon","coordinates": [[[[-88.0515,14.9159,889.8226],[-88.1019,14.8966,1530.864],[-88.1031,14.886,1493.7565],[-88.1005,14.8764,1244.4006],[-88.0977,14.8731,1190.1737],[-88.0918,14.8565,1090.3628],[-88.0854,14.847,1073.0781],[-88.1054,14.8298,916.3253],[-88.1116,14.8187,678.4547],[-88.116,14.8157,672.0438],[-88.1227,14.8063,504.8897],[-88.1226,14.8018,419.8907],[-88.1187,14.7984,426.9354],[-88.0803,14.8002,930.3862],[-88.0723,14.7988,841.1957],[-88.0444,14.8028,793.4647],[-88.0031,14.8044,634.0],[-87.9986,14.8061,634.0],[-88.0001,14.8076,634.0],[-88.0007,14.8137,634.0],[-88.0005,14.8254,634.0],[-87.9972,14.8461,634.0],[-87.991,14.8618,634.0],[-87.9916,14.8659,634.0],[-87.9946,14.8672,634.0],[-87.9971,14.8717,634.0],[-88.0019,14.8741,672.1904],[-88.012,14.873,997.5334],[-88.0216,14.8755,777.1493],[-88.0178,14.8764,868.1999],[-88.0158,14.8828,657.6504],[-88.0186,14.8895,634.0],[-88.0242,14.8939,634.0],[-88.0224,14.9029,634.0],[-88.0252,14.9023,634.0],[-88.0274,14.8974,634.0],[-88.0293,14.8982,643.8629],[-88.0277,14.9012,634.0],[-88.0318,14.8991,647.3914],[-88.03,14.9022,634.0],[-88.0307,14.9089,634.0],[-88.0261,14.9106,634.0],[-88.0271,14.914,634.0],[-88.0201,14.9199,634.0],[-88.0204,14.923,634.0],[-88.0459,14.9143,750.1014],[-88.0518,14.9144,865.49],[-88.0515,14.9159,889.8226]]]]}
,"properties": {"GID_2": "HND.16.11_1","GID_0": "HND","country": "Honduras","GID_1": "HND.16_1","province": "SantaBárbara","NL_NAME_1": "NA","county": "LasVegas","VARNAME_2": "NA","NL_NAME_2": "NA","TYPE_2": "Municipio","ENGTYPE_2": "Municipality","CC_2": "NA","HASC_2": "HN.SB.LV","name": "Las_Vegas.county","area_km2": 124.95138,"hist_schema_id": "Elevation0-9000","hist_area_km2": {"425": 0.10249,"450": 0.53296,"475": 0.43047,"500": 0.45096,"525": 0.22548,"550": 0.18448,"575": 0.32797,"600": 0.32797,"625": 13.54641,"650": 7.78734,"675": 2.64371,"700": 3.03301,"725": 3.5249,"750": 3.279,"775": 2.8281,"800": 3.25841,"825": 3.31995,"850": 3.87326,"875": 4.65203,"900": 4.3856,"925": 4.34469,"950": 5.20536,"975": 5.18495,"1000": 4.85707,"1025": 4.93904,"1050": 4.91849,"1075": 4.54962,"1100": 3.83244,"1125": 3.93497,"1150": 3.38163,"1175": 2.70531,"1200": 2.47989,"1225": 1.96754,"1250": 1.76257,"1275": 1.98798,"1300": 1.70111,"1325": 1.31167,"1350": 1.25019,"1375": 0.88124,"1400": 0.65582,"1425": 1.1476,"1450": 0.71727,"1475": 0.98362,"1500": 0.67622,"1525": 0.36882,"1550": 0.18441,"1575": 0.24588,"1600": 0.06147}}}