{"type": "Feature","bbox": [-87.2951,13.8623,-87.1272,13.9835],"geometry": {"type": "MultiPolygon","coordinates": [[[[-87.1272,13.8872,1435.9977],[-87.1872,13.9558,1344.1234],[-87.1865,13.9489,1469.8104],[-87.1801,13.9436,1509.9353],[-87.1768,13.9368,1558.2881],[-87.1718,13.9094,1418.8376],[-87.1677,13.9012,1133.2648],[-87.1602,13.8941,1301.9021],[-87.1578,13.8756,1469.988],[-87.1519,13.8631,1247.8071],[-87.1413,13.8623,940.4419],[-87.1272,13.8872,1435.9977]]],
[[[-87.2398,13.9689,1466.1628],[-87.2499,13.9835,1121.9808],[-87.2516,13.9782,1231.0222],[-87.2575,13.9728,1185.2672],[-87.2655,13.9724,1146.0358],[-87.2566,13.9577,1518.3154],[-87.2857,13.9368,1435.8384],[-87.2951,13.9044,1400.5317],[-87.2909,13.895,1248.5748],[-87.28,13.8917,1108.8796],[-87.2764,13.8854,1073.2472],[-87.2696,13.8848,923.4139],[-87.2318,13.8897,1089.3683],[-87.2248,13.9153,1317.6611],[-87.2003,13.9471,1486.4406],[-87.1988,13.958,1407.6901],[-87.2082,13.9592,1378.604],[-87.2217,13.9666,1289.1666],[-87.2398,13.9689,1466.1628]]]]}
,"properties": {"GID_2": "HND.8.22_1","GID_0": "HND","country": "Honduras","GID_1": "HND.8_1","province": "FranciscoMorazán","NL_NAME_1": "NA","county": "SantaAna","VARNAME_2": "NA","NL_NAME_2": "NA","TYPE_2": "Municipio","ENGTYPE_2": "Municipality","CC_2": "NA","HASC_2": "HN.FM.SA","name": "Santa_Ana.county","area_km2": 84.80775,"hist_schema_id": "Elevation0-9000","hist_area_km2": {"900": 0.06175,"925": 0.3499,"950": 0.51456,"975": 0.24699,"1000": 0.41164,"1025": 0.59689,"1050": 1.0497,"1075": 1.04969,"1100": 1.44074,"1125": 2.2228,"1150": 2.46977,"1175": 2.22271,"1200": 2.22271,"1225": 2.38735,"1250": 2.49026,"1275": 3.41629,"1300": 3.43684,"1325": 4.63045,"1350": 3.49849,"1375": 4.11585,"1400": 4.05409,"1425": 4.48616,"1450": 4.23917,"1475": 7.05836,"1500": 7.59336,"1525": 5.10338,"1550": 3.60122,"1575": 2.69581,"1600": 1.83147,"1625": 1.83149,"1650": 1.76977,"1675": 0.69967,"1700": 0.391,"1725": 0.16464,"1750": 0.08232,"1775": 0.1029,"1800": 0.08232,"1825": 0.08232,"1850": 0.04116,"1875": 0.06174}}}