{"type":"Feature","properties":{"GID_2":"HND.7.8_1","GID_0":"HND","country":"Honduras","GID_1":"HND.7_1","province":"ElParaíso","NL_NAME_1":"NA","county":"Oropolí","VARNAME_2":"NA","NL_NAME_2":"NA","TYPE_2":"Municipio","ENGTYPE_2":"Municipality","CC_2":"NA","HASC_2":"HN.EP.OR","name":"Oropolí.county"},
"geometry":{"type": "MultiPolygon","coordinates": [[[[-86.77,13.86,373.6121],[-86.7742,13.8617,489.9255],[-86.7769,13.8608,552.7956],[-86.7852,13.8685,401.4383],[-86.7868,13.8722,415.1573],[-86.7889,13.8725,420.9249],[-86.8278,13.862,740.2517],[-86.8823,13.8527,1112.2473],[-86.8944,13.8415,1203.1721],[-86.9112,13.8412,1490.5858],[-86.941,13.8322,1725.6249],[-86.9348,13.8267,1641.9293],[-86.9315,13.8155,1417.9384],[-86.9258,13.8054,1383.91],[-86.92,13.8039,1253.6135],[-86.907,13.7934,1162.665],[-86.896,13.7898,928.0007],[-86.8891,13.7855,790.2627],[-86.8867,13.7812,661.6132],[-86.8884,13.7733,760.1675],[-86.8797,13.7702,660.7216],[-86.8783,13.7659,577.1668],[-86.8703,13.7645,816.3026],[-86.8643,13.7662,783.1636],[-86.8629,13.7694,737.0274],[-86.8593,13.7715,653.0762],[-86.8553,13.7716,657.1487],[-86.8553,13.7653,881.1864],[-86.8636,13.7585,757.948],[-86.8645,13.7528,799.0038],[-86.8619,13.7528,756.1797],[-86.8589,13.7469,859.6801],[-86.8531,13.7418,1043.7593],[-86.8305,13.7571,712.3226],[-86.7979,13.7628,499.1404],[-86.7935,13.765,586.9636],[-86.785,13.7636,531.642],[-86.7813,13.7598,545.5402],[-86.7748,13.7623,585.6886],[-86.769,13.7597,311.1527],[-86.7673,13.7608,341.513],[-86.7656,13.7639,389.7523],[-86.7656,13.7747,523.0447],[-86.7702,13.7767,608.553],[-86.7752,13.7839,493.1767],[-86.7699,13.7866,496.8649],[-86.768,13.7924,319.8802],[-86.7682,13.7981,356.8713],[-86.765,13.8003,334.7192],[-86.764,13.8037,348.9306],[-86.7683,13.8104,518.5889],[-86.7678,13.8204,485.4049],[-86.7759,13.8288,443.5944],[-86.7779,13.8408,405.5407],[-86.7713,13.8537,348.5735],[-86.77,13.86,373.6121]]]]}}