{"type": "Feature","bbox": [-86.8051,14.8282,-86.6437,14.961],"geometry": {"type": "MultiPolygon","coordinates": [[[[-86.7418,14.84,1498.4872],[-86.714,14.8308,1177.8087],[-86.6923,14.8282,1071.4038],[-86.672,14.8495,932.1182],[-86.6542,14.8546,938.7591],[-86.6494,14.8669,933.8892],[-86.6437,14.8896,1016.645],[-86.644,14.9209,1095.3569],[-86.6861,14.9193,836.2556],[-86.6877,14.9287,778.871],[-86.6929,14.9305,767.1404],[-86.6956,14.9334,735.8001],[-86.694,14.9377,743.7667],[-86.696,14.9399,732.9158],[-86.7015,14.9448,715.9333],[-86.7089,14.9459,765.554],[-86.7163,14.9587,777.8462],[-86.7252,14.961,794.6185],[-86.7268,14.9577,780.6591],[-86.7242,14.956,814.2733],[-86.7251,14.9511,794.7925],[-86.7239,14.9417,770.3184],[-86.7335,14.9366,739.489],[-86.735,14.9324,767.2747],[-86.7387,14.9322,745.9966],[-86.7404,14.9305,754.3069],[-86.7623,14.8932,1237.8354],[-86.7715,14.895,1297.5159],[-86.781,14.894,1377.8076],[-86.8051,14.886,1822.4572],[-86.7782,14.852,1378.9977],[-86.7618,14.8455,1463.2021],[-86.7418,14.84,1498.4872]]]]}
,"properties": {"GID_2": "HND.15.5_1","GID_0": "HND","country": "Honduras","GID_1": "HND.15_1","province": "Olancho","NL_NAME_1": "NA","county": "ElRosario","VARNAME_2": "NA","NL_NAME_2": "NA","TYPE_2": "Municipio","ENGTYPE_2": "Municipality","CC_2": "NA","HASC_2": "HN.CM.ER","name": "El_Rosario.county","area_km2": 138.8864,"hist_schema_id": "Elevation0-9000","hist_area_km2": {"700": 0.0205,"725": 1.2496,"750": 7.7646,"775": 15.3047,"800": 16.453,"825": 11.4744,"850": 8.0936,"875": 7.1921,"900": 7.1104,"925": 7.1925,"950": 5.9632,"975": 5.328,"1000": 4.3239,"1025": 3.7296,"1050": 3.0329,"1075": 2.7256,"1100": 2.4798,"1125": 2.0084,"1150": 1.1477,"1175": 1.0657,"1200": 0.9017,"1225": 0.8812,"1250": 1.2091,"1275": 0.7787,"1300": 1.0246,"1325": 1.1886,"1350": 1.2705,"1375": 1.332,"1400": 1.6189,"1425": 1.332,"1450": 1.4755,"1475": 1.2705,"1500": 1.1886,"1525": 1.3935,"1550": 1.5165,"1575": 1.2705,"1600": 1.291,"1625": 1.1066,"1650": 1.1681,"1675": 0.7787,"1700": 0.5123,"1725": 0.3279,"1750": 0.1844,"1775": 0.0615,"1800": 0.1229,"1825": 0.0205}}}