{"type": "Feature","bbox": [-88.7616,14.748,-88.6455,14.8406],"geometry": {"type": "MultiPolygon","coordinates": [[[[-88.6586,14.748,533.0052],[-88.6586,14.7521,549.4417],[-88.6623,14.7563,495.2885],[-88.6612,14.761,572.525],[-88.6728,14.7657,668.459],[-88.6745,14.7679,688.5756],[-88.6715,14.7762,484.8113],[-88.6725,14.7824,479.9875],[-88.67,14.7884,675.2164],[-88.672,14.7987,523.6248],[-88.6628,14.8187,803.6054],[-88.6565,14.821,965.5303],[-88.6553,14.8232,951.0407],[-88.6461,14.8287,845.7164],[-88.6455,14.8317,768.0399],[-88.6482,14.8389,650.3489],[-88.6504,14.8375,614.7597],[-88.6603,14.8383,516.5712],[-88.6724,14.8365,535.8519],[-88.681,14.8406,829.5822],[-88.6916,14.8376,726.8313],[-88.6988,14.8386,771.8665],[-88.7063,14.8374,727.9216],[-88.7116,14.8314,671.2511],[-88.7122,14.8272,680.4896],[-88.7416,14.8175,784.8217],[-88.7509,14.8235,854.7138],[-88.7592,14.8247,912.6969],[-88.7616,14.8205,903.7203],[-88.7453,14.7944,949.4993],[-88.7374,14.773,1094.5344],[-88.7237,14.7568,997.9746],[-88.7202,14.7553,1032.9347],[-88.7025,14.7549,936.2628],[-88.6995,14.7528,859.2997],[-88.6936,14.7522,843.6792],[-88.6924,14.7501,807.4095],[-88.6875,14.7507,767.3894],[-88.6854,14.7482,700.5902],[-88.6586,14.748,533.0052]]]]}
,"properties": {"GID_2": "HND.5.17_1","GID_0": "HND","country": "Honduras","GID_1": "HND.5_1","province": "Copán","NL_NAME_1": "NA","county": "SanJuandeOpoa","VARNAME_2": "NA","NL_NAME_2": "NA","TYPE_2": "Municipio","ENGTYPE_2": "Municipality","CC_2": "NA","HASC_2": "HN.CP.SO","name": "San_Juande_Opoa.county","area_km2": 74.96534,"hist_schema_id": "Elevation0-9000","hist_area_km2": {"425": 0.69693,"450": 2.04995,"475": 2.15245,"500": 2.45993,"525": 3.03382,"550": 3.42333,"575": 3.93571,"600": 4.16119,"625": 4.26364,"650": 4.05866,"675": 3.97666,"700": 3.93561,"725": 3.40272,"750": 3.5258,"775": 3.21826,"800": 2.95185,"825": 2.62392,"850": 2.66497,"875": 2.58295,"900": 2.27547,"925": 2.02947,"950": 1.80398,"975": 1.55805,"1000": 1.41454,"1025": 1.23005,"1050": 0.96357,"1075": 2.00915,"1100": 1.45562,"1125": 0.63556,"1150": 0.30753,"1175": 0.10251,"1200": 0.06151}}}