{"type":"Feature","properties":{"GID_2":"HND.12.2_1","GID_0":"HND","country":"Honduras","GID_1":"HND.12_1","province":"LaPaz","NL_NAME_1":"NA","county":"Cabañas","VARNAME_2":"NA","NL_NAME_2":"NA","TYPE_2":"Municipio","ENGTYPE_2":"Municipality","CC_2":"NA","HASC_2":"HN.CP.CA","name":"Cabañas.county"},
"geometry":{"type": "MultiPolygon","coordinates": [[[[-88.0217,13.8959,587.7632],[-88.0174,13.9,679.3856],[-88.017,13.9075,839.5957],[-87.9867,13.9087,946.6412],[-87.9804,13.9076,999.4341],[-87.9742,13.9129,786.1741],[-87.976,13.9198,872.9906],[-87.9743,13.922,803.0773],[-87.9798,13.9315,855.167],[-87.9799,13.9365,871.6829],[-87.9821,13.9412,1064.8376],[-87.9794,13.9462,1068.7222],[-87.9721,13.9479,983.8452],[-87.9675,13.9426,919.3648],[-87.9606,13.9423,762.4758],[-87.9583,13.9385,927.3693],[-87.9547,13.9387,909.3842],[-87.9545,13.937,939.4987],[-87.95,13.9338,847.2098],[-87.9485,13.9351,885.4089],[-87.9499,13.9369,892.2881],[-87.9488,13.9403,900.3629],[-87.9498,13.9437,843.7028],[-87.9454,13.9435,887.6108],[-87.944,13.9472,960.2288],[-87.9457,13.9545,878.8403],[-87.9435,13.9553,923.9536],[-87.9435,13.9579,866.3985],[-87.9472,13.9606,817.4412],[-87.9495,13.9657,829.8289],[-87.9534,13.9676,934.6808],[-87.9575,13.977,1077.911],[-87.9673,13.9823,1223.7777],[-87.97,13.9811,1324.6477],[-87.9731,13.9832,1342.8884],[-87.9797,13.9842,1508.0181],[-87.9856,13.9823,1346.7656],[-87.986,13.9867,1405.7102],[-87.9804,13.9896,1500.9375],[-87.9805,13.9908,1533.5239],[-87.9895,13.9938,1603.9502],[-87.9941,14.0004,1515.3345],[-87.9939,14.0065,1507.2491],[-87.9906,14.0103,1546.2711],[-87.9834,14.0122,1473.6936],[-87.9738,14.0104,1414.5369],[-87.9728,14.012,1298.3027],[-87.9661,14.0127,1319.4071],[-87.9697,14.0233,1227.3143],[-87.9693,14.0347,1342.0696],[-87.9761,14.0402,1414.0564],[-87.9773,14.0452,1531.1682],[-87.9805,14.0471,1602.6791],[-87.984,14.0438,1666.3466],[-87.9875,14.0435,1701.298],[-87.9896,14.0396,1705.4379],[-87.9942,14.0419,1814.1118],[-87.9986,14.041,1858.9675],[-88.0017,14.0438,1853.826],[-88.0101,14.044,1789.3717],[-88.0083,14.0459,1795.6113],[-88.0098,14.0502,1809.5585],[-88.0074,14.0554,1803.6692],[-87.9961,14.0528,1724.6206],[-87.9917,14.0561,1732.0238],[-87.9908,14.0754,1647.4806],[-87.995,14.0752,1609.5383],[-88.0044,14.0698,1671.9393],[-88.0059,14.0662,1779.333],[-88.009,14.0652,1778.3435],[-88.0099,14.0595,1801.7357],[-88.0221,14.0517,1750.6882],[-88.0296,14.0429,1713.6392],[-88.0363,14.0429,1720.9268],[-88.0416,14.0451,1749.0952],[-88.0512,14.0406,1885.5885],[-88.0539,14.025,1653.3169],[-88.0635,14.0175,1740.2825],[-88.0655,14.0079,1764.016],[-88.0691,14.0057,1770.04],[-88.0704,14.0023,1635.8668],[-88.0695,13.9979,1513.8002],[-88.074,13.9926,1581.2244],[-88.0754,13.9876,1450.069],[-88.074,13.9834,1456.2747],[-88.0761,13.9788,1418.9973],[-88.0678,13.9784,1382.0374],[-88.0675,13.959,1175.7847],[-88.0608,13.9493,1027.4612],[-88.056,13.9451,905.1238],[-88.0487,13.9324,755.1169],[-88.0217,13.8959,587.7632]]]]}}