{"type": "Feature","bbox": [-86.6914,15.1275,-86.4189,15.399],"geometry": {"type": "MultiPolygon","coordinates": [[[[-86.4189,15.3177,881.6455],[-86.4191,15.3237,786.4329],[-86.4246,15.3312,661.8502],[-86.4249,15.3396,721.9434],[-86.4287,15.3442,745.9897],[-86.4306,15.3541,756.5437],[-86.4328,15.3576,714.9876],[-86.4375,15.3605,607.481],[-86.4383,15.363,721.2491],[-86.4412,15.364,583.4314],[-86.4421,15.3604,504.9658],[-86.4437,15.3601,452.6891],[-86.448,15.3613,396.8925],[-86.4498,15.3643,426.185],[-86.4585,15.3638,360.9532],[-86.4571,15.3672,356.3745],[-86.4613,15.3669,431.4622],[-86.4596,15.372,352.9965],[-86.4664,15.3771,354.9619],[-86.4671,15.3829,618.4932],[-86.471,15.3897,543.2444],[-86.4882,15.3944,216.7496],[-86.4917,15.3937,236.9206],[-86.4959,15.3971,347.3333],[-86.5009,15.3966,460.905],[-86.5072,15.399,664.5817],[-86.5082,15.398,556.5325],[-86.5063,15.3919,448.7368],[-86.5089,15.3893,431.8269],[-86.5228,15.3866,619.2562],[-86.5236,15.3839,745.3744],[-86.5311,15.3805,851.5419],[-86.5322,15.3783,785.0826],[-86.5381,15.3837,739.4015],[-86.5441,15.3819,754.3087],[-86.5487,15.383,845.1896],[-86.5537,15.3786,914.9951],[-86.573,15.3692,1046.0112],[-86.5785,15.3613,1278.7903],[-86.5913,15.3606,1049.8529],[-86.5976,15.3564,1032.7014],[-86.6258,15.3442,926.472],[-86.6321,15.3351,978.0126],[-86.644,15.3286,808.5298],[-86.6521,15.329,951.9347],[-86.6591,15.3338,980.183],[-86.6748,15.328,566.267],[-86.6742,15.3101,956.81],[-86.6776,15.2999,1274.0818],[-86.6763,15.2957,1175.5508],[-86.6801,15.2946,1222.8998],[-86.6914,15.2837,1347.1772],[-86.6913,15.2812,1376.4333],[-86.6817,15.2705,1152.3499],[-86.6775,15.2588,899.8125],[-86.6835,15.256,922.8257],[-86.6855,15.2011,964.9771],[-86.6674,15.1967,1043.0806],[-86.671,15.175,1270.0763],[-86.6669,15.1697,1186.7593],[-86.6588,15.1646,1043.4169],[-86.6544,15.1551,1129.8003],[-86.646,15.147,1325.6057],[-86.6446,15.1414,1332.5491],[-86.6452,15.1317,1472.8243],[-86.6343,15.1275,1840.5374],[-86.6052,15.1506,1225.5255],[-86.5506,15.1691,1246.1262],[-86.5457,15.1771,1264.0154],[-86.5408,15.1795,1160.4446],[-86.5218,15.2094,1070.6783],[-86.5089,15.2375,968.2247],[-86.5054,15.2515,1233.473],[-86.491,15.2715,708.512],[-86.4922,15.2769,810.7959],[-86.4888,15.2802,673.7402],[-86.492,15.2857,627.3029],[-86.485,15.2991,315.1716],[-86.4745,15.3121,586.014],[-86.4189,15.3177,881.6455]]]]}
,"properties": {"GID_2": "HND.15.6_1","GID_0": "HND","country": "Honduras","GID_1": "HND.15_1","province": "Olancho","NL_NAME_1": "NA","county": "EsquipulasdelNorte","VARNAME_2": "NA","NL_NAME_2": "NA","TYPE_2": "Municipio","ENGTYPE_2": "Municipality","CC_2": "NA","HASC_2": "HN.OL.EN","name": "Esquipulasdel_Norte.county","area_km2": 471.3874,"hist_schema_id": "Elevation0-9000","hist_area_km2": {"175": 0.1431,"200": 1.0221,"225": 2.0239,"250": 2.4533,"275": 3.169,"300": 4.8662,"325": 6.2362,"350": 6.543,"375": 7.9947,"400": 8.0563,"425": 8.138,"450": 8.179,"475": 8.179,"500": 8.8539,"525": 8.997,"550": 8.4859,"575": 8.0975,"600": 9.0178,"625": 9.5701,"650": 8.9159,"675": 9.3865,"700": 10.5934,"725": 11.1867,"750": 11.596,"775": 12.8847,"800": 13.4171,"825": 14.3174,"850": 15.3404,"875": 16.0566,"900": 16.2207,"925": 17.019,"950": 16.6098,"975": 18.1445,"1000": 16.4469,"1025": 16.4472,"1050": 15.8544,"1075": 14.7703,"1100": 14.2797,"1125": 12.7659,"1150": 12.1115,"1175": 10.3924,"1200": 9.6762,"1225": 7.6099,"1250": 5.4621,"1275": 4.5824,"1300": 4.1527,"1325": 3.2118,"1350": 2.8439,"1375": 1.8415,"1400": 1.4732,"1425": 1.0845,"1450": 0.9618,"1475": 0.6344,"1500": 0.6139,"1525": 0.5526,"1550": 0.307,"1575": 0.3275,"1600": 0.3275,"1625": 0.2456,"1650": 0.0614,"1675": 0.1228,"1700": 0.0819,"1725": 0.1228,"1750": 0.0819,"1775": 0.0614,"1800": 0.0614,"1825": 0.0409,"1850": 0.0205,"1875": 0.0205,"1900": 0.0205}}}