{"type": "Feature","bbox": [-88.6849,15.2827,-88.483,15.4491],"geometry": {"type": "MultiPolygon","coordinates": [[[[-88.6838,15.3349,988.424],[-88.675,15.3233,742.6648],[-88.6531,15.3026,636.3221],[-88.5987,15.2827,415.4733],[-88.5776,15.2984,399.2887],[-88.5303,15.3161,220.902],[-88.527,15.3107,219.5319],[-88.4933,15.2965,225.2],[-88.483,15.317,422.3551],[-88.4886,15.3229,477.5853],[-88.4875,15.3298,606.987],[-88.4919,15.3396,535.4879],[-88.4897,15.348,504.8374],[-88.491,15.3533,515.7779],[-88.4978,15.3545,538.5485],[-88.502,15.3583,543.7004],[-88.5067,15.3594,476.7876],[-88.5206,15.3924,479.1343],[-88.5246,15.4301,524.9343],[-88.5455,15.4491,939.5558],[-88.5682,15.4275,929.2911],[-88.5782,15.4222,1022.192],[-88.5827,15.4244,996.3629],[-88.6015,15.4126,1055.3496],[-88.6418,15.3715,725.5755],[-88.6849,15.3363,1033.8336],[-88.6838,15.3349,988.424]]]]}
,"properties": {"GID_2": "HND.16.3_1","GID_0": "HND","country": "Honduras","GID_1": "HND.16_1","province": "SantaBárbara","NL_NAME_1": "NA","county": "Azacualpa","VARNAME_2": "NA","NL_NAME_2": "NA","TYPE_2": "Municipio","ENGTYPE_2": "Municipality","CC_2": "NA","HASC_2": "HN.SB.AZ","name": "Azacualpa.county","area_km2": 216.4354,"hist_schema_id": "Elevation0-9000","hist_area_km2": {"225": 5.2348,"250": 13.2904,"275": 13.7599,"300": 10.8359,"325": 7.6465,"350": 6.7059,"375": 5.0703,"400": 6.0311,"425": 5.336,"450": 5.6018,"475": 6.6035,"500": 7.0943,"525": 6.4198,"550": 4.6005,"575": 4.9071,"600": 4.3757,"625": 4.9481,"650": 6.6863,"675": 8.5059,"700": 7.7492,"725": 6.7473,"750": 6.6039,"775": 6.8901,"800": 6.6039,"825": 6.8491,"850": 6.5219,"875": 5.9697,"900": 5.7653,"925": 4.9475,"950": 4.2319,"975": 3.6595,"1000": 3.271,"1025": 2.4124,"1050": 1.4924,"1075": 1.1244,"1100": 0.7564,"1125": 0.5111,"1150": 0.2453,"1175": 0.1022,"1200": 0.0818,"1225": 0.1022,"1250": 0.1022,"1275": 0.0409}}}