{"type": "Feature","bbox": [-89.076,14.3535,-88.8908,14.4617],"geometry": {"type": "MultiPolygon","coordinates": [[[[-89.0629,14.424,2199.8892],[-89.0656,14.3879,2083.7803],[-89.0733,14.381,1961.463],[-89.076,14.3726,1879.3666],[-89.0723,14.3737,1958.5747],[-89.0704,14.3773,1981.8442],[-89.0667,14.3788,1983.2968],[-89.0566,14.3792,2049.3262],[-89.0544,14.383,2052.1851],[-89.0558,14.387,2116.8225],[-89.0461,14.3821,1935.7452],[-89.0151,14.3566,1628.1267],[-89.009,14.354,1552.1775],[-88.999,14.3535,1428.8535],[-88.9918,14.3581,1243.152],[-88.9895,14.363,1208.1715],[-88.9861,14.3627,1194.0312],[-88.9847,14.3654,1199.4524],[-88.9838,14.3713,1203.0621],[-88.9919,14.3779,1115.8833],[-88.9514,14.4073,954.6645],[-88.9145,14.4255,1024.1765],[-88.9101,14.4295,1021.4988],[-88.9053,14.429,1094.8445],[-88.9034,14.4267,1123.1544],[-88.8974,14.4292,1164.9637],[-88.8972,14.4352,1104.563],[-88.8908,14.4459,1198.2979],[-88.915,14.452,1085.9415],[-88.9208,14.4551,1028.5936],[-88.9241,14.4551,999.5706],[-88.9277,14.4513,927.5868],[-88.929,14.4522,930.5023],[-88.9368,14.4497,909.4219],[-88.9653,14.4617,911.7534],[-88.9717,14.4572,978.6993],[-88.9753,14.4574,983.7177],[-88.9778,14.4545,997.8107],[-88.9803,14.4554,1018.7773],[-88.9981,14.4449,1037.5015],[-89.0122,14.4419,1189.4829],[-89.0266,14.4184,1352.9248],[-89.0423,14.4191,1710.1047],[-89.0629,14.424,2199.8892]]]]}
,"properties": {"GID_2": "HND.14.11_1","GID_0": "HND","country": "Honduras","GID_1": "HND.14_1","province": "Ocotepeque","NL_NAME_1": "NA","county": "SanFranciscodelValle","VARNAME_2": "NA","NL_NAME_2": "NA","TYPE_2": "Municipio","ENGTYPE_2": "Municipality","CC_2": "NA","HASC_2": "HN.OC.SV","name": "San_Franciscodel_Valle.county","area_km2": 107.08974,"hist_schema_id": "Elevation0-9000","hist_area_km2": {"875": 1.51936,"900": 4.8867,"925": 8.80859,"950": 8.74723,"975": 6.18049,"1000": 4.41466,"1025": 3.7987,"1050": 3.28543,"1075": 3.69616,"1100": 4.0658,"1125": 3.12127,"1150": 3.75797,"1175": 3.05986,"1200": 2.87505,"1225": 3.03935,"1250": 2.62866,"1275": 2.71071,"1300": 1.86876,"1325": 1.45806,"1350": 1.1706,"1375": 1.15003,"1400": 1.27325,"1425": 1.04735,"1450": 1.10901,"1475": 0.73932,"1500": 0.80096,"1525": 0.80094,"1550": 0.82149,"1575": 1.10905,"1600": 0.98578,"1625": 0.94474,"1650": 0.80096,"1675": 0.75988,"1700": 1.00634,"1725": 0.9858,"1750": 0.90364,"1775": 0.73934,"1800": 0.8215,"1825": 0.82148,"1850": 0.84202,"1875": 0.78041,"1900": 0.86255,"1925": 1.04738,"1950": 1.12951,"1975": 0.78038,"2000": 1.00628,"2025": 0.63661,"2050": 0.75984,"2075": 0.75985,"2100": 0.82146,"2125": 1.33487,"2150": 1.06787,"2175": 0.84198,"2200": 0.73928,"2225": 0.43125,"2250": 0.32856,"2275": 0.20535}}}