{"type":"Feature","properties":{"GID_2":"HND.17.6_1","GID_0":"HND","country":"Honduras","GID_1":"HND.17_1","province":"Valle","NL_NAME_1":"NA","county":"Langue","VARNAME_2":"NA","NL_NAME_2":"NA","TYPE_2":"Municipio","ENGTYPE_2":"Municipality","CC_2":"NA","HASC_2":"HN.VA.LA","name":"Langue.county"},
"geometry":{"type": "MultiPolygon","coordinates": [[[[-87.6554,13.7395,645.3732],[-87.6638,13.7349,433.7025],[-87.6585,13.7279,373.2081],[-87.6593,13.7222,319.8931],[-87.6531,13.7098,434.1709],[-87.6593,13.6978,350.5304],[-87.6595,13.691,257.163],[-87.6619,13.6894,272.089],[-87.6603,13.6877,235.8241],[-87.6613,13.6848,314.039],[-87.6699,13.6819,526.1216],[-87.6854,13.6667,342.2907],[-87.69,13.6677,275.4832],[-87.6945,13.6662,242.0932],[-87.6977,13.6686,261.5135],[-87.6906,13.6593,304.4059],[-87.6849,13.6557,264.8637],[-87.6857,13.6474,277.5258],[-87.6845,13.6287,280.6311],[-87.6745,13.6119,176.1032],[-87.6692,13.6116,170.1579],[-87.6656,13.6062,157.4132],[-87.663,13.6052,151.1661],[-87.6531,13.5843,185.7893],[-87.6228,13.5966,296.6555],[-87.6013,13.5951,300.6871],[-87.572,13.6226,195.3119],[-87.6035,13.6698,354.3051],[-87.5919,13.6902,305.2354],[-87.5992,13.6986,468.8048],[-87.603,13.722,698.2896],[-87.6145,13.7294,1037.5636],[-87.6196,13.735,1128.6681],[-87.6271,13.7365,940.3657],[-87.6344,13.7432,979.6266],[-87.6456,13.7441,992.9487],[-87.653,13.7394,650.9254],[-87.6554,13.7395,645.3732]]]]}}