{"type":"Feature","properties":{"GID_2":"HND.16.7_1","GID_0":"HND","country":"Honduras","GID_1":"HND.16_1","province":"SantaBárbara","NL_NAME_1":"NA","county":"ConcepcióndelSur","VARNAME_2":"NA","NL_NAME_2":"NA","TYPE_2":"Municipio","ENGTYPE_2":"Municipality","CC_2":"NA","HASC_2":"HN.SB.CS","name":"Concepcióndel_Sur.county"},
"geometry":{"type": "MultiPolygon","coordinates": [[[[-88.1917,14.7535,492.6893],[-88.1845,14.755,443.059],[-88.1808,14.7504,390.4902],[-88.1629,14.7535,323.1622],[-88.1585,14.7491,349.3852],[-88.1337,14.7584,481.4901],[-88.1302,14.7637,446.7955],[-88.1315,14.7776,369.0246],[-88.1275,14.7807,381.2344],[-88.1253,14.7879,390.1428],[-88.1242,14.8041,439.8972],[-88.116,14.8157,672.0438],[-88.1116,14.8187,678.4547],[-88.1054,14.8298,916.3253],[-88.0854,14.847,1073.0781],[-88.0906,14.8547,1097.0925],[-88.1406,14.849,1317.0243],[-88.1552,14.8466,892.9977],[-88.1636,14.8428,912.494],[-88.1518,14.8123,634.8373],[-88.1834,14.7757,401.9417],[-88.184,14.7653,299.478],[-88.1873,14.7627,320.6927],[-88.1917,14.7535,492.6893]]]]}}