{"type": "Feature","bbox": [-87.2497,14.2856,-86.8932,14.4709],"geometry": {"type": "MultiPolygon","coordinates": [[[[-87.2488,14.3643,1041.7943],[-87.1654,14.3598,1101.6161],[-87.1487,14.3616,1026.865],[-87.1291,14.3453,1191.3489],[-87.1337,14.3406,1139.7391],[-87.1341,14.3282,1097.8295],[-87.1398,14.3148,1041.3021],[-87.1407,14.303,794.9376],[-87.1502,14.2952,870.7109],[-87.1506,14.2902,955.3984],[-87.1371,14.2908,1082.384],[-87.1147,14.2858,999.0889],[-87.1083,14.2877,892.2213],[-87.1061,14.2856,1005.3163],[-87.104,14.2932,772.3378],[-87.1015,14.2963,700.2753],[-87.0919,14.2968,847.5735],[-87.0676,14.3367,1061.218],[-87.0052,14.3605,974.5169],[-86.9975,14.3795,1009.2786],[-86.9939,14.3847,989.138],[-86.988,14.3855,1036.9324],[-86.9852,14.3887,1099.3738],[-86.9358,14.3672,1101.8361],[-86.9331,14.3645,1060.4254],[-86.9268,14.3641,1035.3044],[-86.9237,14.3656,1012.1255],[-86.9209,14.3678,1041.7286],[-86.9202,14.3742,956.0608],[-86.9165,14.3834,1059.1833],[-86.9139,14.3847,1018.9325],[-86.9122,14.3886,1044.9432],[-86.9088,14.3906,1024.1846],[-86.9018,14.3897,1018.8538],[-86.9006,14.3933,925.6251],[-86.8965,14.3954,1033.995],[-86.8955,14.3996,884.4547],[-86.8975,14.4022,909.8029],[-86.8951,14.4046,1001.4741],[-86.894,14.4092,1076.7904],[-86.8932,14.4279,882.9369],[-86.8954,14.4261,890.0114],[-86.9039,14.4275,825.3276],[-86.907,14.4251,848.3033],[-86.911,14.4286,889.372],[-86.9182,14.43,983.4997],[-86.9202,14.436,970.2858],[-86.925,14.4333,1042.6279],[-86.9274,14.4374,937.3079],[-86.9439,14.4492,1046.6399],[-86.9465,14.4536,1011.4752],[-86.9567,14.4547,888.2885],[-86.9604,14.4526,963.3881],[-86.962,14.4548,926.7929],[-86.975,14.4505,944.4789],[-86.9783,14.4547,958.7023],[-86.9903,14.4613,952.6937],[-87.0364,14.4709,854.7907],[-87.0406,14.4705,813.8575],[-87.044,14.468,799.2129],[-87.051,14.4683,783.1565],[-87.0567,14.4642,781.4648],[-87.0636,14.4617,774.7271],[-87.0861,14.461,756.4969],[-87.0872,14.4614,756.2375],[-87.0867,14.4636,756.5554],[-87.097,14.4642,754.3361],[-87.1014,14.4615,752.9557],[-87.1021,14.4591,754.6595],[-87.1081,14.4575,756.3682],[-87.1233,14.4589,752.911],[-87.137,14.4661,752.6526],[-87.1538,14.4651,756.0532],[-87.1595,14.4668,744.3694],[-87.1619,14.465,751.191],[-87.1625,14.4677,750.0863],[-87.1664,14.4662,746.284],[-87.1737,14.4666,740.5621],[-87.1845,14.4639,756.0171],[-87.2151,14.4375,807.6041],[-87.2179,14.4369,843.4712],[-87.2243,14.4296,844.2173],[-87.2249,14.4248,824.0219],[-87.2301,14.4235,797.8184],[-87.2409,14.3864,1127.2151],[-87.2497,14.3813,851.9055],[-87.2488,14.3643,1041.7943]]]]}
,"properties": {"GID_2": "HND.8.24_1","GID_0": "HND","country": "Honduras","GID_1": "HND.8_1","province": "FranciscoMorazán","NL_NAME_1": "NA","county": "Talanga","VARNAME_2": "NA","NL_NAME_2": "NA","TYPE_2": "Municipio","ENGTYPE_2": "Municipality","CC_2": "NA","HASC_2": "HN.FM.TL","name": "Talanga.county","area_km2": 425.9196,"hist_schema_id": "Elevation0-9000","hist_area_km2": {"675": 0.0205,"700": 0.4725,"725": 0.9451,"750": 18.5605,"775": 49.1972,"800": 43.2875,"825": 31.3795,"850": 25.8145,"875": 22.5901,"900": 23.8226,"925": 24.3768,"950": 25.5674,"975": 26.6556,"1000": 24.2121,"1025": 24.4385,"1050": 21.2144,"1075": 18.0116,"1100": 12.3439,"1125": 8.6061,"1150": 6.0389,"1175": 4.3753,"1200": 3.3688,"1225": 2.7731,"1250": 1.705,"1275": 1.8282,"1300": 1.6023,"1325": 1.3969,"1350": 0.8628,"1375": 0.3903,"1400": 0.0411,"1425": 0.0205}}}