{"type":"Feature","properties":{"GID_2":"HND.7.16_1","GID_0":"HND","country":"Honduras","GID_1":"HND.7_1","province":"ElParaíso","NL_NAME_1":"NA","county":"Trojes","VARNAME_2":"NA","NL_NAME_2":"NA","TYPE_2":"Municipio","ENGTYPE_2":"Municipality","CC_2":"NA","HASC_2":"HN.EP.TR","name":"Trojes.county"},
"geometry":{"type": "MultiPolygon","coordinates": [[[[-86.1431,14.0364,1036.9691],[-86.1219,14.0442,841.529],[-86.1028,14.0593,790.7194],[-86.0924,14.0639,753.9517],[-86.0719,14.0654,754.1974],[-86.0639,14.0693,738.9747],[-86.0344,14.0688,695.3423],[-86.0178,14.0765,709.1191],[-86.0121,14.0771,716.2942],[-86.0086,14.0752,699.3325],[-86.0065,14.0708,687.4877],[-86.0049,14.0593,680.9635],[-86.0095,14.0443,679.7371],[-86.0211,14.023,819.3578],[-86.0233,14.0076,704.6531],[-86.0217,13.9997,726.0983],[-86.0154,13.9898,622.806],[-85.9476,13.9388,618.9993],[-85.9284,13.9209,645.0316],[-85.92,13.9079,426.1022],[-85.901,13.8999,415.7313],[-85.896,13.9036,444.1449],[-85.8941,13.9082,489.8205],[-85.8946,13.9144,542.5279],[-85.8879,13.9221,401.2429],[-85.8827,13.9223,515.4824],[-85.8755,13.9193,577.6105],[-85.8637,13.9194,359.7411],[-85.8513,13.9133,417.1114],[-85.8438,13.9032,383.2141],[-85.8445,13.8772,347.2565],[-85.8328,13.8665,441.0853],[-85.8282,13.8541,394.2827],[-85.8223,13.8517,333.6087],[-85.8182,13.8432,457.8962],[-85.8112,13.8402,648.6923],[-85.7912,13.8393,427.8258],[-85.7775,13.8443,399.516],[-85.7709,13.8447,466.9554],[-85.7632,13.8421,339.6544],[-85.7555,13.8319,297.1585],[-85.7486,13.8351,337.6185],[-85.7437,13.8398,254.665],[-85.7388,13.8543,280.3872],[-85.7397,13.8621,355.0191],[-85.7432,13.867,475.9344],[-85.7502,13.8732,325.8441],[-85.7643,13.8793,396.3982],[-85.7652,13.8816,363.4992],[-85.7606,13.8954,264.9411],[-85.7579,13.913,265.0264],[-85.7591,13.9583,385.0542],[-85.7539,13.9649,249.9538],[-85.7412,13.9655,349.1606],[-85.7332,13.9696,234.4713],[-85.7196,13.9842,233.8916],[-85.7125,13.988,234.7973],[-85.7062,13.9884,299.0568],[-85.6994,13.9863,381.8621],[-85.6825,13.9784,313.5876],[-85.6742,13.9836,227.0889],[-85.6676,13.9902,241.7289],[-85.665,13.9949,230.8937],[-85.6637,14.0107,223.4314],[-85.6616,14.0127,239.2029],[-85.6534,14.0149,326.3074],[-85.6321,14.0112,227.3529],[-85.6218,14.0213,221.3813],[-85.6132,14.0226,248.4532],[-85.6079,14.0254,223.4699],[-85.5984,14.0369,239.9887],[-85.5973,14.0413,318.9169],[-85.5953,14.0429,314.5034],[-85.5879,14.0421,215.0353],[-85.5823,14.0457,360.2196],[-85.5765,14.0624,267.496],[-85.5748,14.0627,238.9262],[-85.5756,14.0692,437.6449],[-85.582,14.0796,344.3279],[-85.5871,14.0826,288.4482],[-85.5938,14.0823,385.8004],[-85.5967,14.0866,315.2034],[-85.6118,14.0939,431.5909],[-85.6176,14.0986,509.4384],[-85.6194,14.1015,379.0796],[-85.6203,14.1114,572.9652],[-85.6188,14.1157,632.4421],[-85.6118,14.1216,419.6973],[-85.6095,14.132,548.1799],[-85.6168,14.1393,639.3701],[-85.6217,14.1498,763.532],[-85.6211,14.1542,739.9466],[-85.6267,14.1611,965.0591],[-85.6437,14.1684,1308.7743],[-85.6547,14.1833,1468.9348],[-85.6579,14.1899,1549.6071],[-85.6609,14.1917,1416.9623],[-85.667,14.1885,1421.0334],[-85.6702,14.1754,1432.7555],[-85.6774,14.1751,1307.7627],[-85.6809,14.1757,1309.7638],[-85.6897,14.1818,1130.2985],[-85.7086,14.185,1090.6711],[-85.7208,14.1897,1118.0367],[-85.7364,14.1879,1023.6298],[-85.7506,14.1833,763.3856],[-85.7576,14.1853,767.7719],[-85.7605,14.1879,809.7424],[-85.7608,14.192,822.9104],[-85.7643,14.1955,933.8987],[-85.7707,14.1949,818.3892],[-85.7763,14.1885,687.0632],[-85.7815,14.1751,681.3237],[-85.7861,14.1678,759.4512],[-85.7917,14.1606,790.0443],[-85.7946,14.1594,671.4038],[-85.7981,14.1594,668.1479],[-85.8036,14.1623,849.3207],[-85.8132,14.1632,1013.9128],[-85.8305,14.1742,919.1481],[-85.8363,14.1812,926.3748],[-85.8398,14.1815,1062.2902],[-85.8634,14.1693,922.5751],[-85.8759,14.1649,768.9711],[-85.8812,14.1568,788.781],[-85.882,14.1411,1022.6772],[-85.8911,14.1259,991.1447],[-85.9141,14.1259,888.5229],[-85.9266,14.1335,1035.9561],[-85.9317,14.1454,969.3798],[-85.9491,14.167,964.7072],[-85.9561,14.1667,904.2509],[-85.9721,14.1704,824.5689],[-85.9884,14.1763,1044.5245],[-85.9983,14.1894,1068.5759],[-86.0006,14.1966,999.247],[-86.0006,14.2086,884.7173],[-86.0041,14.2161,854.7673],[-86.0181,14.2342,1061.8088],[-86.0268,14.2563,983.8051],[-86.0308,14.2626,841.2056],[-86.0362,14.2618,801.5433],[-86.0404,14.2643,724.4196],[-86.051,14.2655,675.8345],[-86.0529,14.2689,653.2115],[-86.061,14.2699,665.5541],[-86.0691,14.264,596.7844],[-86.0708,14.2515,554.0544],[-86.0685,14.2487,506.3493],[-86.053,14.178,1102.8824],[-86.1472,14.1242,679.9833],[-86.1431,14.0364,1036.9691]]]]}}