{"type":"Feature","properties":{"GID_2":"HND.10.7_1","GID_0":"HND","country":"Honduras","GID_1":"HND.10_1","province":"Intibucá","NL_NAME_1":"NA","county":"LaEsperanza","VARNAME_2":"NA","NL_NAME_2":"NA","TYPE_2":"Municipio","ENGTYPE_2":"Municipality","CC_2":"NA","HASC_2":"HN.IN.LE","name":"La_Esperanza.county"},
"geometry":{"type": "MultiPolygon","coordinates": [[[[-88.2087,14.305,1901.0046],[-88.2136,14.2913,1884.0161],[-88.1803,14.2567,1686.1992],[-88.1811,14.254,1675.2019],[-88.1724,14.2457,1536.3745],[-88.1699,14.2407,1534.0751],[-88.1593,14.2328,1355.7087],[-88.1571,14.2278,1414.6987],[-88.1565,14.2085,1125.0374],[-88.1545,14.2024,1262.6886],[-88.1504,14.1986,1378.2745],[-88.151,14.1932,1330.1785],[-88.1547,14.1856,1315.9116],[-88.1622,14.177,1101.041],[-88.1611,14.159,1086.8651],[-88.1513,14.15,1053.1947],[-88.1507,14.1453,1237.7874],[-88.1438,14.1485,1126.6343],[-88.1413,14.1472,1181.5247],[-88.1387,14.1495,1225.4656],[-88.1349,14.1488,1355.4342],[-88.1332,14.152,1380.4927],[-88.1274,14.151,1489.938],[-88.1281,14.155,1396.5769],[-88.1164,14.1581,1185.5208],[-88.1129,14.1703,1238.3223],[-88.1037,14.1777,1104.0122],[-88.1031,14.1959,1419.3435],[-88.0642,14.2234,1386.0619],[-88.0588,14.2305,1471.0089],[-88.0513,14.2341,1318.9385],[-88.0528,14.2404,1346.9099],[-88.0649,14.2497,1544.4883],[-88.0656,14.2586,1415.5404],[-88.0722,14.2623,1493.7233],[-88.0751,14.2673,1495.4021],[-88.0796,14.2684,1525.728],[-88.0881,14.2778,1740.2197],[-88.101,14.2838,1745.7197],[-88.1097,14.2919,1896.1458],[-88.119,14.2943,1893.0437],[-88.1275,14.2994,1963.6469],[-88.1336,14.3011,1922.923],[-88.1435,14.2977,1852.6738],[-88.1682,14.2958,1678.0104],[-88.1907,14.3028,1788.2303],[-88.1968,14.3018,1837.9307],[-88.2049,14.3053,1874.2976],[-88.2087,14.305,1901.0046]]]]}}