{"type": "Feature","bbox": [-87.1417,13.2363,-87.0563,13.3691],"geometry": {"type": "MultiPolygon","coordinates": [[[[-87.1098,13.256,595.7769],[-87.0984,13.2501,471.79],[-87.0958,13.2467,380.067],[-87.0846,13.2401,417.6531],[-87.0817,13.2363,458.0667],[-87.0672,13.2374,792.7321],[-87.0611,13.2405,844.9645],[-87.0615,13.2445,816.6306],[-87.0682,13.2524,504.7928],[-87.0686,13.2623,353.9095],[-87.0736,13.27,307.046],[-87.0736,13.2729,248.3946],[-87.0691,13.2768,305.3614],[-87.0713,13.2813,247.3424],[-87.0727,13.293,106.7799],[-87.0709,13.298,98.4661],[-87.0673,13.3008,118.119],[-87.0681,13.3059,99.2694],[-87.0649,13.3111,186.9653],[-87.0632,13.3202,91.5268],[-87.0592,13.3249,92.6984],[-87.0563,13.3533,207.6797],[-87.0608,13.3573,344.4255],[-87.0594,13.3626,351.0812],[-87.0611,13.3648,335.2582],[-87.0585,13.3691,269.9519],[-87.0738,13.3658,189.1931],[-87.0848,13.352,65.3947],[-87.0953,13.3521,59.7278],[-87.1009,13.3442,59.0662],[-87.1041,13.3336,57.2182],[-87.1212,13.3327,57.3871],[-87.1277,13.3222,53.2928],[-87.1354,13.314,50.2761],[-87.1411,13.3018,43.8206],[-87.1417,13.2984,45.7777],[-87.1337,13.2976,48.7382],[-87.1309,13.2893,64.1313],[-87.1245,13.2872,145.6541],[-87.121,13.284,241.2991],[-87.1182,13.2783,338.6205],[-87.1164,13.2677,670.7228],[-87.1098,13.256,595.7769]]]]}
,"properties": {"GID_2": "HND.2.16_1","GID_0": "HND","country": "Honduras","GID_1": "HND.2_1","province": "Choluteca","NL_NAME_1": "NA","county": "SantaAnadeYusguare","VARNAME_2": "NA","NL_NAME_2": "NA","TYPE_2": "Municipio","ENGTYPE_2": "Municipality","CC_2": "NA","HASC_2": "HN.CH.SY","name": "Santa_Anade_Yusguare.county","area_km2": 74.40381,"hist_schema_id": "Elevation0-9000","hist_area_km2": {"50": 16.93887,"75": 25.43913,"100": 6.72643,"125": 2.765,"150": 2.18727,"175": 2.00156,"200": 1.32065,"225": 1.65082,"250": 1.32061,"275": 0.99047,"300": 1.25873,"325": 0.90793,"350": 1.15553,"375": 0.86667,"400": 0.84613,"425": 0.74296,"450": 0.99061,"475": 0.76359,"500": 0.80488,"525": 0.55721,"550": 0.51593,"575": 0.55721,"600": 0.4953,"625": 0.4953,"650": 0.66039,"675": 0.43338,"700": 0.18573,"725": 0.12383,"750": 0.06192,"775": 0.04128,"800": 0.12383,"825": 0.16511,"850": 0.06192,"875": 0.08255,"900": 0.04128,"925": 0.08255,"950": 0.02064,"975": 0.02064}}}