{"type": "Feature","bbox": [-88.8199,14.2486,-88.6381,14.4288],"geometry": {"type": "MultiPolygon","coordinates": [[[[-88.8058,14.2865,1514.8153],[-88.7919,14.2807,1188.5625],[-88.7891,14.2779,1225.287],[-88.7848,14.2677,1041.4767],[-88.78,14.2642,1057.0269],[-88.7749,14.2691,996.216],[-88.7641,14.2694,1071.1248],[-88.724,14.2498,999.1418],[-88.6819,14.2486,846.3369],[-88.6782,14.2561,791.6787],[-88.6723,14.258,893.0938],[-88.6685,14.2555,994.723],[-88.6667,14.2594,932.536],[-88.6634,14.2578,960.7849],[-88.663,14.2606,866.2582],[-88.6602,14.2611,876.4093],[-88.661,14.2655,824.5471],[-88.6588,14.2666,964.9707],[-88.6589,14.2691,813.1005],[-88.656,14.2689,951.3541],[-88.6516,14.2769,853.2402],[-88.6474,14.2796,861.9023],[-88.6471,14.2831,869.6564],[-88.6444,14.2827,921.5605],[-88.6436,14.2896,784.5795],[-88.6497,14.3003,700.0635],[-88.6489,14.3028,727.7216],[-88.6456,14.3034,669.2473],[-88.64,14.3107,994.7547],[-88.6381,14.3241,1031.0242],[-88.6397,14.3249,935.2552],[-88.64,14.3276,879.2565],[-88.6441,14.327,753.3179],[-88.6485,14.3301,962.9597],[-88.6623,14.3258,837.4013],[-88.6663,14.3267,845.8555],[-88.6721,14.3404,947.147],[-88.6785,14.3485,1004.3165],[-88.6831,14.3503,1178.3866],[-88.6879,14.356,1265.0375],[-88.6947,14.3784,1002.1405],[-88.6985,14.3811,1227.4974],[-88.7038,14.3887,1268.7979],[-88.704,14.3982,1103.7496],[-88.7061,14.4044,1193.1091],[-88.7147,14.4118,1384.9044],[-88.7189,14.4122,1501.6841],[-88.7202,14.418,1278.7695],[-88.7251,14.4241,1353.9846],[-88.7344,14.4267,1393.5923],[-88.7364,14.4288,1589.377],[-88.7427,14.4192,1598.6102],[-88.7468,14.4181,1645.9894],[-88.7491,14.4155,1556.8271],[-88.7907,14.4003,1930.5237],[-88.8136,14.4145,2100.5566],[-88.8152,14.4007,2151.6177],[-88.8199,14.3899,2184.2378],[-88.7994,14.3717,2246.1851],[-88.7901,14.3507,2015.7531],[-88.7787,14.3379,2201.3853],[-88.7778,14.3345,2219.0688],[-88.7786,14.3237,1752.9293],[-88.8058,14.2865,1514.8153]]]]}
,"properties": {"GID_2": "HND.13.22_1","GID_0": "HND","country": "Honduras","GID_1": "HND.13_1","province": "Lempira","NL_NAME_1": "NA","county": "SanSebastian","VARNAME_2": "NA","NL_NAME_2": "NA","TYPE_2": "Municipio","ENGTYPE_2": "Municipality","CC_2": "NA","HASC_2": "HN.LE.SS","name": "San_Sebastian.county","area_km2": 231.124,"hist_schema_id": "Elevation0-9000","hist_area_km2": {"500": 0.1027,"525": 0.1644,"550": 0.3288,"575": 1.0685,"600": 1.274,"625": 1.3151,"650": 1.6027,"675": 1.9109,"700": 2.2396,"725": 2.7738,"750": 2.8149,"775": 3.1436,"800": 3.2669,"825": 3.6573,"850": 4.0477,"875": 4.0066,"900": 4.0271,"925": 4.3763,"950": 4.479,"975": 3.6982,"1000": 3.7188,"1025": 4.1502,"1050": 3.5338,"1075": 3.9035,"1100": 3.2255,"1125": 3.7597,"1150": 3.7597,"1175": 3.6774,"1200": 3.4719,"1225": 3.7595,"1250": 4.1703,"1275": 4.0265,"1300": 4.4168,"1325": 4.9098,"1350": 4.355,"1375": 4.9095,"1400": 4.6425,"1425": 4.5808,"1450": 5.1354,"1475": 5.0532,"1500": 4.6217,"1525": 4.2313,"1550": 4.1492,"1575": 4.1902,"1600": 4.3546,"1625": 4.0875,"1650": 3.6152,"1675": 3.8411,"1700": 2.7113,"1725": 3.1633,"1750": 3.1427,"1775": 3.4715,"1800": 2.8552,"1825": 2.1567,"1850": 2.1566,"1875": 1.9923,"1900": 2.2183,"1925": 2.362,"1950": 2.4852,"1975": 2.5468,"2000": 2.5263,"2025": 3.43,"2050": 3.5122,"2075": 3.3683,"2100": 2.9986,"2125": 3.3683,"2150": 2.937,"2175": 2.0949,"2200": 1.9101,"2225": 1.7458,"2250": 1.4377,"2275": 1.2734,"2300": 0.801,"2325": 0.7805,"2350": 0.4519,"2375": 0.3286,"2400": 0.2259,"2425": 0.0411,"2450": 0.0411,"2475": 0.0411}}}