{"type": "Feature","bbox": [-86.9694,13.2659,-86.7025,13.5618],"geometry": {"type": "MultiPolygon","coordinates": [[[[-86.9694,13.3866,1000.4663],[-86.9654,13.3817,1068.3419],[-86.9665,13.3764,990.2584],[-86.965,13.372,970.6098],[-86.9663,13.3697,956.7198],[-86.9588,13.3682,1012.1146],[-86.955,13.3655,1009.5417],[-86.9505,13.3666,985.7899],[-86.9468,13.3631,858.2224],[-86.9436,13.3568,769.2751],[-86.9433,13.3503,749.2403],[-86.934,13.3403,856.9393],[-86.9266,13.3153,772.1061],[-86.917,13.3094,831.0638],[-86.9159,13.2871,663.2963],[-86.8977,13.2743,348.3426],[-86.8935,13.2659,383.593],[-86.8769,13.2749,482.5868],[-86.8706,13.2886,575.0774],[-86.8646,13.2942,744.7234],[-86.8402,13.3001,1252.3186],[-86.8288,13.3054,1180.6006],[-86.8192,13.3063,1409.7878],[-86.7957,13.2936,1228.6923],[-86.7618,13.2686,747.0526],[-86.7563,13.267,928.4045],[-86.7501,13.2674,943.5413],[-86.7405,13.2711,638.3139],[-86.7065,13.2954,939.0656],[-86.7027,13.308,1097.3193],[-86.7025,13.3248,1277.4808],[-86.7104,13.3694,997.3369],[-86.713,13.3724,931.8387],[-86.7313,13.3768,1157.5098],[-86.7363,13.38,1161.9858],[-86.7429,13.3929,1280.6399],[-86.74,13.4027,1080.2241],[-86.7294,13.4141,981.3746],[-86.7224,13.4253,903.5683],[-86.7221,13.4341,1044.46],[-86.7253,13.4519,866.3587],[-86.7374,13.4783,882.7208],[-86.7457,13.5507,1072.6353],[-86.7507,13.5618,1038.2208],[-86.7952,13.5546,1211.941],[-86.8096,13.5441,1083.9595],[-86.824,13.5393,788.4662],[-86.828,13.5347,864.9612],[-86.8249,13.5261,724.6052],[-86.8244,13.5187,633.1047],[-86.8433,13.5243,829.5243],[-86.855,13.5105,427.6313],[-86.8671,13.4993,735.8828],[-86.8627,13.4868,1047.1675],[-86.8639,13.4842,1066.6511],[-86.8878,13.4845,996.8828],[-86.9051,13.4983,803.6647],[-86.909,13.4973,817.6709],[-86.9159,13.4902,809.085],[-86.93,13.4857,644.8645],[-86.9342,13.4784,530.8204],[-86.9377,13.4766,573.35],[-86.9263,13.4622,691.4592],[-86.9598,13.3932,1191.0979],[-86.9694,13.3866,1000.4663]]]]}
,"properties": {"GID_2": "HND.2.15_1","GID_0": "HND","country": "Honduras","GID_1": "HND.2_1","province": "Choluteca","NL_NAME_1": "NA","county": "SanMarcosdeColón","VARNAME_2": "NA","NL_NAME_2": "NA","TYPE_2": "Municipio","ENGTYPE_2": "Municipality","CC_2": "NA","HASC_2": "HN.CH.SM","name": "San_Marcosde_Colón.county","area_km2": 612.1654,"hist_schema_id": "Elevation0-9000","hist_area_km2": {"300": 0.0206,"325": 0.4127,"350": 0.5984,"375": 0.8254,"400": 0.8048,"425": 1.0315,"450": 1.4234,"475": 1.836,"500": 1.8154,"525": 2.0009,"550": 1.8151,"575": 2.2896,"600": 2.6195,"625": 2.3721,"650": 3.0526,"675": 3.0733,"700": 3.4444,"725": 4.0633,"750": 5.5272,"775": 6.0638,"800": 7.8992,"825": 9.0538,"850": 11.4049,"875": 11.7553,"900": 18.1474,"925": 24.9308,"950": 30.7469,"975": 26.6235,"1000": 28.0267,"1025": 29.7599,"1050": 31.7407,"1075": 28.7089,"1100": 29.9458,"1125": 32.6282,"1150": 31.8046,"1175": 31.2056,"1200": 29.6801,"1225": 26.3183,"1250": 21.41,"1275": 21.5344,"1300": 17.6155,"1325": 13.057,"1350": 12.2733,"1375": 9.5301,"1400": 5.6935,"1425": 4.9509,"1450": 3.6721,"1475": 3.3214,"1500": 3.4246,"1525": 3.6515,"1550": 1.9393,"1575": 1.7949,"1600": 1.8155,"1625": 0.6602,"1650": 0.227,"1675": 0.1238}}}