{"type": "Feature","bbox": [-86.6958,14.2747,-85.9385,14.7858],"geometry": {"type": "MultiPolygon","coordinates": [[[[-86.1532,14.2867,405.984],[-86.1097,14.3369,367.548],[-86.1117,14.3556,443.5709],[-86.0798,14.4099,341.7298],[-86.0678,14.4197,323.2385],[-86.0633,14.4266,318.5961],[-86.0415,14.4743,374.9075],[-85.987799999999993,14.5244,371.8365],[-86.0897,14.5227,712.9722],[-86.0994,14.5382,577.9621],[-86.102,14.5492,531.0386],[-86.1177,14.5656,460.7414],[-86.1199,14.5701,450.3082],[-86.1252,14.5732,438.977],[-86.1246,14.5755,434.6054],[-86.123,14.5757,451.7433],[-86.1269,14.5808,425.5678],[-86.1274,14.5864,422.469],[-86.1347,14.5914,404.0007],[-86.1367,14.6,392.8003],[-86.1353,14.6172,371.4271],[-86.1428,14.6239,358.4471],[-86.1448,14.6282,353.7208],[-86.14,14.6347,352.0612],[-86.14,14.6398,348.1863],[-86.1338,14.6387,355.2663],[-86.132,14.6448,344.8796],[-86.1309,14.6456,346.7932],[-86.1278,14.6433,354.6597],[-86.1264,14.6444,355.6126],[-86.1248,14.6512,345.8217],[-86.1236,14.6537,342.7178],[-86.1203,14.6545,346.8976],[-86.1189,14.6624,341.5824],[-86.1172,14.6634,342.115],[-86.1127,14.6626,340.0764],[-86.1139,14.6579,341.3],[-86.1118,14.6576,342.6805],[-86.107,14.6657,340.592],[-86.0897,14.6673,341.3865],[-86.0841,14.6652,351.262],[-86.0771,14.6658,336.9227],[-86.0674,14.6701,335.3317],[-86.0627,14.67,337.8186],[-86.0592,14.6762,337.48],[-86.0571,14.6764,338.4345],[-86.0554,14.6719,335.4072],[-86.0535,14.6716,335.0488],[-86.0517,14.6766,334.8635],[-86.0488,14.6791,331.8419],[-86.0315,14.6825,334.4311],[-86.0294,14.6845,329.865],[-86.031,14.6896,329.8912],[-86.0301,14.6912,328.4167],[-86.0261,14.689,332.9061],[-86.0239,14.6833,329.3585],[-86.0178,14.6893,330.1465],[-86.0111,14.6923,327.0493],[-86.0094,14.6914,328.6022],[-86.0083,14.6866,339.3714],[-86.0065,14.6871,338.7314],[-86.0043,14.6901,340.5752],[-86.0037,14.7017,330.3175],[-85.9964,14.7147,320.5],[-85.9946,14.7265,328.7552],[-85.9927,14.73,324.5661],[-85.9882,14.7318,318.5],[-85.9798,14.7289,326.8134],[-85.9779,14.7235,327.2914],[-85.9796,14.7168,320.0604],[-85.9672,14.7079,328.7028],[-85.9647,14.7094,329.5168],[-85.9672,14.7178,318.1071],[-85.9576,14.7176,320.0211],[-85.9489,14.7244,316.2046],[-85.9444,14.7241,316.8875],[-85.9397,14.7305,313.1687],[-85.9385,14.7386,310.0],[-85.9785,14.7631,348.9558],[-85.9961,14.772,373.9418],[-86.0167,14.7858,947.8566],[-86.0281,14.7825,1065.0978],[-86.0574,14.7688,797.0105],[-86.0833,14.7603,615.4969],[-86.1274,14.7429,590.8934],[-86.1427,14.7291,420.217],[-86.1457,14.7287,393.5796],[-86.184,14.7351,1157.4437],[-86.2353,14.7411,900.3163],[-86.3163,14.7556,1246.6831],[-86.3796,14.7569,1013.6475],[-86.4005,14.7594,971.9218],[-86.4053,14.7605,1078.6169],[-86.4468,14.7833,669.1011],[-86.4674,14.7419,818.3287],[-86.4853,14.7159,1326.1111],[-86.4703,14.7071,1443.0591],[-86.5202,14.704,1082.137],[-86.5296,14.693,1226.322],[-86.5389,14.6864,1173.7805],[-86.5505,14.6753,1221.7777],[-86.5597,14.6698,1014.607],[-86.6102,14.6759,839.8134],[-86.621,14.6846,903.5397],[-86.635,14.6884,863.3224],[-86.6415,14.6935,800.7512],[-86.6462,14.6997,757.1143],[-86.6464,14.7027,730.2919],[-86.6522,14.7079,843.0895],[-86.6542,14.7205,737.9956],[-86.6609,14.7213,643.3944],[-86.6656,14.7277,675.1982],[-86.6652,14.7237,651.2781],[-86.6702,14.7189,654.1818],[-86.6742,14.7203,637.4371],[-86.6774,14.716,677.1954],[-86.6779,14.7077,653.1714],[-86.6854,14.7037,618.6497],[-86.6894,14.6993,641.0963],[-86.6958,14.6832,720.799],[-86.6943,14.6814,713.3218],[-86.6873,14.6796,642.8336],[-86.6874,14.6755,640.0885],[-86.6914,14.6719,662.1726],[-86.6821,14.6634,647.6948],[-86.6821,14.6599,663.9402],[-86.6748,14.6525,662.9978],[-86.6735,14.6456,657.8379],[-86.6743,14.6401,653.1649],[-86.6714,14.6387,639.4722],[-86.6529,14.6377,633.6932],[-86.6514,14.6336,631.7698],[-86.6448,14.6301,648.6787],[-86.6411,14.6207,679.3842],[-86.6344,14.6175,924.6028],[-86.6327,14.6104,721.8207],[-86.6259,14.5981,824.1689],[-86.6229,14.5976,730.1458],[-86.6232,14.5923,657.9592],[-86.615,14.587,628.9463],[-86.6087,14.5852,628.4771],[-86.6049,14.5772,652.1029],[-86.5895,14.5679,643.6364],[-86.5807,14.559,528.9495],[-86.5765,14.5485,527.1919],[-86.581,14.5381,559.4205],[-86.5798,14.5341,583.2576],[-86.5756,14.5317,593.3026],[-86.568,14.5328,628.179],[-86.5614,14.5308,590.6238],[-86.5616,14.5277,647.3029],[-86.564,14.5242,604.3785],[-86.5628,14.5184,652.234],[-86.5656,14.5156,609.8855],[-86.568,14.5081,631.5103],[-86.5709,14.5077,653.7787],[-86.5696,14.5025,651.6498],[-86.572,14.5015,680.177],[-86.5779,14.4893,738.7343],[-86.5781,14.4816,683.9186],[-86.5814,14.4769,700.8607],[-86.5804,14.4675,759.1133],[-86.5777,14.4623,716.7358],[-86.5763,14.4386,767.2113],[-86.5697,14.4299,763.0508],[-86.5668,14.4231,770.8227],[-86.5668,14.4125,798.3845],[-86.5612,14.3788,857.6065],[-86.5652,14.3659,961.9728],[-86.5651,14.3613,909.6396],[-86.5367,14.3552,950.3245],[-86.5291,14.3447,797.568],[-86.5266,14.3463,843.2783],[-86.5234,14.3444,801.3176],[-86.5185,14.3308,949.6513],[-86.5156,14.3279,906.0748],[-86.4934,14.3245,933.1188],[-86.4786,14.3246,1061.2627],[-86.4742,14.3158,959.9642],[-86.4621,14.3065,878.2892],[-86.4549,14.2814,659.7415],[-86.3861,14.2769,1113.8722],[-86.3804,14.2748,877.6781],[-86.3704,14.2747,1044.8401],[-86.3635,14.2797,918.7979],[-86.3563,14.2775,1111.0554],[-86.3429,14.2878,903.6542],[-86.3169,14.301,986.692],[-86.3055,14.3132,860.1559],[-86.299,14.3177,859.6066],[-86.2817,14.3219,866.1903],[-86.2754,14.3304,664.1647],[-86.2335,14.3419,462.0861],[-86.1789,14.3456,435.6801],[-86.1532,14.2867,405.984]]]]}
,"properties": {"GID_2": "HND.15.12_1","GID_0": "HND","country": "Honduras","GID_1": "HND.15_1","province": "Olancho","NL_NAME_1": "NA","county": "Juticalpa","VARNAME_2": "NA","NL_NAME_2": "NA","TYPE_2": "Municipio","ENGTYPE_2": "Municipality","CC_2": "NA","HASC_2": "HN.OL.JU","name": "Juticalpa.county","area_km2": 2687.396,"hist_schema_id": "Elevation0-9000","hist_area_km2": {"300": 0.267,"325": 43.093,"350": 132.735,"375": 154.105,"400": 113.464,"425": 98.39,"450": 96.811,"475": 97.696,"500": 102.669,"525": 103.596,"550": 104.704,"575": 109.033,"600": 138.355,"625": 169.255,"650": 143.316,"675": 117.914,"700": 106.67,"725": 94.645,"750": 86.683,"775": 72.378,"800": 65.605,"825": 60.821,"850": 54.046,"875": 47.929,"900": 43.063,"925": 39.553,"950": 35.776,"975": 30.93,"1000": 28.406,"1025": 24.998,"1050": 22.0,"1075": 20.892,"1100": 17.833,"1125": 15.082,"1150": 12.476,"1175": 10.566,"1200": 9.21,"1225": 8.328,"1250": 7.773,"1275": 6.563,"1300": 6.009,"1325": 5.455,"1350": 4.983,"1375": 3.671,"1400": 3.589,"1425": 3.322,"1450": 2.522,"1475": 2.687,"1500": 2.194,"1525": 1.825,"1550": 1.395,"1575": 0.574,"1600": 0.738,"1625": 0.39,"1650": 0.144,"1675": 0.144,"1700": 0.062,"1725": 0.041}}}