{"type": "Feature","bbox": [-87.7513,14.6564,-87.6059,14.7365],"geometry": {"type": "MultiPolygon","coordinates": [[[[-87.6339,14.6659,460.9182],[-87.6262,14.6734,441.2198],[-87.6256,14.684,394.5623],[-87.6211,14.6862,373.0818],[-87.6187,14.6893,453.3342],[-87.6064,14.6913,576.8655],[-87.6079,14.6934,564.3594],[-87.6065,14.6991,515.1756],[-87.6082,14.7053,584.5247],[-87.6059,14.7139,564.5327],[-87.6117,14.7207,605.5591],[-87.6183,14.7225,502.202],[-87.6252,14.7206,435.2786],[-87.6317,14.7233,428.6812],[-87.6381,14.7235,432.4254],[-87.6401,14.7258,425.5653],[-87.6486,14.7218,335.8712],[-87.6528,14.7156,378.0962],[-87.6517,14.7117,395.844],[-87.6532,14.7114,414.2805],[-87.6546,14.714,392.3113],[-87.6513,14.7193,339.1123],[-87.6563,14.7281,383.154],[-87.6691,14.7333,641.2679],[-87.7284,14.7353,843.7803],[-87.7283,14.7365,900.5358],[-87.7505,14.7273,715.3001],[-87.7484,14.7156,823.7814],[-87.7508,14.7101,959.1847],[-87.7513,14.6922,904.657],[-87.7175,14.6861,714.5159],[-87.7146,14.6826,720.6819],[-87.7139,14.685,702.6616],[-87.708,14.6822,598.4316],[-87.7062,14.6835,598.4316],[-87.7041,14.6803,711.603],[-87.7005,14.6803,773.6058],[-87.696,14.6846,577.8617],[-87.6779,14.6581,1055.9653],[-87.672,14.6595,947.0027],[-87.657,14.6564,534.5204],[-87.6536,14.6637,596.7308],[-87.6445,14.6652,532.4053],[-87.6357,14.6638,390.7782],[-87.6339,14.6659,460.9182]]]]}
,"properties": {"GID_2": "HND.4.7_1","GID_0": "HND","country": "Honduras","GID_1": "HND.4_1","province": "Comayagua","NL_NAME_1": "NA","county": "LaTrinidad","VARNAME_2": "NA","NL_NAME_2": "NA","TYPE_2": "Municipio","ENGTYPE_2": "Municipality","CC_2": "NA","HASC_2": "HN.CM.LT","name": "La_Trinidad.county","area_km2": 91.17881,"hist_schema_id": "Elevation0-9000","hist_area_km2": {"325": 0.14355,"350": 1.90716,"375": 1.90723,"400": 2.91217,"425": 3.85554,"450": 4.61443,"475": 5.47566,"500": 5.39359,"525": 5.47566,"550": 5.61921,"575": 6.76774,"600": 4.96299,"625": 4.26572,"650": 4.75797,"675": 3.01478,"700": 2.74817,"725": 2.85066,"750": 2.83015,"775": 2.74808,"800": 2.64552,"825": 2.29686,"850": 2.07123,"875": 2.3378,"900": 1.62005,"925": 1.43553,"950": 1.333,"975": 1.10741,"1000": 1.1074,"1025": 1.00486,"1050": 0.53319,"1075": 0.71775,"1100": 0.45117,"1125": 0.16406,"1150": 0.06152,"1200": 0.04101}}}