{"type": "Feature","bbox": [-88.0188,15.0941,-87.9023,15.2394],"geometry": {"type": "MultiPolygon","coordinates": [[[[-88.0054,15.2246,221.6316],[-88.0042,15.2214,242.7182],[-88.0092,15.2179,187.8577],[-88.0125,15.2183,155.0306],[-88.014,15.2218,111.7313],[-88.017,15.2224,97.9948],[-88.0188,15.2191,322.7768],[-88.0186,15.214,348.4197],[-88.0158,15.2103,227.352],[-88.0112,15.2089,153.0768],[-88.0058,15.2034,253.4242],[-87.9976,15.2009,272.5343],[-87.9935,15.188,410.0586],[-87.9926,15.1783,326.0875],[-87.9674,15.1594,282.5939],[-87.9648,15.152,124.6222],[-87.9618,15.1312,207.8608],[-87.9334,15.0941,50.9086],[-87.9339,15.0972,57.7591],[-87.9316,15.0972,56.9341],[-87.9305,15.1029,78.2496],[-87.9344,15.1027,75.1162],[-87.9348,15.1041,49.9894],[-87.9314,15.1076,62.3444],[-87.9307,15.1117,54.5307],[-87.929,15.112,54.0099],[-87.9292,15.1101,55.6825],[-87.9266,15.111,56.8245],[-87.9238,15.1166,66.8668],[-87.9252,15.1201,61.0467],[-87.92,15.1205,74.1785],[-87.9239,15.1287,54.4291],[-87.9223,15.131,46.2588],[-87.9182,15.132,61.1221],[-87.9176,15.1366,71.2123],[-87.9185,15.1374,60.0199],[-87.9201,15.136,60.6019],[-87.92,15.1401,61.0633],[-87.9237,15.142,41.8634],[-87.9246,15.1446,52.4823],[-87.9232,15.1464,44.3364],[-87.9265,15.1461,44.8735],[-87.9268,15.1488,40.3322],[-87.9239,15.1501,42.793],[-87.922,15.155,39.094],[-87.9277,15.1561,41.3076],[-87.9315,15.1623,38.4335],[-87.9345,15.1629,38.6681],[-87.9023,15.1796,44.9331],[-87.9102,15.1852,43.5148],[-87.9221,15.1879,41.867],[-87.9217,15.1916,41.2718],[-87.9171,15.1945,41.622],[-87.9234,15.1997,39.3591],[-87.9178,15.2098,38.5401],[-87.9244,15.2175,40.6541],[-87.9243,15.2204,40.4995],[-87.9204,15.2264,40.4363],[-87.9205,15.2298,37.3758],[-87.9229,15.2299,38.9874],[-87.933,15.2207,37.7895],[-87.9348,15.2222,36.3311],[-87.9363,15.2358,39.7323],[-87.9733,15.2394,117.0819],[-88.0054,15.2246,221.6316]]]]}
,"properties": {"GID_2": "HND.6.5_1","GID_0": "HND","country": "Honduras","GID_1": "HND.6_1","province": "Cortés","NL_NAME_1": "NA","county": "Potrerillos","VARNAME_2": "NA","NL_NAME_2": "NA","TYPE_2": "Municipio","ENGTYPE_2": "Municipality","CC_2": "NA","HASC_2": "HN.CR.PO","name": "Potrerillos.county","area_km2": 91.32222,"hist_schema_id": "Elevation0-9000","hist_area_km2": {"25": 12.56199,"50": 36.60887,"75": 6.01658,"100": 5.72978,"125": 3.78548,"150": 3.66265,"175": 2.92601,"200": 3.58078,"225": 2.41438,"250": 2.74164,"275": 2.51653,"300": 2.63926,"325": 2.25063,"350": 1.45269,"375": 1.14584,"400": 1.06402,"425": 0.22508}}}