{"type": "Feature","bbox": [-87.3826,15.4164,-87.156,15.8482],"geometry": {"type": "MultiPolygon","coordinates": [[[[-87.3198,15.4393,1501.5447],[-87.3092,15.4361,1718.5798],[-87.3032,15.4282,1435.2822],[-87.2943,15.4289,1625.3719],[-87.2898,15.4245,1429.0524],[-87.2844,15.4276,1426.6577],[-87.2796,15.427,1458.8779],[-87.2542,15.4164,1105.0254],[-87.2534,15.4239,1271.7349],[-87.26,15.4263,1314.9218],[-87.2633,15.4376,1640.3905],[-87.2596,15.4522,1221.5603],[-87.2562,15.4552,1230.0276],[-87.2597,15.4601,1519.3501],[-87.2577,15.4613,1399.0776],[-87.2588,15.4646,1172.5544],[-87.2559,15.4657,1201.8993],[-87.2569,15.476,1067.582],[-87.2493,15.4801,839.1146],[-87.2507,15.4922,1293.7996],[-87.2477,15.4997,1219.9811],[-87.2421,15.5033,986.0692],[-87.2429,15.5063,950.3824],[-87.2455,15.5077,1000.8365],[-87.2434,15.5137,926.0095],[-87.2465,15.5283,682.0812],[-87.246,15.5393,598.7762],[-87.2495,15.5391,601.9196],[-87.2518,15.548,786.0109],[-87.2476,15.5527,461.3199],[-87.2506,15.5559,482.6746],[-87.2503,15.5577,504.5109],[-87.2393,15.568,319.3615],[-87.2423,15.5772,357.7189],[-87.2407,15.5831,296.2705],[-87.2419,15.5851,211.2204],[-87.247,15.5872,184.4404],[-87.2478,15.5951,96.6725],[-87.2436,15.5969,67.2377],[-87.2448,15.6064,53.2529],[-87.2395,15.6051,52.1051],[-87.2376,15.6076,45.0579],[-87.2383,15.6186,44.1662],[-87.2462,15.623,48.595],[-87.2459,15.629,35.9401],[-87.2493,15.6308,36.919],[-87.2497,15.6355,50.7363],[-87.246,15.6412,48.2728],[-87.2402,15.6433,36.477],[-87.237799999999993,15.6415,41.5385],[-87.2391,15.6455,49.8387],[-87.2373,15.6474,40.017],[-87.2292,15.6479,38.0178],[-87.2275,15.6516,47.4273],[-87.2289,15.6553,63.5209],[-87.223,15.6558,60.7671],[-87.2217,15.6574,44.5066],[-87.2199,15.6554,30.104],[-87.2183,15.6572,28.6185],[-87.2175,15.6522,28.8652],[-87.2136,15.6525,29.3248],[-87.2122,15.6555,28.181],[-87.2094,15.6545,27.5152],[-87.2107,15.6572,24.5508],[-87.2052,15.6634,25.124],[-87.2036,15.6636,24.6306],[-87.2015,15.6611,26.9139],[-87.1943,15.6631,25.8063],[-87.1929,15.6651,25.741],[-87.1901,15.6634,26.2544],[-87.1893,15.6693,23.1542],[-87.1915,15.671,19.5069],[-87.1875,15.6713,20.7116],[-87.1808,15.6777,18.9707],[-87.1807,15.681,18.0795],[-87.1769,15.6817,16.8121],[-87.1747,15.6839,15.5045],[-87.1721,15.6918,15.0635],[-87.1658,15.6988,15.0458],[-87.166,15.7051,15.0867],[-87.1617,15.7147,12.4073],[-87.162,15.7256,9.0931],[-87.1591,15.7277,8.563],[-87.1632,15.7354,9.3663],[-87.1625,15.7416,6.6569],[-87.1643,15.7423,5.5096],[-87.1649,15.752,5.9989],[-87.1642,15.7557,1.7038],[-87.1612,15.7563,1.858],[-87.1618,15.7623,1.9215],[-87.1593,15.7628,1.1157],[-87.1566,15.7686,2.6463],[-87.156,15.7803,9.8679],[-87.1721,15.787,0.9722],[-87.1735,15.7946,0.7781],[-87.2182,15.8029,0.8879],[-87.2349,15.8082,0.0],[-87.2457,15.8099,0.7987],[-87.3018,15.8282,0.0],[-87.304,15.8276,0.0],[-87.304,15.8249,1.1285],[-87.3057,15.8237,0.9568],[-87.3051,15.8276,1.4694],[-87.3082,15.8301,1.6851],[-87.3224,15.8324,1.8769],[-87.326,15.8346,1.0033],[-87.3335,15.8346,3.8992],[-87.3349,15.8363,0.659],[-87.3693,15.8476,0.0],[-87.376,15.8482,2.106],[-87.3754,15.8407,0.0],[-87.3826,15.8318,5.4926],[-87.3821,15.8289,3.7269],[-87.3785,15.8305,7.5734],[-87.3709,15.8422,96.8474],[-87.3662,15.8431,18.1724],[-87.3258,15.8294,7.7102],[-87.3318,15.8265,4.7942],[-87.3371,15.818,8.1573],[-87.3335,15.8153,5.0283],[-87.3356,15.811,7.4313],[-87.3351,15.7991,4.13],[-87.3317,15.7977,3.1131],[-87.3326,15.7947,2.2822],[-87.3313,15.7921,3.0655],[-87.3249,15.7942,3.2782],[-87.3203,15.7903,10.0952],[-87.3196,15.7854,4.8061],[-87.3215,15.7835,3.162],[-87.3211,15.7798,3.8658],[-87.3199,15.7779,3.6414],[-87.3158,15.7777,3.5929],[-87.3138,15.7759,5.3891],[-87.316,15.7723,5.7621],[-87.3102,15.7724,11.1513],[-87.308,15.7651,9.936],[-87.303,15.7676,9.4843],[-87.3033,15.7626,11.0596],[-87.2985,15.7562,6.3201],[-87.3037,15.7563,7.0445],[-87.3037,15.7521,8.1305],[-87.298,15.7541,8.2892],[-87.2961,15.7534,14.2334],[-87.3017,15.7499,9.233],[-87.3005,15.7457,16.3469],[-87.302,15.7421,9.7111],[-87.3004,15.7361,9.6456],[-87.3032,15.7343,10.8446],[-87.3028,15.7376,9.5509],[-87.3041,15.7379,13.3563],[-87.3087,15.7317,16.9893],[-87.3089,15.7235,18.498],[-87.3151,15.7246,10.4306],[-87.3123,15.7195,13.4265],[-87.3174,15.7135,12.2954],[-87.3256,15.7084,18.7317],[-87.3245,15.7059,36.0032],[-87.3193,15.7024,14.0896],[-87.3207,15.6992,14.8357],[-87.3208,15.6849,20.2719],[-87.3255,15.6848,24.452],[-87.3281,15.6794,23.0821],[-87.3319,15.6627,22.7635],[-87.3343,15.6585,23.6128],[-87.3382,15.6563,24.5293],[-87.3375,15.6475,25.9805],[-87.3401,15.6463,23.702],[-87.3433,15.6502,23.0069],[-87.346,15.6499,22.7824],[-87.3492,15.6364,24.3902],[-87.3547,15.6313,25.3432],[-87.3574,15.632,26.4026],[-87.3604,15.6365,26.2916],[-87.3673,15.6351,30.4788],[-87.3662,15.63,27.5647],[-87.3689,15.6229,31.6027],[-87.3683,15.621,27.9602],[-87.3619,15.6174,27.891],[-87.3588,15.612,31.9642],[-87.3549,15.6101,33.8311],[-87.3488,15.6111,33.3261],[-87.3422,15.6068,70.4112],[-87.3394,15.6067,57.5339],[-87.3359,15.6096,62.4843],[-87.3199,15.6107,63.4052],[-87.3186,15.6069,73.4977],[-87.3148,15.6043,84.7776],[-87.3124,15.6048,89.1141],[-87.311,15.597,109.1404],[-87.3063,15.5916,126.4153],[-87.3198,15.4393,1501.5447]]]]}
,"properties": {"GID_2": "HND.1.3_1","GID_0": "HND","country": "Honduras","GID_1": "HND.1_1","province": "Atlántida","NL_NAME_1": "NA","county": "Esparta","VARNAME_2": "NA","NL_NAME_2": "NA","TYPE_2": "Municipio","ENGTYPE_2": "Municipality","CC_2": "NA","HASC_2": "HN.AT.ES","name": "Esparta.county","area_km2": 484.4274,"hist_schema_id": "Elevation0-9000","hist_area_km2": {"0": 126.5407,"25": 86.4012,"50": 34.5207,"75": 31.1133,"100": 23.8867,"125": 18.1089,"150": 10.8811,"175": 8.084,"200": 5.6955,"225": 5.226,"250": 4.6952,"275": 3.0009,"300": 3.2663,"325": 2.2458,"350": 2.2867,"375": 2.103,"400": 1.5927,"425": 1.6132,"450": 1.6337,"475": 1.1437,"500": 1.2254,"525": 1.2867,"550": 1.1233,"575": 1.3685,"600": 1.2664,"625": 1.4502,"650": 1.0008,"675": 1.2868,"700": 1.4298,"725": 1.5932,"750": 1.6545,"775": 1.675,"800": 1.6137,"825": 1.3277,"850": 1.5729,"875": 1.6546,"900": 1.6342,"925": 1.5934,"950": 2.1041,"975": 1.6955,"1000": 1.7364,"1025": 1.8999,"1050": 1.8386,"1075": 1.9816,"1100": 1.7978,"1125": 2.1043,"1150": 2.2677,"1175": 2.2677,"1200": 2.0838,"1225": 2.0635,"1250": 1.9409,"1275": 2.2678,"1300": 1.9613,"1325": 2.4722,"1350": 2.0636,"1375": 2.125,"1400": 2.1863,"1425": 1.982,"1450": 2.3498,"1475": 2.2476,"1500": 2.2886,"1525": 2.3499,"1550": 2.8198,"1575": 2.3499,"1600": 2.3295,"1625": 2.2477,"1650": 2.1661,"1675": 2.1252,"1700": 2.2069,"1725": 2.0844,"1750": 2.3091,"1775": 2.1661,"1800": 1.7165,"1825": 1.9209,"1850": 1.5531,"1875": 1.594,"1900": 1.0218,"1925": 0.6744,"1950": 0.7357,"1975": 0.5926,"2000": 0.47,"2025": 0.3678,"2050": 0.3065,"2075": 0.3065,"2100": 0.1226,"2125": 0.1839,"2150": 0.0409,"2175": 0.0817,"2200": 0.0613}}}