{"type": "Feature","bbox": [-88.5327,14.4314,-88.3188,14.578],"geometry": {"type": "MultiPolygon","coordinates": [[[[-88.3189,14.5559,1579.4696],[-88.3372,14.5643,1696.8838],[-88.3513,14.573,1555.7236],[-88.3583,14.5752,1399.7712],[-88.3801,14.5713,1461.3162],[-88.3839,14.5727,1497.9131],[-88.3854,14.5758,1447.3882],[-88.3937,14.578,1305.0228],[-88.4008,14.569,1152.7777],[-88.3978,14.5297,2141.8545],[-88.4094,14.524,1769.2902],[-88.4293,14.5244,1311.6515],[-88.4353,14.5271,1175.0256],[-88.4389,14.537,1110.9775],[-88.4466,14.5378,1072.3088],[-88.4464,14.5402,1047.0258],[-88.4506,14.5418,1116.4805],[-88.4518,14.5462,1084.4252],[-88.4555,14.5466,1085.9008],[-88.4566,14.5483,1076.8186],[-88.4628,14.5479,1076.6108],[-88.465,14.5438,1022.0132],[-88.5062,14.5497,809.6409],[-88.5077,14.5437,857.8912],[-88.5111,14.5423,881.8793],[-88.5136,14.5307,1038.666],[-88.5242,14.5281,1059.3232],[-88.5236,14.5269,1072.2729],[-88.5275,14.5258,971.6873],[-88.5327,14.5186,843.1195],[-88.5301,14.5164,860.9645],[-88.5306,14.5138,837.5098],[-88.5265,14.5107,885.546],[-88.5262,14.5028,910.4665],[-88.5232,14.4957,877.3079],[-88.5245,14.4947,906.6282],[-88.5216,14.4943,916.1191],[-88.5216,14.4909,992.1155],[-88.5139,14.4778,953.9659],[-88.508,14.4764,974.4885],[-88.5044,14.4705,959.5363],[-88.5048,14.4665,966.09],[-88.5082,14.4644,962.9144],[-88.5071,14.4632,994.8732],[-88.5093,14.4605,1065.9918],[-88.5085,14.4558,1100.1085],[-88.5038,14.4527,1039.1354],[-88.5048,14.4495,1227.2732],[-88.5025,14.4508,1090.7942],[-88.5017,14.4479,1119.1077],[-88.4989,14.4474,1055.2197],[-88.4973,14.442,1103.9879],[-88.4979,14.4378,1163.9989],[-88.4935,14.4362,1226.9543],[-88.4942,14.4314,1281.3654],[-88.4919,14.4314,1279.4884],[-88.4914,14.4367,1261.7885],[-88.4944,14.4404,1178.0597],[-88.4927,14.4426,1217.4862],[-88.4702,14.4566,1113.0286],[-88.4477,14.4644,1127.7565],[-88.4401,14.4649,1185.4055],[-88.4282,14.4593,1287.1368],[-88.4223,14.4588,1385.0894],[-88.399,14.4611,1867.2937],[-88.3816,14.4604,1946.4523],[-88.37,14.4649,1977.1931],[-88.341,14.4897,1706.345],[-88.3386,14.5024,1562.864],[-88.3433,14.5155,1627.1658],[-88.3234,14.5415,1464.0865],[-88.3188,14.5512,1615.8763],[-88.3189,14.5559,1579.4696]]]]}
,"properties": {"GID_2": "HND.13.1_1","GID_0": "HND","country": "Honduras","GID_1": "HND.13_1","province": "Lempira","NL_NAME_1": "NA","county": "Belen","VARNAME_2": "Belén","NL_NAME_2": "NA","TYPE_2": "Municipio","ENGTYPE_2": "Municipality","CC_2": "NA","HASC_2": "HN.LE.BE","name": "Belen.county","area_km2": 197.0502,"hist_schema_id": "Elevation0-9000","hist_area_km2": {"800": 0.1437,"825": 1.2109,"850": 2.6271,"875": 3.3045,"900": 4.4541,"925": 5.5421,"950": 6.3839,"975": 5.5834,"1000": 5.2755,"1025": 5.378,"1050": 6.0555,"1075": 5.9939,"1100": 6.6917,"1125": 5.3164,"1150": 5.2547,"1175": 5.1933,"1200": 4.5159,"1225": 4.2902,"1250": 3.8591,"1275": 3.3869,"1300": 3.7769,"1325": 2.5247,"1350": 2.4425,"1375": 3.2224,"1400": 2.8734,"1425": 3.0375,"1450": 3.0785,"1475": 4.3305,"1500": 4.9255,"1525": 5.2335,"1550": 5.0488,"1575": 5.2131,"1600": 4.8438,"1625": 3.366,"1650": 3.7151,"1675": 3.5304,"1700": 2.7709,"1725": 2.6684,"1750": 2.4426,"1775": 2.2785,"1800": 2.1348,"1825": 1.5395,"1850": 2.1759,"1875": 1.7448,"1900": 2.0938,"1925": 2.217,"1950": 2.1349,"1975": 1.7654,"2000": 1.478,"2025": 1.6012,"2050": 1.3753,"2075": 1.2932,"2100": 1.478,"2125": 1.519,"2150": 1.3343,"2175": 2.2785,"2200": 1.56,"2225": 1.5601,"2250": 1.2932,"2275": 1.129,"2300": 0.9853,"2325": 0.349,"2350": 0.1847,"2375": 0.0411}}}