{"type": "Feature","bbox": [-88.8242,14.9543,-88.6704,15.0204],"geometry": {"type": "MultiPolygon","coordinates": [[[[-88.8242,14.9736,648.1176],[-88.8242,14.9714,664.1306],[-88.8173,14.9655,769.2504],[-88.784,14.9544,682.9841],[-88.7772,14.9576,684.3821],[-88.7497,14.957,800.3312],[-88.7303,14.9594,973.0557],[-88.6893,14.9543,957.6927],[-88.6808,14.9774,865.266],[-88.6742,14.9842,1128.3228],[-88.6704,15.0185,1191.3073],[-88.7069,15.0204,862.8138],[-88.7119,15.0078,816.8549],[-88.7327,15.0095,743.8085],[-88.734,15.0063,753.1564],[-88.7315,15.0045,753.5967],[-88.7347,14.9997,713.7135],[-88.7457,15.001,677.7233],[-88.7553,15.0066,739.8467],[-88.7669,15.0045,588.3956],[-88.7754,15.0144,621.5519],[-88.8099,15.0072,680.2027],[-88.8011,15.003,880.5539],[-88.7931,14.9885,791.7138],[-88.7956,14.9681,914.9423],[-88.8242,14.9736,648.1176]]]]}
,"properties": {"GID_2": "HND.5.18_1","GID_0": "HND","country": "Honduras","GID_1": "HND.5_1","province": "Copán","NL_NAME_1": "NA","county": "SanNicolás","VARNAME_2": "NA","NL_NAME_2": "NA","TYPE_2": "Municipio","ENGTYPE_2": "Municipality","CC_2": "NA","HASC_2": "HN.CP.SN","name": "San_Nicolás.county","area_km2": 79.30323,"hist_schema_id": "Elevation0-9000","hist_area_km2": {"550": 0.34815,"575": 0.73728,"600": 1.08545,"625": 1.18788,"650": 2.23247,"675": 3.83008,"700": 4.93599,"725": 5.98047,"750": 5.73475,"775": 5.5505,"800": 4.99756,"825": 4.91554,"850": 4.23972,"875": 3.78914,"900": 3.62529,"925": 2.94938,"950": 2.99033,"975": 2.23248,"1000": 1.90477,"1025": 1.33128,"1050": 1.57707,"1075": 1.33126,"1100": 1.29031,"1125": 1.31075,"1150": 0.8192,"1175": 1.33116,"1200": 0.88062,"1225": 1.59739,"1250": 1.65882,"1275": 1.02398,"1300": 0.77823,"1325": 0.65536,"1350": 0.43008,"1375": 0.02048}}}