{"type":"Feature","properties":{"GID_2":"HND.4.19_1","GID_0":"HND","country":"Honduras","GID_1":"HND.4_1","province":"Comayagua","NL_NAME_1":"NA","county":"Siguatepeque","VARNAME_2":"NA","NL_NAME_2":"NA","TYPE_2":"Municipio","ENGTYPE_2":"Municipality","CC_2":"NA","HASC_2":"HN.CM.SI","name":"Siguatepeque.county"},
"geometry":{"type": "MultiPolygon","coordinates": [[[[-87.8696,14.4982,1644.2889],[-87.8639,14.5025,1479.4324],[-87.8586,14.5043,1462.467],[-87.8603,14.5127,1567.6306],[-87.8593,14.5178,1475.3486],[-87.862,14.5194,1454.5448],[-87.8417,14.5303,1286.3207],[-87.8254,14.5301,1221.3052],[-87.8279,14.5336,1173.8992],[-87.8264,14.539,1086.02],[-87.8282,14.5416,1104.6383],[-87.8261,14.5617,1143.551],[-87.8013,14.5585,1145.2383],[-87.7982,14.5595,1142.3784],[-87.7964,14.5562,1172.6776],[-87.7861,14.5601,1229.6672],[-87.7859,14.5583,1208.4919],[-87.7817,14.5567,1170.6885],[-87.7775,14.5588,1242.6154],[-87.7771,14.5623,1254.1409],[-87.7836,14.5704,1223.3032],[-87.7836,14.5743,1243.8003],[-87.7797,14.5801,1325.2179],[-87.7797,14.5828,1369.3993],[-87.7888,14.6005,1420.188],[-87.7851,14.6009,1443.1196],[-87.7809,14.6068,1454.9702],[-87.7801,14.6104,1453.3865],[-87.7863,14.6162,1376.9321],[-87.7926,14.6265,1496.0747],[-87.7902,14.6365,1552.5696],[-87.7929,14.6422,1453.1543],[-87.7913,14.6579,1191.353],[-87.7925,14.662,1162.7432],[-87.7853,14.6652,1258.0774],[-87.7862,14.6668,1226.288],[-87.7836,14.6696,1090.3301],[-87.7831,14.6737,1017.8876],[-87.7787,14.6779,1120.9475],[-87.7785,14.6884,1079.5208],[-87.7758,14.6915,1117.9368],[-87.7744,14.6974,1093.1489],[-87.8225,14.7083,1105.661],[-87.8645,14.7667,1455.1521],[-87.8724,14.7875,1610.3064],[-87.8755,14.8046,1935.1288],[-87.9206,14.7489,1333.7666],[-87.9179,14.7345,1480.0198],[-87.8928,14.7182,1652.0066],[-87.8923,14.6643,1183.9713],[-87.911,14.64,1148.3052],[-88.0111,14.636,1202.2069],[-88.0126,14.6169,882.6598],[-87.9858,14.6114,895.4387],[-87.9767,14.6013,1147.2302],[-87.9731,14.6014,1241.8452],[-87.973,14.6043,1134.4828],[-87.9713,14.6033,1197.7916],[-87.9661,14.6047,995.4443],[-87.9609,14.6015,1054.611],[-87.9557,14.6021,983.3676],[-87.9532,14.6008,969.2027],[-87.9536,14.5853,1301.7539],[-87.9502,14.5834,1374.229],[-87.9484,14.5786,1432.6191],[-87.9426,14.5728,1365.2252],[-87.9425,14.5581,1493.4664],[-87.9341,14.5318,1726.7776],[-87.9238,14.5323,1790.7301],[-87.8966,14.5211,1898.6826],[-87.8921,14.5108,1856.8845],[-87.8928,14.5058,1962.9979],[-87.8967,14.5006,2001.2869],[-87.8964,14.4956,2065.4888],[-87.8937,14.4897,1912.3141],[-87.8696,14.4982,1644.2889]]]]}}