{"type": "Feature","bbox": [-88.0804,14.6169,-87.9872,14.7523],"geometry": {"type": "MultiPolygon","coordinates": [[[[-88.0111,14.636,1202.2069],[-88.014,14.6521,1246.0354],[-88.0166,14.6559,1272.0122],[-88.0144,14.6613,1074.8835],[-88.0207,14.6644,963.4315],[-88.0212,14.6677,916.7642],[-88.0186,14.6759,921.9758],[-88.0193,14.6811,866.4302],[-88.0231,14.6856,713.3689],[-88.0137,14.6932,550.6234],[-87.9891,14.6961,561.2157],[-87.99,14.7092,678.02],[-87.9932,14.7193,885.7007],[-87.9918,14.7256,1002.5624],[-87.9881,14.7278,1066.3297],[-87.9872,14.7323,959.1746],[-87.9941,14.7441,1087.6782],[-88.0009,14.7492,1204.7319],[-88.0085,14.7517,1097.5835],[-88.019,14.7523,1103.3042],[-88.0422,14.7437,897.6237],[-88.0799,14.7029,438.1068],[-88.0804,14.6978,470.498],[-88.079,14.6962,468.7823],[-88.0684,14.6942,690.3202],[-88.0526,14.6723,937.0468],[-88.0501,14.6668,1042.1016],[-88.0734,14.6472,559.0668],[-88.0653,14.6394,443.3742],[-88.0634,14.6302,464.1466],[-88.0592,14.6239,409.5571],[-88.0545,14.6229,455.3273],[-88.0384,14.6256,601.1574],[-88.0126,14.6169,882.6598],[-88.0111,14.636,1202.2069]]]]}
,"properties": {"GID_2": "HND.4.15_1","GID_0": "HND","country": "Honduras","GID_1": "HND.4_1","province": "Comayagua","NL_NAME_1": "NA","county": "SanJosédeComayagua","VARNAME_2": "NA","NL_NAME_2": "NA","TYPE_2": "Municipio","ENGTYPE_2": "Municipality","CC_2": "NA","HASC_2": "HN.CM.SC","name": "San_Joséde_Comayagua.county","area_km2": 85.83075,"hist_schema_id": "Elevation0-9000","hist_area_km2": {"350": 0.10254,"375": 0.26663,"400": 0.90248,"425": 1.005,"450": 1.70235,"475": 4.5529,"500": 4.53244,"525": 4.10173,"550": 3.71213,"575": 3.44552,"600": 3.26092,"625": 3.42496,"650": 4.2453,"675": 3.58902,"700": 3.21984,"725": 2.48148,"750": 2.87119,"775": 2.54309,"800": 2.21492,"825": 2.50212,"850": 2.70724,"875": 2.80975,"900": 3.42504,"925": 3.24051,"950": 3.11749,"975": 2.05098,"1000": 2.44056,"1025": 2.4816,"1050": 2.23547,"1075": 1.62023,"1100": 1.82539,"1125": 1.14871,"1150": 0.79997,"1175": 0.53333,"1200": 0.41022,"1225": 0.14358,"1250": 0.12307,"1275": 0.04102}}}