{"type": "Feature","bbox": [-87.9367,15.2114,-87.6923,15.7218],"geometry": {"type": "MultiPolygon","coordinates": [[[[-87.7832,15.7187,5.3919],[-87.785,15.7114,6.835],[-87.7873,15.7087,8.7102],[-87.7919,15.707,7.5555],[-87.7961,15.7092,8.9624],[-87.8032,15.7202,8.2176],[-87.8068,15.7218,8.6053],[-87.8111,15.7213,10.2739],[-87.8134,15.7172,7.8782],[-87.8132,15.7062,15.8972],[-87.815,15.7024,7.7706],[-87.8198,15.6995,8.6001],[-87.8346,15.695,9.0072],[-87.8465,15.6816,7.6232],[-87.8464,15.6794,7.5314],[-87.8399,15.6822,11.1742],[-87.8295,15.6794,11.2265],[-87.8211,15.6852,10.6559],[-87.8158,15.6856,11.1491],[-87.8158,15.6784,10.4034],[-87.8266,15.679,12.7221],[-87.833,15.6743,10.1895],[-87.8373,15.6625,12.339],[-87.8374,15.6556,9.1766],[-87.835,15.6517,8.6012],[-87.8274,15.648,9.3321],[-87.825,15.6496,11.0116],[-87.8206,15.6588,10.6024],[-87.8158,15.6596,11.3556],[-87.8139,15.6577,10.1711],[-87.8137,15.6538,11.1847],[-87.8192,15.6468,10.0328],[-87.8199,15.6435,12.2794],[-87.8157,15.6365,9.9328],[-87.8071,15.6325,10.4386],[-87.7909,15.6363,13.3129],[-87.7856,15.6358,12.5066],[-87.7833,15.6339,16.2462],[-87.7812,15.6266,13.1376],[-87.7841,15.62,14.8904],[-87.7839,15.6144,11.6566],[-87.7746,15.606,14.5415],[-87.7743,15.5892,19.0446],[-87.7762,15.5867,15.6477],[-87.7861,15.591,13.0655],[-87.7911,15.5904,16.0356],[-87.7923,15.5885,16.98],[-87.7922,15.5833,19.4725],[-87.7808,15.5674,16.6016],[-87.7816,15.5632,17.9596],[-87.7854,15.5602,17.1882],[-87.789,15.5604,16.3466],[-87.7939,15.5685,15.6389],[-87.8005,15.5731,17.7716],[-87.8072,15.5753,18.1697],[-87.8126,15.573,17.1651],[-87.8137,15.5675,16.2561],[-87.8067,15.5568,17.6989],[-87.807,15.5519,16.1371],[-87.8122,15.5468,16.898],[-87.8211,15.545,19.2771],[-87.8233,15.5399,19.039],[-87.8214,15.5265,25.5246],[-87.8127,15.518,18.3535],[-87.814,15.5114,18.5377],[-87.817,15.5101,16.3027],[-87.8202,15.5108,19.3012],[-87.8283,15.5194,19.7327],[-87.8313,15.5207,23.3289],[-87.8363,15.52,19.9823],[-87.8384,15.518,17.7643],[-87.8342,15.5111,25.6549],[-87.8336,15.5057,26.8088],[-87.8345,15.5026,25.8283],[-87.8417,15.4954,20.8262],[-87.8419,15.4904,20.3861],[-87.84,15.4871,20.5303],[-87.8293,15.4816,19.2979],[-87.8295,15.4762,18.5],[-87.8335,15.4664,22.5249],[-87.8316,15.4638,22.8432],[-87.8199,15.4616,22.0956],[-87.817,15.4597,22.888],[-87.8142,15.4539,23.3366],[-87.8153,15.4452,21.8234],[-87.822,15.4373,24.3592],[-87.8254,15.4297,23.0491],[-87.8301,15.4266,22.7536],[-87.8356,15.4289,23.4906],[-87.8376,15.4423,24.7809],[-87.8402,15.4467,25.3235],[-87.8618,15.4456,24.0191],[-87.8669,15.4438,21.678],[-87.8687,15.4415,24.5959],[-87.8665,15.4356,23.6536],[-87.8511,15.4317,22.1177],[-87.8296,15.4192,23.0916],[-87.8245,15.4031,26.5361],[-87.824,15.3943,25.8887],[-87.8254,15.3897,26.1546],[-87.8285,15.3874,25.7894],[-87.8434,15.3907,28.2216],[-87.8443,15.3831,25.9989],[-87.8521,15.3624,24.9983],[-87.8625,15.3497,27.893],[-87.8815,15.337,30.9881],[-87.8811,15.332,30.6957],[-87.8676,15.3295,28.8358],[-87.8692,15.3226,27.4104],[-87.8758,15.3223,28.4905],[-87.8863,15.3309,32.299],[-87.8892,15.3282,32.2918],[-87.8903,15.3161,29.6496],[-87.8943,15.3096,30.7178],[-87.8968,15.3084,33.2831],[-87.9102,15.3114,35.3661],[-87.9168,15.3099,33.9275],[-87.9181,15.3078,33.0528],[-87.9177,15.3027,33.1775],[-87.9078,15.2942,32.749],[-87.9071,15.2902,37.0747],[-87.9085,15.2886,33.5506],[-87.9156,15.2906,33.5],[-87.923,15.2894,38.4772],[-87.9272,15.2836,35.2157],[-87.9275,15.2792,37.0687],[-87.9252,15.2764,37.9366],[-87.9153,15.2756,36.9841],[-87.9113,15.2731,34.0],[-87.9126,15.2616,34.9505],[-87.9185,15.2586,36.7082],[-87.9294,15.2609,37.2762],[-87.9334,15.2593,37.939],[-87.9317,15.2499,37.6348],[-87.9361,15.2421,37.9545],[-87.9367,15.2381,38.9809],[-87.9337,15.2209,37.7895],[-87.932,15.221,38.4522],[-87.9229,15.2299,38.9874],[-87.9205,15.2298,37.3758],[-87.9204,15.2264,40.4363],[-87.9243,15.2204,40.4995],[-87.9244,15.2175,40.6541],[-87.9183,15.2114,40.4136],[-87.8442,15.2132,475.0086],[-87.8154,15.2249,856.5302],[-87.8099,15.2285,1104.3176],[-87.7869,15.2585,1192.371],[-87.7783,15.2985,589.6051],[-87.7774,15.3244,793.8616],[-87.7723,15.331,763.3783],[-87.7666,15.3563,508.3964],[-87.7309,15.4317,655.7009],[-87.6932,15.4561,588.4421],[-87.6923,15.4912,225.4108],[-87.7131,15.5248,28.2738],[-87.7188,15.5238,27.5189],[-87.7199,15.5272,23.6504],[-87.7278,15.526,19.9201],[-87.7383,15.5305,22.8211],[-87.7415,15.5296,27.5009],[-87.741,15.5315,24.6224],[-87.7451,15.5307,24.1881],[-87.7451,15.5367,27.62],[-87.753,15.5411,21.6979],[-87.754,15.545,18.7539],[-87.768,15.5536,18.34],[-87.7699,15.5569,21.4646],[-87.7702,15.5601,15.796],[-87.7636,15.5657,13.3604],[-87.7586,15.5815,23.8663],[-87.751,15.5885,12.6949],[-87.7481,15.6063,14.7398],[-87.7508,15.6101,12.2573],[-87.7578,15.6131,16.658],[-87.7591,15.6197,12.1298],[-87.7657,15.6252,12.3259],[-87.7654,15.6496,10.3083],[-87.7382,15.6549,9.3461],[-87.7449,15.6608,10.4341],[-87.7456,15.6644,12.3252],[-87.7439,15.6699,8.5803],[-87.7346,15.6752,11.5634],[-87.7384,15.6786,7.1792],[-87.7421,15.6784,7.1123],[-87.7429,15.6813,6.33],[-87.747,15.6808,5.6943],[-87.7502,15.685,6.0416],[-87.7497,15.6878,7.3187],[-87.7518,15.689,6.3808],[-87.752,15.6922,5.7275],[-87.7552,15.6938,5.7714],[-87.7568,15.697,5.8104],[-87.7622,15.6973,7.6929],[-87.767,15.6999,10.9744],[-87.7711,15.6988,11.5121],[-87.7725,15.7006,11.1815],[-87.7763,15.6996,11.1971],[-87.7814,15.7008,9.4667],[-87.7845,15.7055,9.5557],[-87.7819,15.7133,7.193],[-87.7832,15.7187,5.3919]]]]}
,"properties": {"GID_2": "HND.18.3_1","GID_0": "HND","country": "Honduras","GID_1": "HND.18_1","province": "Yoro","NL_NAME_1": "NA","county": "ElProgreso","VARNAME_2": "NA","NL_NAME_2": "NA","TYPE_2": "Municipio","ENGTYPE_2": "Municipality","CC_2": "NA","HASC_2": "HN.YO.EP","name": "El_Progreso.county","area_km2": 550.1455,"hist_schema_id": "Elevation0-9000","hist_area_km2": {"0": 57.8124,"25": 234.3821,"50": 63.204,"75": 15.4564,"100": 8.566,"125": 7.1753,"150": 7.3183,"175": 6.4596,"200": 6.5007,"225": 6.8689,"250": 6.3171,"275": 6.0517,"300": 6.0516,"325": 5.5814,"350": 5.4997,"375": 5.3156,"400": 5.8268,"425": 5.3772,"450": 5.8269,"475": 4.9886,"500": 5.4793,"525": 4.9069,"550": 4.7841,"575": 4.866,"600": 4.1099,"625": 4.4368,"650": 4.4981,"675": 4.4779,"700": 4.6416,"725": 3.9463,"750": 3.5785,"775": 3.3128,"800": 2.9448,"825": 2.2496,"850": 2.0246,"875": 1.6769,"900": 1.5134,"925": 1.3702,"950": 1.3907,"975": 1.2067,"1000": 0.8181,"1025": 0.859,"1050": 0.8386,"1075": 0.5318,"1100": 0.5727,"1125": 0.4909,"1150": 0.5728,"1175": 0.6137,"1200": 0.4705,"1225": 0.5932,"1250": 0.3886,"1275": 0.7364,"1300": 0.9818,"1325": 1.166,"1350": 1.166,"1375": 0.8387,"1400": 0.3682,"1425": 0.0818,"1450": 0.0409,"1475": 0.0205}}}