{"type": "Feature","bbox": [-87.7876,14.3567,-87.6543,14.4283],"geometry": {"type": "MultiPolygon","coordinates": [[[[-87.7876,14.3803,1769.2494],[-87.7864,14.3707,1801.2407],[-87.7814,14.3626,1936.9663],[-87.7565,14.3613,1510.0848],[-87.7477,14.3567,1538.8669],[-87.7401,14.3594,1321.5573],[-87.7372,14.3623,1248.9438],[-87.729,14.3643,1003.7043],[-87.7079,14.3654,695.7521],[-87.6952,14.3727,635.8058],[-87.6751,14.3732,598.5763],[-87.6604,14.3754,574.129],[-87.6543,14.3827,566.764],[-87.6607,14.395,574.1906],[-87.6876,14.4003,604.797],[-87.6958,14.423,606.8202],[-87.7026,14.4214,627.9719],[-87.7092,14.4283,639.0679],[-87.7113,14.4255,649.0456],[-87.7158,14.4237,669.1636],[-87.7166,14.415,684.0121],[-87.728,14.4053,874.5845],[-87.7443,14.4009,1051.2914],[-87.7594,14.4033,1186.7183],[-87.7683,14.4019,1626.6155],[-87.7782,14.3929,1546.5736],[-87.7855,14.3812,1752.251],[-87.7876,14.3803,1769.2494]]]]}
,"properties": {"GID_2": "HND.4.1_1","GID_0": "HND","country": "Honduras","GID_1": "HND.4_1","province": "Comayagua","NL_NAME_1": "NA","county": "Ajuterique","VARNAME_2": "NA","NL_NAME_2": "NA","TYPE_2": "Municipio","ENGTYPE_2": "Municipality","CC_2": "NA","HASC_2": "HN.CM.AJ","name": "Ajuterique.county","area_km2": 59.16807,"hist_schema_id": "Elevation0-9000","hist_area_km2": {"575": 2.46449,"600": 7.04415,"625": 6.90024,"650": 4.35373,"675": 2.9368,"700": 2.25908,"725": 1.39651,"750": 1.10899,"775": 1.04737,"800": 0.84205,"825": 0.43128,"850": 0.8215,"875": 0.67773,"900": 0.59559,"925": 0.69827,"950": 0.6572,"975": 0.53397,"1000": 0.80097,"1025": 0.78043,"1050": 0.96526,"1075": 1.25279,"1100": 1.17063,"1125": 1.23224,"1150": 1.15011,"1175": 1.29388,"1200": 1.15011,"1225": 1.04743,"1250": 0.88314,"1275": 0.73936,"1300": 0.71883,"1325": 0.88314,"1350": 0.67776,"1375": 0.51346,"1400": 0.55454,"1425": 0.55453,"1450": 0.82153,"1475": 0.65722,"1500": 0.7599,"1525": 0.34916,"1550": 0.71883,"1575": 0.534,"1600": 0.47238,"1625": 0.41076,"1650": 0.30808,"1675": 0.41077,"1700": 0.51346,"1725": 0.45185,"1750": 0.45185,"1775": 0.20539,"1800": 0.32862,"1825": 0.16431,"1850": 0.16431,"1875": 0.12324,"1900": 0.12323,"1925": 0.06162}}}