{"type": "Feature","bbox": [-89.1577,14.5676,-89.0689,14.6752],"geometry": {"type": "MultiPolygon","coordinates": [[[[-89.1577,14.5717,1800.7551],[-89.1577,14.5676,1777.9619],[-89.1398,14.5702,1569.6987],[-89.1318,14.5733,1612.4729],[-89.1269,14.578,1801.6631],[-89.1267,14.5858,1662.7656],[-89.1287,14.5896,1456.6935],[-89.1263,14.5938,1434.4441],[-89.1161,14.5976,1401.7036],[-89.0868,14.6004,1257.0208],[-89.0689,14.6097,1332.3563],[-89.0981,14.6485,1368.9443],[-89.1096,14.6456,1169.5674],[-89.1134,14.6468,1096.6947],[-89.1143,14.644,1061.0978],[-89.1177,14.6451,984.5259],[-89.119,14.6427,901.9189],[-89.1206,14.6455,905.456],[-89.1272,14.6444,851.9161],[-89.1351,14.6575,759.3026],[-89.1389,14.6587,855.825],[-89.1393,14.6621,757.9703],[-89.142,14.6623,800.1926],[-89.1472,14.6752,690.1783],[-89.153,14.6629,870.847],[-89.1519,14.6479,1142.5328],[-89.1477,14.6274,1424.1133],[-89.1463,14.6025,1529.4078],[-89.1554,14.5722,1751.385],[-89.1577,14.5717,1800.7551]]]]}
,"properties": {"GID_2": "HND.14.12_1","GID_0": "HND","country": "Honduras","GID_1": "HND.14_1","province": "Ocotepeque","NL_NAME_1": "NA","county": "SanJorge","VARNAME_2": "NA","NL_NAME_2": "NA","TYPE_2": "Municipio","ENGTYPE_2": "Municipality","CC_2": "NA","HASC_2": "HN.OC.SJ","name": "San_Jorge.county","area_km2": 50.53057,"hist_schema_id": "Elevation0-9000","hist_area_km2": {"675": 0.02051,"700": 0.02051,"725": 0.02051,"750": 0.04102,"775": 0.10256,"800": 0.06154,"825": 0.30768,"850": 0.4923,"875": 0.67693,"900": 0.63591,"925": 0.88208,"950": 0.92312,"975": 1.00518,"1000": 1.37444,"1025": 1.00517,"1050": 0.80005,"1075": 1.41548,"1100": 0.92314,"1125": 1.21036,"1150": 1.41549,"1175": 1.31296,"1200": 1.21038,"1225": 1.88743,"1250": 1.82591,"1275": 2.37986,"1300": 2.56453,"1325": 3.18001,"1350": 3.44674,"1375": 3.03641,"1400": 2.60558,"1425": 2.62607,"1450": 1.94903,"1475": 0.9027,"1500": 0.84113,"1525": 0.57445,"1550": 0.38981,"1575": 0.6771,"1600": 0.69765,"1625": 1.37481,"1650": 0.88233,"1675": 0.92337,"1700": 0.55402,"1725": 0.7387,"1750": 0.38987,"1775": 0.18467,"1800": 0.04104}}}