{"type": "Feature","bbox": [-87.0398,13.6831,-86.8551,13.7836],"geometry": {"type": "MultiPolygon","coordinates": [[[[-87.0163,13.7836,1505.2758],[-87.0206,13.7771,1383.0414],[-87.029,13.7691,1054.4045],[-87.0398,13.7658,1024.1521],[-87.0341,13.7388,1354.124],[-87.0014,13.7378,1399.7925],[-87.0062,13.7202,967.1923],[-87.0031,13.7132,756.7769],[-87.0034,13.7064,816.8321],[-86.9817,13.7045,725.9467],[-86.982,13.6994,791.0334],[-86.9751,13.6909,486.4984],[-86.9732,13.6843,587.5938],[-86.9635,13.6863,819.2971],[-86.9566,13.6902,721.5234],[-86.9499,13.6901,906.5824],[-86.9357,13.6831,1151.4341],[-86.9177,13.698,891.8248],[-86.9096,13.7099,930.5577],[-86.9305,13.7317,1339.1174],[-86.9248,13.735,1465.5918],[-86.9118,13.73,1166.6594],[-86.8905,13.7293,1011.1788],[-86.876,13.7407,924.4366],[-86.8645,13.7528,799.0038],[-86.8636,13.7585,757.948],[-86.8551,13.7661,819.4381],[-86.8553,13.7716,657.1487],[-86.8566,13.7719,687.549],[-86.8625,13.7696,737.0274],[-86.8643,13.7662,783.1636],[-86.8717,13.7645,808.8575],[-86.8777,13.7655,577.1668],[-86.8796,13.7672,626.1116],[-86.8797,13.7702,660.7216],[-86.8874,13.7733,760.1675],[-86.8942,13.7709,848.7016],[-86.9006,13.7724,900.6558],[-86.9099,13.7717,930.8068],[-86.9161,13.7734,1123.7325],[-86.9186,13.7768,1175.4739],[-86.9608,13.7747,1242.9343],[-86.9673,13.7752,1409.5261],[-86.9715,13.7774,1426.9277],[-86.9738,13.776,1336.967],[-86.9745,13.7786,1371.7374],[-86.9767,13.7791,1397.0199],[-86.9795,13.7752,1425.8269],[-86.9837,13.7744,1442.8408],[-86.994,13.7796,1600.3505],[-86.9987,13.7784,1454.2544],[-87.0026,13.7806,1548.6974],[-87.0163,13.7836,1505.2758]]]]}
,"properties": {"GID_2": "HND.7.11_1","GID_0": "HND","country": "Honduras","GID_1": "HND.7_1","province": "ElParaíso","NL_NAME_1": "NA","county": "SanLucas","VARNAME_2": "NA","NL_NAME_2": "NA","TYPE_2": "Municipio","ENGTYPE_2": "Municipality","CC_2": "NA","HASC_2": "HN.EP.SL","name": "San_Lucas.county","area_km2": 124.27275,"hist_schema_id": "Elevation0-9000","hist_area_km2": {"475": 0.0824,"500": 0.35019,"525": 0.39139,"550": 0.47379,"575": 0.57677,"600": 1.00926,"625": 1.21522,"650": 1.7919,"675": 1.87428,"700": 2.36855,"725": 2.36854,"750": 2.45093,"775": 2.63628,"800": 2.69801,"825": 2.80101,"850": 2.84227,"875": 2.82168,"900": 2.98645,"925": 3.00705,"950": 3.17185,"975": 3.11003,"1000": 3.48076,"1025": 3.39834,"1050": 3.872,"1075": 3.95435,"1100": 3.64545,"1125": 3.66595,"1150": 3.60424,"1175": 3.68656,"1200": 3.33645,"1225": 3.43938,"1250": 4.63389,"1275": 4.09843,"1300": 4.13957,"1325": 3.56288,"1350": 2.9862,"1375": 2.69785,"1400": 2.55367,"1425": 2.1212,"1450": 2.32714,"1475": 2.90374,"1500": 3.08909,"1525": 2.24477,"1550": 1.72991,"1575": 1.70934,"1600": 1.68874,"1625": 1.19449,"1650": 0.98855,"1675": 0.98854,"1700": 0.762,"1725": 0.53547,"1750": 0.20595}}}