{"type": "Feature","bbox": [-88.0405,14.9685,-87.9345,15.0629],"geometry": {"type": "MultiPolygon","coordinates": [[[[-88.0224,15.0451,484.9565],[-88.0238,15.04,555.22],[-88.0291,15.0333,563.7015],[-88.0312,14.99,663.0823],[-88.0405,14.9811,587.2281],[-88.0115,14.971,654.3511],[-87.9915,14.9712,811.4261],[-87.9843,14.9689,840.9406],[-87.9699,14.9685,770.3027],[-87.9375,14.9896,401.2943],[-87.9345,14.9932,309.4496],[-87.939,15.0448,72.9827],[-87.941,15.0473,63.6011],[-87.9402,15.0499,62.9015],[-87.9508,15.0612,50.6933],[-87.9556,15.0606,53.2087],[-87.9583,15.0581,52.9872],[-87.9672,15.06,56.2549],[-87.9729,15.0558,59.0],[-87.9832,15.062,64.2903],[-87.988,15.0629,69.7969],[-87.991,15.0602,96.5955],[-87.9903,15.0552,97.045],[-87.9873,15.0506,81.5143],[-87.9809,15.0471,72.8084],[-88.0123,15.0383,410.0003],[-88.0224,15.0451,484.9565]]]]}
,"properties": {"GID_2": "HND.6.8_1","GID_0": "HND","country": "Honduras","GID_1": "HND.6_1","province": "Cortés","NL_NAME_1": "NA","county": "SanFranciscodeYojoa","VARNAME_2": "NA","NL_NAME_2": "NA","TYPE_2": "Municipio","ENGTYPE_2": "Municipality","CC_2": "NA","HASC_2": "HN.CR.SF","name": "San_Franciscode_Yojoa.county","area_km2": 85.4777,"hist_schema_id": "Elevation0-9000","hist_area_km2": {"50": 4.40207,"75": 6.59303,"100": 3.00999,"125": 2.96911,"150": 3.05109,"175": 2.78494,"200": 2.62115,"225": 2.66211,"250": 2.35497,"275": 2.33453,"300": 2.68264,"325": 3.13318,"350": 2.80555,"375": 2.51885,"400": 2.74414,"425": 3.03087,"450": 3.23566,"475": 3.31766,"500": 3.39964,"525": 3.48159,"550": 2.90822,"575": 2.62152,"600": 2.33483,"625": 2.02762,"650": 2.02762,"675": 1.51561,"700": 1.31081,"725": 1.3108,"750": 0.81926,"775": 0.81926,"800": 0.73734,"825": 0.61445,"850": 0.59398,"875": 0.7988,"900": 0.77832,"925": 0.26627,"950": 0.18434,"975": 0.10241,"1000": 0.24578,"1025": 0.18433,"1050": 0.14337}}}