{"type":"Feature","properties":{"ISO3166-1-Alpha-3":"HND","country":"Honduras","fill":"#F00","id":"642","name":"Olancho"},
"geometry":{"type": "Polygon","coordinates": [[[-85.73587,15.57187,681.7863],[-85.74556,15.57585,587.0924],[-85.75238,15.58148,759.9194],[-85.75913,15.58427,1018.6551],[-85.76414,15.58499,1151.4185],[-85.78631,15.5743,1293.0494],[-85.78455,15.56505,877.053],[-85.78786,15.55781,922.4768],[-85.79579,15.54872,1026.9047],[-85.81726,15.53187,1273.842],[-85.83687,15.51998,1262.5288],[-85.84786,15.5206,1135.9233],[-85.85961,15.52799,856.8798],[-85.86628,15.53032,971.2547],[-85.87312,15.53135,933.557],[-85.87995,15.52856,1063.3706],[-85.8846,15.52308,1158.2572],[-85.90914,15.48422,1187.9381],[-85.96994,15.42666,1334.0991],[-86.02751,15.39658,1511.9065],[-86.03167,15.39038,1517.4971],[-86.03828,15.39038,1490.3524],[-86.04554,15.39358,1563.9685],[-86.05366,15.39586,1562.1929],[-86.06335,15.39668,1522.95],[-86.08133,15.39415,1391.5636],[-86.09019,15.39043,1294.9],[-86.10681,15.38733,1315.4285],[-86.12567,15.37823,1380.314],[-86.14856,15.37302,1362.4175],[-86.17163,15.37808,1292.0275],[-86.2329,15.40976,1224.9031],[-86.27765,15.37854,1260.924],[-86.29052,15.37415,1164.726],[-86.34607,15.3416,1127.782],[-86.37196,15.3294,1373.5988],[-86.38526,15.32795,1273.2468],[-86.40911,15.32826,1245.4604],[-86.4204,15.33188,804.1525],[-86.42661,15.33684,655.5007],[-86.42968,15.34284,660.4198],[-86.43449,15.34986,510.8489],[-86.44275,15.35849,466.1122],[-86.45198,15.3664,416.3395],[-86.46474,15.37467,337.7781],[-86.47919,15.38232,258.6515],[-86.50303,15.38929,541.2938],[-86.51407,15.38924,443.6814],[-86.52655,15.38624,730.6646],[-86.61132,15.34149,1091.8373],[-86.61879,15.33875,1180.0928],[-86.62414,15.33912,1178.5447],[-86.62879,15.34036,1178.5344],[-86.63295,15.34087,1243.4719],[-86.63822,15.3372,1210.7112],[-86.64186,15.33126,797.3431],[-86.65184,15.30594,1003.6793],[-86.65974,15.29659,1220.4785],[-86.66636,15.28232,1289.8293],[-86.67628,15.27927,1405.4713],[-86.68636,15.27194,1133.6967],[-86.69274,15.26863,1148.3433],[-86.70065,15.26692,1115.9651],[-86.71876,15.26682,811.0839],[-86.72966,15.26868,607.8478],[-86.73814,15.2709,691.6885],[-86.76873,15.29529,380.493],[-86.81532,15.28537,310.2353],[-86.81769,15.27726,384.3531],[-86.82622,15.27111,469.345],[-86.82971,15.26977,426.7627],[-86.84462,15.26201,358.7088],[-86.85144,15.26062,510.4317],[-86.85555,15.25767,357.6598],[-86.85888,15.25359,367.6632],[-86.86206,15.24005,563.268],[-86.86291,15.23194,617.4044],[-86.85513,15.17163,532.7793],[-86.86299,15.15463,496.141],[-86.86319,15.15158,581.9888],[-86.8626,15.1476,547.9082],[-86.86244,15.14378,533.4919],[-86.86454,15.13799,571.042],[-86.87149,15.12724,512.6969],[-86.8758,15.1181,646.4849],[-86.87823,15.11112,541.5549],[-86.87901,15.10461,518.9554],[-86.87916,15.0983,602.8249],[-86.88066,15.09055,621.6521],[-86.88616,15.08156,598.7922],[-86.90102,15.07154,994.6248],[-86.92099,15.05397,1151.5352],[-86.95125,15.04601,1813.512],[-86.95913,15.04745,1878.6221],[-86.9635,15.04761,1869.6975],[-86.96957,15.04378,1743.0742],[-86.97332,15.04058,1768.2882],[-86.98748,15.01588,1604.1294],[-86.985,15.00477,1585.757],[-86.98096,14.9981,1597.464],[-86.97065,14.98586,1551.4329],[-86.96164,14.97728,1463.1543],[-86.93812,14.96529,1416.5941],[-86.92665,14.95351,1543.6946],[-86.91223,14.94612,1529.0909],[-86.90836,14.94286,1574.4893],[-86.90614,14.94017,1690.6246],[-86.91549,14.93253,1722.8263],[-86.92355,14.9054,1525.3267],[-86.93329,14.89733,1382.3196],[-86.92727,14.87625,1390.1055],[-86.92371,14.86907,1320.9053],[-86.91699,14.85832,1405.1833],[-86.91242,14.84767,1289.0256],[-86.90991,14.8207,857.5989],[-86.90717,14.80995,811.812],[-86.89947,14.7991,813.1948],[-86.89136,14.7622,1163.8922],[-86.86017,14.68758,1172.0869],[-86.84834,14.66593,1178.2103],[-86.83495,14.65151,1583.1691],[-86.82606,14.64448,1732.6545],[-86.80663,14.63983,2071.8611],[-86.79731,14.63032,1745.5824],[-86.76248,14.5988,1354.4707],[-86.74372,14.57534,1165.1144],[-86.74442,14.55746,1031.4825],[-86.7486,14.54144,964.1571],[-86.74752,14.53296,1009.2255],[-86.74511,14.52366,1011.0474],[-86.7347,14.50764,992.6663],[-86.73106,14.50041,962.8881],[-86.7293,14.48532,1019.9421],[-86.72615,14.47157,886.6697],[-86.71356,14.43783,988.8165],[-86.71421,14.42382,1170.676],[-86.67132,14.40641,1230.6892],[-86.66566,14.40553,1148.7366],[-86.65571,14.40646,1163.5579],[-86.65259,14.40811,1234.9729],[-86.64936,14.40946,1209.6581],[-86.63889,14.41106,1142.6111],[-86.63509,14.41044,1192.5255],[-86.6307,14.40806,1202.0044],[-86.62065,14.39674,1232.5469],[-86.61569,14.38651,1213.9374],[-86.61194,14.38238,1215.8474],[-86.60732,14.38114,1144.0612],[-86.59995,14.38243,1059.4153],[-86.57892,14.3801,833.1158],[-86.5229,14.36486,1189.4797],[-86.50265,14.34512,1125.1664],[-86.49898,14.34279,1121.1746],[-86.47578,14.33664,1143.6782],[-86.45712,14.32316,1060.009],[-86.45252,14.31804,978.9861],[-86.44782,14.31148,909.9471],[-86.44213,14.29773,557.5227],[-86.43735,14.29375,639.7596],[-86.42816,14.29076,939.9277],[-86.35447,14.28636,1093.0273],[-86.34286,14.28807,903.6542],[-86.33573,14.29096,972.9171],[-86.3131,14.30466,947.0975],[-86.30364,14.31334,822.8778],[-86.29871,14.31685,811.5037],[-86.29297,14.31938,966.153],[-86.28731,14.32119,876.6791],[-86.27664,14.3276,610.2947],[-86.26199,14.33473,722.4683],[-86.24277,14.34011,508.9674],[-86.23248,14.3414,467.3078],[-86.20659,14.34104,521.7043],[-86.19373,14.33845,473.0439],[-86.18494,14.33401,482.2952],[-86.17597,14.32357,485.569],[-86.14923,14.27644,364.0667],[-86.14218,14.26895,419.9402],[-86.11378,14.25861,652.4846],[-86.08846,14.25288,488.0041],[-86.08014,14.25339,632.3213],[-86.07624,14.25732,688.2172],[-86.0727,14.26569,631.5745],[-86.07001,14.269,641.3264],[-86.06655,14.27174,684.7408],[-86.06231,14.27293,653.1343],[-86.05792,14.27277,647.0332],[-86.0403,14.2689,783.1101],[-86.0296,14.26342,841.2056],[-86.01932,14.25463,899.4753],[-86.00676,14.23464,1135.0828],[-86.00077,14.22146,751.079],[-85.99699,14.20782,858.0067],[-85.99531,14.19872,985.0414],[-85.99051,14.19097,1088.3577],[-85.98273,14.18451,1011.9871],[-85.94441,14.16751,1057.0093],[-85.92454,14.14182,1088.3873],[-85.91307,14.13278,956.7864],[-85.90628,14.13133,903.9099],[-85.89266,14.13185,944.1529],[-85.88537,14.13438,1032.1318],[-85.88018,14.1381,1097.0073],[-85.87749,14.14234,1070.386],[-85.87641,14.14684,946.6971],[-85.87545,14.15712,893.6442],[-85.87375,14.16182,917.1385],[-85.87132,14.16554,851.2842],[-85.8678,14.16844,936.8936],[-85.85752,14.17304,900.0025],[-85.85302,14.17583,898.4495],[-85.84917,14.17929,945.0239],[-85.84486,14.18203,997.4052],[-85.83649,14.18301,976.7426],[-85.82677,14.18136,1062.2437],[-85.81359,14.17247,1143.7896],[-85.80375,14.16751,904.4447],[-85.79055,14.16513,685.4531],[-85.7844,14.16663,811.9778],[-85.77977,14.1704,790.0144],[-85.76802,14.19355,914.7913],[-85.76373,14.19789,939.5304],[-85.75747,14.19872,955.1462],[-85.71011,14.18875,1037.011],[-85.67213,14.17707,1417.1283],[-85.66523,14.1764,1369.9595],[-85.66216,14.17743,1345.0819],[-85.6603,14.18492,1589.1967],[-85.65544,14.18601,1535.7247],[-85.64691,14.18342,1318.1456],[-85.63128,14.17035,1187.1168],[-85.62156,14.1597,928.3416],[-85.61549,14.14735,690.4346],[-85.61141,14.12648,511.2732],[-85.61141,14.1148,460.0782],[-85.6097,14.10488,316.4466],[-85.6058,14.09723,400.282],[-85.59593,14.08958,303.7979],[-85.58779,14.08519,361.4724],[-85.58015,14.0793,355.0208],[-85.57565,14.07496,264.6745],[-85.56327,14.04235,518.7314],[-85.56315,14.04201,473.0698],[-85.54663,14.04491,236.4218],[-85.52795,14.0509,256.7085],[-85.51863,14.06459,264.3525],[-85.5164,14.08054,345.219],[-85.51064,14.09379,310.7544],[-85.47467,14.1034,292.7814],[-85.45762,14.11304,232.1],[-85.43173,14.13283,340.9407],[-85.42016,14.14686,353.6087],[-85.40912,14.16616,292.5681],[-85.40088,14.18518,455.2654],[-85.39362,14.21076,415.52],[-85.38401,14.22645,277.2985],[-85.37251,14.2411,352.1833],[-85.36287,14.25011,351.2341],[-85.35853,14.25089,239.0554],[-85.34781,14.24923,207.0681],[-85.34362,14.25011,191.5326],[-85.34081,14.25337,306.8015],[-85.33796,14.26068,214.9432],[-85.33088,14.269,334.8877],[-85.32683,14.27574,256.6389],[-85.32135,14.28133,282.364],[-85.31197,14.28365,240.3207],[-85.2882,14.29515,301.7773],[-85.27781,14.29732,258.1909],[-85.23996,14.29732,289.0641],[-85.21521,14.30158,227.2143],[-85.1902,14.30964,196.9462],[-85.16963,14.32176,181.6305],[-85.15803,14.33827,231.1105],[-85.15903,14.36106,258.9477],[-85.17188,14.38101,186.0814],[-85.18973,14.39685,195.2766],[-85.20583,14.40716,161.6563],[-85.17849,14.42765,165.0211],[-85.17735,14.43398,169.7836],[-85.17968,14.44925,159.4685],[-85.17849,14.4556,156.3903],[-85.15539,14.47948,148.0024],[-85.15183,14.48596,140.1207],[-85.14981,14.5365,156.6151],[-85.14547,14.56425,128.6182],[-85.13754,14.57849,138.561],[-85.11932,14.57397,152.6846],[-85.10335,14.55686,159.3912],[-85.08638,14.54454,143.2491],[-85.06524,14.55425,168.4919],[-85.02964,14.58896,128.6201],[-85.02366,14.60254,112.8709],[-85.02222,14.6058,118.7987],[-85.04816,14.60578,144.2323],[-85.04222,14.61348,106.0919],[-85.02021,14.63373,146.6191],[-85.04852,14.65332,142.2359],[-85.05393,14.66306,146.9935],[-85.03822,14.66722,142.3853],[-85.03305,14.66957,136.0429],[-85.02979,14.67554,131.2362],[-85.02455,14.71254,109.1392],[-85.01566,14.72817,136.7149],[-85.00199,14.74068,151.3866],[-84.99995,14.74202,162.118],[-84.99995,14.74277,145.4505],[-84.99995,14.981,83.5966],[-84.99995,15.06874,231.836],[-85.05963,15.13706,270.0021],[-85.09268,15.16677,241.6882],[-85.23265,15.22667,711.3428],[-85.24931,15.23664,787.6434],[-85.30711,15.30527,837.9409],[-85.36042,15.38108,609.8272],[-85.39594,15.40893,518.8467],[-85.50524,15.4495,1223.2019],[-85.60771,15.53487,273.3388],[-85.6883,15.57719,583.4137],[-85.70936,15.58153,497.4379],[-85.71784,15.57703,571.3674],[-85.72784,15.57331,798.0507],[-85.73587,15.57187,681.7863]]]}}