{"type": "Feature","bbox": [-87.0136,14.0464,-84.994,15.5795],"geometry": {"type": "MultiPolygon","coordinates": [[[[-86.0724,14.2467,553.1458],[-86.0684,14.2475,506.3493],[-86.0708,14.2515,554.0544],[-86.0695,14.2633,585.0364],[-86.0616,14.2697,665.5541],[-86.0529,14.2689,653.2115],[-86.051,14.2655,675.8345],[-86.0404,14.2643,724.4196],[-86.0362,14.2618,801.5433],[-86.0308,14.2626,841.2056],[-86.0268,14.2563,983.8051],[-86.0181,14.2342,1061.8088],[-86.0041,14.2161,854.7673],[-86.0006,14.2086,884.7173],[-86.0006,14.1966,999.247],[-85.9983,14.1894,1068.5759],[-85.9884,14.1763,1044.5245],[-85.9721,14.1704,824.5689],[-85.9561,14.1667,904.2509],[-85.9491,14.167,964.7072],[-85.9317,14.1454,969.3798],[-85.9266,14.1335,1035.9561],[-85.9141,14.1259,888.5229],[-85.8911,14.1259,991.1447],[-85.882,14.1411,1022.6772],[-85.8812,14.1568,788.781],[-85.8759,14.1649,768.9711],[-85.8634,14.1693,922.5751],[-85.8398,14.1815,1062.2902],[-85.8363,14.1812,926.3748],[-85.8305,14.1742,919.1481],[-85.8132,14.1632,1013.9128],[-85.8036,14.1623,849.3207],[-85.7981,14.1594,668.1479],[-85.7946,14.1594,671.4038],[-85.7917,14.1606,790.0443],[-85.7861,14.1678,759.4512],[-85.7815,14.1751,681.3237],[-85.7763,14.1885,687.0632],[-85.7707,14.1949,818.3892],[-85.7643,14.1955,933.8987],[-85.7608,14.192,822.9104],[-85.7605,14.1879,809.7424],[-85.7576,14.1853,767.7719],[-85.7506,14.1833,763.3856],[-85.7364,14.1879,1023.6298],[-85.7208,14.1897,1118.0367],[-85.7086,14.185,1090.6711],[-85.6897,14.1818,1130.2985],[-85.6809,14.1757,1309.7638],[-85.6774,14.1751,1307.7627],[-85.6702,14.1754,1432.7555],[-85.667,14.1885,1421.0334],[-85.6609,14.1917,1416.9623],[-85.6579,14.1899,1549.6071],[-85.6547,14.1833,1468.9348],[-85.6437,14.1684,1308.7743],[-85.6267,14.1611,965.0591],[-85.6211,14.1542,739.9466],[-85.6217,14.1498,763.532],[-85.6168,14.1393,639.3701],[-85.6095,14.132,548.1799],[-85.6118,14.1216,419.6973],[-85.6188,14.1157,632.4421],[-85.6203,14.1114,572.9652],[-85.6194,14.1015,379.0796],[-85.6176,14.0986,509.4384],[-85.6118,14.0939,431.5909],[-85.5967,14.0866,315.2034],[-85.5938,14.0823,385.8004],[-85.5871,14.0826,288.4482],[-85.582,14.0796,344.3279],[-85.5756,14.0692,437.6449],[-85.5748,14.0627,238.9262],[-85.5614,14.0652,211.838],[-85.56,14.0617,241.6593],[-85.5625,14.0559,290.2263],[-85.5619,14.0521,209.2992],[-85.5564,14.0482,335.6945],[-85.5411,14.047,212.541],[-85.5331,14.0483,219.874],[-85.523,14.0464,230.5607],[-85.5196,14.0603,218.4367],[-85.5125,14.0621,237.8436],[-85.509,14.0816,230.5392],[-85.5052,14.0864,217.9656],[-85.5006,14.079,277.1653],[-85.4949,14.078,225.5589],[-85.4927,14.0934,236.9225],[-85.4815,14.0809,326.0077],[-85.4786,14.0859,204.7225],[-85.4786,14.0931,195.0838],[-85.4699,14.0918,263.2444],[-85.4674,14.1008,341.5549],[-85.4653,14.1035,301.0813],[-85.4584,14.1053,214.9514],[-85.456,14.1121,196.0905],[-85.4506,14.113,205.5296],[-85.4427,14.1042,243.9377],[-85.4365,14.1074,203.0544],[-85.4283,14.1061,204.0314],[-85.4249,14.1151,214.7969],[-85.4178,14.1155,210.0357],[-85.4147,14.1207,185.7007],[-85.4053,14.1248,195.8383],[-85.4052,14.1287,185.6331],[-85.4031,14.1323,199.6194],[-85.3969,14.1362,187.1052],[-85.3964,14.1412,199.1262],[-85.4,14.156,199.7867],[-85.3794,14.1755,204.9694],[-85.3777,14.1797,190.9494],[-85.3811,14.1886,254.359],[-85.3759,14.195,195.6309],[-85.377,14.2029,210.4801],[-85.3748,14.2088,178.2369],[-85.3752,14.2113,171.5],[-85.3818,14.2171,175.7421],[-85.3796,14.2229,188.2165],[-85.3706,14.2248,173.4043],[-85.3679,14.2154,185.0152],[-85.3644,14.2135,174.4525],[-85.3574,14.2139,232.78],[-85.3521,14.218,257.0578],[-85.3492,14.2254,207.249],[-85.3415,14.2323,173.3802],[-85.3387,14.2446,203.3696],[-85.3284,14.2473,234.7372],[-85.3174,14.2546,165.3082],[-85.3074,14.2545,175.8427],[-85.2967,14.2488,185.5544],[-85.2929,14.2492,186.5455],[-85.2859,14.2547,229.5747],[-85.2784,14.2574,189.0943],[-85.2467,14.2578,182.5835],[-85.2324,14.2532,158.5096],[-85.2286,14.2532,164.1789],[-85.2217,14.2566,170.7731],[-85.2104,14.2529,163.4233],[-85.1972,14.2571,176.0311],[-85.1921,14.2481,174.3609],[-85.1869,14.2476,175.7221],[-85.1836,14.2506,156.3591],[-85.1579,14.2935,158.0402],[-85.1602,14.2983,206.2594],[-85.1642,14.3009,197.9595],[-85.1764,14.3033,180.4665],[-85.1783,14.3059,186.9748],[-85.1803,14.3135,160.3459],[-85.1795,14.322,165.0433],[-85.1811,14.328,167.8783],[-85.1832,14.3284,163.2078],[-85.1903,14.3253,176.4811],[-85.1943,14.3311,168.4065],[-85.1987,14.333,172.2352],[-85.2013,14.3364,177.2679],[-85.2018,14.3525,169.4093],[-85.2039,14.3565,190.2927],[-85.2098,14.3588,166.9569],[-85.2197,14.3594,194.6599],[-85.2241,14.3631,184.1382],[-85.2255,14.3668,215.4601],[-85.2228,14.3725,162.2722],[-85.2138,14.3788,160.1895],[-85.2067,14.3896,152.7239],[-85.2033,14.402,147.848],[-85.1977,14.4091,160.9759],[-85.1954,14.4189,148.6482],[-85.1877,14.4294,170.8332],[-85.1783,14.461,151.7798],[-85.1724,14.4694,181.0446],[-85.1558,14.4829,133.9924],[-85.1507,14.4893,151.0903],[-85.1452,14.5062,146.2359],[-85.139,14.5126,147.7193],[-85.1376,14.5172,152.887],[-85.1394,14.5276,144.222],[-85.1443,14.5379,129.1955],[-85.1406,14.5481,141.5935],[-85.151,14.5666,127.1478],[-85.1489,14.5702,144.491],[-85.1376,14.5712,176.9578],[-85.1297,14.5797,143.4659],[-85.1266,14.5801,143.6808],[-85.1226,14.5766,169.6775],[-85.1139,14.5742,137.3866],[-85.1035,14.5583,143.497],[-85.0946,14.5499,132.8495],[-85.0897,14.5491,138.9098],[-85.0814,14.5553,155.9297],[-85.0762,14.5559,127.7932],[-85.0689,14.5542,141.3726],[-85.0655,14.5567,170.4678],[-85.0603,14.5651,123.0806],[-85.0451,14.5723,118.8836],[-85.0252,14.602,118.7175],[-85.0266,14.6059,143.8741],[-85.0405,14.6074,118.0263],[-85.0423,14.6109,106.9502],[-85.0287,14.6243,100.875],[-85.0263,14.6309,111.833],[-85.0279,14.6365,124.1763],[-85.0309,14.6402,135.6437],[-85.0459,14.6484,125.1394],[-85.0494,14.6523,142.2359],[-85.0519,14.6599,126.1114],[-85.05,14.6654,127.3652],[-85.0433,14.6702,124.7207],[-85.0319,14.6691,136.0429],[-85.0233,14.6844,117.0567],[-85.0242,14.6869,125.0394],[-85.0287,14.6888,120.7064],[-85.0298,14.6925,118.1783],[-85.0281,14.698,97.1908],[-85.0174,14.7069,173.5319],[-85.0117,14.7141,106.0127],[-84.9959,14.7247,116.1136],[-84.997,14.9059,156.9389],[-84.994,15.0612,163.946],[-85.0944,15.1731,318.088],[-85.2315,15.2062,877.4501],[-85.3166,15.3129,595.8499],[-85.3729,15.3959,265.9766],[-85.4879,15.4379,1104.5624],[-85.5056,15.442,1174.1111],[-85.5135,15.4458,1217.0251],[-85.537,15.4621,393.3434],[-85.5968,15.5232,194.4041],[-85.7059,15.5758,451.2214],[-85.719,15.571,738.4501],[-85.7246,15.5632,669.7711],[-85.7313,15.5604,479.7083],[-85.7431,15.5626,721.8953],[-85.7552,15.5769,715.5705],[-85.7611,15.5795,899.5281],[-85.7632,15.5795,933.5016],[-85.7649,15.576,991.1013],[-85.771,15.5727,940.8618],[-85.7831,15.5709,1013.6747],[-85.7846,15.5647,877.053],[-85.7814,15.5549,806.4879],[-85.7832,15.5508,852.0295],[-85.7902,15.5464,795.024],[-85.8084,15.5418,1047.6985],[-85.8155,15.5326,1147.6104],[-85.8198,15.5305,1265.2047],[-85.8214,15.5259,1210.4038],[-85.826,15.5231,1219.7437],[-85.8291,15.5153,1457.7754],[-85.8308,15.5142,1493.7906],[-85.8412,15.5152,1316.2535],[-85.8489,15.5197,1224.71],[-85.8583,15.5196,1013.2543],[-85.8635,15.5271,933.6029],[-85.8737,15.5273,1004.8665],[-85.8829,15.5255,1132.5552],[-85.8908,15.5174,1103.911],[-85.8885,15.5102,1192.7339],[-85.8891,15.5053,1071.6147],[-85.8856,15.5,1161.4633],[-85.8859,15.4975,1198.0679],[-85.909,15.4746,1140.0154],[-85.9206,15.4665,1198.115],[-85.9276,15.4575,1144.4482],[-85.9306,15.4557,1110.8115],[-85.9398,15.4574,1247.489],[-85.944,15.4548,1128.2847],[-85.9617,15.4355,1199.5133],[-85.9655,15.4194,1398.4387],[-85.9732,15.4167,1370.4346],[-85.9782,15.4098,1201.9789],[-85.9885,15.4107,1184.252],[-85.9924,15.4026,1438.6069],[-86.0038,15.4035,1572.818],[-86.008,15.3964,1637.5453],[-86.012,15.3963,1538.3177],[-86.0167,15.399,1443.5586],[-86.0204,15.3984,1513.3774],[-86.0254,15.394,1481.5825],[-86.0275,15.3865,1586.2634],[-86.0396,15.3842,1690.7311],[-86.0452,15.3921,1563.9685],[-86.049,15.3947,1490.9468],[-86.0627,15.3972,1472.2841],[-86.0665,15.395,1509.9399],[-86.0744,15.3977,1393.1747],[-86.0849,15.3986,1438.0549],[-86.0878,15.3956,1415.3098],[-86.0892,15.3864,1316.9916],[-86.0972,15.3912,1353.9885],[-86.1009,15.3913,1358.4519],[-86.1069,15.3868,1287.0253],[-86.1121,15.3801,1343.6699],[-86.1243,15.3744,1467.1785],[-86.1364,15.3751,1632.0001],[-86.1443,15.3698,1489.3853],[-86.1487,15.3699,1435.4166],[-86.1544,15.3727,1361.6449],[-86.1647,15.3732,1388.3965],[-86.1886,15.3891,1144.6665],[-86.2309,15.4126,1374.1893],[-86.2315,15.4108,1331.0942],[-86.2827,15.379,1033.943],[-86.2883,15.379,958.3554],[-86.2939,15.3762,1122.5754],[-86.3238,15.3584,901.139],[-86.3405,15.3508,836.3059],[-86.3624,15.3365,1320.5887],[-86.3954,15.3194,1292.8203],[-86.4125,15.3152,1199.0352],[-86.4167,15.3156,1094.7069],[-86.4192,15.3182,881.6455],[-86.4191,15.3237,786.4329],[-86.4246,15.3312,661.8502],[-86.4249,15.3396,721.9434],[-86.4287,15.3442,745.9897],[-86.4306,15.3541,756.5437],[-86.4328,15.3576,714.9876],[-86.4375,15.3605,607.481],[-86.4383,15.363,721.2491],[-86.4412,15.364,583.4314],[-86.4421,15.3604,504.9658],[-86.4437,15.3601,452.6891],[-86.448,15.3613,396.8925],[-86.4498,15.3643,426.185],[-86.4585,15.3638,360.9532],[-86.4571,15.3672,356.3745],[-86.4613,15.3669,431.4622],[-86.4596,15.372,352.9965],[-86.4664,15.3771,354.9619],[-86.4671,15.3829,618.4932],[-86.471,15.3897,543.2444],[-86.4882,15.3944,216.7496],[-86.4917,15.3937,236.9206],[-86.4959,15.3971,347.3333],[-86.5009,15.3966,460.905],[-86.5072,15.399,664.5817],[-86.5082,15.398,556.5325],[-86.5063,15.3919,448.7368],[-86.5089,15.3893,431.8269],[-86.5228,15.3866,619.2562],[-86.5236,15.3839,745.3744],[-86.5311,15.3805,851.5419],[-86.5322,15.3783,785.0826],[-86.5381,15.3837,739.4015],[-86.5441,15.3819,754.3087],[-86.5487,15.383,845.1896],[-86.5537,15.3786,914.9951],[-86.573,15.3692,1046.0112],[-86.5785,15.3613,1278.7903],[-86.5913,15.3606,1049.8529],[-86.5976,15.3564,1032.7014],[-86.6258,15.3442,926.472],[-86.6321,15.3351,978.0126],[-86.644,15.3286,808.5298],[-86.6521,15.329,951.9347],[-86.6584,15.3338,990.3914],[-86.6741,15.3286,566.267],[-86.6755,15.3254,790.9206],[-86.6741,15.3208,797.7563],[-86.6742,15.3101,956.81],[-86.6776,15.2999,1274.0818],[-86.6765,15.2954,1218.4174],[-86.6801,15.2946,1222.8998],[-86.6907,15.2846,1357.2487],[-86.692,15.2754,1360.4777],[-86.7007,15.273,1340.1071],[-86.7277,15.2567,709.3208],[-86.7471,15.2598,683.813],[-86.7535,15.2573,601.374],[-86.7554,15.2588,552.0381],[-86.7573,15.2571,614.9583],[-86.7627,15.2572,863.1031],[-86.7795,15.262,902.7117],[-86.7857,15.2703,653.4959],[-86.7876,15.2802,373.4552],[-86.7895,15.282,316.2133],[-86.7935,15.2815,314.2526],[-86.7942,15.2839,412.9282],[-86.8015,15.2878,553.2222],[-86.8029,15.2875,526.5604],[-86.8037,15.2833,295.8213],[-86.8082,15.2772,487.3599],[-86.8114,15.2766,587.2616],[-86.8138,15.2735,523.3768],[-86.818,15.273,350.4241],[-86.8194,15.2692,391.1669],[-86.8239,15.2715,414.973],[-86.8357,15.2729,522.2495],[-86.8428,15.2765,791.9995],[-86.8456,15.2623,380.2824],[-86.8614,15.2586,408.097],[-86.8708,15.253,632.0453],[-86.8736,15.2483,712.6542],[-86.8827,15.248,791.6761],[-86.8912,15.2393,884.4863],[-86.8902,15.2356,937.1711],[-86.8933,15.2314,1043.53],[-86.8949,15.2225,1207.3728],[-86.8911,15.2074,1275.0262],[-86.889,15.1855,1405.3779],[-86.881,15.1679,1411.4752],[-86.8811,15.151,908.942],[-86.8838,15.1495,857.3139],[-86.8856,15.1437,820.1395],[-86.8887,15.1427,830.0404],[-86.8905,15.1369,727.1177],[-86.89,15.1348,673.5245],[-86.8864,15.1352,669.5345],[-86.8842,15.1337,636.0924],[-86.8865,15.1248,549.7692],[-86.8908,15.1235,632.6021],[-86.8919,15.1193,540.744],[-86.8989,15.1158,542.4242],[-86.9028,15.1101,603.5348],[-86.9021,15.094,816.5597],[-86.9075,15.0925,858.465],[-86.9058,15.0804,1139.3479],[-86.9036,15.0752,1025.0007],[-86.9043,15.0709,1064.9506],[-86.9092,15.067,1145.4655],[-86.9194,15.0699,1205.5387],[-86.927,15.0624,1136.1462],[-86.9418,15.0579,1418.4504],[-86.9443,15.0517,1563.469],[-86.9441,15.0353,1625.3838],[-86.9472,15.0301,1370.9537],[-86.955,15.0336,1448.9307],[-86.9651,15.0306,1502.6455],[-86.9747,15.0348,1679.6708],[-86.9827,15.0355,1808.3047],[-86.9919,15.0323,1651.7671],[-87.0014,15.0232,1669.8284],[-87.0136,15.0042,1713.4446],[-87.0077,14.9935,1554.432],[-86.9929,14.9777,1342.3433],[-86.9913,14.9701,1342.4302],[-86.9874,14.9637,1346.848],[-86.9822,14.9616,1307.9175],[-86.9762,14.962,1139.3333],[-86.972,14.9588,1182.5958],[-86.9659,14.9573,1211.8889],[-86.9574,14.9563,1365.2753],[-86.9544,14.9534,1396.8966],[-86.9537,14.9437,1172.1292],[-86.9396,14.9388,1245.595],[-86.9245,14.9301,1434.8363],[-86.928,14.9267,1423.4146],[-86.9331,14.926,1472.2382],[-86.9447,14.9079,1305.6069],[-86.9448,14.8985,1418.1644],[-86.955,14.8916,1231.2402],[-86.9559,14.8881,1201.684],[-86.9508,14.8735,1445.4586],[-86.9519,14.8617,1145.0796],[-86.9497,14.859,1091.6354],[-86.9376,14.8533,1222.91],[-86.9262,14.8271,939.9563],[-86.9232,14.8127,844.6219],[-86.9287,14.8109,829.6019],[-86.9299,14.8057,813.2144],[-86.9285,14.7982,875.7722],[-86.9182,14.7928,919.313],[-86.9131,14.7922,851.8503],[-86.9094,14.7884,897.0226],[-86.919,14.7594,1180.7894],[-86.8959,14.7351,936.9977],[-86.8863,14.6959,1176.6899],[-86.8709,14.6587,1337.5005],[-86.854,14.6496,1531.7355],[-86.8388,14.6302,1197.0068],[-86.8278,14.629,1384.9746],[-86.815,14.63,1671.6825],[-86.8107,14.6254,1653.9672],[-86.8077,14.6131,1337.4814],[-86.8009,14.6103,1355.667],[-86.7899,14.6011,1098.3264],[-86.7801,14.5967,1103.3241],[-86.7737,14.588,1060.9674],[-86.7714,14.577,960.0687],[-86.7551,14.5674,956.8791],[-86.7629,14.5355,1006.4804],[-86.7634,14.5209,967.2131],[-86.7563,14.4995,874.6084],[-86.7438,14.496,891.2599],[-86.7431,14.4802,941.0999],[-86.7475,14.4699,908.3829],[-86.7244,14.4239,929.2078],[-86.7242,14.4191,957.0182],[-86.7271,14.4119,906.9198],[-86.6921,14.4001,1043.36],[-86.6846,14.3993,1000.7686],[-86.6801,14.3917,1065.2036],[-86.6711,14.3886,1110.6565],[-86.6675,14.3894,1054.2123],[-86.6625,14.3991,1237.5326],[-86.6589,14.399,1261.2715],[-86.6552,14.3959,1222.8069],[-86.6491,14.3955,1222.4814],[-86.6469,14.3981,1170.7842],[-86.6443,14.3977,1151.6345],[-86.6417,14.3955,1169.2793],[-86.6399,14.3904,1171.5892],[-86.6285,14.3824,1108.8787],[-86.6278,14.3718,1166.4224],[-86.6224,14.3635,1225.8857],[-86.6152,14.3706,1183.4883],[-86.6114,14.3714,1170.7312],[-86.5367,14.3552,950.3245],[-86.5291,14.3447,797.568],[-86.5266,14.3463,843.2783],[-86.5234,14.3444,801.3176],[-86.5185,14.3308,949.6513],[-86.5156,14.3279,906.0748],[-86.4934,14.3245,933.1188],[-86.4786,14.3246,1061.2627],[-86.4742,14.3158,959.9642],[-86.4621,14.3065,878.2892],[-86.4549,14.2814,659.7415],[-86.3861,14.2769,1113.8722],[-86.3804,14.2748,877.6781],[-86.3704,14.2747,1044.8401],[-86.3635,14.2797,918.7979],[-86.3563,14.2775,1111.0554],[-86.3429,14.2878,903.6542],[-86.3169,14.301,986.692],[-86.3055,14.3132,860.1559],[-86.299,14.3177,859.6066],[-86.2817,14.3219,866.1903],[-86.2754,14.3304,664.1647],[-86.2335,14.3419,462.0861],[-86.1789,14.3456,435.6801],[-86.1438,14.2654,381.9871],[-86.0724,14.2467,553.1458]]]]}
,"properties": {"GID_1": "HND.15_1","GID_0": "HND","country": "Honduras","province": "Olancho","VARNAME_1": "NA","NL_NAME_1": "NA","TYPE_1": "Departamento","ENGTYPE_1": "Department","CC_1": "NA","HASC_1": "HN.OL","ISO_1": "HN-OL","name": "Olancho.province","area_km2": 24352.74,"hist_schema_id": "Elevation0-9000","hist_area_km2": {"50": 1.5,"75": 28.48,"100": 78.54,"125": 153.16,"150": 259.33,"175": 342.58,"200": 357.99,"225": 355.6,"250": 408.55,"275": 484.69,"300": 579.09,"325": 689.08,"350": 797.37,"375": 785.46,"400": 706.04,"425": 666.82,"450": 685.43,"475": 701.16,"500": 734.05,"525": 759.65,"550": 712.8,"575": 656.22,"600": 642.8,"625": 664.63,"650": 638.72,"675": 639.16,"700": 634.82,"725": 630.01,"750": 624.06,"775": 620.17,"800": 606.06,"825": 578.07,"850": 549.0,"875": 524.88,"900": 500.94,"925": 473.18,"950": 439.69,"975": 416.0,"1000": 383.71,"1025": 353.78,"1050": 328.51,"1075": 303.13,"1100": 275.21,"1125": 255.98,"1150": 229.41,"1175": 207.31,"1200": 187.86,"1225": 170.45,"1250": 154.89,"1275": 141.47,"1300": 130.39,"1325": 120.85,"1350": 108.61,"1375": 102.26,"1400": 92.7,"1425": 86.07,"1450": 76.01,"1475": 69.67,"1500": 60.41,"1525": 54.54,"1550": 46.31,"1575": 38.44,"1600": 35.17,"1625": 29.78,"1650": 27.39,"1675": 24.29,"1700": 20.07,"1725": 17.53,"1750": 14.17,"1775": 12.15,"1800": 10.51,"1825": 8.11,"1850": 7.44,"1875": 6.84,"1900": 6.45,"1925": 4.9,"1950": 3.95,"1975": 3.63,"2000": 2.87,"2025": 2.6,"2050": 2.17,"2075": 2.01,"2100": 1.74,"2125": 1.39,"2150": 1.02,"2175": 1.04,"2200": 0.57,"2225": 0.41,"2250": 0.39}}}