{"type":"Feature","properties":{"GID_2":"HND.17.2_1","GID_0":"HND","country":"Honduras","GID_1":"HND.17_1","province":"Valle","NL_NAME_1":"NA","county":"Amapala","VARNAME_2":"NA","NL_NAME_2":"NA","TYPE_2":"Municipio","ENGTYPE_2":"Municipality","CC_2":"NA","HASC_2":"HN.VA.AM","name":"Amapala.county"},
"geometry":{"type": "MultiPolygon","coordinates": [[[[-87.6394,13.2982,10.9412],[-87.6443,13.2982,18.5215],[-87.649,13.2943,0.0],[-87.6513,13.2963,0.0],[-87.6571,13.294,0.0],[-87.6582,13.2915,0.0],[-87.6571,13.2868,9.7303],[-87.6593,13.2865,3.0679],[-87.6615,13.2829,0.0],[-87.6593,13.2813,0.0],[-87.6599,13.2788,2.5636],[-87.6635,13.2768,0.0],[-87.6673,13.2785,0.0],[-87.6679,13.2757,0.0],[-87.6646,13.2757,0.0],[-87.661,13.2713,2.8172],[-87.6632,13.2671,0.0],[-87.6637,13.2607,0.0],[-87.6593,13.251,1.9914],[-87.6521,13.2518,6.05],[-87.6474,13.2482,0.0],[-87.644,13.2493,8.0671],[-87.6332,13.2487,0.0],[-87.6276,13.2518,0.0],[-87.624,13.2518,0.0],[-87.6151,13.2576,0.0],[-87.6137,13.2685,6.6749],[-87.6113,13.2743,0.0],[-87.6171,13.2787,0.0],[-87.6132,13.2823,0.0],[-87.6157,13.2899,1.0903],[-87.6193,13.2918,0.0],[-87.6249,13.2885,3.3927],[-87.6282,13.2938,0.0],[-87.6354,13.2938,0.0],[-87.6394,13.2982,10.9412]]],
[[[-87.7032,13.3156,0.0],[-87.706,13.3151,49.7878],[-87.7057,13.3118,0.0],[-87.6996,13.3143,0.0],[-87.7032,13.3156,0.0]]],
[[[-87.674,13.3301,5.8186],[-87.676,13.3312,0.0],[-87.6807,13.3229,0.0],[-87.6804,13.3188,0.0],[-87.6829,13.3149,28.8327],[-87.6851,13.3143,6.4398],[-87.6837,13.3112,0.0],[-87.6807,13.3101,14.1774],[-87.6813,13.306,28.191],[-87.6793,13.3037,0.0],[-87.6751,13.3076,0.0],[-87.6768,13.3126,0.9922],[-87.6671,13.3174,23.9664],[-87.6679,13.3229,4.5536],[-87.674,13.3301,5.8186]]],
[[[-87.7121,13.3224,0.0],[-87.7132,13.3232,10.4406],[-87.7146,13.321,2.0859],[-87.7135,13.3213,0.0],[-87.7121,13.3224,0.0]]],
[[[-87.7199,13.3254,0.0],[-87.7196,13.3274,3.6723],[-87.7229,13.326,0.0],[-87.7221,13.3243,17.3113],[-87.7199,13.3254,0.0]]],
[[[-87.7146,13.3354,5.7173],[-87.7184,13.3357,0.0],[-87.7204,13.334,7.6202],[-87.7157,13.3276,15.5311],[-87.7112,13.3293,29.5578],[-87.7043,13.3293,10.256],[-87.7085,13.3324,14.1157],[-87.7099,13.336,0.0],[-87.7126,13.3343,0.0],[-87.7146,13.3354,5.7173]]],
[[[-87.6297,13.2979,0.0],[-87.6326,13.2985,0.0],[-87.6326,13.2968,0.0],[-87.6293,13.2963,2.2406],[-87.6297,13.2979,0.0]]],
[[[-87.5957,13.3015,4.6399],[-87.5973,13.3021,0.0],[-87.5976,13.3007,0.8329],[-87.5949,13.2993,0.0],[-87.5951,13.301,4.6399],[-87.5957,13.3015,4.6399]]],
[[[-87.5988,13.3037,0.0],[-87.601,13.3029,0.2084],[-87.5979,13.301,0.8329],[-87.5979,13.3024,0.0],[-87.5988,13.3037,0.0]]],
[[[-87.5957,13.3793,0.0],[-87.6018,13.3799,0.0],[-87.6054,13.3777,0.0],[-87.609,13.3701,9.9689],[-87.6215,13.3643,0.0],[-87.6307,13.3657,2.6728],[-87.6307,13.3676,1.1383],[-87.6346,13.3704,1.9931],[-87.6363,13.3746,0.0],[-87.639,13.3726,0.0],[-87.6432,13.3732,1.6552],[-87.6429,13.3707,6.127],[-87.6457,13.3651,0.9238],[-87.6487,13.3621,0.0],[-87.6532,13.3632,9.1812],[-87.6554,13.3663,0.0],[-87.6568,13.3657,0.0],[-87.6551,13.3621,0.0],[-87.6574,13.3601,0.0],[-87.6571,13.3546,0.0],[-87.6532,13.3501,4.6377],[-87.661,13.3465,0.0],[-87.659,13.3382,0.0],[-87.6599,13.3346,0.0],[-87.6526,13.3268,0.0],[-87.6485,13.3255,35.0674],[-87.646,13.3218,0.0],[-87.646,13.3179,0.0],[-87.6418,13.3179,9.5441],[-87.6393,13.3154,0.0],[-87.6312,13.314,13.4384],[-87.6284,13.3124,0.0],[-87.6271,13.3093,0.0],[-87.6193,13.3093,14.8225],[-87.6162,13.3071,5.4614],[-87.6132,13.3079,0.0],[-87.6107,13.3121,5.3813],[-87.609,13.3121,13.6917],[-87.6082,13.309,2.625],[-87.6062,13.3101,0.0],[-87.6001,13.3093,0.0],[-87.5974,13.3126,4.7618],[-87.596,13.3107,0.0],[-87.5929,13.3107,0.0],[-87.5924,13.309,0.0],[-87.5915,13.3129,2.8292],[-87.5893,13.3112,0.0],[-87.5912,13.3088,0.0],[-87.5896,13.306,4.7279],[-87.5874,13.3065,4.388],[-87.586,13.3051,0.0],[-87.586,13.3079,9.1637],[-87.581,13.3079,2.1765],[-87.5815,13.3154,1.4459],[-87.5804,13.3171,0.0],[-87.5821,13.3193,0.0],[-87.581,13.3213,4.5609],[-87.5768,13.3218,0.0],[-87.5749,13.3249,29.7297],[-87.5749,13.3285,21.6855],[-87.5785,13.3312,0.0],[-87.5785,13.3332,0.7176],[-87.5765,13.3332,0.0],[-87.5788,13.3388,2.2326],[-87.5743,13.3457,1.0872],[-87.5879,13.3504,5.7036],[-87.5943,13.3551,1.4616],[-87.5946,13.3574,1.0319],[-87.5923,13.3587,0.0],[-87.5876,13.3576,1.3095],[-87.5832,13.3615,1.504],[-87.5793,13.3626,3.039],[-87.5743,13.3621,5.3174],[-87.5707,13.3593,0.8069],[-87.5646,13.3593,0.0],[-87.5612,13.3651,0.0],[-87.5651,13.3679,0.0],[-87.5704,13.3676,1.9999],[-87.5724,13.3716,0.0],[-87.569,13.3729,1.4442],[-87.5729,13.3768,0.902],[-87.5818,13.379,0.0],[-87.5885,13.3768,8.7645],[-87.5957,13.3793,0.0]]],
[[[-87.576,13.3613,3.3876],[-87.5813,13.3612,0.0],[-87.586,13.3568,3.9916],[-87.5912,13.3551,1.7647],[-87.5829,13.3499,0.0],[-87.5768,13.3501,0.0],[-87.5738,13.3485,2.4542],[-87.5726,13.3452,1.6043],[-87.5765,13.3401,3.3263],[-87.5746,13.3346,0.0],[-87.564,13.334,0.0],[-87.5546,13.3368,0.0],[-87.5465,13.3371,0.485],[-87.5415,13.3415,0.0],[-87.5415,13.3438,0.0],[-87.5457,13.3463,0.0],[-87.5543,13.3468,1.8305],[-87.5576,13.3488,0.0],[-87.5609,13.3529,2.9998],[-87.5618,13.3582,0.0],[-87.5676,13.3576,1.5466],[-87.576,13.3613,3.3876]]]]}}