{"type": "Feature","bbox": [-88.7754,14.9997,-88.6306,15.1913],"geometry": {"type": "MultiPolygon","coordinates": [[[[-88.7054,15.1605,794.3126],[-88.704,15.1593,766.4514],[-88.7038,15.1401,545.8418],[-88.7004,15.1312,670.9686],[-88.7029,15.1171,550.1835],[-88.7107,15.1094,411.9504],[-88.7103,15.1018,415.5188],[-88.7144,15.0984,420.084],[-88.717,15.0997,419.1007],[-88.7151,15.0954,421.8804],[-88.7164,15.094,421.8804],[-88.7199,15.0951,420.8242],[-88.7184,15.092,424.2506],[-88.7225,15.0942,421.4216],[-88.7229,15.0916,428.0072],[-88.725,15.0907,426.1596],[-88.7246,15.0884,430.1765],[-88.7276,15.0895,434.7402],[-88.7312,15.087,436.1509],[-88.7315,15.0856,436.1509],[-88.7261,15.0836,435.5688],[-88.7301,15.0805,440.4107],[-88.7324,15.0802,446.1354],[-88.734,15.084,435.317],[-88.7445,15.0816,442.6525],[-88.7493,15.0822,438.0835],[-88.7474,15.0785,447.1077],[-88.7495,15.0778,449.0241],[-88.753,15.0711,460.6156],[-88.7584,15.0714,450.8033],[-88.757,15.0667,466.7264],[-88.7619,15.065,445.0634],[-88.7591,15.0645,470.3276],[-88.7593,15.0623,471.7605],[-88.763,15.0614,451.3481],[-88.7631,15.0565,489.2215],[-88.7673,15.056,531.5414],[-88.7754,15.0144,621.5519],[-88.7669,15.0045,588.3956],[-88.7553,15.0066,739.8467],[-88.7457,15.001,677.7233],[-88.7347,14.9997,713.7135],[-88.7315,15.0045,753.5967],[-88.734,15.0063,753.1564],[-88.7327,15.0095,743.8085],[-88.7119,15.0078,816.8549],[-88.7069,15.0204,862.8138],[-88.6704,15.0185,1191.3073],[-88.6691,15.0319,1166.366],[-88.6625,15.0403,1103.1948],[-88.6499,15.0513,985.0001],[-88.6368,15.0532,862.3038],[-88.6316,15.0585,758.6765],[-88.6306,15.0648,919.5641],[-88.6365,15.0727,955.3528],[-88.6388,15.0839,842.9697],[-88.6584,15.1029,993.0788],[-88.6567,15.1146,708.0694],[-88.6577,15.1228,583.2334],[-88.6538,15.1348,519.7906],[-88.6419,15.1424,725.0912],[-88.6499,15.1497,500.5458],[-88.6574,15.1524,430.9708],[-88.664,15.1573,399.1517],[-88.6689,15.1558,398.8767],[-88.6735,15.157,403.2435],[-88.6793,15.1639,439.4968],[-88.6844,15.1769,448.1603],[-88.6848,15.1819,453.1886],[-88.6935,15.1854,594.7455],[-88.6947,15.1896,765.8581],[-88.6982,15.1913,780.3876],[-88.7005,15.1908,801.3191],[-88.7009,15.1876,869.7241],[-88.7099,15.1776,967.0156],[-88.7078,15.1645,797.9407],[-88.7054,15.1605,794.3126]]]]}
,"properties": {"GID_2": "HND.5.12_1","GID_0": "HND","country": "Honduras","GID_1": "HND.5_1","province": "Copán","NL_NAME_1": "NA","county": "NuevaArcadia","VARNAME_2": "NA","NL_NAME_2": "NA","TYPE_2": "Municipio","ENGTYPE_2": "Municipality","CC_2": "NA","HASC_2": "HN.CP.NA","name": "Nueva_Arcadia.county","area_km2": 156.4499,"hist_schema_id": "Elevation0-9000","hist_area_km2": {"400": 5.2599,"425": 12.1993,"450": 14.7593,"475": 11.0544,"500": 9.2327,"525": 8.8236,"550": 9.008,"575": 7.2679,"600": 7.0224,"625": 5.9374,"650": 6.0399,"675": 5.4461,"700": 4.6886,"725": 3.9515,"750": 3.2962,"775": 3.2551,"800": 3.2551,"825": 2.3953,"850": 2.5591,"875": 2.3953,"900": 2.4158,"925": 2.3338,"950": 2.4158,"975": 2.293,"1000": 2.0883,"1025": 1.6174,"1050": 1.3718,"1075": 1.3718,"1100": 1.4947,"1125": 1.7199,"1150": 2.2728,"1175": 1.9247,"1200": 2.2114,"1225": 1.4538,"1250": 0.7372,"1275": 0.3686,"1300": 0.3686,"1325": 0.1433}}}