{"type": "Feature","bbox": [-87.0147,13.4756,-86.7887,13.6554],"geometry": {"type": "MultiPolygon","coordinates": [[[[-86.9377,13.4766,573.35],[-86.9342,13.4784,530.8204],[-86.93,13.4857,644.8645],[-86.9159,13.4902,809.085],[-86.909,13.4973,817.6709],[-86.9057,13.4983,810.6249],[-86.8878,13.4845,996.8828],[-86.8639,13.4842,1066.6511],[-86.8627,13.4868,1047.1675],[-86.8671,13.4993,735.8828],[-86.855,13.5105,427.6313],[-86.8433,13.5243,829.5243],[-86.8244,13.5187,633.1047],[-86.8249,13.5261,724.6052],[-86.828,13.5334,881.8278],[-86.8256,13.538,722.2968],[-86.8096,13.5441,1083.9595],[-86.7952,13.5546,1211.941],[-86.7887,13.5555,1263.5015],[-86.8063,13.5949,769.6373],[-86.8301,13.618,775.7443],[-86.8341,13.62,623.2462],[-86.8398,13.6178,553.1827],[-86.8453,13.6206,417.9655],[-86.8526,13.6171,439.2462],[-86.8565,13.6185,393.8837],[-86.8599,13.6165,319.299],[-86.8656,13.6059,247.0805],[-86.8704,13.6055,247.9078],[-86.8733,13.6071,390.4032],[-86.8764,13.6109,348.5534],[-86.8804,13.6213,253.2897],[-86.8869,13.6212,333.8459],[-86.8887,13.6233,291.4088],[-86.8875,13.6284,252.3379],[-86.8889,13.6341,290.2285],[-86.8841,13.6395,227.2361],[-86.8849,13.6421,228.5912],[-86.8869,13.6415,225.5122],[-86.8903,13.6436,316.0636],[-86.8898,13.6498,275.0919],[-86.8967,13.6482,313.443],[-86.9047,13.6437,481.6724],[-86.9255,13.6442,559.5072],[-86.9285,13.6528,831.5557],[-86.9306,13.6554,931.8168],[-86.9323,13.655,931.8168],[-86.935,13.6376,831.4361],[-86.9336,13.6291,609.0645],[-86.943,13.6109,464.3159],[-86.9614,13.5911,529.4899],[-86.9716,13.5861,712.7786],[-86.976,13.5801,1046.5376],[-86.9935,13.5794,938.5897],[-87.0014,13.5716,953.3693],[-87.0059,13.5696,942.6663],[-87.0107,13.5638,762.8731],[-87.0086,13.5574,822.0183],[-87.0087,13.5479,878.0858],[-87.0105,13.5432,786.8442],[-87.0147,13.5399,758.316],[-87.0077,13.5248,571.3473],[-86.9973,13.514099999999999,206.967],[-86.9936,13.508,284.0709],[-86.9677,13.4855,286.6021],[-86.9382,13.4756,573.35],[-86.9377,13.4766,573.35]]]]}
,"properties": {"GID_2": "HND.2.8_1","GID_0": "HND","country": "Honduras","GID_1": "HND.2_1","province": "Choluteca","NL_NAME_1": "NA","county": "Morolica","VARNAME_2": "NA","NL_NAME_2": "NA","TYPE_2": "Municipio","ENGTYPE_2": "Municipality","CC_2": "NA","HASC_2": "HN.CH.MO","name": "Morolica.county","area_km2": 276.2753,"hist_schema_id": "Elevation0-9000","hist_area_km2": {"125": 0.536,"150": 1.6903,"175": 5.2353,"200": 9.4807,"225": 10.4081,"250": 9.0892,"275": 11.3357,"300": 11.1295,"325": 11.315,"350": 11.7684,"375": 10.8616,"400": 11.3976,"425": 11.7481,"450": 12.2223,"475": 10.9652,"500": 11.9134,"525": 11.5219,"550": 9.3784,"575": 8.1623,"600": 8.1212,"625": 6.4929,"650": 5.9776,"675": 5.6686,"700": 5.9161,"725": 5.2358,"750": 5.6686,"775": 5.9573,"800": 6.2459,"825": 6.6582,"850": 4.3491,"875": 3.1949,"900": 2.9269,"925": 3.3185,"950": 4.1017,"975": 4.8437,"1000": 3.6894,"1025": 2.2467,"1050": 2.1643,"1075": 1.1131,"1100": 0.4122,"1125": 0.371,"1150": 0.3092,"1175": 0.1855,"1200": 0.371,"1225": 0.371,"1250": 0.1855,"1275": 0.0206}}}