{"type":"Feature","properties":{"GID_2":"HND.16.10_1","GID_0":"HND","country":"Honduras","GID_1":"HND.16_1","province":"SantaBárbara","NL_NAME_1":"NA","county":"Ilama","VARNAME_2":"NA","NL_NAME_2":"NA","TYPE_2":"Municipio","ENGTYPE_2":"Municipality","CC_2":"NA","HASC_2":"HN.SB.IL","name":"Ilama.county"},
"geometry":{"type": "MultiPolygon","coordinates": [[[[-88.0916,15.0898,966.5823],[-88.1093,15.0746,1323.3044],[-88.1619,15.0708,408.5093],[-88.1666,15.0711,330.1298],[-88.1748,15.075,301.3048],[-88.1877,15.0861,305.1087],[-88.1975,15.0904,127.9265],[-88.1993,15.0892,177.3259],[-88.1992,15.0871,201.1304],[-88.1932,15.0808,160.3799],[-88.1931,15.0784,227.4778],[-88.1981,15.0744,379.8309],[-88.1994,15.0682,376.0211],[-88.2075,15.0657,257.04],[-88.2113,15.061,379.525],[-88.2163,15.0581,246.4453],[-88.2183,15.0534,342.1155],[-88.2167,15.0499,378.6877],[-88.2216,15.046,288.1881],[-88.2232,15.042,233.4972],[-88.23,15.0404,169.3819],[-88.2313,15.0227,126.3992],[-88.2262,15.0168,133.8752],[-88.1908,15.0121,439.4005],[-88.1549,15.0004,1050.4127],[-88.1294,15.0053,896.7224],[-88.1145,14.9823,1241.1376],[-88.0869,14.9829,1277.8771],[-88.0599,14.9794,864.3757],[-88.0405,14.9811,587.2281],[-88.0312,14.99,663.0823],[-88.0291,15.0333,563.7015],[-88.0233,15.0409,537.9525],[-88.0212,15.0492,607.4443],[-88.0216,15.0536,502.9848],[-88.029,15.0585,545.4669],[-88.0346,15.0672,429.6514],[-88.0609,15.0703,632.3865],[-88.065,15.0774,697.0765],[-88.079,15.078,975.4734],[-88.0845,15.0848,953.0808],[-88.0916,15.0898,966.5823]]]]}}