{"type": "Feature","bbox": [-87.1979,15.2565,-86.2241,15.5985],"geometry": {"type": "MultiPolygon","coordinates": [[[[-87.0153,15.5447,927.3608],[-87.0184,15.5468,1004.5892],[-87.02,15.5506,994.801],[-87.0264,15.5461,602.3487],[-87.0317,15.5383,612.9163],[-87.0358,15.5356,829.6075],[-87.0443,15.5223,1126.031],[-87.0558,15.5166,1247.3473],[-87.0621,15.5117,897.0846],[-87.0644,15.507,680.6432],[-87.0712,15.506,629.4159],[-87.0773,15.5031,424.9971],[-87.0777,15.497,501.1569],[-87.0846,15.4916,575.5491],[-87.0829,15.4812,733.1852],[-87.0862,15.4785,815.1469],[-87.1097,15.4653,1087.3464],[-87.1265,15.4643,835.6681],[-87.1412,15.4483,818.4166],[-87.1591,15.447,746.507],[-87.1697,15.4477,782.3015],[-87.1793,15.4506,630.3846],[-87.1852,15.4501,752.4843],[-87.1979,15.4336,1544.2012],[-87.1748,15.3986,1130.2831],[-87.1409,15.3749,773.0635],[-87.1393,15.3695,946.2271],[-87.1423,15.3656,1014.5748],[-87.1421,15.336,407.1714],[-87.1221,15.3293,427.5642],[-87.1199,15.3254,464.0924],[-87.1191,15.3285,451.2438],[-87.1171,15.3297,507.0468],[-87.1186,15.333,563.933],[-87.1164,15.3416,686.8975],[-87.1205,15.3513,859.7507],[-87.1153,15.3527,956.4778],[-87.1102,15.3568,1034.2849],[-87.1086,15.361,1187.2788],[-87.1044,15.3636,1135.9993],[-87.1032,15.3678,957.8708],[-87.0967,15.3653,811.5514],[-87.0937,15.3679,657.402],[-87.0887,15.3658,590.0826],[-87.0812,15.3693,499.3898],[-87.0774,15.3621,471.9046],[-87.0715,15.3619,536.9891],[-87.0687,15.3649,609.7715],[-87.0633,15.3587,868.6945],[-87.0586,15.3624,710.3518],[-87.0563,15.3568,1019.775],[-87.0511,15.3566,880.8688],[-87.0469,15.3613,752.1777],[-87.0395,15.3601,650.7896],[-87.0399,15.373,307.7095],[-87.0319,15.3727,296.3136],[-87.0276,15.3871,332.6663],[-87.0243,15.3892,361.2957],[-87.0204,15.3887,424.5487],[-87.0199,15.3829,438.8158],[-87.0106,15.3828,382.0532],[-86.9917,15.3738,281.2374],[-86.9766,15.3759,406.0143],[-86.9613,15.3841,238.4049],[-86.9536,15.3838,236.1181],[-86.9505,15.3883,233.2751],[-86.9429,15.3818,231.0025],[-86.9304,15.38,236.2986],[-86.9251,15.3828,222.8121],[-86.9191,15.383,229.9789],[-86.9146,15.3884,214.1395],[-86.9058,15.3936,217.1938],[-86.8968,15.3909,210.3034],[-86.8925,15.3933,210.4077],[-86.8807,15.3943,202.0594],[-86.8788,15.3963,201.1767],[-86.8727,15.3966,199.7669],[-86.8664,15.3995,196.2602],[-86.8616,15.3948,205.9917],[-86.8565,15.3946,196.1381],[-86.8532,15.389,220.8223],[-86.8335,15.3929,194.7242],[-86.8297,15.3888,208.0156],[-86.8236,15.3876,209.1362],[-86.8192,15.3911,185.8415],[-86.8136,15.391,182.5724],[-86.8057,15.3939,179.7009],[-86.7985,15.3903,194.4761],[-86.7926,15.3923,179.5304],[-86.7869,15.3908,182.938],[-86.7804,15.4009,172.1076],[-86.7794,15.4089,170.6135],[-86.7763,15.4089,169.9326],[-86.772,15.4114,167.966],[-86.7678,15.4107,167.8554],[-86.7633,15.4135,164.3175],[-86.7498,15.415,157.5219],[-86.7442,15.4183,157.8899],[-86.7347,15.4174,153.032],[-86.7234,15.4077,154.2735],[-86.7257,15.4069,155.0165],[-86.7283,15.403,153.9368],[-86.7328,15.4024,160.3195],[-86.7322,15.3972,154.5505],[-86.7365,15.3974,169.4444],[-86.7419,15.3952,159.4948],[-86.7464,15.3901,160.5296],[-86.7539,15.3903,164.0398],[-86.7597,15.3852,163.8077],[-86.7656,15.3853,167.789],[-86.767,15.3818,186.9962],[-86.7638,15.3786,190.9656],[-86.7644,15.3759,190.7307],[-86.7688,15.3785,189.1942],[-86.7718,15.376,190.4312],[-86.7748,15.3759,193.016],[-86.7764,15.3778,194.7332],[-86.7757,15.3827,184.2092],[-86.7808,15.3813,191.4569],[-86.7861,15.37,235.6718],[-86.7852,15.356,344.3755],[-86.7807,15.348,480.8246],[-86.7843,15.3329,552.3134],[-86.7893,15.3311,556.5648],[-86.7974,15.3336,842.0786],[-86.7966,15.327,795.2639],[-86.8036,15.3243,687.0714],[-86.8064,15.3215,797.7685],[-86.8078,15.3116,992.5728],[-86.8112,15.3056,898.8492],[-86.8102,15.3026,888.4446],[-86.8052,15.2984,889.6274],[-86.8048,15.2941,819.5651],[-86.8006,15.2905,708.0638],[-86.8026,15.2876,553.2222],[-86.7942,15.2839,412.9282],[-86.7935,15.2815,314.2526],[-86.7895,15.282,316.2133],[-86.7868,15.2792,373.4552],[-86.7857,15.2703,653.4959],[-86.7795,15.262,902.7117],[-86.7627,15.2572,863.1031],[-86.7573,15.2571,614.9583],[-86.7554,15.2588,552.0381],[-86.7535,15.2573,601.374],[-86.7471,15.2598,683.813],[-86.7286,15.2565,709.3208],[-86.7007,15.273,1340.1071],[-86.692,15.2754,1360.4777],[-86.6907,15.2846,1357.2487],[-86.6801,15.2946,1222.8998],[-86.6765,15.2954,1218.4174],[-86.6776,15.2999,1274.0818],[-86.6742,15.3101,956.81],[-86.6741,15.3208,797.7563],[-86.6755,15.3254,790.9206],[-86.6741,15.3286,566.267],[-86.6584,15.3338,990.3914],[-86.6521,15.329,951.9347],[-86.644,15.3286,808.5298],[-86.6321,15.3351,978.0126],[-86.6258,15.3442,926.472],[-86.5976,15.3564,1032.7014],[-86.5913,15.3606,1049.8529],[-86.5785,15.3613,1278.7903],[-86.573,15.3692,1046.0112],[-86.5537,15.3786,914.9951],[-86.5487,15.383,845.1896],[-86.5441,15.3819,754.3087],[-86.5381,15.3837,739.4015],[-86.5322,15.3783,785.0826],[-86.5311,15.3805,851.5419],[-86.5236,15.3839,745.3744],[-86.5228,15.3866,619.2562],[-86.5089,15.3893,431.8269],[-86.5063,15.3919,448.7368],[-86.5082,15.398,556.5325],[-86.5072,15.399,664.5817],[-86.5009,15.3966,460.905],[-86.4959,15.3971,347.3333],[-86.4917,15.3937,236.9206],[-86.4882,15.3944,216.7496],[-86.471,15.3897,543.2444],[-86.4671,15.3829,618.4932],[-86.4664,15.3771,354.9619],[-86.4596,15.372,352.9965],[-86.4613,15.3669,431.4622],[-86.4571,15.3672,356.3745],[-86.4585,15.3638,360.9532],[-86.4498,15.3643,426.185],[-86.448,15.3613,396.8925],[-86.4437,15.3601,452.6891],[-86.4421,15.3604,504.9658],[-86.4412,15.364,583.4314],[-86.4383,15.363,721.2491],[-86.4375,15.3605,607.481],[-86.4328,15.3576,714.9876],[-86.4306,15.3541,756.5437],[-86.4287,15.3442,745.9897],[-86.4249,15.3396,721.9434],[-86.4246,15.3312,661.8502],[-86.4191,15.3237,786.4329],[-86.4192,15.3182,881.6455],[-86.4167,15.3156,1094.7069],[-86.4125,15.3152,1199.0352],[-86.3971,15.3186,1236.0695],[-86.3624,15.3365,1320.5887],[-86.3405,15.3508,836.3059],[-86.3238,15.3584,901.139],[-86.2939,15.3762,1122.5754],[-86.2883,15.379,958.3554],[-86.2827,15.379,1033.943],[-86.2309,15.4114,1331.0942],[-86.2301,15.4423,892.0783],[-86.2393,15.4536,431.605],[-86.2345,15.4616,477.6183],[-86.2286,15.4624,439.4089],[-86.2264,15.4648,546.4079],[-86.2315,15.4773,200.3855],[-86.2265,15.4817,216.487],[-86.229,15.4902,120.1215],[-86.2242,15.5007,104.0494],[-86.2241,15.5051,98.2816],[-86.2278,15.5086,90.0876],[-86.2291,15.514,83.3372],[-86.2359,15.5265,66.6135],[-86.2341,15.5299,64.7959],[-86.2277,15.5328,61.8278],[-86.2497,15.5312,67.4649],[-86.2472,15.5233,63.1147],[-86.2512,15.522,65.8781],[-86.2577,15.5287,69.3827],[-86.2597,15.5281,69.8483],[-86.2606,15.5248,68.7147],[-86.2625,15.5275,69.8526],[-86.2686,15.5306,71.3599],[-86.2692,15.5358,71.1526],[-86.2767,15.5365,78.2912],[-86.2794,15.5404,80.3561],[-86.2927,15.5397,89.0745],[-86.2964,15.5412,136.6111],[-86.2978,15.5437,111.2551],[-86.3031,15.5424,99.7106],[-86.3048,15.5441,100.435],[-86.3121,15.5441,111.7423],[-86.3127,15.5474,182.6639],[-86.3141,15.548,168.5355],[-86.3182,15.545,130.0983],[-86.3212,15.5485,122.1685],[-86.3267,15.5471,246.7832],[-86.348,15.5464,243.4822],[-86.3507,15.5449,253.963],[-86.3593,15.5465,306.2052],[-86.3601,15.5443,283.6792],[-86.3643,15.5437,239.7511],[-86.3667,15.5395,232.3042],[-86.3946,15.5367,272.9216],[-86.4009,15.5407,236.0086],[-86.4016,15.5452,292.8719],[-86.4038,15.5476,387.2508],[-86.4179,15.5546,470.3082],[-86.4336,15.5674,405.3888],[-86.4708,15.5786,925.262],[-86.4826,15.5796,753.4496],[-86.4911,15.5857,971.3987],[-86.5011,15.5887,1284.7809],[-86.5115,15.5891,1283.9365],[-86.5145,15.5836,1379.2915],[-86.5207,15.5844,1266.5795],[-86.5256,15.5825,1209.304],[-86.5311,15.5838,1115.8018],[-86.5403,15.5791,941.0369],[-86.5474,15.5811,906.7616],[-86.548,15.5779,858.4317],[-86.5518,15.5768,853.494],[-86.5546,15.5781,935.2006],[-86.5617,15.5868,1229.5287],[-86.5644,15.5877,1333.0615],[-86.5832,15.5868,1557.5605],[-86.6038,15.5816,1234.084],[-86.6696,15.5985,660.7484],[-86.7256,15.5776,628.0202],[-86.7608,15.5548,969.192],[-86.7883,15.5474,1301.8997],[-86.791,15.5462,1374.6072],[-86.7924,15.5424,1229.7169],[-86.7959,15.5407,1269.6147],[-86.8008,15.542,1337.2593],[-86.8047,15.5406,1382.8673],[-86.8081,15.5428,1432.0365],[-86.8316,15.5461,1900.9535],[-86.8359,15.5527,2025.5991],[-86.8401,15.5534,2029.334],[-86.8452,15.5521,1975.9952],[-86.8589,15.54,1647.7063],[-86.8728,15.5474,1802.8762],[-86.8829,15.5463,1712.0693],[-86.8831,15.5561,1979.7571],[-86.8855,15.5636,2123.0139],[-86.8923,15.5648,1878.6216],[-86.9027,15.5575,2131.2822],[-86.9106,15.5564,1999.6132],[-86.9154,15.5581,1853.4387],[-86.9305,15.5529,1472.9709],[-86.9343,15.5528,1434.5463],[-86.9418,15.5573,1185.3334],[-86.9624,15.5426,1219.2657],[-86.9992,15.5443,1076.4351],[-87.0054,15.5424,1026.7471],[-87.0153,15.5447,927.3608]]]]}
,"properties": {"GID_2": "HND.18.6_1","GID_0": "HND","country": "Honduras","GID_1": "HND.18_1","province": "Yoro","NL_NAME_1": "NA","county": "Olanchito","VARNAME_2": "NA","NL_NAME_2": "NA","TYPE_2": "Municipio","ENGTYPE_2": "Municipality","CC_2": "NA","HASC_2": "HN.YO.OL","name": "Olanchito.county","area_km2": 2152.118,"hist_schema_id": "Elevation0-9000","hist_area_km2": {"50": 0.245,"75": 52.67,"100": 90.089,"125": 86.378,"150": 103.713,"175": 96.688,"200": 85.163,"225": 76.621,"250": 72.022,"275": 58.94,"300": 47.618,"325": 44.123,"350": 44.185,"375": 43.245,"400": 42.796,"425": 41.569,"450": 39.137,"475": 41.263,"500": 41.549,"525": 40.895,"550": 41.284,"575": 40.568,"600": 42.49,"625": 42.796,"650": 41.324,"675": 41.672,"700": 39.709,"725": 39.955,"750": 37.421,"775": 37.89,"800": 36.235,"825": 33.026,"850": 31.656,"875": 30.082,"900": 28.263,"925": 27.201,"950": 27.239,"975": 25.421,"1000": 24.909,"1025": 26.053,"1050": 24.785,"1075": 24.049,"1100": 23.825,"1125": 21.597,"1150": 19.574,"1175": 19.778,"1200": 17.674,"1225": 15.569,"1250": 14.466,"1275": 13.567,"1300": 12.852,"1325": 11.728,"1350": 12.178,"1375": 10.462,"1400": 9.419,"1425": 7.908,"1450": 7.519,"1475": 5.251,"1500": 4.27,"1525": 3.351,"1550": 2.983,"1575": 2.533,"1600": 2.063,"1625": 2.084,"1650": 1.798,"1675": 1.736,"1700": 1.348,"1725": 1.226,"1750": 1.328,"1775": 1.266,"1800": 0.94,"1825": 0.878,"1850": 0.674,"1875": 0.817,"1900": 0.633,"1925": 0.592,"1950": 0.552,"1975": 0.572,"2000": 0.511,"2025": 0.47,"2050": 0.347,"2075": 0.449,"2100": 0.429,"2125": 0.327,"2150": 0.388,"2175": 0.245,"2200": 0.327,"2225": 0.306,"2250": 0.184,"2275": 0.041,"2300": 0.143}}}