{"type": "Feature","bbox": [-84.9977,14.9452,-83.8896,17.4176],"geometry": {"type": "MultiPolygon","coordinates": [[[[-84.994,15.0199,197.3846],[-84.9948,15.0214,181.1606],[-84.996,14.9606,60.4434],[-84.9872,14.9536,175.637],[-84.9765,14.9525,256.5589],[-84.9765,14.9547,194.7813],[-84.9799,14.9566,103.448],[-84.9865,14.9665,84.1634],[-84.9863,14.9711,78.1033],[-84.9822,14.977,91.4323],[-84.9841,14.9847,78.0644],[-84.979,14.9898,97.2988],[-84.9782,14.9935,96.5341],[-84.9787,14.9958,91.735],[-84.9864,15.0021,102.959],[-84.9811,15.0051,77.6478],[-84.9809,15.0079,91.1757],[-84.9829,15.0103,92.8259],[-84.9822,15.0131,68.811],[-84.9855,15.0185,87.3279],[-84.9885,15.0132,114.5973],[-84.993,15.0126,144.6955],[-84.9928,15.0191,197.3846],[-84.994,15.0199,197.3846]]],
[[[-84.9894,15.8475,8.6564],[-84.9977,15.8486,14.9104],[-84.9977,15.8469,12.7344],[-84.9801,15.8442,9.9331],[-84.9767,15.85,7.1785],[-84.9777,15.8586,6.2918],[-84.974,15.8594,6.4555],[-84.96,15.8575,54.0145],[-84.9559,15.8584,90.7728],[-84.9519,15.8618,7.3325],[-84.9523,15.8687,5.4095],[-84.9593,15.8707,7.732],[-84.9594,15.8751,7.4098],[-84.9502,15.8766,7.1249],[-84.9412,15.8831,9.5542],[-84.9325,15.8847,16.0033],[-84.9142,15.8942,9.0528],[-84.9118,15.9034,10.983],[-84.9046,15.9041,9.4955],[-84.9017,15.9074,7.9016],[-84.9018,15.9101,7.8953],[-84.9044,15.9143,15.5247],[-84.9175,15.916,6.6759],[-84.9173,15.9191,4.5658],[-84.9025,15.9195,8.996],[-84.8993,15.9211,9.9382],[-84.8968,15.9264,9.5939],[-84.8861,15.928,8.6232],[-84.8572,15.9164,1.625],[-84.8567,15.8841,5.9825],[-84.8604,15.8729,12.1645],[-84.8562,15.8527,13.567],[-84.8507,15.8465,4.9251],[-84.8434,15.8331,11.9488],[-84.838,15.8163,3.2524],[-84.8377,15.8099,6.1762],[-84.8276,15.794,28.7493],[-84.8242,15.7796,19.4486],[-84.8201,15.7701,22.2589],[-84.8203,15.7637,16.7753],[-84.8162,15.7571,14.4098],[-84.813,15.7389,60.3575],[-84.8085,15.7261,13.3289],[-84.8087,15.7131,19.8196],[-84.813,15.7022,18.704],[-84.8087,15.6986,33.7369],[-84.8037,15.6986,54.5497],[-84.8059,15.697,34.7332],[-84.8058,15.694,47.0654],[-84.8085,15.6905,50.6976],[-84.8186,15.6875,43.023],[-84.8186,15.6856,48.349],[-84.8148,15.6825,35.8494],[-84.8241,15.6763,55.0676],[-84.8253,15.6651,46.5581],[-84.8273,15.6607,45.7744],[-84.831,15.6639,37.8332],[-84.8391,15.6632,39.4983],[-84.842,15.6691,40.6168],[-84.8449,15.67,32.0348],[-84.8512,15.6583,62.297],[-84.858,15.6608,57.7984],[-84.8623,15.6572,48.9307],[-84.8666,15.6614,75.875],[-84.8732,15.6728,43.9029],[-84.8774,15.6723,26.2193],[-84.8848,15.6605,165.7546],[-84.8848,15.6571,107.0493],[-84.8808,15.6495,109.5291],[-84.8857,15.6478,101.1044],[-84.8939,15.6404,70.9706],[-84.9013,15.6382,69.0102],[-84.9054,15.6319,82.0928],[-84.9052,15.6166,85.4238],[-84.9122,15.6097,83.2702],[-84.9115,15.5992,111.1225],[-84.9233,15.5916,352.4665],[-84.9272,15.5908,189.0055],[-84.9346,15.5959,81.5952],[-84.9383,15.6036,70.873],[-84.9406,15.6054,85.9379],[-84.9429,15.6047,55.2795],[-84.943,15.6012,97.4197],[-84.9477,15.6007,245.7964],[-84.9435,15.5913,245.2827],[-84.9444,15.5822,187.9165],[-84.9463,15.5806,220.422],[-84.9492,15.5813,288.3647],[-84.9501,15.579,269.1341],[-84.9564,15.5804,198.4449],[-84.9583,15.5746,131.8455],[-84.964,15.5736,152.4699],[-84.9675,15.5712,198.8607],[-84.967,15.5693,213.7062],[-84.9511,15.5646,280.529],[-84.9531,15.5598,292.1534],[-84.9519,15.5551,276.3677],[-84.9551,15.553,338.4403],[-84.9616,15.5527,271.5243],[-84.9628,15.5502,261.3515],[-84.9674,15.5521,234.9723],[-84.974,15.5511,206.3936],[-84.976,15.5494,195.7843],[-84.9761,15.5433,167.1526],[-84.9794,15.5383,177.4232],[-84.9763,15.5329,144.3198],[-84.9744,15.5179,124.8593],[-84.9703,15.508,178.8587],[-84.9675,15.5067,174.4023],[-84.9687,15.5014,134.5221],[-84.965,15.4973,174.0741],[-84.9686,15.4929,121.1365],[-84.9666,15.4908,151.6584],[-84.9616,15.49,157.3768],[-84.9615,15.4858,216.8392],[-84.9595,15.4838,196.5331],[-84.9498,15.4825,209.2846],[-84.9482,15.4803,268.5571],[-84.9455,15.4801,269.5555],[-84.946,15.4757,181.645],[-84.9539,15.463,303.7476],[-84.9592,15.4591,336.4364],[-84.9662,15.4614,214.5683],[-84.9681,15.4578,233.0508],[-84.9703,15.457,188.629],[-84.9789,15.462,205.7943],[-84.9961,15.4635,232.4648],[-84.9948,15.0214,181.1606],[-84.9917,15.0209,203.9384],[-84.9913,15.0153,134.0445],[-84.9883,15.0153,121.3597],[-84.9847,15.0206,93.5828],[-84.9833,15.0162,85.5136],[-84.9795,15.0138,81.3219],[-84.9788,15.006,93.1533],[-84.9824,15.0011,89.999],[-84.9757,14.9943,105.8393],[-84.9771,14.9887,98.074],[-84.9811,14.9839,109.2608],[-84.98,14.9763,92.796],[-84.9855,14.969,76.5898],[-84.9848,14.9653,60.4098],[-84.9786,14.9574,77.5537],[-84.9749,14.9556,127.5998],[-84.9508,14.9554,70.2594],[-84.9491,14.9478,159.8222],[-84.9467,14.9452,251.1084],[-84.9426,14.9468,387.3292],[-84.9266,14.9616,358.3848],[-84.9075,14.9885,444.2054],[-84.9057,14.9916,324.9849],[-84.9033,15.0109,78.6316],[-84.8997,15.0126,80.9043],[-84.8899,15.0131,92.5158],[-84.8801,15.0114,449.6158],[-84.879,15.0154,251.8547],[-84.8826,15.021,77.2801],[-84.8829,15.0245,67.3441],[-84.8673,15.0351,91.1546],[-84.8577,15.0358,66.5156],[-84.8408,15.03,346.838],[-84.8393,15.0313,271.2029],[-84.8387,15.0382,181.638],[-84.8278,15.0412,66.5159],[-84.8289,15.0514,59.1866],[-84.8276,15.0541,44.0],[-84.8138,15.0608,63.3894],[-84.8109,15.0722,71.2769],[-84.7918,15.0704,61.265],[-84.7617,15.0718,80.7493],[-84.7543,15.0769,54.2503],[-84.7442,15.08,57.5743],[-84.7317,15.088,51.7612],[-84.7167,15.1017,58.1497],[-84.7049,15.109,69.1375],[-84.6873,15.1262,38.0],[-84.6822,15.1259,51.2603],[-84.6765,15.1134,62.5656],[-84.6616,15.112,54.1066],[-84.6551,15.1082,44.9746],[-84.6521,15.1084,98.4542],[-84.6513,15.1111,57.3206],[-84.6564,15.1181,46.9316],[-84.6512,15.1323,48.5418],[-84.6453,15.1343,44.143],[-84.6342,15.1298,52.6082],[-84.627,15.1326,52.935],[-84.6228,15.1364,52.4938],[-84.6215,15.1447,56.6687],[-84.6247,15.1523,33.8576],[-84.6207,15.1631,46.7764],[-84.6198,15.17,44.0507],[-84.6211,15.1716,43.1246],[-84.6295,15.1695,40.1316],[-84.6366,15.171,39.6283],[-84.6368,15.1751,36.5569],[-84.6323,15.1842,38.3881],[-84.6348,15.186,40.0531],[-84.6419,15.1854,32.0],[-84.6431,15.1893,38.4212],[-84.6419,15.1923,39.2724],[-84.6347,15.197,38.5347],[-84.6242,15.197,48.7599],[-84.6238,15.2024,52.9273],[-84.6272,15.2166,36.222],[-84.6233,15.2232,38.8216],[-84.6193,15.2249,36.7306],[-84.616,15.2236,48.352],[-84.6115,15.2199,39.103],[-84.611,15.2129,34.551],[-84.6082,15.2121,43.5667],[-84.6064,15.2141,45.57],[-84.6063,15.2239,38.3132],[-84.6087,15.2333,35.1816],[-84.6005,15.243,37.0519],[-84.6027,15.2466,34.3766],[-84.6101,15.2432,30.4649],[-84.6162,15.2448,38.2778],[-84.6166,15.2494,33.455],[-84.6128,15.2531,32.2273],[-84.6163,15.2601,26.0],[-84.6136,15.272,34.1489],[-84.6019,15.2858,34.9682],[-84.5941,15.2911,33.4059],[-84.591,15.3019,35.5918],[-84.5854,15.303,39.5],[-84.5693,15.2993,45.3421],[-84.5672,15.2998,50.0739],[-84.5631,15.305,37.0918],[-84.5626,15.3117,38.1021],[-84.5688,15.313,35.1226],[-84.5733,15.3178,38.8579],[-84.5671,15.3259,29.6918],[-84.5726,15.3291,30.8276],[-84.5737,15.3349,21.5],[-84.5645,15.3396,23.624],[-84.5581,15.3473,26.8295],[-84.56,15.355,19.5],[-84.5573,15.3595,27.1003],[-84.5519,15.3579,30.9606],[-84.5464,15.352,27.0293],[-84.5447,15.3522,34.7358],[-84.5438,15.3544,32.3254],[-84.5469,15.3589,21.9642],[-84.5568,15.3617,26.2225],[-84.5576,15.3653,25.0687],[-84.5565,15.3683,19.5673],[-84.5504,15.3698,21.4069],[-84.544,15.3657,29.7286],[-84.5403,15.3651,39.4383],[-84.5286,15.3684,24.4547],[-84.5201,15.3641,23.498],[-84.5124,15.3681,43.0999],[-84.5062,15.3679,24.8574],[-84.5049,15.3708,28.5276],[-84.5061,15.3806,21.941],[-84.5043,15.3867,25.8096],[-84.5125,15.3936,21.5221],[-84.5119,15.4051,24.4512],[-84.5158,15.407,23.4904],[-84.5155,15.4008,26.0046],[-84.5169,15.4003,22.9829],[-84.519,15.4033,20.4255],[-84.5188,15.4061,23.3685],[-84.5154,15.4117,19.3432],[-84.5117,15.4128,23.1048],[-84.5046,15.4088,21.5819],[-84.4966,15.4078,17.1374],[-84.4906,15.4025,24.0693],[-84.4855,15.4021,23.4616],[-84.4833,15.4034,26.8546],[-84.4831,15.4071,21.1165],[-84.4872,15.4186,20.5957],[-84.4971,15.4222,28.9022],[-84.4992,15.4267,29.4921],[-84.4951,15.4322,22.5299],[-84.4847,15.4295,17.2679],[-84.479,15.4238,24.1615],[-84.4774,15.4135,19.2032],[-84.4738,15.4142,19.5896],[-84.467,15.423,19.3425],[-84.4668,15.4285,18.9095],[-84.4714,15.4317,26.9394],[-84.4821,15.4301,20.5588],[-84.4871,15.4324,19.9303],[-84.4889,15.4349,19.4075],[-84.4867,15.4404,15.3757],[-84.4805,15.4466,28.3792],[-84.4627,15.4457,13.0119],[-84.4591,15.4398,22.7331],[-84.459,15.4322,17.3475],[-84.4559,15.4332,17.1186],[-84.4528,15.4381,19.2281],[-84.4476,15.4412,17.6331],[-84.4342,15.4381,15.615],[-84.4346,15.4404,15.4531],[-84.4427,15.4421,16.443],[-84.4474,15.4467,18.9118],[-84.4465,15.4518,11.7462],[-84.4428,15.4574,30.7941],[-84.4441,15.4673,9.5],[-84.4401,15.4713,30.6869],[-84.4358,15.4711,28.0228],[-84.4211,15.4758,25.3602],[-84.4125,15.4743,23.2753],[-84.4008,15.4693,15.7562],[-84.3882,15.4818,14.2713],[-84.389,15.4839,15.3103],[-84.4008,15.4835,14.2798],[-84.4016,15.4857,15.032],[-84.4001,15.4889,11.9838],[-84.3958,15.4912,11.8236],[-84.3837,15.4922,15.1051],[-84.3812,15.4953,17.0431],[-84.3808,15.4994,12.6489],[-84.3742,15.5023,8.8756],[-84.3704,15.507,11.518],[-84.367,15.5048,10.0465],[-84.3613,15.4909,13.4804],[-84.3579,15.4929,20.2518],[-84.3574,15.5025,11.0768],[-84.3625,15.5076,12.3509],[-84.3629,15.511,13.1618],[-84.3566,15.5151,11.523],[-84.351,15.5159,18.0761],[-84.3516,15.5186,20.4714],[-84.3571,15.5227,4.5],[-84.3563,15.5253,13.501],[-84.3501,15.5293,12.3684],[-84.3494,15.5361,17.3148],[-84.3523,15.5431,9.0229],[-84.3574,15.5447,14.0821],[-84.3734,15.5433,6.7863],[-84.3829,15.5325,8.9659],[-84.3868,15.5345,12.6574],[-84.388,15.5374,14.763],[-84.3865,15.5421,12.7248],[-84.3762,15.5488,10.1038],[-84.3663,15.5627,13.6693],[-84.3679,15.5691,6.7143],[-84.3739,15.5736,10.5848],[-84.3757,15.5786,8.8235],[-84.3741,15.5808,9.6485],[-84.3663,15.5811,2.5],[-84.3653,15.5824,9.2859],[-84.3771,15.5856,10.1802],[-84.3788,15.5881,9.2309],[-84.3765,15.5907,2.0],[-84.365,15.5955,7.6579],[-84.3634,15.598,21.2554],[-84.377,15.5969,8.8477],[-84.3799,15.6009,9.8411],[-84.3787,15.6103,15.7954],[-84.3842,15.6123,9.5613],[-84.3852,15.6153,19.4134],[-84.3795,15.6204,5.2484],[-84.3675,15.6221,20.5856],[-84.3693,15.6248,24.4652],[-84.378,15.6302,9.471],[-84.3919,15.6294,11.9359],[-84.3953,15.6329,14.3263],[-84.3955,15.6357,8.2602],[-84.3908,15.6404,17.3889],[-84.3783,15.6451,9.295],[-84.3699,15.6556,14.2316],[-84.3561,15.6548,12.7778],[-84.3558,15.6601,12.7014],[-84.3586,15.6624,4.1887],[-84.3623,15.662,10.2606],[-84.3722,15.6555,10.2024],[-84.3793,15.6566,3.8642],[-84.3815,15.6596,15.6435],[-84.3796,15.6692,11.4208],[-84.3726,15.6759,4.4963],[-84.3629,15.6704,12.8706],[-84.3568,15.6714,5.4842],[-84.3521,15.6782,8.5773],[-84.3483,15.6751,8.8833],[-84.3451,15.6764,12.6654],[-84.3439,15.6779,13.2862],[-84.3453,15.6819,13.8358],[-84.3518,15.6902,2.3358],[-84.3511,15.6941,5.3843],[-84.3485,15.6948,2.0283],[-84.344,15.6925,1.7116],[-84.3396,15.6924,13.208],[-84.3362,15.7024,4.2277],[-84.3243,15.701,10.5678],[-84.3213,15.7021,10.9657],[-84.3201,15.7068,11.8789],[-84.3209,15.7162,12.0167],[-84.3111,15.7126,9.094],[-84.3061,15.7134,10.2324],[-84.3045,15.7243,9.0276],[-84.3007,15.7352,12.3326],[-84.3022,15.7435,9.3057],[-84.2818,15.7527,5.3598],[-84.2791,15.7595,12.0201],[-84.2797,15.7625,4.3057],[-84.2872,15.7654,18.7401],[-84.2907,15.7686,16.0188],[-84.2965,15.7697,10.8419],[-84.2983,15.7729,9.9298],[-84.298,15.7762,16.4349],[-84.2888,15.7768,0.0],[-84.2855,15.7786,11.7377],[-84.2831,15.7814,5.6633],[-84.2836,15.7853,9.587],[-84.292,15.7961,9.6118],[-84.2923,15.8057,0.0],[-84.2962,15.8043,1.6335],[-84.3087,15.8179,0.0],[-84.3193,15.8165,2.9373],[-84.3526,15.8204,3.9681],[-84.394,15.8207,1.66],[-84.4538,15.8263,6.2066],[-84.5021,15.8343,1.4984],[-84.5949,15.8532,1.8299],[-84.6424,15.8651,2.6206],[-84.6465,15.8651,0.0],[-84.6476,15.8635,0.0],[-84.6285,15.856,0.0],[-84.6265,15.8574,0.0],[-84.6299,15.8574,0.0],[-84.6365,15.8607,1.5921],[-84.6349,15.8618,0.0],[-84.6324,15.8601,0.0],[-84.6074,15.8551,0.0],[-84.6026,15.8538,3.115],[-84.6024,15.8524,4.3526],[-84.581,15.8501,0.0],[-84.5735,15.8454,0.0],[-84.5638,15.8451,2.8518],[-84.5568,15.8424,0.9105],[-84.5507,15.844,1.9215],[-84.5401,15.839,3.8861],[-84.5282,15.8388,1.7418],[-84.5282,15.8371,2.7173],[-84.5257,15.8354,3.5602],[-84.5274,15.8321,0.0],[-84.5243,15.8299,0.0],[-84.5176,15.8268,0.0],[-84.5137,15.8293,8.4196],[-84.5165,15.8263,6.9112],[-84.519,15.8265,0.0],[-84.5157,15.8237,0.0],[-84.5065,15.8246,6.118],[-84.5021,15.8232,8.8905],[-84.5043,15.8224,4.4921],[-84.5032,15.8154,10.1318],[-84.5062,15.814,5.9755],[-84.5032,15.8087,6.3327],[-84.504,15.8057,12.5933],[-84.5068,15.8054,12.3987],[-84.5088,15.8085,3.1476],[-84.5137,15.8079,1.1444],[-84.5135,15.8018,4.0448],[-84.5165,15.7985,6.1057],[-84.5268,15.7985,4.1301],[-84.5276,15.801,5.5349],[-84.526,15.8035,2.2554],[-84.5196,15.8065,0.0],[-84.5201,15.809,0.0],[-84.5257,15.8107,0.0],[-84.526,15.8074,2.3692],[-84.5279,15.8079,1.6528],[-84.5349,15.8015,3.7141],[-84.5338,15.7976,1.1629],[-84.5401,15.7932,0.9682],[-84.5396,15.7915,0.0],[-84.5346,15.7907,4.0178],[-84.5338,15.7863,0.0],[-84.5304,15.7849,4.2554],[-84.531,15.7829,5.8725],[-84.5357,15.7801,3.3489],[-84.5379,15.7818,2.1048],[-84.5393,15.7804,6.625],[-84.5457,15.781,0.0],[-84.5474,15.7782,2.7092],[-84.5543,15.7824,0.0],[-84.5529,15.7799,1.1246],[-84.554,15.7776,0.0],[-84.5501,15.7754,0.0],[-84.5496,15.7724,0.0],[-84.551,15.7713,0.52],[-84.554,15.7738,0.0],[-84.5585,15.7743,0.9674],[-84.5554,15.779,0.0],[-84.5615,15.7824,0.0],[-84.5746,15.7804,1.5666],[-84.5782,15.7785,1.4816],[-84.5857,15.7807,6.6031],[-84.5924,15.7885,0.0],[-84.5968,15.8013,0.0],[-84.5999,15.8018,5.8602],[-84.6007,15.8057,0.0],[-84.6062,15.8071,0.0],[-84.6154,15.8157,0.0],[-84.6179,15.8149,1.1041],[-84.6201,15.8104,0.0],[-84.6201,15.8057,0.0],[-84.6137,15.7929,0.0],[-84.6151,15.786,7.1593],[-84.6276,15.7768,11.2837],[-84.6379,15.7738,4.6031],[-84.6462,15.7743,3.5833],[-84.6515,15.7768,8.8886],[-84.6629,15.7885,10.2024],[-84.6704,15.8043,0.0],[-84.6718,15.8143,0.0],[-84.6704,15.821,0.0],[-84.6671,15.8226,2.0507],[-84.6665,15.8379,3.5315],[-84.6629,15.8518,7.7638],[-84.6571,15.8596,2.2036],[-84.6504,15.8615,0.0],[-84.6513,15.8635,0.9971],[-84.6585,15.8679,0.0],[-84.6843,15.8718,1.5801],[-84.6988,15.8765,0.5788],[-84.7032,15.8735,3.1342],[-84.7021,15.876,3.5941],[-84.704,15.8771,0.0],[-84.724,15.8826,0.0],[-84.7274,15.8829,0.7483],[-84.7296,15.8796,1.0453],[-84.7326,15.8788,0.266],[-84.7293,15.881,0.6132],[-84.7288,15.8835,2.6346],[-84.7821,15.8988,0.0],[-84.8401,15.919,3.0649],[-84.8815,15.9357,0.8647],[-84.9151,15.954,0.0],[-84.9196,15.954,2.5896],[-84.9221,15.9563,4.572],[-84.9249,15.956,0.0],[-84.9287,15.9513,2.2049],[-84.9335,15.9521,0.0],[-84.9437,15.9577,0.0],[-84.9474,15.9524,0.0],[-84.9421,15.9499,6.1783],[-84.9414,15.947,4.5997],[-84.9427,15.9437,0.6689],[-84.941,15.9392,0.153],[-84.9396,15.9415,1.2625],[-84.9382,15.9367,0.732],[-84.9318,15.9307,1.0383],[-84.9346,15.9213,2.8328],[-84.9382,15.9193,4.2705],[-84.9371,15.9183,4.1325],[-84.9331,15.9194,4.3499],[-84.9305,15.9175,9.1957],[-84.9305,15.9139,7.3127],[-84.9346,15.9117,5.6379],[-84.9321,15.9077,6.4721],[-84.9293,15.9071,8.307],[-84.932,15.9115,4.9871],[-84.929,15.9132,7.2396],[-84.9282,15.9173,4.8343],[-84.9319,15.9226,5.2255],[-84.9304,15.9315,1.0383],[-84.9372,15.941,1.1211],[-84.936,15.9463,3.3188],[-84.9336,15.9483,3.7422],[-84.9209,15.9415,3.0552],[-84.9118,15.9415,6.3443],[-84.9178,15.9365,7.1589],[-84.9177,15.932,2.489],[-84.9157,15.9287,7.5926],[-84.9173,15.9252,7.9748],[-84.9163,15.9232,5.1236],[-84.9142,15.9274,7.5926],[-84.9154,15.9359,13.9967],[-84.9099,15.9401,9.7378],[-84.9105,15.9432,4.8881],[-84.9152,15.9443,1.2997],[-84.9129,15.9491,5.435],[-84.9093,15.947,2.554],[-84.9034,15.9366,2.3883],[-84.8994,15.9345,3.608],[-84.8909,15.9334,6.7409],[-84.8897,15.9298,7.3851],[-84.8966,15.9282,10.1835],[-84.9039,15.9213,12.1317],[-84.9096,15.9203,12.7985],[-84.9132,15.9232,7.0585],[-84.919,15.9205,4.5349],[-84.919,15.9146,9.8226],[-84.9062,15.9117,9.2996],[-84.9037,15.9095,11.2118],[-84.9038,15.9071,8.6718],[-84.9141,15.9049,13.2609],[-84.9166,15.8945,8.8787],[-84.9239,15.8924,15.7002],[-84.9309,15.888,9.9487],[-84.9415,15.885,8.7787],[-84.9504,15.8793,7.4931],[-84.9616,15.8767,8.1911],[-84.9626,15.8716,5.9259],[-84.9541,15.8667,6.1228],[-84.9544,15.8624,13.378],[-84.9645,15.8596,11.8626],[-84.9763,15.8615,8.019],[-84.9801,15.8604,8.42],[-84.9813,15.8559,7.4346],[-84.9792,15.8516,10.6736],[-84.9799,15.8481,9.8406],[-84.9836,15.8459,10.2814],[-84.9894,15.8475,8.6564]],
[[-84.8903,15.9373,4.5458],[-84.8577,15.9255,2.1338],[-84.8572,15.9187,2.2187],[-84.8813,15.9288,5.4291],[-84.8857,15.9293,5.2295],[-84.892,15.9356,4.8995],[-84.902,15.9383,5.2557],[-84.9064,15.9437,2.3064],[-84.8903,15.9373,4.5458]]],
[[[-84.6562,15.8213,3.9273],[-84.6571,15.8199,0.0],[-84.6551,15.8218,3.9273],[-84.6551,15.8243,3.456],[-84.6562,15.8243,3.456],[-84.6562,15.8213,3.9273]]],
[[[-84.6165,15.856,1.8346],[-84.6185,15.8554,0.0],[-84.6126,15.851,2.6175],[-84.6029,15.8515,0.0],[-84.6071,15.854,4.1783],[-84.6165,15.856,1.8346]]],
[[[-83.9235,17.4176,0.0],[-83.9299,17.4162,0.0436],[-83.9324,17.411,3.57],[-83.9357,17.4124,0.0],[-83.9385,17.4107,0.0],[-83.9424,17.411,0.1299],[-83.9449,17.406,0.0],[-83.9449,17.404,0.0],[-83.9426,17.403199999999998,0.6782],[-83.9435,17.4004,0.0],[-83.9335,17.4054,0.0],[-83.929,17.403199999999998,0.0],[-83.924,17.4071,5.3798],[-83.9143,17.4074,2.0836],[-83.9146,17.4099,1.7897],[-83.921,17.4115,13.1896],[-83.9218,17.4165,0.0],[-83.9235,17.4176,0.0]]],
[[[-83.8932,17.4165,2.4184],[-83.8996,17.4165,0.9779],[-83.9043,17.4115,8.752],[-83.9124,17.4085,0.0],[-83.9079,17.4071,4.5838],[-83.8949,17.4096,0.0],[-83.8896,17.4129,0.0],[-83.8907,17.416,0.0],[-83.8932,17.4165,2.4184]]]]}
,"properties": {"GID_2": "HND.9.2_1","GID_0": "HND","country": "Honduras","GID_1": "HND.9_1","province": "GraciasaDios","NL_NAME_1": "NA","county": "BrusLaguna","VARNAME_2": "NA","NL_NAME_2": "NA","TYPE_2": "Municipio","ENGTYPE_2": "Municipality","CC_2": "NA","HASC_2": "HN.GD.BL","name": "Brus_Laguna.county","area_km2": 4484.22,"hist_schema_id": "Elevation0-9000","hist_area_km2": {"0": 1022.146,"25": 964.936,"50": 524.938,"75": 401.029,"100": 306.767,"125": 168.083,"150": 147.36,"175": 140.199,"200": 131.732,"225": 127.386,"250": 121.95,"275": 105.248,"300": 85.109,"325": 71.655,"350": 56.443,"375": 41.615,"400": 28.731,"425": 18.485,"450": 10.265,"475": 5.48,"500": 2.658,"525": 1.493,"550": 0.45,"575": 0.061}}}