{"type": "Feature","bbox": [-88.9088,14.614,-88.7665,14.7433],"geometry": {"type": "MultiPolygon","coordinates": [[[[-88.8755,14.6213,802.9682],[-88.8604,14.6162,839.5122],[-88.8385,14.6141,1086.6786],[-88.7955,14.614,1389.7145],[-88.7858,14.6278,1513.2361],[-88.7665,14.6361,1477.3723],[-88.7708,14.6389,1378.7583],[-88.7941,14.6864,812.0059],[-88.7932,14.6883,879.0536],[-88.79,14.6887,893.9376],[-88.7891,14.6979,828.1158],[-88.7854,14.7031,926.9128],[-88.7787,14.703,780.6564],[-88.7814,14.7054,758.1605],[-88.7891,14.7064,793.1628],[-88.7937,14.7103,684.8639],[-88.8113,14.7118,937.3583],[-88.8148,14.7154,854.9307],[-88.8185,14.7135,946.3322],[-88.8235,14.7174,793.708],[-88.8218,14.7206,732.0659],[-88.8295,14.7208,705.3304],[-88.8325,14.7349,631.7063],[-88.8344,14.7347,627.9017],[-88.8359,14.7313,767.2876],[-88.8383,14.7322,758.8981],[-88.8397,14.7354,737.6993],[-88.8449,14.7376,792.4863],[-88.8485,14.7352,834.5123],[-88.8481,14.74,828.0492],[-88.853,14.7389,929.4055],[-88.8531,14.7425,885.0305],[-88.8549,14.7423,927.5316],[-88.8556,14.7398,947.4313],[-88.8584,14.7424,859.3519],[-88.8618,14.74,979.7038],[-88.8656,14.7433,962.0865],[-88.8791,14.7415,950.5651],[-88.8851,14.7361,910.3433],[-88.8869,14.7367,894.2231],[-88.8893,14.7421,868.8867],[-88.8905,14.7397,911.8502],[-88.9073,14.7313,691.5662],[-88.9088,14.728,690.8203],[-88.9078,14.7252,678.7975],[-88.8981,14.7231,683.9725],[-88.8952,14.7203,708.2265],[-88.8923,14.7112,705.9993],[-88.8948,14.71,696.2865],[-88.8994,14.716,682.9381],[-88.9017,14.7151,688.9801],[-88.902,14.7122,713.7917],[-88.8991,14.7065,691.5779],[-88.8943,14.707,690.4463],[-88.8912,14.7045,694.4028],[-88.8904,14.7012,689.788],[-88.8948,14.6957,698.8591],[-88.8893,14.6945,696.7592],[-88.8837,14.6898,703.8922],[-88.8828,14.6867,710.3323],[-88.8872,14.6819,707.0117],[-88.874,14.6653,733.6146],[-88.874,14.6626,740.6042],[-88.8765,14.659,741.6267],[-88.875,14.6552,741.0145],[-88.8752,14.6492,725.1356],[-88.8777,14.641,750.4066],[-88.8712,14.6359,768.3759],[-88.87,14.6325,778.0093],[-88.8784,14.6316,793.2396],[-88.8813,14.6283,777.4526],[-88.8806,14.6246,774.7067],[-88.8762,14.6244,800.5497],[-88.8755,14.6213,802.9682]]]]}
,"properties": {"GID_2": "HND.5.5_1","GID_0": "HND","country": "Honduras","GID_1": "HND.5_1","province": "Copán","NL_NAME_1": "NA","county": "Cucuyagua","VARNAME_2": "NA","NL_NAME_2": "NA","TYPE_2": "Municipio","ENGTYPE_2": "Municipality","CC_2": "NA","HASC_2": "HN.CP.CU","name": "Cucuyagua.county","area_km2": 135.944,"hist_schema_id": "Elevation0-9000","hist_area_km2": {"650": 0.1025,"675": 1.661,"700": 4.7578,"725": 6.9319,"750": 8.2448,"775": 7.6502,"800": 8.676,"825": 7.1579,"850": 5.6401,"875": 5.8246,"900": 5.9066,"925": 5.7837,"950": 6.0502,"975": 5.8657,"1000": 5.4351,"1025": 5.0043,"1050": 5.2506,"1075": 4.4509,"1100": 3.3434,"1125": 2.7281,"1150": 2.6666,"1175": 2.2154,"1200": 1.8667,"1225": 1.8463,"1250": 1.7232,"1275": 1.5591,"1300": 1.3539,"1325": 1.7642,"1350": 1.8463,"1375": 2.0104,"1400": 1.9899,"1425": 1.7437,"1450": 1.395,"1475": 1.2514,"1500": 1.0052,"1525": 1.1283,"1550": 0.6154,"1575": 0.5129,"1600": 0.2462,"1625": 0.1846,"1650": 0.1641,"1675": 0.1846,"1700": 0.0821,"1725": 0.041,"1775": 0.0821}}}