{"type": "Feature","bbox": [-88.4381,13.9421,-88.3284,14.03],"geometry": {"type": "MultiPolygon","coordinates": [[[[-88.3322,13.9819,764.9417],[-88.3427,13.9785,666.9232],[-88.3556,13.9872,801.1678],[-88.3558,13.9932,712.6384],[-88.3635,14.0009,610.1071],[-88.3671,14.0072,473.4566],[-88.3699,14.0132,458.4783],[-88.3726,14.0283,257.4298],[-88.3751,14.03,366.9601],[-88.3802,14.0291,372.0653],[-88.3823,14.0239,431.9561],[-88.3895,14.0241,356.3008],[-88.3963,14.0207,318.8127],[-88.4005,14.0205,408.1964],[-88.4081,14.0139,399.8948],[-88.4147,14.0128,516.9099],[-88.423,14.0059,554.7616],[-88.4285,14.0045,295.5946],[-88.4381,13.9896,361.0039],[-88.4293,13.9706,420.1127],[-88.4324,13.9647,402.9142],[-88.428,13.9639,412.1906],[-88.418,13.9675,606.8552],[-88.4093,13.9676,621.8456],[-88.3969,13.9624,805.4211],[-88.3894,13.9623,785.1989],[-88.3836,13.9589,769.2783],[-88.3687,13.9678,629.3428],[-88.365,13.9604,591.4321],[-88.3597,13.9554,517.824],[-88.3561,13.944,365.0392],[-88.3532,13.9421,332.679],[-88.3499,13.9451,393.6204],[-88.3407,13.9488,376.1505],[-88.338,13.9521,426.5948],[-88.3392,13.96,482.386],[-88.3284,13.9662,526.6254],[-88.3285,13.9682,554.9852],[-88.3333,13.9689,745.2698],[-88.3353,13.9719,834.3882],[-88.3357,13.9771,837.5157],[-88.3322,13.9819,764.9417]]]]}
,"properties": {"GID_2": "HND.10.1_1","GID_0": "HND","country": "Honduras","GID_1": "HND.10_1","province": "Intibucá","NL_NAME_1": "NA","county": "Camasca","VARNAME_2": "NA","NL_NAME_2": "NA","TYPE_2": "Municipio","ENGTYPE_2": "Municipality","CC_2": "NA","HASC_2": "HN.IN.CA","name": "Camasca.county","area_km2": 56.14559,"hist_schema_id": "Elevation0-9000","hist_area_km2": {"250": 0.18515,"275": 0.24687,"300": 0.53489,"325": 0.69947,"350": 1.04926,"375": 1.78987,"400": 2.24248,"425": 2.98312,"450": 3.0243,"475": 3.02428,"500": 2.96258,"525": 2.30424,"550": 2.61282,"575": 2.69515,"600": 2.50998,"625": 2.46884,"650": 2.48946,"675": 2.59234,"700": 2.36599,"725": 2.07796,"750": 1.4196,"775": 1.54306,"800": 1.44019,"825": 1.81052,"850": 1.91338,"875": 1.48134,"900": 1.17273,"925": 1.35788,"950": 0.98755,"975": 0.78182,"1000": 0.51435,"1025": 0.4732,"1050": 0.24689,"1075": 0.14402}}}