{"type": "Feature","bbox": [-86.9944,14.0356,-86.7334,14.2821],"geometry": {"type": "MultiPolygon","coordinates": [[[[-86.7336,14.1289,1175.2391],[-86.7766,14.1435,1278.1067],[-86.7799,14.1603,1360.6331],[-86.7864,14.162,1132.4556],[-86.7975,14.1686,1259.908],[-86.7979,14.1733,1220.8662],[-86.7912,14.1843,988.7914],[-86.7848,14.1889,873.5571],[-86.7833,14.1943,850.689],[-86.8268,14.2072,1016.2336],[-86.8318,14.2133,860.7014],[-86.8337,14.2219,854.6276],[-86.829,14.2259,804.6858],[-86.8299,14.2355,917.9949],[-86.8272,14.2387,1077.47],[-86.824,14.2521,1266.588],[-86.819,14.2621,1576.8574],[-86.8175,14.281,1160.3486],[-86.8534,14.2821,1677.9778],[-86.8716,14.251,1499.1204],[-86.8798,14.2457,1361.646],[-86.8822,14.24,1250.7163],[-86.8851,14.2394,1307.9421],[-86.8936,14.232,1124.9274],[-86.8979,14.2248,1036.4991],[-86.9068,14.2226,1013.4417],[-86.9068,14.2044,908.8461],[-86.9129,14.1995,746.3779],[-86.9085,14.1901,663.5652],[-86.9115,14.1853,630.32],[-86.9161,14.1818,610.7701],[-86.925,14.1793,596.1789],[-86.9317,14.1748,593.6454],[-86.9325,14.1703,611.2057],[-86.937,14.1638,635.4412],[-86.9364,14.16,644.3475],[-86.9348,14.1588,644.3475],[-86.9301,14.1617,631.192],[-86.9195,14.1596,640.5961],[-86.9046,14.1497,655.8742],[-86.9205,14.1272,608.8878],[-86.9211,14.12,607.3754],[-86.9241,14.1216,610.0977],[-86.9353,14.121,633.0098],[-86.9394,14.1242,643.135],[-86.9397,14.1217,641.7218],[-86.956,14.1297,710.6729],[-86.9704,14.1299,835.7697],[-86.9809,14.132,950.7333],[-86.9944,14.1147,1242.8713],[-86.9772,14.0895,991.1398],[-86.9541,14.0747,947.2255],[-86.9543,14.0647,832.4924],[-86.9516,14.0528,768.9672],[-86.9153,14.0416,641.7172],[-86.9085,14.0483,612.1345],[-86.9046,14.0479,623.6979],[-86.8953,14.0544,617.6362],[-86.8888,14.0569,657.0189],[-86.8851,14.0544,668.2214],[-86.8795,14.0548,647.0304],[-86.8761,14.0578,600.5215],[-86.8674,14.061,590.5314],[-86.864,14.0566,583.0295],[-86.8615,14.049,621.1763],[-86.8528,14.0479,598.0876],[-86.8499,14.0431,606.9283],[-86.8464,14.0411,633.8915],[-86.8471,14.039,603.3106],[-86.8456,14.0375,595.7499],[-86.8401,14.0375,657.2278],[-86.8367,14.0356,637.3254],[-86.8313,14.0376,712.2679],[-86.7766,14.0758,881.8307],[-86.773,14.0943,980.1437],[-86.7801,14.097,1051.6558],[-86.7809,14.1019,1051.1119],[-86.7776,14.1067,1135.9813],[-86.7768,14.1111,1077.538],[-86.7791,14.1169,1080.9144],[-86.7757,14.1205,1160.5997],[-86.7608,14.1274,1222.1367],[-86.7603,14.125,1118.8069],[-86.7624,14.1199,1044.7595],[-86.7574,14.1149,1173.666],[-86.7429,14.115,1294.0591],[-86.7378,14.1134,1338.473],[-86.7334,14.1148,1311.4353],[-86.7336,14.1289,1175.2391]]]]}
,"properties": {"GID_2": "HND.7.7_1","GID_0": "HND","country": "Honduras","GID_1": "HND.7_1","province": "ElParaíso","NL_NAME_1": "NA","county": "Morocelí","VARNAME_2": "NA","NL_NAME_2": "NA","TYPE_2": "Municipio","ENGTYPE_2": "Municipality","CC_2": "NA","HASC_2": "HN.EP.MO","name": "Morocelí.county","area_km2": 361.5273,"hist_schema_id": "Elevation0-9000","hist_area_km2": {"550": 1.2546,"575": 22.9911,"600": 42.6474,"625": 33.2504,"650": 21.5914,"675": 23.3801,"700": 19.9664,"725": 15.8945,"750": 13.0975,"775": 11.1642,"800": 10.3207,"825": 11.2252,"850": 8.2644,"875": 8.1202,"900": 9.1272,"925": 9.6616,"950": 8.6129,"975": 7.77,"1000": 7.5439,"1025": 5.879,"1050": 6.4343,"1075": 6.6399,"1100": 7.2568,"1125": 7.0307,"1150": 5.8381,"1175": 5.571,"1200": 4.3167,"1225": 3.6179,"1250": 3.0629,"1275": 2.6722,"1300": 2.6722,"1325": 2.1786,"1350": 1.5414,"1375": 1.0481,"1400": 1.274,"1425": 1.1507,"1450": 0.8014,"1475": 1.0685,"1500": 1.2123,"1525": 1.1301,"1550": 0.8836,"1575": 0.6986,"1600": 0.5137,"1625": 0.3082,"1650": 0.1849,"1675": 0.3082,"1700": 0.1027,"1725": 0.1849,"1750": 0.0411,"1775": 0.0205}}}