{"type":"Feature","properties":{"GID_2":"HND.4.4_1","GID_0":"HND","country":"Honduras","GID_1":"HND.4_1","province":"Comayagua","NL_NAME_1":"NA","county":"Esquías","VARNAME_2":"NA","NL_NAME_2":"NA","TYPE_2":"Municipio","ENGTYPE_2":"Municipality","CC_2":"NA","HASC_2":"HN.CM.ES","name":"Esquías.county"},
"geometry":{"type": "MultiPolygon","coordinates": [[[[-87.484,14.5077,1549.3229],[-87.4353,14.5496,980.7286],[-87.4338,14.5542,867.0294],[-87.4275,14.5611,863.597],[-87.4239,14.5616,792.3469],[-87.4234,14.5671,799.6475],[-87.4268,14.5724,756.1327],[-87.4247,14.5751,747.3945],[-87.4261,14.5783,734.567],[-87.4223,14.5831,750.6569],[-87.4189,14.5946,758.0895],[-87.4213,14.6075,751.8474],[-87.4143,14.6101,711.1245],[-87.4078,14.6061,686.2991],[-87.3978,14.605,800.0287],[-87.3943,14.6028,830.192],[-87.3825,14.6055,741.884],[-87.382,14.5997,873.9591],[-87.3745,14.5955,748.6057],[-87.3668,14.5968,707.8884],[-87.3641,14.5954,700.4657],[-87.3533,14.596,714.5004],[-87.3542,14.6,717.9797],[-87.35,14.6046,658.5302],[-87.3522,14.6144,610.3904],[-87.3477,14.6217,672.3069],[-87.3435,14.6221,652.5099],[-87.3437,14.6246,643.9045],[-87.3481,14.6282,629.1085],[-87.3449,14.6299,608.1949],[-87.3417,14.6347,668.5898],[-87.3422,14.6426,712.7902],[-87.3469,14.6519,761.5837],[-87.3455,14.6567,745.5897],[-87.3435,14.658,703.8002],[-87.34,14.6573,685.4453],[-87.339,14.6512,770.5661],[-87.3316,14.6517,677.285],[-87.3301,14.6544,600.7823],[-87.3358,14.6592,669.867],[-87.3343,14.6674,617.2278],[-87.329,14.666,553.1046],[-87.3235,14.6673,547.2832],[-87.3193,14.6701,604.1554],[-87.315,14.6759,542.3024],[-87.3087,14.6779,533.0267],[-87.3102,14.6834,546.7548],[-87.3049,14.6812,533.5626],[-87.3015,14.6817,529.8844],[-87.2967,14.6834,529.407],[-87.2962,14.6881,528.0523],[-87.2865,14.6909,527.1375],[-87.2918,14.698,531.1063],[-87.2872,14.7018,528.9648],[-87.2894,14.7061,536.3403],[-87.2868,14.7126,543.3119],[-87.2889,14.716,561.8699],[-87.2773,14.7173,627.3738],[-87.2769,14.7264,643.2823],[-87.283,14.7257,618.6624],[-87.3422,14.7297,601.2069],[-87.3739,14.7632,864.0212],[-87.3865,14.766,989.6671],[-87.4098,14.7358,707.4508],[-87.4085,14.731,723.8541],[-87.437,14.7077,954.5947],[-87.4391,14.7095,941.5746],[-87.4447,14.7094,923.2917],[-87.4488,14.7052,943.6387],[-87.4539,14.7037,1029.9714],[-87.4639,14.7094,1031.5156],[-87.4913,14.7109,1109.6973],[-87.4953,14.714,1077.4814],[-87.5235,14.7187,1172.5038],[-87.5278,14.7413,1222.2827],[-87.5283,14.7355,1168.132],[-87.5548,14.7199,1035.2168],[-87.5452,14.7141,1076.0137],[-87.5453,14.7085,1115.7729],[-87.5325,14.689,1238.6134],[-87.5339,14.673,1077.6544],[-87.5309,14.6652,1022.5264],[-87.5311,14.6616,1039.0607],[-87.523,14.6588,1005.4397],[-87.5218,14.6545,1006.3385],[-87.5198,14.653,980.584],[-87.5087,14.6499,1021.1065],[-87.5036,14.6455,1012.7831],[-87.5007,14.646,996.2654],[-87.4972,14.6419,997.9394],[-87.4971,14.6297,950.5892],[-87.499,14.6272,970.8485],[-87.5035,14.6258,961.7519],[-87.5049,14.6227,989.6129],[-87.5021,14.6216,957.8503],[-87.5021,14.6186,941.1474],[-87.4967,14.6097,968.6866],[-87.4874,14.6022,797.9385],[-87.4877,14.5918,926.5593],[-87.4906,14.5817,1000.4777],[-87.4993,14.5762,1244.4197],[-87.5124,14.5578,1669.7124],[-87.5182,14.5526,1949.1292],[-87.484,14.5077,1549.3229]]]]}}