{"type":"Feature","properties":{"GID_2":"HND.18.5_1","GID_0":"HND","country":"Honduras","GID_1":"HND.18_1","province":"Yoro","NL_NAME_1":"NA","county":"Morazán","VARNAME_2":"NA","NL_NAME_2":"NA","TYPE_2":"Municipio","ENGTYPE_2":"Municipality","CC_2":"NA","HASC_2":"HN.YO.MO","name":"Morazán.county"},
"geometry":{"type": "MultiPolygon","coordinates": [[[[-87.6283,15.504,451.5473],[-87.6263,15.4943,737.8245],[-87.6287,15.4875,562.8705],[-87.6244,15.4831,583.2475],[-87.6267,15.4801,476.231],[-87.6273,15.4746,297.4371],[-87.6349,15.4709,221.6114],[-87.6439,15.4703,337.9885],[-87.6467,15.4655,495.7923],[-87.6449,15.464,475.2345],[-87.6447,15.4594,418.7225],[-87.6482,15.4572,527.7831],[-87.6441,15.4562,420.0164],[-87.6447,15.4528,451.5848],[-87.6424,15.4514,344.152],[-87.6312,15.4499,427.3505],[-87.6263,15.4508,437.905],[-87.6264,15.4472,610.9004],[-87.6215,15.4461,521.1404],[-87.6207,15.4406,589.5339],[-87.6191,15.4396,470.3259],[-87.6164,15.4407,467.1967],[-87.6147,15.4359,306.9327],[-87.6233,15.4341,544.7925],[-87.6284,15.4306,677.5268],[-87.6287,15.4264,636.4193],[-87.6307,15.4249,688.562],[-87.6336,15.4151,741.4315],[-87.6317,15.4094,762.9241],[-87.633,15.406,787.8595],[-87.635,15.4052,874.913],[-87.6347,15.4015,973.7805],[-87.6368,15.3978,974.6149],[-87.636,15.3907,635.8491],[-87.6384,15.3904,760.5426],[-87.6414,15.3863,725.3848],[-87.6409,15.3835,572.7292],[-87.6377,15.3811,741.6766],[-87.6414,15.3673,473.2653],[-87.6358,15.3531,649.2568],[-87.6431,15.3315,407.0494],[-87.6496,15.2936,279.8667],[-87.6755,15.2858,128.6872],[-87.6729,15.2833,124.1959],[-87.6731,15.2759,122.7347],[-87.6761,15.275,121.0402],[-87.6833,15.2768,123.8252],[-87.6855,15.2748,122.4917],[-87.6867,15.2692,120.059],[-87.6649,15.2628,146.1848],[-87.6718,15.2234,355.5265],[-87.6362,15.1941,644.9574],[-87.6359,15.1899,913.2596],[-87.633,15.1869,1051.0123],[-87.6064,15.1712,1779.7799],[-87.579,15.1696,1879.4723],[-87.5737,15.1766,2288.293],[-87.5687,15.1783,2117.6038],[-87.5652,15.185,1823.9579],[-87.5502,15.1934,1414.4752],[-87.5487,15.2002,1258.5193],[-87.545,15.2065,1077.2968],[-87.5448,15.2245,1019.9093],[-87.5461,15.2271,1103.2139],[-87.5407,15.2282,986.0087],[-87.537,15.2324,927.8161],[-87.5313,15.2339,938.3243],[-87.5291,15.241,872.7655],[-87.5213,15.2442,648.0789],[-87.5199,15.2488,889.7676],[-87.5152,15.2512,703.4961],[-87.5124,15.2556,825.5259],[-87.4619,15.2455,793.2258],[-87.4602,15.2502,802.4755],[-87.4552,15.2529,756.7941],[-87.4547,15.2556,757.1104],[-87.4749,15.3208,844.3593],[-87.4955,15.3416,429.5336],[-87.5153,15.3516,340.4004],[-87.5254,15.3747,574.9315],[-87.5417,15.3915,575.4162],[-87.5489,15.3897,644.8573],[-87.5556,15.3995,574.2956],[-87.5548,15.4084,537.4031],[-87.5491,15.4149,562.9792],[-87.5482,15.4198,508.5235],[-87.5451,15.4216,497.6526],[-87.5433,15.4271,456.4903],[-87.546,15.4339,437.3706],[-87.5461,15.4393,312.833],[-87.5432,15.44,319.3536],[-87.5415,15.4437,409.5868],[-87.5368,15.4472,542.6255],[-87.5252,15.451,519.5145],[-87.5203,15.4567,783.1415],[-87.5214,15.4593,790.9249],[-87.5196,15.4702,1037.7695],[-87.5204,15.4799,785.3004],[-87.5225,15.4859,691.4356],[-87.5222,15.4903,731.2859],[-87.5248,15.495,582.4733],[-87.5242,15.5009,331.0169],[-87.526,15.5029,293.2353],[-87.525,15.5066,242.2389],[-87.5217,15.5071,217.7941],[-87.5211,15.5092,168.308],[-87.5266,15.5126,181.564],[-87.5289,15.5108,201.349],[-87.5329,15.518,162.2884],[-87.5403,15.5198,167.458],[-87.548,15.5177,176.4643],[-87.554,15.5125,186.1947],[-87.5591,15.5116,201.1005],[-87.563,15.5144,219.9411],[-87.5726,15.5107,255.1541],[-87.5723,15.5084,221.7877],[-87.5794,15.5082,236.7325],[-87.585,15.5061,261.7372],[-87.6283,15.504,451.5473]]]]}}