{"type":"Feature","properties":{"GID_2":"HND.16.26_1","GID_0":"HND","country":"Honduras","GID_1":"HND.16_1","province":"SantaBárbara","NL_NAME_1":"NA","county":"SantaBárbara","VARNAME_2":"NA","NL_NAME_2":"NA","TYPE_2":"Municipio","ENGTYPE_2":"Municipality","CC_2":"NA","HASC_2":"HN.SB.SB","name":"Santa_Bárbara.county"},
"geometry":{"type": "MultiPolygon","coordinates": [[[[-88.0405,14.9811,587.2281],[-88.0599,14.9794,864.3757],[-88.0869,14.9829,1277.8771],[-88.1021,14.9819,1177.0928],[-88.1273,14.963,1439.7205],[-88.1593,14.9552,1746.4795],[-88.2141,14.9559,473.1662],[-88.2155,14.9573,447.6534],[-88.2161,14.9639,375.2965],[-88.2219,14.9682,312.2179],[-88.2328,14.9682,155.2398],[-88.2371,14.9658,173.2871],[-88.2449,14.9645,178.0072],[-88.2479,14.9597,206.8235],[-88.2526,14.9573,266.3876],[-88.2505,14.9521,265.0277],[-88.2527,14.9458,344.4529],[-88.2512,14.9365,348.0905],[-88.2528,14.9267,180.9794],[-88.2501,14.9196,216.3041],[-88.2559,14.9201,180.0945],[-88.2596,14.9179,212.5803],[-88.2656,14.9191,250.735],[-88.2706,14.9228,313.1505],[-88.2751,14.922,362.3049],[-88.2786,14.9194,439.3764],[-88.2858,14.9196,462.4457],[-88.2946,14.9172,497.3607],[-88.298,14.9186,446.0735],[-88.3102,14.9024,658.5431],[-88.304,14.9013,574.5118],[-88.2935,14.8964,476.2299],[-88.2901,14.8922,445.6761],[-88.2878,14.8927,411.4219],[-88.2868,14.8902,413.1094],[-88.274,14.8783,216.8924],[-88.2651,14.8759,176.3315],[-88.2573,14.8778,186.4942],[-88.2475,14.8743,204.1532],[-88.2487,14.8698,205.0091],[-88.2566,14.864,181.9732],[-88.2625,14.8624,207.7536],[-88.2624,14.8593,207.5405],[-88.2568,14.8544,175.6076],[-88.2562,14.8486,218.9899],[-88.2486,14.845,296.4266],[-88.2453,14.8397,447.4814],[-88.2467,14.8377,467.3712],[-88.2492,14.8374,432.9535],[-88.2553,14.8412,292.0562],[-88.2599,14.8412,336.4983],[-88.2586,14.8381,404.7426],[-88.2612,14.8285,361.0956],[-88.257,14.8216,305.457],[-88.2606,14.817,213.2197],[-88.263,14.8088,273.8052],[-88.2666,14.8047,313.7729],[-88.2669,14.7982,282.393],[-88.2521,14.7982,247.2246],[-88.1981,14.8238,685.0517],[-88.1934,14.8502,885.6122],[-88.1829,14.8475,824.2866],[-88.1712,14.8475,887.1616],[-88.1638,14.8427,912.494],[-88.1552,14.8466,892.9977],[-88.1406,14.849,1317.0243],[-88.0906,14.8547,1097.0925],[-88.1022,14.882,1366.4194],[-88.1023,14.8957,1530.864],[-88.1003,14.8982,1581.2292],[-88.0787,14.9046,1385.5857],[-88.0515,14.9159,889.8226],[-88.0405,14.9811,587.2281]]]]}}