{"type": "Feature","bbox": [-88.1145,13.9788,-87.9393,14.2379],"geometry": {"type": "MultiPolygon","coordinates": [[[[-88.0761,13.9788,1418.9973],[-88.074,13.9834,1456.2747],[-88.0754,13.9876,1450.069],[-88.0742,13.9923,1581.2244],[-88.0693,13.9985,1513.8002],[-88.0703,14.0027,1653.8682],[-88.0691,14.0057,1770.04],[-88.0655,14.0079,1764.016],[-88.0635,14.0175,1740.2825],[-88.0539,14.025,1653.3169],[-88.0512,14.0406,1885.5885],[-88.0416,14.0451,1749.0952],[-88.0363,14.0429,1720.9268],[-88.0296,14.0429,1713.6392],[-88.0221,14.0517,1750.6882],[-88.0099,14.0595,1801.7357],[-88.009,14.0652,1778.3435],[-88.0059,14.0662,1779.333],[-88.0044,14.0698,1671.9393],[-87.995,14.0752,1609.5383],[-87.9908,14.0754,1647.4806],[-87.987799999999993,14.08,1675.5787],[-87.9839,14.0721,1710.1537],[-87.9799,14.0708,1740.7819],[-87.9699,14.0783,1726.9744],[-87.9664,14.0852,1683.8654],[-87.9661,14.0903,1699.1498],[-87.9718,14.1005,1650.3215],[-87.9685,14.1015,1600.0765],[-87.9649,14.0999,1683.1019],[-87.9625,14.1018,1658.9391],[-87.9518,14.103,1696.7666],[-87.9469,14.1069,1727.6902],[-87.9446,14.1143,1713.0502],[-87.941,14.1165,1731.1838],[-87.9393,14.1198,1706.8872],[-87.9484,14.1459,1704.1373],[-87.9508,14.1487,1680.7172],[-87.9618,14.1511,1666.593],[-87.9738,14.1504,1634.5095],[-87.9904,14.1421,1360.7792],[-87.9966,14.1492,1339.7317],[-87.9978,14.156,1343.2489],[-88.0024,14.1626,1286.484],[-88.0096,14.1828,1262.3826],[-88.0088,14.1855,1212.7235],[-88.0114,14.1914,1194.0889],[-88.0097,14.1935,1171.8557],[-88.0098,14.1977,1216.9186],[-88.0057,14.1997,1193.1709],[-88.0081,14.2034,1190.8224],[-88.0093,14.215,1038.239],[-88.0037,14.237,1065.4652],[-88.044,14.2379,1345.6588],[-88.058,14.231,1334.7631],[-88.0642,14.2234,1386.0619],[-88.1031,14.1959,1419.3435],[-88.1037,14.1777,1104.0122],[-88.1129,14.1703,1238.3223],[-88.1143,14.1662,1327.9841],[-88.1145,14.1633,1405.9993],[-88.1131,14.1634,1415.5615],[-88.1104,14.1584,1285.6163],[-88.1054,14.1641,1426.2854],[-88.1025,14.1646,1411.8849],[-88.1013,14.1622,1427.3101],[-88.0974,14.1608,1325.5933],[-88.0953,14.1552,1485.5415],[-88.0921,14.1544,1315.5806],[-88.0912,14.1486,1438.5454],[-88.0806,14.143,1414.2517],[-88.0794,14.1441,1414.9349],[-88.0785,14.1421,1373.219],[-88.0766,14.1427,1373.219],[-88.0736,14.1345,1462.3429],[-88.0695,14.1317,1418.4027],[-88.0656,14.1236,1476.4607],[-88.0599,14.1239,1469.2864],[-88.0562,14.1263,1426.1478],[-88.0484,14.1216,1469.3301],[-88.0578,14.1161,1477.5184],[-88.0519,14.1101,1528.417],[-88.0514,14.1036,1623.2905],[-88.054,14.0982,1701.4631],[-88.0422,14.0931,1741.1089],[-88.0293,14.0944,1767.4622],[-88.0259,14.0901,1792.1995],[-88.0295,14.0859,1783.3174],[-88.0364,14.0829,1801.4529],[-88.0349,14.0803,1828.5364],[-88.0359,14.0773,1811.3157],[-88.0339,14.0747,1858.6056],[-88.0416,14.0748,1824.5519],[-88.0462,14.0784,1801.4607],[-88.0482,14.0767,1827.9756],[-88.0486,14.0743,1856.4526],[-88.0464,14.0706,1895.2654],[-88.0528,14.0682,1906.8763],[-88.0527,14.0644,1917.4495],[-88.0601,14.0566,1906.3915],[-88.0702,14.052,1896.02],[-88.0729,14.0475,1915.3937],[-88.075,14.0468,1895.8502],[-88.0726,14.0433,1927.272],[-88.0736,14.0331,1892.0681],[-88.0877,14.0323,1865.6038],[-88.0886,14.0227,1771.1711],[-88.0961,14.0144,1555.251],[-88.0963,14.0032,1393.8411],[-88.1024,13.9977,1282.1519],[-88.1022,13.9916,1311.0317],[-88.1047,13.9862,1325.1008],[-88.1026,13.9863,1277.8413],[-88.0931,13.98,1074.5757],[-88.0761,13.9788,1418.9973]]]]}
,"properties": {"GID_2": "HND.12.8_1","GID_0": "HND","country": "Honduras","GID_1": "HND.12_1","province": "LaPaz","NL_NAME_1": "NA","county": "Marcala","VARNAME_2": "NA","NL_NAME_2": "NA","TYPE_2": "Municipio","ENGTYPE_2": "Municipality","CC_2": "NA","HASC_2": "HN.LP.MA","name": "Marcala.county","area_km2": 217.8811,"hist_schema_id": "Elevation0-9000","hist_area_km2": {"1000": 0.4316,"1025": 0.8221,"1050": 0.6782,"1075": 0.7399,"1100": 1.1099,"1125": 1.9116,"1150": 3.5148,"1175": 7.2764,"1200": 9.1061,"1225": 9.2299,"1250": 11.7382,"1275": 9.4769,"1300": 8.8193,"1325": 8.6139,"1350": 8.6962,"1375": 7.5039,"1400": 7.6683,"1425": 5.8798,"1450": 5.8183,"1475": 5.5306,"1500": 4.914,"1525": 5.3255,"1550": 7.2379,"1575": 8.2663,"1600": 7.4233,"1625": 5.7784,"1650": 6.5597,"1675": 8.5131,"1700": 11.0837,"1725": 8.0204,"1750": 4.607,"1775": 4.1958,"1800": 3.7638,"1825": 5.183,"1850": 4.0107,"1875": 3.5581,"1900": 3.2497,"1925": 1.3163,"1950": 0.3085}}}