{"type": "Feature","bbox": [-88.9492,14.0787,-88.7397,14.2893],"geometry": {"type": "MultiPolygon","coordinates": [[[[-88.8735,14.183,395.3191],[-88.8646,14.1783,421.5197],[-88.8525,14.1472,352.7125],[-88.8389,14.1252,326.2319],[-88.8256,14.0943,612.1747],[-88.8199,14.0836,377.3737],[-88.8119,14.0787,263.892],[-88.7906,14.0791,581.4742],[-88.7908,14.0949,359.3067],[-88.7945,14.1086,366.6087],[-88.7845,14.1179,376.7486],[-88.7863,14.1323,757.657],[-88.7849,14.1354,719.5616],[-88.7865,14.137,657.3613],[-88.7901,14.1338,718.783],[-88.7934,14.1332,648.1779],[-88.804,14.1371,665.785],[-88.814,14.1325,748.9968],[-88.8229,14.1546,787.7716],[-88.8235,14.1784,956.3441],[-88.8167,14.1782,869.5443],[-88.8206,14.1687,1071.0867],[-88.8154,14.1596,1077.5632],[-88.8096,14.1651,844.0513],[-88.8046,14.165,806.3488],[-88.8019,14.1676,873.3866],[-88.7961,14.1686,763.7476],[-88.7901,14.172,679.2454],[-88.787,14.1706,658.7538],[-88.7867,14.1682,608.0884],[-88.779,14.168,492.2543],[-88.7768,14.1649,673.8539],[-88.7728,14.1757,763.433],[-88.7591,14.1727,838.9725],[-88.7578,14.1821,808.2271],[-88.7561,14.1824,866.9344],[-88.7525,14.1388,1078.1349],[-88.7458,14.1333,886.6086],[-88.7437,14.1336,824.528],[-88.7424,14.1687,1103.8547],[-88.7416,14.1717,1133.8352],[-88.7397,14.1725,1055.4474],[-88.7425,14.1762,1058.6982],[-88.7597,14.1871,1038.8265],[-88.7622,14.1903,889.4595],[-88.7874,14.1893,638.5676],[-88.7919,14.2,733.3546],[-88.8211,14.2094,830.4967],[-88.8227,14.2114,863.1223],[-88.819,14.2195,782.8943],[-88.8087,14.2237,952.1096],[-88.8124,14.2431,1256.6255],[-88.8071,14.2452,1275.6578],[-88.8044,14.2486,1186.9379],[-88.794,14.2521,1443.6581],[-88.78,14.2642,1057.0269],[-88.7848,14.2677,1041.4767],[-88.7891,14.2779,1225.287],[-88.7919,14.2807,1188.5625],[-88.8055,14.2863,1514.8153],[-88.8089,14.2893,1371.0469],[-88.8148,14.2889,1231.0515],[-88.8186,14.2862,1198.1812],[-88.8326,14.2852,918.3719],[-88.8362,14.2761,891.9731],[-88.8312,14.2559,865.6699],[-88.8367,14.2558,865.4196],[-88.8454,14.2523,779.975],[-88.8535,14.2542,691.1511],[-88.863,14.2513,663.2827],[-88.8705,14.2512,709.5911],[-88.8765,14.2457,690.5824],[-88.8813,14.2461,653.3648],[-88.8843,14.2439,644.9823],[-88.8842,14.2398,561.9825],[-88.8863,14.2356,594.7852],[-88.892,14.2349,608.1878],[-88.896,14.2285,479.4127],[-88.9054,14.234,747.2689],[-88.9085,14.2391,816.5488],[-88.9143,14.2423,821.5093],[-88.9184,14.2481,884.3542],[-88.9221,14.2491,859.1843],[-88.9273,14.2543,1072.1943],[-88.9367,14.2524,888.0244],[-88.9492,14.2441,826.0339],[-88.9483,14.2392,841.3786],[-88.9424,14.2371,722.64],[-88.9399,14.232,803.0538],[-88.9268,14.219,538.6046],[-88.9232,14.2116,482.733],[-88.9216,14.2028,606.0569],[-88.9084,14.2037,504.886],[-88.8984,14.1922,446.7547],[-88.8838,14.1857,456.177],[-88.8735,14.183,395.3191]]]]}
,"properties": {"GID_2": "HND.13.7_1","GID_0": "HND","country": "Honduras","GID_1": "HND.13_1","province": "Lempira","NL_NAME_1": "NA","county": "Guarita","VARNAME_2": "NA","NL_NAME_2": "NA","TYPE_2": "Municipio","ENGTYPE_2": "Municipality","CC_2": "NA","HASC_2": "HN.LE.GT","name": "Guarita.county","area_km2": 176.7511,"hist_schema_id": "Elevation0-9000","hist_area_km2": {"225": 0.0411,"250": 0.9048,"275": 2.591,"300": 3.0022,"325": 2.3852,"350": 2.673,"375": 2.6728,"400": 3.3511,"425": 4.831,"450": 5.3655,"475": 5.3653,"500": 5.838,"525": 6.2697,"550": 6.3108,"575": 6.5777,"600": 7.8316,"625": 8.4481,"650": 8.5714,"675": 8.119,"700": 7.2967,"725": 6.7418,"750": 6.0428,"775": 4.974,"800": 4.6452,"825": 5.2617,"850": 5.1589,"875": 5.2001,"900": 4.8917,"925": 4.0078,"950": 3.8433,"975": 3.4528,"1000": 3.0829,"1025": 2.6719,"1050": 2.1579,"1075": 1.603,"1100": 1.6852,"1125": 1.3974,"1150": 1.0891,"1175": 0.9247,"1200": 1.1302,"1225": 1.0685,"1250": 1.048,"1275": 0.863,"1300": 0.9247,"1325": 0.8425,"1350": 0.6165,"1375": 0.4932,"1400": 0.2671,"1425": 0.3904,"1450": 0.4315,"1475": 0.2671,"1500": 0.4931,"1525": 0.2055,"1550": 0.1849,"1575": 0.1849,"1600": 0.0411,"1625": 0.0205}}}