{"type": "Feature","bbox": [-88.6609,14.0563,-88.4759,14.1945],"geometry": {"type": "MultiPolygon","coordinates": [[[[-88.5278,14.0628,498.9808],[-88.5235,14.0634,464.8674],[-88.5268,14.0713,549.0034],[-88.5258,14.0771,610.4767],[-88.5218,14.078,756.0026],[-88.5217,14.0802,777.3007],[-88.5153,14.085,818.4756],[-88.5112,14.0859,838.6085],[-88.5085,14.0838,940.5908],[-88.5007,14.0845,960.0474],[-88.486,14.0867,1132.599],[-88.4806,14.0895,1209.4032],[-88.4787,14.0943,1203.2352],[-88.4759,14.1199,1631.7917],[-88.4792,14.1361,1208.0746],[-88.4879,14.1364,1371.2316],[-88.4931,14.1458,1206.2542],[-88.5045,14.1517,1385.0842],[-88.5101,14.1574,1502.3167],[-88.5219,14.1641,1638.2843],[-88.5265,14.1726,1713.5432],[-88.5264,14.1945,1550.2712],[-88.5398,14.1827,1823.0876],[-88.5527,14.1812,1925.4497],[-88.5495,14.1754,1753.5194],[-88.5522,14.1634,1472.8491],[-88.5703,14.161,1645.0229],[-88.5789,14.154,1128.8127],[-88.5806,14.1488,1053.5566],[-88.5898,14.145,771.9178],[-88.5992,14.1349,819.9167],[-88.6077,14.1349,699.4518],[-88.6174,14.1392,612.8162],[-88.627,14.139,482.3221],[-88.6287,14.1407,446.4679],[-88.6349,14.1409,410.5654],[-88.6431,14.1338,386.1087],[-88.6447,14.13,360.938],[-88.6505,14.1302,323.8411],[-88.6567,14.1255,366.0022],[-88.6551,14.1196,254.4849],[-88.6579,14.1191,243.9341],[-88.6577,14.1166,210.4601],[-88.6601,14.1148,241.5728],[-88.6609,14.111,206.289],[-88.6546,14.1018,275.2693],[-88.6574,14.0941,193.4068],[-88.6566,14.0888,258.7145],[-88.6539,14.0851,193.9295],[-88.6542,14.0822,210.5077],[-88.6494,14.0799,192.2326],[-88.6473,14.068,207.3944],[-88.6374,14.065,203.4158],[-88.6323,14.0594,247.8138],[-88.6294,14.0609,220.4453],[-88.6244,14.0591,288.5757],[-88.6238,14.0569,294.6763],[-88.6176,14.0563,396.2199],[-88.6167,14.0594,324.6758],[-88.6071,14.0606,479.696],[-88.6001,14.0641,413.9542],[-88.5949,14.0701,430.0603],[-88.5869,14.0732,503.9358],[-88.5831,14.0715,565.6211],[-88.5729,14.0807,737.5517],[-88.5542,14.0842,655.6202],[-88.5278,14.0628,498.9808]]]]}
,"properties": {"GID_2": "HND.13.6_1","GID_0": "HND","country": "Honduras","GID_1": "HND.13_1","province": "Lempira","NL_NAME_1": "NA","county": "Gualcince","VARNAME_2": "NA","NL_NAME_2": "NA","TYPE_2": "Municipio","ENGTYPE_2": "Municipality","CC_2": "NA","HASC_2": "HN.LE.GC","name": "Gualcince.county","area_km2": 165.7103,"hist_schema_id": "Elevation0-9000","hist_area_km2": {"125": 0.0617,"150": 0.5141,"175": 1.0077,"200": 1.8714,"225": 2.2827,"250": 2.7351,"275": 2.6939,"300": 3.0024,"325": 3.2903,"350": 3.4547,"375": 3.3313,"400": 3.4958,"425": 3.7631,"450": 3.0845,"475": 3.1256,"500": 2.776,"525": 2.7349,"550": 2.6526,"575": 2.4676,"600": 2.8995,"625": 2.7556,"650": 3.1874,"675": 2.8172,"700": 2.9201,"725": 2.591,"750": 2.4676,"775": 2.7555,"800": 2.9405,"825": 2.8582,"850": 3.4546,"875": 3.5368,"900": 3.5779,"925": 3.3517,"950": 2.6731,"975": 2.7142,"1000": 2.488,"1025": 2.6114,"1050": 2.3235,"1075": 2.1178,"1100": 2.3851,"1125": 2.4468,"1150": 2.0356,"1175": 1.9328,"1200": 2.3851,"1225": 2.6936,"1250": 2.3029,"1275": 2.7552,"1300": 2.7552,"1325": 3.043,"1350": 2.4467,"1375": 2.0149,"1400": 1.8915,"1425": 2.0766,"1450": 2.1588,"1475": 2.755,"1500": 3.0223,"1525": 2.2205,"1550": 2.3849,"1575": 2.2205,"1600": 1.9531,"1625": 1.912,"1650": 1.4391,"1675": 1.3157,"1700": 1.1718,"1725": 0.8223,"1750": 0.7195,"1775": 0.6784,"1800": 0.6989,"1825": 0.3289,"1850": 0.4728,"1875": 0.3906,"1900": 0.2261,"1925": 0.2672}}}