{"type":"Feature","properties":{"GID_2":"HND.12.15_1","GID_0":"HND","country":"Honduras","GID_1":"HND.12_1","province":"LaPaz","NL_NAME_1":"NA","county":"SantaAna","VARNAME_2":"NA","NL_NAME_2":"NA","TYPE_2":"Municipio","ENGTYPE_2":"Municipality","CC_2":"NA","HASC_2":"HN.FM.SA","name":"Santa_Ana.county"},
"geometry":{"type": "MultiPolygon","coordinates": [[[[-87.9147,13.8964,694.0172],[-87.9074,13.8989,715.2366],[-87.8975,13.8959,841.7631],[-87.8914,13.8959,810.1099],[-87.8831,13.8994,773.353],[-87.8745,13.894,775.0814],[-87.8742,13.9025,792.1339],[-87.8695,13.9086,822.0016],[-87.8745,13.9124,878.9636],[-87.8799,13.9105,814.8644],[-87.8926,13.9141,807.9625],[-87.894,13.9225,832.335],[-87.9034,13.9386,1074.1453],[-87.8745,13.9545,1395.5166],[-87.8794,13.9656,1598.9735],[-87.8934,13.9771,1602.8676],[-87.8934,13.983,1580.4863],[-87.9007,13.9833,1557.7119],[-87.9068,13.9875,1409.5933],[-87.9113,13.9879,1484.7587],[-87.9232,13.9977,1342.2495],[-87.9096,14.011,1427.2321],[-87.9037,14.0255,1355.2544],[-87.9126,14.0356,1338.542],[-87.9113,14.0399,1300.9066],[-87.908,14.0433,1313.7576],[-87.9101,14.0499,1381.8489],[-87.9065,14.0529,1374.1422],[-87.911,14.0573,1370.7611],[-87.9165,14.0596,1447.2438],[-87.9203,14.0662,1569.7246],[-87.9208,14.0702,1579.2246],[-87.9245,14.0711,1638.4656],[-87.9383,14.09,1821.9886],[-87.9408,14.09,1771.7087],[-87.9424,14.0977,1720.7771],[-87.9464,14.0989,1719.9021],[-87.9469,14.1077,1706.9155],[-87.9538,14.1021,1717.9971],[-87.9625,14.1018,1658.9391],[-87.9649,14.0999,1683.1019],[-87.9711,14.1012,1629.4282],[-87.9719,14.099,1668.4938],[-87.9659,14.0898,1699.1498],[-87.9687,14.0798,1692.6932],[-87.9806,14.0706,1740.7819],[-87.9839,14.0721,1710.1537],[-87.9872,14.0802,1675.5787],[-87.9885,14.0795,1669.8094],[-87.991,14.0751,1647.4806],[-87.99,14.0722,1662.1998],[-87.9915,14.0712,1666.2224],[-87.9905,14.0629,1650.1206],[-87.9917,14.0561,1732.0238],[-87.9961,14.0528,1724.6206],[-88.0074,14.0554,1803.6692],[-88.0098,14.0502,1809.5585],[-88.0083,14.0459,1795.6113],[-88.0101,14.044,1789.3717],[-88.0017,14.0438,1853.826],[-87.9986,14.041,1858.9675],[-87.9942,14.0419,1814.1118],[-87.9896,14.0396,1705.4379],[-87.9875,14.0435,1701.298],[-87.984,14.0438,1666.3466],[-87.9805,14.0471,1602.6791],[-87.9773,14.0452,1531.1682],[-87.9761,14.0402,1414.0564],[-87.9693,14.0347,1342.0696],[-87.9697,14.0233,1227.3143],[-87.9661,14.0127,1319.4071],[-87.9728,14.012,1298.3027],[-87.9738,14.0104,1414.5369],[-87.9834,14.0122,1473.6936],[-87.9906,14.0103,1546.2711],[-87.9939,14.0065,1507.2491],[-87.9941,14.0004,1515.3345],[-87.9895,13.9938,1603.9502],[-87.9805,13.9908,1533.5239],[-87.9804,13.9896,1500.9375],[-87.986,13.9867,1405.7102],[-87.9856,13.9823,1346.7656],[-87.9797,13.9842,1508.0181],[-87.9731,13.9832,1342.8884],[-87.97,13.9811,1324.6477],[-87.9673,13.9823,1223.7777],[-87.9575,13.977,1077.911],[-87.9534,13.9676,934.6808],[-87.9495,13.9657,829.8289],[-87.9472,13.9606,817.4412],[-87.9435,13.9579,866.3985],[-87.9435,13.9553,923.9536],[-87.9457,13.9545,878.8403],[-87.944,13.9472,960.2288],[-87.9454,13.9435,887.6108],[-87.9498,13.9437,843.7028],[-87.9488,13.9403,900.3629],[-87.9499,13.9369,892.2881],[-87.9485,13.9351,885.4089],[-87.95,13.9338,847.2098],[-87.9545,13.937,939.4987],[-87.9547,13.9387,909.3842],[-87.9583,13.9385,927.3693],[-87.9606,13.9423,762.4758],[-87.9675,13.9426,919.3648],[-87.9721,13.9479,983.8452],[-87.9794,13.9462,1068.7222],[-87.9821,13.9412,1064.8376],[-87.9799,13.9365,871.6829],[-87.9798,13.9315,855.167],[-87.9743,13.922,803.0773],[-87.976,13.9198,872.9906],[-87.9742,13.9129,786.1741],[-87.9804,13.9076,999.4341],[-87.9867,13.9087,946.6412],[-88.017,13.9075,839.5957],[-88.0174,13.9,679.3856],[-88.0221,13.8955,587.7632],[-88.0156,13.8864,511.8794],[-88.0108,13.8683,580.0127],[-87.9586,13.8975,609.1115],[-87.9509,13.8907,659.9086],[-87.9471,13.8932,627.814],[-87.9434,13.8932,643.7892],[-87.9295,13.8865,731.1071],[-87.9147,13.8964,694.0172]]]]}}