{"type":"Feature","properties":{"GID_2":"HND.2.11_1","GID_0":"HND","country":"Honduras","GID_1":"HND.2_1","province":"Choluteca","NL_NAME_1":"NA","county":"Pespire","VARNAME_2":"NA","NL_NAME_2":"NA","TYPE_2":"Municipio","ENGTYPE_2":"Municipality","CC_2":"NA","HASC_2":"HN.CH.PE","name":"Pespire.county"},
"geometry":{"type": "MultiPolygon","coordinates": [[[[-87.2186,13.5027,1014.7614],[-87.1974,13.5149,870.3331],[-87.2113,13.5498,782.7369],[-87.1995,13.5568,702.9501],[-87.1879,13.56,586.7501],[-87.1852,13.5591,501.4068],[-87.1851,13.574,433.8983],[-87.1882,13.5791,565.0508],[-87.1857,13.588,617.186],[-87.1928,13.5968,882.2515],[-87.1963,13.5975,769.5398],[-87.2015,13.6097,661.0599],[-87.2081,13.6108,668.5285],[-87.2216,13.6098,846.0003],[-87.2248,13.6107,747.7775],[-87.2252,13.6123,789.9236],[-87.2779,13.6069,302.9201],[-87.3121,13.6244,423.7463],[-87.329,13.6187,607.7228],[-87.351,13.6074,325.8039],[-87.3563,13.6074,233.7077],[-87.3604,13.6092,139.6091],[-87.3636,13.6164,129.2775],[-87.373,13.6134,88.872],[-87.3782,13.62,121.0548],[-87.3771,13.625,105.9503],[-87.3731,13.6289,79.069],[-87.3782,13.6388,107.2968],[-87.3748,13.6448,75.2048],[-87.3691,13.649,90.2884],[-87.3666,13.6616,82.6834],[-87.3689,13.6709,114.2777],[-87.3673,13.6769,92.6481],[-87.363,13.6791,109.6288],[-87.3649,13.6832,108.9994],[-87.3641,13.6902,126.0838],[-87.4207,13.6896,486.2994],[-87.4616,13.6721,648.7072],[-87.4587,13.6632,894.2437],[-87.4552,13.6591,894.4427],[-87.4488,13.6573,760.6304],[-87.4369,13.6487,887.1624],[-87.4282,13.6465,675.2658],[-87.4142,13.6363,437.3642],[-87.4141,13.6329,331.5413],[-87.4206,13.6223,267.4981],[-87.4302,13.5909,192.4083],[-87.4238,13.5874,170.6743],[-87.4177,13.5862,94.4057],[-87.413,13.5778,46.627],[-87.4164,13.5746,70.0331],[-87.4159,13.5714,139.2894],[-87.4012,13.5434,113.1046],[-87.3929,13.5342,434.0534],[-87.3827,13.5285,398.3439],[-87.3672,13.5239,414.12],[-87.3624,13.5208,403.7709],[-87.3533,13.5104,289.0916],[-87.2949,13.4819,188.5235],[-87.2186,13.5027,1014.7614]]]]}}