{"type": "Feature","bbox": [-84.9977,14.6145,-82.4057,17.4185],"geometry": {"type": "MultiPolygon","coordinates": [[[[-84.9294,14.7523,110.4282],[-84.9299,14.7516,109.4719],[-84.9238,14.7528,107.7818],[-84.9254,14.7531,111.5427],[-84.9294,14.7523,110.4282]]],
[[[-84.2921,15.8054,0.0],[-84.2962,15.8043,1.6335],[-84.3087,15.8179,0.0],[-84.3193,15.8165,2.9373],[-84.3526,15.8204,3.9681],[-84.394,15.8207,1.66],[-84.4538,15.8263,6.2066],[-84.5132,15.8365,2.8013],[-84.6465,15.8651,0.0],[-84.6476,15.8635,0.0],[-84.6285,15.856,0.0],[-84.6265,15.8574,0.0],[-84.6299,15.8574,0.0],[-84.6365,15.8607,1.5921],[-84.6349,15.8618,0.0],[-84.6324,15.8601,0.0],[-84.6074,15.8551,0.0],[-84.6026,15.8538,3.115],[-84.6024,15.8524,4.3526],[-84.581,15.8501,0.0],[-84.5735,15.8454,0.0],[-84.5638,15.8451,2.8518],[-84.5568,15.8424,0.9105],[-84.5507,15.844,1.9215],[-84.5401,15.839,3.8861],[-84.5282,15.8388,1.7418],[-84.5282,15.8371,2.7173],[-84.5257,15.8354,3.5602],[-84.5274,15.8321,0.0],[-84.5243,15.8299,0.0],[-84.5176,15.8268,0.0],[-84.5137,15.8293,8.4196],[-84.5165,15.8263,6.9112],[-84.519,15.8265,0.0],[-84.5157,15.8237,0.0],[-84.5021,15.824,10.6058],[-84.5043,15.8224,4.4921],[-84.5032,15.8154,10.1318],[-84.5062,15.814,5.9755],[-84.5032,15.8087,6.3327],[-84.504,15.8057,12.5933],[-84.5068,15.8054,12.3987],[-84.5088,15.8085,3.1476],[-84.5137,15.8079,1.1444],[-84.5135,15.8018,4.0448],[-84.5165,15.7985,6.1057],[-84.5268,15.7985,4.1301],[-84.5276,15.801,5.5349],[-84.526,15.8035,2.2554],[-84.5196,15.8065,0.0],[-84.5201,15.809,0.0],[-84.5257,15.8107,0.0],[-84.526,15.8074,2.3692],[-84.5279,15.8079,1.6528],[-84.5349,15.8015,3.7141],[-84.5338,15.7976,1.1629],[-84.5401,15.7932,0.9682],[-84.5396,15.7915,0.0],[-84.5346,15.7907,4.0178],[-84.5338,15.7863,0.0],[-84.5304,15.7849,4.2554],[-84.531,15.7829,5.8725],[-84.5357,15.7801,3.3489],[-84.5379,15.7818,2.1048],[-84.5393,15.7804,6.625],[-84.5457,15.781,0.0],[-84.5474,15.7782,2.7092],[-84.5543,15.7824,0.0],[-84.5529,15.7799,1.1246],[-84.554,15.7776,0.0],[-84.5501,15.7754,0.0],[-84.5496,15.7724,0.0],[-84.551,15.7713,0.52],[-84.554,15.7738,0.0],[-84.5585,15.7743,0.9674],[-84.5554,15.779,0.0],[-84.5615,15.7824,0.0],[-84.5746,15.7804,1.5666],[-84.5782,15.7785,1.4816],[-84.5857,15.7807,6.6031],[-84.5924,15.7885,0.0],[-84.5968,15.8013,0.0],[-84.5999,15.8018,5.8602],[-84.6007,15.8057,0.0],[-84.6062,15.8071,0.0],[-84.6154,15.8157,0.0],[-84.6179,15.8149,1.1041],[-84.6201,15.8104,0.0],[-84.6201,15.8057,0.0],[-84.6137,15.7929,0.0],[-84.6151,15.786,7.1593],[-84.6276,15.7768,11.2837],[-84.6379,15.7738,4.6031],[-84.6462,15.7743,3.5833],[-84.6515,15.7768,8.8886],[-84.6629,15.7885,10.2024],[-84.6712,15.8087,4.1064],[-84.6718,15.816,0.0],[-84.6699,15.8218,0.0],[-84.6671,15.8226,2.0507],[-84.6665,15.8379,3.5315],[-84.6629,15.8518,7.7638],[-84.6571,15.8596,2.2036],[-84.6504,15.8615,0.0],[-84.6579,15.8676,0.0],[-84.6843,15.8718,1.5801],[-84.6988,15.8765,0.5788],[-84.7032,15.8735,3.1342],[-84.7021,15.876,3.5941],[-84.704,15.8771,0.0],[-84.724,15.8826,0.0],[-84.7274,15.8829,0.7483],[-84.7296,15.8796,1.0453],[-84.7326,15.8788,0.266],[-84.7293,15.881,0.6132],[-84.7288,15.8835,2.6346],[-84.7821,15.8988,0.0],[-84.8401,15.919,3.0649],[-84.8815,15.9357,0.8647],[-84.9151,15.954,0.0],[-84.9196,15.954,2.5896],[-84.9221,15.9563,4.572],[-84.9249,15.956,0.0],[-84.9287,15.9513,2.2049],[-84.9335,15.9521,0.0],[-84.9418,15.9574,0.0],[-84.9449,15.9571,0.0],[-84.9482,15.9482,2.1677],[-84.9415,15.9426,8.3215],[-84.941,15.9371,1.0745],[-84.9424,15.9424,8.3215],[-84.9493,15.9465,4.8854],[-84.9493,15.9507,0.0],[-84.9568,15.9443,1.1081],[-84.9593,15.941,1.2883],[-84.959,15.939,11.3582],[-84.961,15.9401,0.5],[-84.9621,15.939,5.2322],[-84.9546,15.9471,0.6401],[-84.9549,15.949,1.0827],[-84.9532,15.949,1.0827],[-84.9493,15.9565,1.5403],[-84.951,15.9601,1.4823],[-84.9579,15.9618,3.3565],[-84.959,15.9654,0.9038],[-84.9329,15.9543,2.5094],[-84.9282,15.9538,0.6488],[-84.9262,15.9571,2.738],[-84.9899,15.9785,1.5369],[-84.9938,15.9796,0.0],[-84.9972,15.9783,0.7938],[-84.9977,15.8469,12.7344],[-84.994,15.0612,163.946],[-84.997,14.9059,156.9389],[-84.9959,14.7247,116.1136],[-84.9879,14.7346,92.778],[-84.9772,14.7372,116.1638],[-84.9615,14.7513,103.7087],[-84.9399,14.7543,102.6992],[-84.9289,14.7579,92.9429],[-84.9271,14.7605,94.4684],[-84.9279,14.7679,92.5921],[-84.9264,14.7719,102.8125],[-84.9165,14.7858,139.7852],[-84.9122,14.7972,101.0027],[-84.9034,14.8077,104.1437],[-84.899,14.8094,108.0344],[-84.8874,14.8082,109.4795],[-84.8807,14.8102,109.2006],[-84.8682,14.8071,150.1866],[-84.8601,14.807,115.1861],[-84.8385,14.8197,129.7507],[-84.8197,14.8233,90.9903],[-84.8102,14.8177,84.9445],[-84.803,14.8176,93.0986],[-84.7984,14.8108,92.0324],[-84.7929,14.8095,83.5626],[-84.7895,14.7937,90.2646],[-84.7823,14.7837,82.8916],[-84.7756,14.7777,78.1876],[-84.775,14.779,80.7329],[-84.7546,14.7664,71.2667],[-84.7521,14.7574,70.2055],[-84.7565,14.7514,66.3147],[-84.7653,14.7531,72.0972],[-84.769,14.7512,68.5479],[-84.7713,14.7471,71.9008],[-84.7665,14.7403,75.826],[-84.7609,14.7389,70.5129],[-84.749,14.7445,71.4196],[-84.7458,14.7375,63.6946],[-84.7506,14.7257,68.6674],[-84.7468,14.7115,71.2458],[-84.7227,14.691,83.7182],[-84.7122,14.6887,61.6832],[-84.7059,14.671,64.0845],[-84.705,14.6617,72.1547],[-84.6958,14.6609,68.5586],[-84.6888,14.6708,65.3061],[-84.681,14.687,62.0642],[-84.6754,14.6853,61.7147],[-84.6765,14.6799,62.4173],[-84.6706,14.6737,64.7592],[-84.6595,14.6678,66.68],[-84.6539,14.6684,66.258],[-84.6427,14.6727,52.0],[-84.6374,14.6723,56.0302],[-84.6339,14.6678,53.244],[-84.6326,14.662,67.8118],[-84.6284,14.6604,76.7279],[-84.6152,14.6611,56.1729],[-84.6054,14.6556,65.5249],[-84.5985,14.6545,62.2633],[-84.5903,14.6576,54.3459],[-84.5818,14.6501,63.5753],[-84.5693,14.6535,55.8329],[-84.5605,14.6463,64.8],[-84.5538,14.6507,62.6583],[-84.542,14.6512,55.0262],[-84.5354,14.654,55.4734],[-84.5245,14.6538,49.9888],[-84.5232,14.6503,52.2314],[-84.5279,14.6443,55.5183],[-84.5369,14.6415,53.0844],[-84.5376,14.6367,58.7703],[-84.5344,14.6287,59.39],[-84.5271,14.6311,52.0766],[-84.5212,14.6301,61.2191],[-84.511,14.6344,55.8359],[-84.507,14.6334,56.6915],[-84.5058,14.6267,48.2438],[-84.498,14.621,44.0],[-84.4691,14.6145,60.6441],[-84.4661,14.6155,61.0003],[-84.4624,14.6253,51.019],[-84.4577,14.6302,57.0832],[-84.4331,14.6319,50.1233],[-84.41,14.6433,51.2118],[-84.4084,14.6538,63.2268],[-84.3832,14.6773,51.1759],[-84.3773,14.6908,43.6309],[-84.3708,14.6966,48.8026],[-84.3676,14.702,47.388],[-84.3683,14.7087,43.1792],[-84.3646,14.7117,43.413],[-84.3539,14.7042,46.926],[-84.3431,14.7017,45.8911],[-84.351,14.6858,43.6739],[-84.3511,14.6791,46.0807],[-84.3483,14.676,55.0424],[-84.3411,14.6724,55.5432],[-84.3267,14.671,62.7753],[-84.3207,14.6728,52.5458],[-84.317,14.679,54.106],[-84.3093,14.6817,46.929],[-84.3034,14.6769,41.3214],[-84.3004,14.6644,36.4361],[-84.2964,14.6604,51.9502],[-84.2788,14.6551,47.7265],[-84.2573,14.6704,50.8787],[-84.2545,14.6746,45.4806],[-84.2624,14.6818,42.5183],[-84.2631,14.6853,38.6762],[-84.2594,14.693,47.6229],[-84.2593,14.6977,57.007],[-84.269,14.7189,45.5908],[-84.2676,14.7322,44.0018],[-84.2635,14.7376,46.9452],[-84.2388,14.7544,40.6633],[-84.2336,14.7551,40.8684],[-84.2292,14.7535,41.4283],[-84.2225,14.7483,30.3062],[-84.2233,14.7425,46.5496],[-84.2287,14.7312,37.7782],[-84.2188,14.7268,46.8921],[-84.2061,14.7157,40.3305],[-84.1902,14.7092,38.4497],[-84.1802,14.7079,43.5263],[-84.1464,14.7136,47.1763],[-84.1398,14.7213,38.922],[-84.1289,14.7259,45.5374],[-84.1241,14.7262,40.3435],[-84.1021,14.7212,37.3204],[-84.0985,14.7223,43.1282],[-84.1003,14.7344,34.1164],[-84.0992,14.7376,31.5617],[-84.1066,14.7431,36.8619],[-84.1152,14.7604,30.0471],[-84.1182,14.7702,42.7904],[-84.1177,14.7784,25.9952],[-84.1136,14.7838,30.9701],[-84.0991,14.7851,44.433],[-84.0871,14.7818,34.1117],[-84.0848,14.7783,35.1891],[-84.0862,14.767,32.0908],[-84.0847,14.756,32.66],[-84.0824,14.7533,39.9755],[-84.0776,14.7524,39.8161],[-84.0647,14.7573,29.4411],[-84.0521,14.7649,31.0002],[-84.0485,14.7644,29.7858],[-84.0458,14.7597,28.5242],[-84.0471,14.7531,22.007],[-84.0436,14.7425,35.446],[-84.0273,14.7384,32.9733],[-84.0074,14.749,27.1357],[-84.0034,14.7493,29.3381],[-83.9887,14.7421,34.5673],[-83.9803,14.74,34.9743],[-83.9548,14.7505,23.439],[-83.95,14.7504,20.3022],[-83.9401,14.7433,38.6297],[-83.9321,14.7427,32.3203],[-83.9304,14.7466,36.5792],[-83.9385,14.7655,28.6353],[-83.9365,14.7682,19.5296],[-83.9237,14.7676,25.5918],[-83.918,14.7722,17.9923],[-83.8989,14.759,33.8247],[-83.8897,14.7624,26.4702],[-83.8924,14.7671,16.8354],[-83.889,14.7799,20.828],[-83.8857,14.7806,24.1117],[-83.8818,14.7778,23.16],[-83.8792,14.7626,34.0741],[-83.8772,14.7618,31.8086],[-83.8635,14.7678,31.2039],[-83.8515,14.7668,33.4913],[-83.8355,14.7837,11.5],[-83.8169,14.787,24.3663],[-83.7994,14.7851,21.386],[-83.7962,14.787,21.8147],[-83.8013,14.7918,20.2649],[-83.8184,14.8006,24.0949],[-83.8195,14.8038,19.1671],[-83.8151,14.8061,16.2345],[-83.7952,14.7979,18.7444],[-83.7883,14.8021,19.5618],[-83.7881,14.8119,24.2971],[-83.7852,14.8145,15.7494],[-83.7742,14.8038,17.7169],[-83.7634,14.8021,19.3871],[-83.7613,14.8071,17.8586],[-83.7628,14.8161,18.7998],[-83.757,14.8235,16.9385],[-83.7522,14.8226,8.9343],[-83.7399,14.8154,17.0383],[-83.7359,14.8157,27.8859],[-83.735,14.8184,14.1471],[-83.7366,14.8227,16.6936],[-83.7405,14.8255,16.2595],[-83.742,14.8298,16.0551],[-83.7388,14.8314,19.234],[-83.7284,14.83,15.0818],[-83.7203,14.8322,14.0031],[-83.7148,14.8302,14.4452],[-83.7112,14.8258,13.6353],[-83.7052,14.8257,4.5],[-83.7063,14.8308,6.6723],[-83.7034,14.8378,16.4991],[-83.7062,14.8402,14.3951],[-83.7138,14.8411,17.6939],[-83.7177,14.8435,16.6899],[-83.714,14.8481,12.5461],[-83.706,14.8488,16.4399],[-83.6999,14.8533,9.6038],[-83.7014,14.8592,14.496],[-83.7009,14.8662,14.76],[-83.6973,14.867,13.1873],[-83.6897,14.8606,13.4665],[-83.6715,14.8712,15.2086],[-83.6595,14.8706,11.7529],[-83.6542,14.8752,14.232],[-83.6473,14.8751,17.5786],[-83.6337,14.8729,11.2094],[-83.6302,14.8694,12.507],[-83.6308,14.86,9.7121],[-83.6252,14.8548,11.3252],[-83.6216,14.8567,10.2702],[-83.6246,14.8673,8.7718],[-83.6168,14.8758,12.8231],[-83.6147,14.8804,3.0],[-83.6195,14.886,9.4265],[-83.6194,14.8903,10.391],[-83.5988,14.8961,11.1373],[-83.598,14.8989,10.0814],[-83.6027,14.9048,9.4505],[-83.6018,14.9083,8.6946],[-83.5977,14.9102,9.7592],[-83.5922,14.9089,11.638],[-83.5874,14.9045,10.5278],[-83.5838,14.9041,13.1875],[-83.5785,14.9087,11.2426],[-83.5749,14.909,9.9458],[-83.5689,14.905,10.5849],[-83.5653,14.9053,9.9132],[-83.5636,14.91,8.1991],[-83.5649,14.926,9.2923],[-83.5628,14.9314,9.2001],[-83.5588,14.9337,9.6793],[-83.5472,14.9312,7.6873],[-83.5451,14.935,8.3426],[-83.5514,14.9422,8.2151],[-83.5525,14.9473,7.9184],[-83.5501,14.9488,8.1321],[-83.5378,14.9423,2.0],[-83.5353,14.9442,7.8802],[-83.5416,14.9522,3.2345],[-83.545,14.962,10.9162],[-83.5453,14.9674,8.0891],[-83.5416,14.974,5.7045],[-83.5348,14.9715,8.6339],[-83.5297,14.966,7.6844],[-83.5257,14.9671,7.6506],[-83.5303,14.9758,8.5149],[-83.5317,14.9863,6.4652],[-83.5289,14.9898,6.7778],[-83.5178,14.9802,9.2352],[-83.5136,14.9907,7.3549],[-83.5066,14.9988,8.976],[-83.4981,15.0029,5.3668],[-83.4921,15.004,5.4595],[-83.4837,15.0,8.3787],[-83.4822,14.9933,7.0008],[-83.4839,14.9871,5.7249],[-83.4681,14.9751,5.2148],[-83.4556,14.9776,5.9019],[-83.4398,14.9883,4.1472],[-83.4277,14.9873,7.2631],[-83.4249,14.9888,6.2148],[-83.4204,14.9942,4.1854],[-83.4085,15.0034,4.9559],[-83.4063,15.0072,2.6251],[-83.4073,15.0213,1.2828],[-83.4048,15.0259,6.5383],[-83.3973,15.0246,5.2088],[-83.3892,15.0151,5.1143],[-83.3773,15.0149,0.0],[-83.3665,15.0105,5.4633],[-83.3624,15.0065,5.2589],[-83.36,15.0,5.2923],[-83.3556,14.9961,9.3936],[-83.3497,14.9975,5.6997],[-83.3476,15.01,1.5068],[-83.3448,15.0108,6.4119],[-83.3307,15.0076,3.3023],[-83.3032,14.9947,7.8224],[-83.2809,14.999,3.8236],[-83.2785,14.9971,4.1048],[-83.2794,14.9914,0.0],[-83.291,14.9829,2.9829],[-83.2926,14.9802,10.2588],[-83.2917,14.9778,8.4065],[-83.2837,14.9742,6.3293],[-83.2805,14.9741,5.5772],[-83.2769,14.9822,4.123],[-83.2742,14.9838,3.3336],[-83.2533,14.9845,2.6591],[-83.2369,14.9805,2.8818],[-83.2255,14.9843,1.8432],[-83.2092,14.993,1.5638],[-83.1962,14.9933,0.4726],[-83.1684,14.9897,3.2948],[-83.1489,14.9952,3.7437],[-83.1471,14.9918,4.1521],[-83.141,14.9926,6.919],[-83.1329,14.9907,2.2363],[-83.1321,14.994,1.0885],[-83.1382,14.9951,7.3782],[-83.1382,14.9996,1.6418],[-83.1332,14.9999,2.0775],[-83.1357,14.9968,1.0566],[-83.1304,14.9949,1.8355],[-83.1276,15.0007,0.0],[-83.1307,15.0018,0.368],[-83.1326,15.0001,2.0775],[-83.1374,15.0001,0.0],[-83.1351,15.0038,-0.6857],[-83.1363,15.0074,0.4279],[-83.1385,15.0079,0.8125],[-83.1429,15.0051,4.8209],[-83.1562,15.0071,3.4498],[-83.1462,15.0113,0.0],[-83.151,15.0093,0.0],[-83.156,15.0096,0.0],[-83.1557,15.0082,3.4498],[-83.1588,15.0076,4.8373],[-83.1629,15.0099,1.886],[-83.1949,15.0176,0.6271],[-83.2237,15.0287,1.4871],[-83.2482,15.0415,1.2616],[-83.2676,15.054,0.0],[-83.2957,15.0782,0.0],[-83.3135,15.0999,0.5333],[-83.3335,15.1371,2.09],[-83.3457,15.1729,0.0],[-83.3512,15.1965,0.0],[-83.3568,15.2082,0.486],[-83.3812,15.2471,0.0],[-83.3838,15.2493,0.0],[-83.3865,15.2476,0.0],[-83.3901,15.2557,0.0],[-83.4307,15.2746,0.0],[-83.466,15.2871,0.0],[-83.5768,15.3193,2.3142],[-83.6182,15.3343,0.0],[-83.646,15.3474,0.0],[-83.6854,15.3699,2.9178],[-83.7104,15.389,1.208],[-83.7126,15.3932,0.0],[-83.7151,15.3946,0.0],[-83.7149,15.3965,0.0],[-83.7201,15.3968,0.7053],[-83.7204,15.3907,0.0],[-83.7257,15.3843,0.0],[-83.7254,15.3835,1.3405],[-83.724,15.3843,3.1942],[-83.7249,15.3801,0.8658],[-83.7307,15.3788,0.0],[-83.7362,15.3721,0.0],[-83.7399,15.361,3.7238],[-83.7363,15.3554,0.0],[-83.7304,15.3535,0.0],[-83.724,15.3546,0.8789],[-83.7063,15.3499,1.4703],[-83.7026,15.3465,0.0],[-83.6976,15.3451,4.3095],[-83.6949,15.3415,0.0],[-83.6896,15.3421,8.1062],[-83.6876,15.3395,1.0316],[-83.6879,15.3365,0.0],[-83.6824,15.3304,0.0],[-83.6804,15.3315,0.0],[-83.6813,15.3379,4.6049],[-83.6787,15.3404,1.1927],[-83.6779,15.3351,0.0],[-83.6715,15.3318,1.0786],[-83.669,15.326,0.0],[-83.6665,15.3246,1.0776],[-83.6674,15.3204,0.0],[-83.6632,15.314,1.25],[-83.6565,15.324,0.0],[-83.661,15.3263,0.0],[-83.6646,15.3251,1.3319],[-83.6649,15.3271,2.6962],[-83.656,15.3307,2.705],[-83.6549,15.3321,2.1997],[-83.656,15.3338,4.8713],[-83.6537,15.3343,9.3174],[-83.6524,15.3276,2.4448],[-83.6543,15.3226,1.7724],[-83.6507,15.3176,0.0],[-83.6465,15.316,0.0],[-83.6496,15.314,0.7246],[-83.6479,15.3126,0.7425],[-83.6418,15.3126,2.4348],[-83.6379,15.3096,1.1435],[-83.6299,15.3088,2.2295],[-83.6276,15.3049,6.0506],[-83.6274,15.3001,0.0],[-83.6132,15.3046,0.0],[-83.6096,15.3132,0.5248],[-83.6057,15.3146,1.0823],[-83.6004,15.3129,0.0],[-83.5971,15.3154,0.0],[-83.5924,15.3124,5.825],[-83.5874,15.3049,0.0],[-83.5843,15.3049,0.0],[-83.5804,15.3079,2.5469],[-83.571,15.3057,4.149],[-83.5718,15.2988,1.5081],[-83.5704,15.2932,0.0],[-83.5726,15.2904,0.0],[-83.5715,15.2879,0.0],[-83.5707,15.2915,0.0],[-83.5679,15.2937,0.0],[-83.559,15.2971,6.2384],[-83.5535,15.2968,0.0],[-83.5537,15.3007,1.6153],[-83.551,15.2988,2.1233],[-83.5515,15.2954,0.0],[-83.549,15.2924,4.5841],[-83.5496,15.286,0.0],[-83.5521,15.2801,2.108],[-83.5549,15.2813,0.0],[-83.5557,15.2854,2.8567],[-83.5604,15.2835,4.6614],[-83.5651,15.2876,0.0],[-83.569,15.2829,1.0485],[-83.5738,15.2846,0.0],[-83.5788,15.2835,5.0885],[-83.5835,15.2857,0.0],[-83.586,15.2826,0.0],[-83.5882,15.2829,0.9047],[-83.5899,15.286,0.0],[-83.589,15.2913,1.5986],[-83.5901,15.2932,0.0],[-83.5921,15.2932,0.0],[-83.5957,15.2888,0.0],[-83.5999,15.291,0.0],[-83.6057,15.291,2.1903],[-83.6087,15.2937,2.0734],[-83.6151,15.2913,1.5648],[-83.6212,15.2949,0.8421],[-83.6279,15.2913,1.1161],[-83.6321,15.2913,1.8656],[-83.6343,15.2951,1.7258],[-83.6343,15.2971,4.1499],[-83.631,15.3007,1.868],[-83.6324,15.3043,0.0],[-83.6382,15.2988,0.0],[-83.6418,15.2976,1.2332],[-83.6449,15.2926,1.1593],[-83.6487,15.2904,0.0],[-83.6474,15.2887,0.8381],[-83.6493,15.2876,0.0],[-83.6476,15.2849,0.0],[-83.6485,15.2785,0.0],[-83.6454,15.2757,3.4379],[-83.6454,15.2735,0.6542],[-83.6485,15.2654,0.0],[-83.6524,15.2612,0.1887],[-83.6635,15.2549,0.2528],[-83.6724,15.2554,0.5333],[-83.6724,15.251,1.2565],[-83.676,15.2457,0.0],[-83.6815,15.2463,0.0],[-83.6868,15.2432,1.0495],[-83.6963,15.2424,0.0],[-83.7038,15.2349,0.3916],[-83.7082,15.234,0.0],[-83.7126,15.2276,0.0],[-83.714,15.2215,1.3503],[-83.714,15.2126,1.4233],[-83.7124,15.2071,0.0],[-83.714,15.2032,0.8783],[-83.721,15.1985,0.3322],[-83.7293,15.1965,0.5505],[-83.7335,15.1974,0.0],[-83.7393,15.2029,0.319],[-83.756,15.2085,0.6619],[-83.7579,15.2057,0.2842],[-83.7579,15.2021,0.275],[-83.7571,15.2001,0.0],[-83.7538,15.2007,2.2863],[-83.7529,15.1982,0.4136],[-83.7613,15.1976,0.6064],[-83.7618,15.2032,1.2719],[-83.7637,15.206,0.0],[-83.7657,15.2035,0.0],[-83.7651,15.1976,1.2816],[-83.7671,15.1965,0.224],[-83.7676,15.1938,0.7449],[-83.7696,15.1938,0.0],[-83.7724,15.1968,5.5737],[-83.7735,15.2026,0.4352],[-83.7693,15.2063,0.8903],[-83.7671,15.2054,0.0],[-83.7668,15.2076,0.0],[-83.7701,15.2118,2.9533],[-83.7729,15.2182,0.7674],[-83.7721,15.2199,0.4499],[-83.7771,15.2296,0.0],[-83.7754,15.2365,0.0],[-83.7721,15.2374,0.6113],[-83.7715,15.2404,0.0],[-83.7668,15.2437,0.0],[-83.7682,15.2537,0.0],[-83.7657,15.2568,1.0736],[-83.7682,15.2651,0.0],[-83.7757,15.2729,0.0],[-83.7787,15.2738,0.5561],[-83.7826,15.281,0.0],[-83.7871,15.2818,2.7825],[-83.7871,15.2849,2.216],[-83.7921,15.2876,0.0],[-83.7896,15.2838,2.7536],[-83.7907,15.281,0.0],[-83.789,15.2788,0.0],[-83.7937,15.2776,0.0],[-83.7926,15.2735,0.4475],[-83.7996,15.2687,1.877],[-83.8043,15.2671,0.2237],[-83.8126,15.2679,0.0],[-83.8182,15.2654,0.0],[-83.8251,15.2668,0.4812],[-83.8215,15.2726,2.1276],[-83.8187,15.2724,0.4775],[-83.8096,15.2774,0.2622],[-83.8079,15.2801,0.1477],[-83.8037,15.2813,0.0],[-83.8004,15.2907,0.0],[-83.8104,15.296,0.0],[-83.8129,15.2954,1.8317],[-83.8165,15.2996,0.0],[-83.819,15.2996,1.0107],[-83.8216,15.3035,1.3069],[-83.8235,15.3032,1.5848],[-83.8321,15.3176,0.0],[-83.8354,15.3151,2.6333],[-83.8388,15.3149,0.896],[-83.8424,15.3196,0.0],[-83.8607,15.3193,0.6167],[-83.8701,15.3254,0.0],[-83.8774,15.3279,0.9373],[-83.8835,15.3324,1.0741],[-83.8874,15.339,0.0],[-83.8962,15.3485,0.0],[-83.9137,15.354,0.0],[-83.9201,15.3612,1.1488],[-83.9235,15.3629,0.0],[-83.9282,15.3699,2.0897],[-83.9457,15.3779,1.3497],[-83.9585,15.3893,0.0],[-83.9657,15.3929,1.2226],[-83.9679,15.3921,0.0],[-83.9687,15.3943,0.0],[-83.9721,15.394,2.1939],[-83.9732,15.396,0.0],[-83.9793,15.3979,0.0],[-83.9876,15.3968,2.1008],[-83.9968,15.3999,0.0],[-84.006,15.3999,2.3667],[-84.0107,15.4021,0.0],[-84.019,15.4012,4.7945],[-84.0215,15.4026,0.0],[-84.0235,15.396,0.0],[-84.0215,15.3943,3.515],[-84.0151,15.3993,6.8465],[-84.0121,15.386,2.8427],[-84.0096,15.3843,0.6656],[-84.0043,15.3865,1.1928],[-83.9985,15.3835,5.3124],[-84.0062,15.3849,8.3588],[-84.0137,15.3804,4.2987],[-84.016,15.3851,4.9856],[-84.0257,15.3879,8.9908],[-84.0257,15.3907,9.9463],[-84.0229,15.3929,6.2538],[-84.0243,15.3946,2.4001],[-84.0488,15.389,2.2421],[-84.0479,15.3824,1.2454],[-84.0443,15.3821,12.8688],[-84.044,15.3804,7.5366],[-84.0501,15.3821,0.0],[-84.0504,15.3768,0.0],[-84.041,15.3676,5.5075],[-84.0421,15.3618,0.0],[-84.0362,15.3499,2.2649],[-84.0299,15.3413,8.7155],[-84.0299,15.3276,8.2911],[-84.0376,15.3215,8.4498],[-84.0426,15.3212,10.2541],[-84.0471,15.3235,7.0134],[-84.0512,15.329,0.0],[-84.0549,15.3285,8.0317],[-84.0537,15.334,0.0],[-84.079,15.3324,1.5786],[-84.0874,15.3363,2.5698],[-84.0907,15.3357,2.1534],[-84.1001,15.341,1.7668],[-84.1126,15.3532,8.8135],[-84.121,15.3646,6.5464],[-84.1329,15.3851,4.226],[-84.1338,15.3899,0.0],[-84.1385,15.396,12.5335],[-84.1385,15.4046,1.5151],[-84.1396,15.4054,1.5151],[-84.1349,15.4026,0.5208],[-84.1299,15.4049,0.2008],[-84.1263,15.404,1.1973],[-84.1243,15.4101,0.4195],[-84.1276,15.4146,0.0],[-84.1351,15.419,0.0],[-84.1335,15.4201,0.0],[-84.1343,15.4229,0.6328],[-84.1329,15.4246,0.0],[-84.1368,15.4249,1.6704],[-84.1254,15.431,6.0241],[-84.1196,15.4282,1.1712],[-84.121,15.4271,1.1712],[-84.1243,15.4296,1.2795],[-84.1226,15.4257,2.5902],[-84.1157,15.4249,0.4439],[-84.1096,15.4265,1.4001999999999999],[-84.1054,15.4299,2.8521],[-84.1024,15.436,0.0],[-84.1038,15.4476,2.6147],[-84.1057,15.4513,2.7731],[-84.1101,15.4529,1.4073],[-84.1124,15.4562,2.6194],[-84.1079,15.454,1.6021],[-84.1074,15.456,1.1385],[-84.114,15.4587,7.9247],[-84.114,15.4604,3.6447],[-84.1168,15.4624,0.0],[-84.1196,15.4679,11.9702],[-84.1196,15.4751,10.6263],[-84.1168,15.476,10.4147],[-84.1146,15.4738,6.6629],[-84.1121,15.4738,10.5739],[-84.1029,15.4757,12.8713],[-84.0954,15.4738,7.9329],[-84.0926,15.4774,5.2261],[-84.0888,15.4785,2.8201],[-84.0876,15.4846,8.6942],[-84.0857,15.4874,5.2815],[-84.0826,15.4882,6.5392],[-84.0765,15.4868,0.0],[-84.0707,15.4818,0.0],[-84.0704,15.4921,10.8385],[-84.0668,15.4924,2.2517],[-84.0582,15.4999,3.8032],[-84.0435,15.5238,1.1434],[-84.0451,15.5246,1.1434],[-84.0543,15.5238,1.4772],[-84.0546,15.5263,4.2779],[-84.0404,15.5263,2.7595],[-84.0287,15.5168,0.0],[-84.0154,15.5174,3.2847],[-84.0107,15.5143,1.5112],[-84.0018,15.5046,1.854],[-83.9932,15.5024,3.6611],[-83.9874,15.499,3.7532],[-83.9743,15.4971,8.6286],[-83.9788,15.4965,4.2068],[-83.9799,15.4932,0.0],[-83.9788,15.4921,2.322],[-83.9676,15.4935,0.0],[-83.9674,15.496,0.8973],[-83.9699,15.4979,1.5023],[-83.9657,15.5004,0.0],[-83.9629,15.5065,1.8489],[-83.9607,15.5043,8.5525],[-83.959,15.4938,2.8809],[-83.9524,15.4885,0.5396],[-83.9401,15.4832,2.5155],[-83.9313,15.4754,0.558],[-83.9268,15.469,0.3807],[-83.9229,15.4554,2.0073],[-83.9238,15.451,3.7647],[-83.9346,15.4557,0.0],[-83.9365,15.4546,0.0],[-83.9299,15.4504,1.604],[-83.9238,15.4429,1.695],[-83.9024,15.4385,0.0],[-83.8832,15.4413,2.1381],[-83.8696,15.4363,0.7589],[-83.8593,15.4296,0.0],[-83.8404,15.4276,1.9752],[-83.834,15.4251,0.0],[-83.8165,15.4151,0.0],[-83.8087,15.4126,4.9473],[-83.8076,15.4104,0.0],[-83.8049,15.4096,0.4185],[-83.7768,15.3863,3.6412],[-83.7743,15.3826,0.6335],[-83.7626,15.3762,2.5047],[-83.7568,15.3701,0.0],[-83.7401,15.3746,0.0],[-83.7276,15.3932,0.0],[-83.7296,15.3949,0.0],[-83.7479,15.3974,0.0],[-83.7715,15.4029,1.5097],[-83.8057,15.416,1.3689],[-83.8551,15.4426,0.0],[-83.8901,15.4665,0.5815],[-83.9296,15.4979,0.9772],[-84.0007,15.5596,4.8863],[-84.0943,15.6471,0.0],[-84.1535,15.696,0.0],[-84.1588,15.6965,8.2822],[-84.1574,15.6985,1.0769],[-84.1593,15.7004,3.4331],[-84.2921,15.8054,0.0]]],
[[[-84.109,15.4685,0.8003],[-84.1121,15.469,0.6215],[-84.1101,15.4668,0.3665],[-84.1087,15.4671,0.8003],[-84.109,15.4685,0.8003]]],
[[[-84.1007,15.474,4.1053],[-84.111,15.4738,5.7198],[-84.1124,15.4715,0.2169],[-84.1062,15.4704,2.1617],[-84.1079,15.4688,0.0],[-84.1054,15.4668,0.0],[-84.1035,15.4688,1.2781],[-84.1004,15.4679,0.0],[-84.0968,15.471,0.2929],[-84.0976,15.4732,0.3731],[-84.1007,15.474,4.1053]]],
[[[-84.6551,15.8243,3.456],[-84.6562,15.8243,3.456],[-84.6571,15.8199,0.0],[-84.6551,15.8218,3.9273],[-84.6551,15.8243,3.456]]],
[[[-84.0793,15.4857,3.4438],[-84.081,15.4865,5.6051],[-84.0843,15.4851,11.2258],[-84.084,15.4746,5.2125],[-84.0815,15.471,0.6869],[-84.0782,15.4713,5.212],[-84.0718,15.4685,6.4818],[-84.0668,15.4604,4.1261],[-84.0663,15.4568,0.8099],[-84.0599,15.4501,0.0],[-84.059,15.4446,1.041],[-84.0618,15.4413,2.6209],[-84.0615,15.4376,1.7669],[-84.0596,15.4321,2.6195],[-84.0556,15.4288,5.2615],[-84.0512,15.4201,2.2777],[-84.0537,15.4057,0.0],[-84.0496,15.404,3.1078],[-84.0376,15.4149,1.2518],[-84.0371,15.4171,0.0],[-84.0432,15.4357,0.0],[-84.0465,15.4388,0.0],[-84.051,15.4496,6.3409],[-84.0549,15.4729,1.0599],[-84.0582,15.4757,0.0],[-84.0721,15.4779,2.3112],[-84.0793,15.4857,3.4438]]],
[[[-83.0001,14.9999,0.0],[-82.9999,14.9999,0.0],[-82.9999,15.0001,0.0],[-83.0001,15.0001,0.0],[-83.0001,14.9999,0.0]]],
[[[-82.9179,15.7304,0.0],[-82.9199,15.731,0.0],[-82.9193,15.7271,0.0],[-82.9168,15.7285,0.0],[-82.9179,15.7304,0.0]]],
[[[-83.3026,15.831,2.765],[-83.3024,15.8324,0.0],[-83.3037,15.8324,0.0],[-83.3057,15.829,0.0],[-83.304,15.8285,0.0],[-83.3026,15.831,2.765]]],
[[[-84.6151,15.8557,0.0],[-84.6185,15.8554,0.0],[-84.6126,15.851,2.6175],[-84.6029,15.8515,0.0],[-84.6071,15.854,4.1783],[-84.6151,15.8557,0.0]]],
[[[-83.9229,17.4176,0.0],[-83.9243,17.4185,0.0437],[-83.926,17.4165,3.0863],[-83.9299,17.4162,0.0436],[-83.9324,17.411,3.57],[-83.9357,17.4124,0.0],[-83.9385,17.4107,0.0],[-83.9424,17.411,0.1299],[-83.9449,17.406,0.0],[-83.9449,17.404,0.0],[-83.9426,17.403199999999998,0.6782],[-83.9435,17.4004,0.0],[-83.9335,17.4054,0.0],[-83.929,17.403199999999998,0.0],[-83.924,17.4071,5.3798],[-83.9143,17.4074,2.0836],[-83.9146,17.4099,1.7897],[-83.921,17.4115,13.1896],[-83.9229,17.4176,0.0]]],
[[[-82.4071,15.8585,0.0],[-82.4101,15.859,0.0],[-82.4071,15.8571,0.0],[-82.4088,15.8554,0.21],[-82.4082,15.8538,0.21],[-82.4057,15.8549,0.0],[-82.4071,15.8585,0.0]]],
[[[-83.3057,15.8601,3.4734],[-83.3079,15.861,0.0],[-83.3074,15.8588,0.0],[-83.3057,15.8585,0.0],[-83.3057,15.8601,3.4734]]],
[[[-83.256,15.9151,8.8708],[-83.2588,15.916,3.1394],[-83.2574,15.9132,0.0],[-83.2557,15.9135,0.0],[-83.256,15.9151,8.8708]]],
[[[-83.8924,17.4162,2.2009],[-83.8996,17.4165,0.9779],[-83.9043,17.4115,8.752],[-83.9124,17.4085,0.0],[-83.9079,17.4071,4.5838],[-83.8962,17.409,4.4389],[-83.8896,17.4129,0.0],[-83.8907,17.416,0.0],[-83.8924,17.4162,2.2009]]]]}
,"properties": {"GID_1": "HND.9_1","GID_0": "HND","country": "Honduras","province": "GraciasaDios","VARNAME_1": "NA","NL_NAME_1": "NA","TYPE_1": "Departamento","ENGTYPE_1": "Department","CC_1": "NA","HASC_1": "HN.GD","ISO_1": "HN-GD","name": "Graciasa_Dios.province","area_km2": 16403.07,"hist_schema_id": "Elevation0-9000","hist_area_km2": {"0": 4731.1,"25": 3435.39,"50": 2045.54,"75": 1765.54,"100": 1061.78,"125": 808.1,"150": 572.79,"175": 408.04,"200": 286.88,"225": 208.39,"250": 181.54,"275": 155.3,"300": 131.99,"325": 112.91,"350": 93.73,"375": 77.75,"400": 61.08,"425": 48.38,"450": 35.21,"475": 28.19,"500": 20.46,"525": 19.37,"550": 17.63,"575": 16.47,"600": 13.85,"625": 13.18,"650": 10.97,"675": 8.18,"700": 7.22,"725": 6.92,"750": 5.36,"775": 3.99,"800": 4.03,"825": 2.54,"850": 1.39,"875": 0.51,"900": 0.35,"925": 0.29,"950": 0.18,"975": 0.22,"1025": 0.16}}}