{"type":"Feature","properties":{"ISO3166-1-Alpha-3":"HND","country":"Honduras","fill":"#F0F","id":"640","name":"Gracias a Dios"},
"geometry":{"type": "MultiPolygon","coordinates": [[[[-82.55887,15.0725,0.0],[-82.56082,15.07164,0.0],[-82.5598,15.07014,0.0],[-82.55968,15.07018,0.0],[-82.55927,15.06961,0.0],[-82.55801,15.07026,0.0],[-82.55834,15.07201,0.0],[-82.55875,15.0718,0.0],[-82.55887,15.0725,0.0]]],
[[[-82.67781,15.08804,0.0],[-82.6798,15.08714,0.0],[-82.67874,15.08564,0.0],[-82.67862,15.08568,0.0],[-82.67821,15.08511,0.0],[-82.67699,15.08576,0.0],[-82.67732,15.08751,0.0],[-82.67772,15.08731,0.0],[-82.67781,15.08804,0.0]]],
[[[-82.59463,15.1249,0.0],[-82.59508,15.12792,0.0],[-82.59691,15.12564,0.0],[-82.59561,15.12401,0.0],[-82.59463,15.1249,0.0]]],
[[[-82.58381,15.13288,0.0],[-82.58576,15.13198,0.0],[-82.58475,15.13052,0.0],[-82.58462,15.13056,0.0],[-82.58422,15.12999,0.0],[-82.583,15.1306,0.0],[-82.58332,15.13235,0.0],[-82.58373,15.13215,0.0],[-82.58381,15.13288,0.0]]],
[[[-82.69864,15.15611,0.0],[-82.70381,15.15477,0.0],[-82.70267,15.15274,0.0],[-82.69864,15.15611,0.0]]],
[[[-82.53189,15.15518,0.0],[-82.53372,15.15872,0.0],[-82.53392,15.15518,0.0],[-82.53189,15.15518,0.0]]],
[[[-82.53608,15.17194,0.0],[-82.53852,15.17418,0.0],[-82.53641,15.17133,0.0],[-82.53608,15.17194,0.0]]],
[[[-82.54206,15.18329,0.0],[-82.54402,15.18244,0.0],[-82.543,15.18093,0.0],[-82.54288,15.18098,0.0],[-82.54247,15.18041,0.0],[-82.54125,15.18106,0.0],[-82.54153,15.18281,0.0],[-82.54198,15.1826,0.0],[-82.54206,15.18329,0.0]]],
[[[-82.55321,15.18667,0.0],[-82.55781,15.18704,0.0],[-82.5563,15.18435,0.0],[-82.55321,15.18667,0.0]]],
[[[-82.63825,15.19396,0.0],[-82.64151,15.19139,0.0],[-82.63915,15.18993,0.0],[-82.63825,15.19396,0.0]]],
[[[-82.58438,15.19717,0.0],[-82.58462,15.2014,0.0],[-82.58751,15.1979,0.0],[-82.5856,15.19684,0.0],[-82.58438,15.19717,0.0]]],
[[[-82.5996,15.2272,0.0],[-82.60403,15.22671,0.0],[-82.60058,15.22301,0.0],[-82.5996,15.2272,0.0]]],
[[[-82.6975,15.22899,0.0],[-82.69864,15.23302,0.0],[-82.70067,15.22858,0.0],[-82.69896,15.22671,0.0],[-82.6975,15.22899,0.0]]],
[[[-82.62698,15.24482,0.0],[-82.62955,15.24925,0.0],[-82.62796,15.24482,0.0],[-82.62698,15.24482,0.0]]],
[[[-83.29438,15.83836,0.0],[-83.29621,15.83869,0.0],[-83.29507,15.83592,0.0793],[-83.29438,15.83836,0.0]]],
[[[-83.30219,15.85468,0.0],[-83.30289,15.8546,0.0],[-83.30305,15.85419,0.0],[-83.30374,15.85383,0.0],[-83.30256,15.85269,0.0],[-83.30219,15.85468,0.0]]],
[[[-83.30386,15.85668,0.0],[-83.30582,15.85578,0.0],[-83.30476,15.85427,0.0],[-83.30468,15.85432,0.0],[-83.30427,15.85375,0.0],[-83.30321,15.85432,0.0],[-83.30309,15.8548,0.0],[-83.30333,15.85615,0.0],[-83.30374,15.85594,0.0],[-83.30386,15.85668,0.0]]],
[[[-83.30525,15.85928,3.4734],[-83.30565,15.85834,0.0],[-83.30468,15.8583,0.0],[-83.30525,15.85928,3.4734]]],
[[[-83.30533,15.85993,3.4734],[-83.30891,15.86253,0.0],[-83.30565,15.85961,3.4734],[-83.30533,15.85993,3.4734]]],
[[[-83.25939,15.91234,0.0],[-83.26106,15.91226,0.0],[-83.26053,15.91071,0.0],[-83.2602,15.9101,0.0],[-83.25939,15.91234,0.0]]],
[[[-83.25654,15.91649,0.0],[-83.25849,15.91564,3.1394],[-83.25748,15.91413,3.143],[-83.25735,15.91417,3.143],[-83.25695,15.9136,0.0],[-83.25573,15.91421,8.8708],[-83.25601,15.916,0.0],[-83.25642,15.91576,0.0],[-83.25654,15.91649,0.0]]],
[[[-83.26155,15.9195,0.0],[-83.26212,15.92166,0.0],[-83.26301,15.9197,0.0],[-83.26273,15.91877,0.0],[-83.26155,15.9195,0.0]]],
[[[-83.27221,15.92202,0.0],[-83.27302,15.92072,0.0],[-83.27208,15.92064,0.0],[-83.27221,15.92202,0.0]]],
[[[-83.2683,15.92064,0.0],[-83.26867,15.92219,0.0],[-83.26891,15.92064,0.0],[-83.2683,15.92064,0.0]]],
[[[-83.26557,15.92971,0.0],[-83.26728,15.92817,0.0],[-83.26643,15.92744,0.0],[-83.26557,15.92971,0.0]]],
[[[-83.27709,15.95763,0.0],[-83.27904,15.95677,0.0],[-83.27802,15.95527,0.0],[-83.2779,15.95531,0.0],[-83.2775,15.95474,0.0],[-83.27628,15.95535,0.0],[-83.27656,15.9571,0.0],[-83.27697,15.9569,2.0125],[-83.27709,15.95763,0.0]]],
[[[-83.28344,15.95873,0.0],[-83.2851,15.96003,0.0],[-83.28604,15.95856,0.0],[-83.28454,15.95803,0.0],[-83.28344,15.95873,0.0]]],
[[[-84.66005,15.77449,0.8174],[-84.68108,15.79427,16.0245],[-84.68094,15.81918,15.4021],[-84.68085,15.83492,14.1185],[-84.66848,15.85321,1.9667],[-84.66228,15.86564,3.2823],[-84.67655,15.8762,0.0],[-84.73359,15.89503,0.0],[-84.85446,15.92975,0.0],[-84.95077,15.97201,0.0],[-84.99995,15.98794,0.0],[-84.99995,15.06874,231.836],[-84.99995,14.981,83.5966],[-84.99995,14.74277,145.4505],[-84.99995,14.74202,162.118],[-84.98437,14.75223,130.7504],[-84.96646,14.76463,119.2117],[-84.92063,14.8077,136.2634],[-84.90422,14.81698,108.064],[-84.84443,14.82755,103.6882],[-84.8181,14.82866,86.1526],[-84.79213,14.82106,101.0611],[-84.77017,14.80514,110.7169],[-84.75547,14.78148,79.8034],[-84.75857,14.77866,70.514],[-84.7664,14.76887,71.212],[-84.76694,14.7669,71.8546],[-84.74704,14.76447,76.0457],[-84.74428,14.75241,68.1166],[-84.74529,14.7391,66.1395],[-84.72485,14.72564,68.9226],[-84.71441,14.70892,68.2532],[-84.69932,14.67469,68.1681],[-84.68085,14.68546,62.0642],[-84.6617,14.68345,62.6999],[-84.62297,14.66722,57.8986],[-84.60044,14.66252,56.6979],[-84.52742,14.6604,49.9079],[-84.53122,14.65332,53.8631],[-84.53422,14.63373,53.678],[-84.519049999999993,14.63828,57.5186],[-84.50848,14.63262,56.9821],[-84.49802,14.62391,57.132],[-84.48269,14.61947,52.1979],[-84.47161,14.62262,59.0117],[-84.44572,14.63668,64.9095],[-84.40843,14.64942,60.5442],[-84.39001,14.67148,49.7362],[-84.37614,14.69673,47.937],[-84.36293,14.71561,43.1543],[-84.35319,14.70598,39.7806],[-84.34604,14.67998,41.6379],[-84.33839,14.67469,43.7834],[-84.32317,14.67332,58.6531],[-84.29888,14.66799,43.7817],[-84.2878,14.66722,62.4415],[-84.26728,14.67774,55.6534],[-84.26216,14.69975,31.25],[-84.26733,14.74667,49.0717],[-84.2618,14.75853,42.0795],[-84.24922,14.75941,50.0325],[-84.2354,14.75473,39.9739],[-84.22638,14.74977,37.3842],[-84.21868,14.74344,43.3376],[-84.19501,14.71872,40.7584],[-84.18289,14.71386,38.2438],[-84.16819,14.71497,26.75],[-84.1438,14.72187,35.1577],[-84.13788,14.72523,37.5226],[-84.13385,14.73003,28.4238],[-84.12874,14.73419,39.0111],[-84.11962,14.7361,49.5879],[-84.11122,14.73471,38.0288],[-84.10652,14.73233,35.282],[-84.10228,14.73187,36.7935],[-84.09543,14.7361,29.7735],[-84.09543,14.7436,33.9131],[-84.10419,14.75187,25.9258],[-84.11111,14.76104,26.8651],[-84.12272,14.78453,40.6202],[-84.11176,14.79341,35.1781],[-84.10445,14.79393,45.7639],[-84.08156,14.7798,24.7076],[-84.07897,14.77517,35.6914],[-84.0752,14.77163,32.6163],[-84.06468,14.77026,30.7251],[-84.04781,14.7708,30.2439],[-84.04267,14.76807,28.7796],[-84.04076,14.76034,29.7125],[-84.02357,14.75833,31.0609],[-83.92472,14.76344,22.5959],[-83.92986,14.77166,25.2619],[-83.92965,14.78088,26.5862],[-83.92472,14.80377,28.9149],[-83.91265,14.79719,22.0437],[-83.89655,14.78044,24.4854],[-83.88376,14.77711,28.9224],[-83.885,14.78135,24.1117],[-83.88994,14.79073,27.3137],[-83.88268,14.78783,20.1985],[-83.87875,14.78675,20.3842],[-83.87526,14.78427,18.2791],[-83.86948,14.77711,21.2508],[-83.85731,14.78778,24.2402],[-83.8395,14.79742,20.5017],[-83.81966,14.80362,25.7548],[-83.80121,14.80377,13.0344],[-83.80899,14.80889,21.4348],[-83.81392,14.81377,19.7368],[-83.82105,14.82548,33.1031],[-83.7653,14.82879,19.0742],[-83.74452,14.83667,14.1103],[-83.74656,14.8522,20.7794],[-83.73393,14.85297,16.8941],[-83.72362,14.85158,7.4537],[-83.7162,14.84705,13.2772],[-83.71243,14.83853,18.7501],[-83.70502,14.83853,13.7637],[-83.7145,14.86723,13.0435],[-83.71062,14.87834,14.6349],[-83.69197,14.88697,11.3986],[-83.67215,14.88963,14.3785],[-83.64995,14.8885,9.0921],[-83.63156,14.8832,6.5],[-83.62306,14.87269,8.7679],[-83.61561,14.87269,10.7856],[-83.6113,14.88491,10.3597],[-83.60918,14.89837,11.4832],[-83.60427,14.90919,8.814],[-83.57978,14.91811,9.5844],[-83.55487,14.93741,8.1423],[-83.54048,14.94157,9.446],[-83.54244,14.94508,2.0],[-83.54513,14.95216,7.4761],[-83.54735,14.95521,10.4038],[-83.53249,14.95103,14.411],[-83.52686,14.94837,7.901],[-83.52991,14.96178,6.3287],[-83.52862,14.9734,4.2001],[-83.52304,14.97769,7.4494],[-83.51322,14.96885,7.553],[-83.51262,14.98402,7.5394],[-83.511,14.99017,8.6723],[-83.50573,14.99681,8.3662],[-83.51247,15.0065,7.0943],[-83.50908,15.01154,8.1274],[-83.49901,15.01265,6.4784],[-83.48586,15.01048,8.0712],[-83.48056,15.00555,6.6479],[-83.46839,14.98741,7.8863],[-83.45919,14.9825,7.9388],[-83.43573,14.98518,5.1238],[-83.41547,14.99694,6.3641],[-83.39989,15.01363,8.2319],[-83.39031,15.03097,3.7584],[-83.37783,15.02125,6.2559],[-83.36498,15.01635,2.2567],[-83.35455,15.01007,5.0735],[-83.34935,14.99681,1.1785],[-83.33424,15.00645,14.5174],[-83.31705,15.00756,4.5929],[-83.27297,15.00304,0.3382],[-83.28489,14.99738,7.2801],[-83.28566,14.99211,4.5518],[-83.27832,14.98712,1.8631],[-83.26615,14.9825,2.6151],[-83.26202,14.9832,2.4391],[-83.21773,14.9825,3.6315],[-83.19133,14.99425,3.2036],[-83.1774,14.99681,1.8961],[-83.14365,14.9949,6.7059],[-83.13044,14.99701,2.7782],[-83.13044,14.99702,2.7782],[-83.25381,15.04462,2.3428],[-83.28429,15.06835,0.7675],[-83.31086,15.10643,0.0],[-83.32844,15.14663,0.0],[-83.34455,15.21088,0.0],[-83.35631,15.22972,0.0],[-83.40803,15.26642,0.0],[-83.54259,15.31574,0.0],[-83.65062,15.37031,0.0],[-83.66137,15.37377,0.0],[-83.67333,15.3806,0.0],[-83.68741,15.39374,0.0],[-83.70299,15.402,0.0],[-83.71939,15.39423,1.8368],[-83.72533,15.37588,5.5194],[-83.70983,15.36709,5.7094],[-83.68895,15.36058,4.206],[-83.67846,15.34927,3.9322],[-83.66959,15.34292,3.9517],[-83.62633,15.32746,1.5166],[-83.61022,15.32534,6.0387],[-83.61413,15.31542,0.7395],[-83.61636,15.31167,1.4766],[-83.61022,15.30488,0.0],[-83.59264,15.31224,5.825],[-83.57787,15.30907,3.8782],[-83.54817,15.29182,6.2954],[-83.52961,15.30101,1.6786],[-83.5172,15.2897,1.8265],[-83.50988,15.27058,0.601],[-83.5065,15.25642,0.5258],[-83.50231,15.24628,0.522],[-83.49657,15.24046,0.5745],[-83.49087,15.23591,1.3105],[-83.48668,15.22972,0.6123],[-83.48217,15.21906,0.6839],[-83.4818,15.21556,0.671],[-83.5266,15.1999,15.1496],[-83.53449,15.19501,7.2294],[-83.54044,15.18867,15.2324],[-83.54955,15.17402,13.6867],[-83.55492,15.16828,5.1231],[-83.57445,15.16047,12.6775],[-83.58703,15.16718,0.0],[-83.59386,15.18476,0.0],[-83.59594,15.2093,0.0],[-83.60338,15.2093,0.0],[-83.60749,15.20283,0.0],[-83.60949,15.19693,0.0],[-83.60847,15.19042,0.0],[-83.60338,15.18195,0.0],[-83.609,15.17739,0.0],[-83.61579,15.17451,4.5306],[-83.62145,15.17617,2.2028],[-83.62385,15.18537,0.0],[-83.62247,15.19595,1.7601],[-83.61913,15.20087,1.5671],[-83.61474,15.20409,1.5817],[-83.61022,15.2093,0.0],[-83.60391,15.22403,0.0],[-83.5985,15.2331,0.0],[-83.59252,15.23721,0.5897],[-83.58385,15.23664,0.7594],[-83.57348,15.23477,0.5565],[-83.56481,15.23139,0.584],[-83.56115,15.2263,0.7015],[-83.5559,15.2093,0.6759],[-83.54442,15.20498,11.3453],[-83.53287,15.21125,7.4686],[-83.52766,15.2263,0.0],[-83.52766,15.25642,6.0592],[-83.52965,15.26374,0.7309],[-83.53295,15.26813,2.8705],[-83.5336,15.27216,0.9729],[-83.52766,15.27814,0.0],[-83.52766,15.28437,0.0],[-83.54467,15.28099,3.1923],[-83.60949,15.29328,3.7269],[-83.61701,15.2956,0.0],[-83.62336,15.29609,0.0],[-83.63003,15.29182,0.0],[-83.63146,15.28384,1.1859],[-83.62938,15.26114,0.8577],[-83.63378,15.25642,0.4695],[-83.66955,15.2519,1.0851],[-83.69026,15.24592,0.0],[-83.7058,15.23721,0.0],[-83.72265,15.20808,0.0],[-83.73103,15.20344,0.0],[-83.7399,15.22289,0.0],[-83.74739,15.22289,0.0],[-83.74718,15.2097,0.0],[-83.75227,15.20254,1.2467],[-83.75984,15.20209,0.0],[-83.7672,15.2093,0.0],[-83.76944,15.21922,0.0],[-83.7672,15.25642,1.0736],[-83.77453,15.28571,0.0],[-83.78531,15.28441,0.0],[-83.79922,15.2746,0.0],[-83.81566,15.27814,4.9847],[-83.81566,15.28437,7.95],[-83.80993,15.28669,5.9311],[-83.80183,15.29369,0.0],[-83.79516,15.29804,0.0],[-83.80386,15.31049,0.0],[-83.81408,15.32168,0.0],[-83.82592,15.32974,0.0],[-83.8544,15.3356,0.0],[-83.87133,15.34284,0.0],[-83.88508,15.35261,0.0],[-83.89074,15.36323,0.0],[-83.90514,15.38353,0.0],[-83.99437,15.42154,0.0],[-84.01671,15.41372,0.0],[-84.02652,15.40868,0.0],[-84.03539,15.40107,0.0],[-84.02379,15.39256,6.2538],[-84.0006,15.36009,1.9655],[-83.98815,15.35236,0.7101],[-83.91173,15.32612,2.7811],[-83.90099,15.32534,0.7306],[-83.89167,15.32339,0.942],[-83.8876,15.31835,2.5845],[-83.88427,15.31171,0.6545],[-83.87706,15.30488,10.2645],[-83.83454,15.28262,17.3],[-83.82189,15.2707,0.9008],[-83.83715,15.26,0.0],[-83.85953,15.25129,0.0],[-83.8828,15.24555,0.0],[-83.90099,15.24339,0.0],[-83.92199,15.24787,0.0],[-83.93838,15.25922,0.0],[-83.95067,15.27481,0.0],[-83.95897,15.29182,0.6799],[-83.95897,15.29804,2.6705],[-83.94791,15.30341,0.0],[-83.9414,15.30524,0.0],[-83.93175,15.30488,0.0],[-83.93175,15.31167,0.0],[-83.98062,15.30573,0.0],[-83.99991,15.30882,0.0],[-84.01358,15.32534,0.0],[-84.00536,15.34129,1.2526],[-84.01008,15.35676,0.0],[-84.02196,15.37031,1.0971],[-84.03539,15.38056,0.9106],[-84.02587,15.35122,8.2092],[-84.03539,15.34186,0.0],[-84.05671,15.34683,0.0],[-84.08251,15.36009,0.0],[-84.09952,15.37759,0.0],[-84.11653,15.40497,0.0],[-84.12418,15.43024,1.2795],[-84.1136,15.44139,11.9386],[-84.09215,15.45091,0.0],[-84.09805,15.47346,0.3731],[-84.11425,15.4999,4.9218],[-84.1278,15.53262,4.3994],[-84.13712,15.53807,1.63],[-84.14656,15.5351,1.4734],[-84.15559,15.50739,6.7709],[-84.17561,15.49828,0.0],[-84.1787,15.48298,4.3336],[-84.18554,15.48298,0.0],[-84.18346,15.49494,0.0],[-84.18017,15.50617,0.0],[-84.18041,15.51447,0.0],[-84.19872,15.52074,0.0],[-84.20515,15.52851,1.097],[-84.21288,15.55121,1.5639],[-84.201,15.54987,1.7928],[-84.18383,15.54588,1.6197],[-84.17195,15.54507,1.056],[-84.1549,15.55069,1.1969],[-84.14175,15.55313,1.2691],[-84.13036,15.55121,3.6169],[-84.11929,15.53929,5.4683],[-84.08934,15.48298,15.527],[-84.08251,15.48298,5.4249],[-84.08031,15.4864,3.4438],[-84.07934,15.48753,2.3833],[-84.07824,15.48823,8.6585],[-84.07575,15.49042,11.4831],[-84.08837,15.50487,1.1588],[-84.10001,15.52326,0.0],[-84.10643,15.54043,4.9401],[-84.10363,15.55121,2.0787],[-84.09618,15.55264,1.2241],[-84.08438,15.55219,1.2548],[-84.07364,15.55048,1.1289],[-84.06884,15.54816,1.074],[-84.07116,15.54165,1.5568],[-84.07657,15.53555,1.3802],[-84.08934,15.5246,0.0],[-84.06159,15.51508,1.2168],[-84.05525,15.51093,2.3276],[-84.04117,15.52021,0.0],[-84.03392,15.52888,1.5799],[-84.02453,15.5351,0.9376],[-84.00402,15.53758,4.9407],[-83.9912,15.53168,3.4506],[-83.97716,15.52021,2.3567],[-83.96373,15.51252,4.6418],[-83.95279,15.51777,0.0],[-83.94595,15.51777,0.0],[-83.91308,15.48184,3.0627],[-83.90441,15.46939,3.3772],[-83.90917,15.46784,2.3503],[-83.9134,15.46483,1.2314],[-83.91808,15.46312,1.1123],[-83.90636,15.45197,0.0017],[-83.89314,15.44916,0.8861],[-83.86278,15.44888,0.0],[-83.85342,15.44477,0.0],[-83.83446,15.43179,0.0],[-83.80622,15.42235,0.0],[-83.7683,15.39338,4.2741],[-83.7508,15.38679,4.1772],[-83.73591,15.38862,5.4358],[-83.72936,15.39374,2.4702],[-83.72997,15.40156,0.0],[-83.73681,15.41132,0.0],[-83.74568,15.41584,0.0],[-83.78087,15.42154,0.0],[-83.79906,15.42935,0.0],[-83.81753,15.43989,0.0],[-83.89417,15.48518,0.0],[-83.95293,15.53289,0.0],[-84.05831,15.62025,0.0],[-84.16707,15.7097,0.0],[-84.24039,15.76735,0.0],[-84.29464,15.81101,0.0],[-84.31504,15.8177,0.0],[-84.37432,15.82072,1.045],[-84.46417,15.82979,0.0],[-84.60165,15.85482,3.115],[-84.64183,15.86291,3.5071],[-84.63305,15.84713,0.0],[-84.60789,15.8352,0.0],[-84.57797,15.82258,0.0],[-84.49903,15.80968,10.9103],[-84.47387,15.80429,11.818],[-84.45281,15.79565,7.6492],[-84.46852,15.78919,9.8547],[-84.47744,15.77876,8.8707],[-84.52643,15.78494,4.2603],[-84.55026,15.78769,0.0],[-84.57549,15.7839,0.0],[-84.59313,15.79579,0.0],[-84.59987,15.80828,0.0],[-84.60941,15.80898,5.4594],[-84.61219,15.79982,11.0705],[-84.61571,15.77952,0.7923],[-84.6403,15.77178,13.9995],[-84.66005,15.77449,0.8174]]],
[[[-83.324,16.03079,0.0],[-83.32779,16.03461,0.0],[-83.32559,16.02969,0.0],[-83.324,16.03079,0.0]]],
[[[-83.32885,16.03433,0.0],[-83.331,16.0373,0.0],[-83.3306,16.034,0.0],[-83.32885,16.03433,0.0]]]]}}