{"type":"Feature","properties":{"featurecla":"River","scalerank":10,"rivernum":22182,"dissolve":"22182River","name":"null979","name_alt":null,"note":"ID is link back to CEC data","name_full":null,"min_zoom":6.0,"strokeweig":0.2,"uident":2054501,"min_label":7.0},
"geometry":{"type": "LineString","coordinates": [[-84.247670051166224,15.805731512494035,0.0],[-84.2784724600204,15.746771551556535,3.7218],[-84.341379361062067,15.686143296348206,18.3352],[-84.346058723041224,15.587347723431535,18.4437],[-84.3561091787704,15.569281317181535,12.8935],[-84.394602017312067,15.534776108848206,22.5191],[-84.446359829812067,15.510931707806535,26.1475],[-84.485178189187067,15.466986395306535,24.7739],[-84.495920376687067,15.434841213014863,23.1172],[-84.5792537100204,15.318955796348206,54.3842],[-84.596262173562067,15.249457098431535,36.5943],[-84.616200324603724,15.213324285931535,38.1615],[-84.663889126687067,15.174750067181535,49.048],[-84.808827277728724,15.111029364056535,98.804],[-84.8946833975204,15.032822983848206,71.1396],[-84.950510220437067,15.013698634889877,101.2231],[-85.042225715228724,15.011582749473206,263.4065],[-85.098378058978724,14.982936916139877,425.6395],[-85.175038215228724,14.898993231244035,395.1867],[-85.219471808978724,14.817206121869035,276.3847],[-85.295236782937067,14.752020574994035,404.0576],[-85.385812954812067,14.654730535931535,340.0753],[-85.484120246478724,14.591091213014877,342.3333],[-85.5455623037704,14.534043686973206,431.282],[-85.5997615225204,14.424343166139877,544.4638],[-85.632435676166224,14.403102931764877,554.845],[-85.7523494131454,14.364325262494035,329.5811],[-85.821034308978724,14.355007228639877,235.7318],[-85.857248501687067,14.362331447389877,243.992],[-85.9020076162704,14.384385483848206,295.9145],[-85.9195857412704,14.404567775514877,336.2089],[-85.913644986062067,14.446804103639877,562.1783],[-85.846994595437067,14.527411199994035,773.7495],[-85.812001105853724,14.614935614056535,549.8855],[-85.809803840228724,14.676336981244035,348.6254],[-85.844797329812067,14.721462306764877,323.2222],[-85.894602017312067,14.734401759889877,340.3963],[-85.925648566791224,14.760199285931535,323.7594],[-85.975819465228724,14.763698634889877,348.6293],[-86.138783332416224,14.670599676556535,356.3336],[-86.249338345437067,14.640082098431535,481.35],[-86.3710017568954,14.543809311973206,493.8326],[-86.425770637103724,14.542588608848206,561.4102],[-86.448109504291224,14.558213608848206,678.2571],[-86.5270076162704,14.662705796348206,1135.5834],[-86.5978083975204,14.738145249473206,696.0434],[-86.6969294912704,14.782171942181535,1632.1282],[-86.806263801166224,14.807725327598206,781.9753]]}}