{"type":"Feature","properties":{"featurecla":"River","scalerank":6,"rivernum":320,"dissolve":"320River","name":"Coco2","name_alt":null,"note":null,"min_zoom":5.0,"strokeweig":0.25,"name_en":"Coco","min_label":6.0},
"geometry":{"type": "LineString","coordinates": [[-84.985156249999989,14.752460028119117,130.7504],[-84.96728515625,14.76483795780662,119.2117],[-84.92138671875,14.807879949994117,136.2634],[-84.905029296875,14.817157293744117,111.6405],[-84.845263671874989,14.827752996869123,103.6882],[-84.818896484374989,14.828876043744117,71.0],[-84.79296875,14.82123444218162,95.406],[-84.770922851562489,14.80536530155662,110.7169],[-84.756274414062489,14.78168366093162,79.8034],[-84.759375,14.778827215619117,75.3828],[-84.7671875,14.769061590619117,71.212],[-84.767749023437489,14.767108465619117,76.856],[-84.747802734375,14.764667059369117,70.0355],[-84.7451171875,14.752557684369123,70.2674],[-84.746020507812489,14.739276434369117,66.1395],[-84.7255859375,14.72577545780662,68.9226],[-84.715185546874991,14.709100653119123,68.2532],[-84.700122070312489,14.67487213749412,59.0465],[-84.681640625,14.68561432499412,58.7647],[-84.662451171874991,14.683612371869117,62.6999],[-84.623779296875,14.66742584843162,59.3422],[-84.601245117187489,14.66266510624412,57.1883],[-84.528173828124991,14.66058991093162,54.0461],[-84.532031249999989,14.653436590619123,53.8631],[-84.535009765624991,14.63385651249412,46.661],[-84.519824218749989,14.63849518436912,57.5186],[-84.509326171874989,14.632831121869117,56.9821],[-84.498779296875,14.62409088749412,56.2244],[-84.483496093749991,14.619647528119117,52.1979],[-84.472412109375,14.622821356244117,59.0117],[-84.446533203125,14.63690827030662,64.9095],[-84.409228515624989,14.64960358280662,60.5442],[-84.390795898437489,14.67169830936912,49.7362],[-84.376953125,14.69696686405662,39.375],[-84.363696289062489,14.715838934369117,43.1543],[-84.35400390625,14.706170965619123,39.7806],[-84.346850585937489,14.680194403119117,41.6379],[-84.339160156249989,14.67487213749412,43.7834],[-84.323974609375,14.67352936405662,58.2763],[-84.299731445312489,14.66815827030662,43.7817],[-84.28857421875,14.66742584843162,62.2222],[-84.26806640625,14.67792389530662,54.8583],[-84.262988281249989,14.69989655155662,31.25],[-84.268115234374989,14.746844793744117,49.7363],[-84.262622070312489,14.75873444218162,42.0795],[-84.25,14.75958893436912,50.0325],[-84.236181640624991,14.754901434369117,39.9739],[-84.227148437499991,14.74994537968162,37.533],[-84.219482421875,14.74359772343162,43.3376],[-84.19580078125,14.71893952030662,30.6441],[-84.183691406249991,14.71405670780662,34.2106],[-84.168994140624989,14.71515534061912,27.0],[-84.144580078124989,14.722040106244123,26.9709],[-84.138671875,14.72540924686912,28.4942],[-84.134619140624991,14.73016998905662,26.0],[-84.129492187499991,14.73444244999412,39.0111],[-84.120410156249989,14.736346746869117,49.5879],[-84.111987304687489,14.73493073124412,39.0496],[-84.107275390624991,14.732538153119123,37.268],[-84.103076171874989,14.732049871869123,30.5292],[-84.09619140625,14.736346746869117,29.7735],[-84.09619140625,14.74371979374412,33.9131],[-84.10498046875,14.752069403119123,25.9258],[-84.111914062499991,14.761249090619117,30.2128],[-84.123461914062489,14.78473541874412,40.6202],[-84.112548828125,14.793573309369123,35.1781],[-84.105224609375,14.79413483280662,50.1945],[-84.082373046874991,14.77997467655662,24.7076],[-84.079760742187489,14.775409246869117,35.6914],[-84.075976562499989,14.771844793744123,32.6163],[-84.065478515624989,14.77045319218162,36.1478],[-84.048632812499989,14.771014715619117,30.2439],[-84.04345703125,14.76825592655662,28.9701],[-84.041601562499991,14.760516668744117,26.7118],[-84.0244140625,14.75849030155662,31.0609],[-83.925463867187489,14.76361725468162,22.5959],[-83.9306640625,14.77191803593162,26.5606],[-83.930468749999989,14.78107330936912,26.3846],[-83.925463867187489,14.803973699994117,28.9149],[-83.913427734374991,14.79743073124412,22.0437],[-83.897314453124991,14.78058502811912,26.4438],[-83.884521484375,14.77728912968162,28.9224],[-83.885791015624989,14.78156159061912,24.1117],[-83.890722656249991,14.79096100468162,27.3137],[-83.883471679687489,14.78803131718162,16.9446],[-83.879492187499991,14.78693268436912,24.5541],[-83.876025390624989,14.784442449994117,18.2791],[-83.870214843749991,14.77728912968162,21.2508],[-83.858081054687489,14.78790924686912,24.2402],[-83.84033203125,14.797626043744117,20.4084],[-83.820483398437489,14.80377838749412,19.1671],[-83.802001953125,14.803973699994117,13.0344],[-83.809814453125,14.80902741093162,21.4348],[-83.814746093749989,14.813983465619117,19.7368],[-83.821875,14.825702215619117,32.5049],[-83.76611328125,14.82892487186912,14.7195],[-83.745361328125,14.83685944218162,15.5053],[-83.747363281249989,14.85236237186912,19.1545],[-83.734716796874991,14.853143621869123,13.9773],[-83.724414062499989,14.85175202030662,7.4537],[-83.717041015625,14.847284246869123,5.4653],[-83.713232421874991,14.838739324994123,18.7501],[-83.705810546875,14.838739324994123,13.7637],[-83.715258789062489,14.867450262494117,13.0435],[-83.71142578125,14.878534246869123,14.6349],[-83.692724609374991,14.88715241093162,14.3066],[-83.672900390624989,14.88983795780662,14.3785],[-83.650732421874991,14.88873932499412,9.6227],[-83.632373046874989,14.88336823124412,8.4731],[-83.623828124999989,14.87287018436912,10.3043],[-83.616381835937489,14.87287018436912,10.7856],[-83.612109374999989,14.88507721561912,10.3597],[-83.609960937499991,14.898553778119123,10.7567],[-83.605078124999991,14.90936920780662,6.3479],[-83.58056640625,14.91828034061912,11.953],[-83.5556640625,14.937616278119123,8.1423],[-83.541308593749989,14.94171784061912,8.0116],[-83.543261718749989,14.94525787968162,2.0],[-83.5458984375,14.95233795780662,6.3725],[-83.548144531249989,14.95538971561912,10.1239],[-83.533251953124989,14.95123932499412,7.9812],[-83.527636718749989,14.948602606244123,8.955],[-83.530688476562489,14.96198151249412,6.3287],[-83.529394531249991,14.97357819218162,5.7671],[-83.523876953125,14.97785065311912,7.4494],[-83.513964843749989,14.96906159061912,7.553],[-83.513427734375,14.98419830936912,7.5394],[-83.511767578124989,14.990350653119123,8.6723],[-83.506518554687489,14.99701569218162,10.8079],[-83.513232421874989,15.006708074994123,7.5125],[-83.509863281249991,15.011737371869117,8.1274],[-83.499853515624991,15.012811590619123,6.4784],[-83.486669921874991,15.01068756718162,8.0712],[-83.481372070312489,15.005731512494123,6.6479],[-83.469165039062489,14.98761627811912,7.8863],[-83.460009765624989,14.98273346561912,7.9388],[-83.4365234375,14.98541901249412,6.1618],[-83.416259765625,14.99713776249412,6.8971],[-83.400683593749989,15.013788153119123,7.11],[-83.39111328125,15.031122137494123,7.9376],[-83.378588867187489,15.021502996869117,6.2559],[-83.365771484374989,15.016473699994123,2.2567],[-83.355395507812489,15.010272528119117,5.0735],[-83.350146484374989,14.99701569218162,0.0],[-83.335009765624989,15.00665924686912,14.5174],[-83.31787109375,15.007831121869117,4.5929],[-83.273779296874991,15.00324127811912,1.4273],[-83.285693359374989,14.99750397343162,7.2801],[-83.286425781249989,14.99225494999412,6.221],[-83.279101562499989,14.987323309369117,1.8631],[-83.266943359374991,14.98273346561912,2.6151],[-83.262792968749991,14.98334381718162,2.4391],[-83.218554687499989,14.98273346561912,2.8917],[-83.192138671875,14.99445221561912,2.1901],[-83.17822265625,14.99701569218162,1.8961],[-83.144384765624991,14.995135809369117,4.0377],[-83.130419921874989,14.99701569218162,2.7782]]}}