{"type": "Feature","bbox": [-87.0001,15.9999,-86.8724,16.1238],"geometry": {"type": "MultiPolygon","coordinates": [[[[-87.0001,15.9999,0.0],[-86.9999,15.9999,0.0],[-86.9999,16.0001,0.0],[-87.0001,16.0001,0.0],[-87.0001,15.9999,0.0]]],
[[[-86.9635,16.0646,0.572],[-86.9674,16.0646,0.4421],[-86.9687,16.0629,0.7046],[-86.966,16.0626,0.0],[-86.9635,16.0646,0.572]]],
[[[-86.8851,16.1238,0.0],[-86.8979,16.1232,1.2171],[-86.9051,16.1204,0.7817],[-86.9043,16.1168,1.1614],[-86.9071,16.1196,0.1937],[-86.9071,16.1174,0.3442],[-86.911,16.1151,4.8768],[-86.9232,16.1174,0.0],[-86.926,16.1193,0.0],[-86.926,16.1213,0.0],[-86.9287,16.1221,0.0],[-86.9365,16.1213,1.6062],[-86.9393,16.1188,0.0],[-86.9393,16.1168,2.4937],[-86.944,16.116,0.0],[-86.9418,16.1151,2.5196],[-86.9413,16.1124,1.6357],[-86.944,16.1079,3.5233],[-86.9538,16.1054,0.3639],[-86.9571,16.1093,0.0],[-86.9654,16.1049,0.5619],[-86.9707,16.1049,0.0],[-86.9718,16.1007,0.0],[-86.9779,16.1018,1.0146],[-86.9807,16.1007,0.0],[-86.9896,16.0921,0.0],[-86.9887,16.0851,0.0],[-86.9899,16.0815,0.4896],[-86.9707,16.0762,0.7742],[-86.9668,16.0699,0.0],[-86.9557,16.069,3.9569],[-86.9421,16.0765,0.0],[-86.9349,16.0768,0.0],[-86.9307,16.0801,1.3932],[-86.919,16.0829,1.1201],[-86.9149,16.0876,0.2574],[-86.9207,16.0871,-0.0096],[-86.9193,16.0901,0.0369],[-86.9104,16.0932,0.0],[-86.9099,16.0912,0.0],[-86.9126,16.0896,0.0],[-86.9112,16.089,0.8517],[-86.9046,16.0946,0.0094],[-86.9104,16.0954,0.054],[-86.9115,16.0946,0.054],[-86.9124,16.0965,0.321],[-86.896,16.0968,0.0],[-86.8921,16.0924,0.0],[-86.8932,16.0876,1.3669],[-86.8887,16.0871,0.1182],[-86.8818,16.0921,0.0],[-86.8829,16.094,0.4107],[-86.881,16.0951,0.0],[-86.8829,16.0971,0.0],[-86.8829,16.1007,0.0],[-86.8743,16.1079,0.8243],[-86.8724,16.1121,0.0],[-86.8724,16.1174,0.0],[-86.8743,16.1199,1.3103],[-86.8851,16.1238,0.0]]]]}
,"properties": {"GID_2": "HND.11.4_1","GID_0": "HND","country": "Honduras","GID_1": "HND.11_1","province": "IslasdelaBahía","NL_NAME_1": "NA","county": "Utila","VARNAME_2": "NA","NL_NAME_2": "NA","TYPE_2": "Municipio","ENGTYPE_2": "Municipality","CC_2": "NA","HASC_2": "HN.IB.UT","name": "Utila.county","area_km2": 41.41394,"hist_schema_id": "Elevation0-9000","hist_area_km2": {"0": 39.09177,"25": 2.28143,"50": 0.02037,"75": 0.02037}}}