{"type":"Feature","properties":{"GID_2":"HND.8.23_1","GID_0":"HND","country":"Honduras","GID_1":"HND.8_1","province":"FranciscoMorazán","NL_NAME_1":"NA","county":"SantaLucía","VARNAME_2":"NA","NL_NAME_2":"NA","TYPE_2":"Municipio","ENGTYPE_2":"Municipality","CC_2":"NA","HASC_2":"HN.FM.SL","name":"Santa_Lucía.county"},
"geometry":{"type": "MultiPolygon","coordinates": [[[[-87.0596,14.0963,1259.5524],[-87.0625,14.099,1291.2019],[-87.0626,14.1025,1191.2025],[-87.0678,14.1156,1333.3823],[-87.0669,14.1238,1301.7598],[-87.0731,14.1271,1425.6776],[-87.0769,14.1707,1987.0436],[-87.1035,14.1602,1735.4214],[-87.1118,14.1527,1537.8953],[-87.1395,14.138,1413.406],[-87.1442,14.1214,1138.5239],[-87.1377,14.1036,1188.0266],[-87.1364,14.0933,1201.4371],[-87.1197,14.0834,1523.5474],[-87.1137,14.0723,1522.5],[-87.1058,14.075,1517.6683],[-87.1031,14.0744,1468.358],[-87.0789,14.0951,1237.3636],[-87.0686,14.0963,1383.4167],[-87.0647,14.099,1278.2181],[-87.0596,14.0963,1259.5524]]]]}}