{"type":"Feature","properties":{"GID_2":"HND.7.1_1","GID_0":"HND","country":"Honduras","GID_1":"HND.7_1","province":"ElParaíso","NL_NAME_1":"NA","county":"Alauca","VARNAME_2":"NA","NL_NAME_2":"NA","TYPE_2":"Municipio","ENGTYPE_2":"Municipality","CC_2":"NA","HASC_2":"HN.EP.AL","name":"Alauca.county"},
"geometry":{"type": "MultiPolygon","coordinates": [[[[-86.6911,13.9083,611.6573],[-86.7008,13.9122,688.0369],[-86.7018,13.9172,690.4299],[-86.7073,13.9199,519.6897],[-86.7104,13.9237,524.66],[-86.7124,13.9227,442.631],[-86.7116,13.926,522.2733],[-86.7148,13.9253,400.1175],[-86.7157,13.9292,454.9849],[-86.7188,13.9302,661.1092],[-86.7203,13.9279,608.6157],[-86.7219,13.9138,655.8578],[-86.716,13.903,452.0285],[-86.7198,13.9,403.8888],[-86.7244,13.8918,482.4723],[-86.7294,13.8893,505.6306],[-86.7288,13.885,519.3148],[-86.7245,13.8809,382.0198],[-86.7275,13.879,422.6867],[-86.7305,13.872,385.4398],[-86.7273,13.8668,423.8731],[-86.7275,13.8646,401.1293],[-86.7372,13.8661,441.6173],[-86.7399,13.8594,551.661],[-86.7463,13.8681,576.1053],[-86.7636,13.8685,367.7719],[-86.7689,13.8626,364.0826],[-86.7713,13.8537,348.5735],[-86.7779,13.8408,405.5407],[-86.7759,13.8288,443.5944],[-86.7678,13.8204,485.4049],[-86.7683,13.8104,518.5889],[-86.764,13.8037,348.9306],[-86.765,13.8003,334.7192],[-86.7682,13.7981,356.8713],[-86.768,13.7924,319.8802],[-86.7699,13.7866,496.8649],[-86.7752,13.7839,493.1767],[-86.7702,13.7767,608.553],[-86.7656,13.7747,523.0447],[-86.7656,13.7639,389.7523],[-86.769,13.7597,311.1527],[-86.7658,13.7607,341.513],[-86.7628,13.7731,388.1918],[-86.7569,13.7747,495.1849],[-86.7485,13.7735,558.8849],[-86.7415,13.7742,574.3412],[-86.7244,13.7846,761.4111],[-86.7153,13.7871,786.9289],[-86.6669,13.7829,805.1322],[-86.6537,13.7778,860.7502],[-86.6416,13.7786,973.1105],[-86.6315,13.7835,1079.3873],[-86.6111,13.7811,1078.0247],[-86.605,13.7818,1163.6108],[-86.5801,13.7879,1280.6652],[-86.5864,13.7995,1171.9271],[-86.5993,13.8055,1007.7037],[-86.6032,13.8172,896.222],[-86.6093,13.8241,861.4945],[-86.6217,13.8254,834.629],[-86.6355,13.8242,943.4318],[-86.6441,13.8298,967.0999],[-86.662,13.8643,664.195],[-86.6689,13.8671,661.8341],[-86.6713,13.8698,609.0323],[-86.6711,13.8837,692.9185],[-86.6772,13.8893,702.2913],[-86.6825,13.9012,603.5295],[-86.6876,13.904,562.2258],[-86.6911,13.9083,611.6573]]]]}}