{"type":"Feature","properties":{"GID_2":"HND.6.10_1","GID_0":"HND","country":"Honduras","GID_1":"HND.6_1","province":"Cortés","NL_NAME_1":"NA","county":"SanPedroSula","VARNAME_2":"NA","NL_NAME_2":"NA","TYPE_2":"Municipio","ENGTYPE_2":"Municipality","CC_2":"NA","HASC_2":"HN.CR.SP","name":"San_Pedro_Sula.county"},
"geometry":{"type": "MultiPolygon","coordinates": [[[[-88.4344,15.5418,236.0507],[-88.2366,15.4864,1244.5077],[-88.2352,15.4846,1254.5442],[-88.2361,15.4804,1128.0637],[-88.2336,15.4772,1262.5104],[-88.238,15.4736,1100.5645],[-88.241,15.4667,839.3962],[-88.2417,15.4586,842.9994],[-88.2374,15.4457,684.9005],[-88.2391,15.4372,605.2041],[-88.2427,15.4314,624.4471],[-88.2399,15.4257,564.0043],[-88.2417,15.4198,646.2762],[-88.2382,15.4181,553.8451],[-88.232,15.4022,534.753],[-88.2288,15.3988,563.6646],[-88.2166,15.3972,513.6772],[-88.2068,15.3924,290.3039],[-88.1982,15.3905,198.1885],[-88.1954,15.3877,163.092],[-88.1928,15.388,161.7214],[-88.1843,15.3745,152.988],[-88.1784,15.3733,117.1444],[-88.1605,15.3607,84.8732],[-88.1462,15.3672,75.993],[-88.1444,15.3707,80.0159],[-88.1392,15.3718,79.766],[-88.136,15.3773,88.2134],[-88.1307,15.3796,111.476],[-88.1279,15.3901,174.9698],[-88.1332,15.393,118.9134],[-88.1315,15.3971,73.5898],[-88.1275,15.3977,73.8643],[-88.1197,15.3945,280.8265],[-88.1114,15.3943,270.4323],[-88.1084,15.3996,135.2332],[-88.1013,15.4067,58.3164],[-88.0956,15.404,138.8968],[-88.0866,15.4081,122.7076],[-88.0771,15.4022,220.6533],[-88.0721,15.4082,154.2412],[-88.0695,15.4088,145.5566],[-88.0654,15.4061,209.7957],[-88.0645,15.4007,192.1158],[-88.0608,15.3992,148.7386],[-88.0575,15.4013,170.8651],[-88.0513,15.4143,164.9712],[-88.0475,15.4133,131.3342],[-88.0478,15.4072,201.24],[-88.0457,15.4059,186.1842],[-88.0407,15.4094,287.9733],[-88.0366,15.4177,265.9287],[-88.0347,15.417,334.395],[-88.0331,15.4128,383.5477],[-88.0305,15.4119,338.8513],[-88.026,15.4121,321.8473],[-88.0253,15.4161,337.886],[-88.0222,15.4162,175.9442],[-88.0171,15.4082,65.0694],[-88.0138,15.4064,50.3053],[-88.0006,15.4065,43.1455],[-87.9914,15.4194,37.876],[-87.9861,15.4145,34.2987],[-87.9892,15.4122,35.2372],[-87.988,15.4097,33.8207],[-87.9767,15.4171,33.6972],[-87.9747,15.4167,32.6898],[-87.9736,15.4113,31.4592],[-87.9708,15.4148,32.0203],[-87.967,15.4161,32.0581],[-87.9665,15.42,31.6382],[-87.9613,15.418,30.143],[-87.9593,15.4392,30.6496],[-87.9554,15.444,29.6033],[-87.9518,15.4442,28.4877],[-87.949,15.4487,27.5623],[-87.9391,15.4428,27.5802],[-87.9463,15.44,31.2301],[-87.9429,15.4323,26.6668],[-87.9393,15.4337,27.2383],[-87.9386,15.4301,28.6719],[-87.9325,15.4306,29.3057],[-87.916,15.4484,25.4462],[-87.9113,15.4479,24.0343],[-87.906,15.4592,27.2117],[-87.9114,15.4719,22.5951],[-87.9025,15.4765,33.6479],[-87.8938,15.4848,24.1113],[-87.8887,15.4962,21.7494],[-87.8884,15.5031,21.453],[-87.8857,15.5047,21.5095],[-87.8804,15.5042,20.3164],[-87.8781,15.509,19.4192],[-87.8713,15.5115,18.225],[-87.8675,15.5148,19.2012],[-87.8601,15.5168,16.8369],[-87.8577,15.5214,16.1871],[-87.8596,15.5269,18.358],[-87.8567,15.5279,17.2672],[-87.8562,15.5323,16.922],[-87.859,15.5375,14.6104],[-87.8934,15.5306,45.6222],[-87.9532,15.552,43.2294],[-87.9692,15.5482,71.9375],[-88.0501,15.6315,1179.3037],[-88.0659,15.6745,709.6593],[-88.075,15.6469,891.873],[-88.0935,15.6103,1298.293],[-88.1059,15.6,1075.3938],[-88.1264,15.6046,713.5909],[-88.1286,15.6074,615.6624],[-88.1361,15.6112,411.3126],[-88.1477,15.6113,400.8498],[-88.1629,15.6281,146.7428],[-88.1891,15.6272,423.2827],[-88.2112,15.6183,727.6127],[-88.276,15.585,653.7693],[-88.3253,15.568,245.5633],[-88.4303,15.5452,201.4309],[-88.4344,15.5418,236.0507]]]]}}