{"type": "Feature","bbox": [-87.6531,13.3432,-87.3656,13.6726],"geometry": {"type": "MultiPolygon","coordinates": [[[[-87.5576,13.3657,0.0],[-87.559,13.3655,0.0],[-87.5596,13.3621,0.8767],[-87.5574,13.3635,1.4851],[-87.5576,13.3657,0.0]]],
[[[-87.621,13.4535,0.0],[-87.6162,13.4546,0.0],[-87.6154,13.4582,0.0],[-87.6212,13.4568,0.0],[-87.621,13.4535,0.0]]],
[[[-87.4612,13.6715,862.776],[-87.4643,13.6726,606.0649],[-87.4869,13.6685,424.8982],[-87.5122,13.6603,137.9745],[-87.5146,13.6349,198.0849],[-87.5228,13.629,193.0876],[-87.5251,13.629,133.843],[-87.526,13.6271,126.2427],[-87.5284,13.627,134.3042],[-87.5311,13.6227,125.2719],[-87.5344,13.6223,151.9314],[-87.536,13.6247,164.398],[-87.542,13.6269,224.987],[-87.5437,13.6322,339.6161],[-87.5498,13.633,286.1866],[-87.5718,13.6227,195.3119],[-87.6013,13.5951,300.6871],[-87.6228,13.5966,296.6555],[-87.6531,13.5843,185.7893],[-87.6491,13.5765,90.707],[-87.6511,13.571,58.7758],[-87.649,13.5367,31.5068],[-87.6453,13.5345,23.1815],[-87.6437,13.5299,28.5483],[-87.6397,13.5285,16.7351],[-87.6421,13.5227,22.6868],[-87.6429,13.5143,19.8835],[-87.6389,13.5061,21.5084],[-87.6451,13.5002,10.7874],[-87.6458,13.4939,7.8552],[-87.648,13.4913,9.0937],[-87.6446,13.4817,3.4744],[-87.6415,13.4797,3.1772],[-87.6386,13.4835,5.1172],[-87.6348,13.4836,10.2782],[-87.6347,13.4849,6.6364],[-87.6292,13.4817,2.4845],[-87.6287,13.4808,2.4845],[-87.6328,13.4827,10.2968],[-87.6316,13.4804,10.4277],[-87.635,13.4827,10.2782],[-87.638,13.4824,6.6514],[-87.6408,13.4759,4.3046],[-87.6332,13.4649,0.0],[-87.6254,13.4668,0.0],[-87.6196,13.4644,4.4995],[-87.6179,13.4621,0.0],[-87.6232,13.4599,0.0],[-87.6235,13.4582,0.0],[-87.5921,13.4629,1.6591],[-87.5993,13.4604,2.8993],[-87.6021,13.461,0.0],[-87.6074,13.4582,0.0],[-87.614,13.4585,0.0],[-87.6152,13.4541,6.4378],[-87.6215,13.4504,0.0],[-87.6221,13.4468,0.0],[-87.6207,13.4465,0.0],[-87.6148,13.4493,0.0],[-87.6126,13.4527,7.9224],[-87.6079,13.4527,0.0],[-87.6229,13.4443,0.0],[-87.6249,13.436,0.7555],[-87.6202,13.4335,0.0],[-87.6207,13.4285,5.0233],[-87.624,13.4235,0.0],[-87.6199,13.4187,4.727],[-87.6285,13.4204,0.0],[-87.631,13.4143,0.0],[-87.6296,13.4126,0.0],[-87.6243,13.4129,0.0],[-87.6132,13.4082,2.9824],[-87.6087,13.4018,0.0],[-87.6062,13.4018,0.0],[-87.6051,13.4054,0.0],[-87.6024,13.406,2.2745],[-87.6043,13.404,0.0],[-87.6046,13.396,0.0],[-87.6118,13.3929,0.0],[-87.6126,13.3876,1.5016],[-87.6176,13.3826,5.7069],[-87.6182,13.3757,2.9152],[-87.6137,13.376,5.8822],[-87.6046,13.3829,1.5748],[-87.5987,13.3832,0.0],[-87.5932,13.3863,4.6576],[-87.589,13.3865,1.4055],[-87.5868,13.3913,0.0],[-87.5879,13.3976,1.816],[-87.5868,13.3993,3.073],[-87.5854,13.3921,0.0],[-87.5868,13.3871,3.5103],[-87.5882,13.3843,0.0],[-87.5921,13.3846,0.8572],[-87.5951,13.3826,0.0],[-87.5949,13.3813,0.0],[-87.5888,13.379,5.6564],[-87.5799,13.3801,0.0],[-87.5735,13.3774,2.9118],[-87.5687,13.3799,0.125],[-87.5707,13.3785,0.4397],[-87.5707,13.3763,0.0],[-87.5676,13.3732,0.0],[-87.571,13.3701,0.0],[-87.5693,13.3685,0.0],[-87.5643,13.3693,1.0258],[-87.5607,13.366,0.0],[-87.5485,13.3718,0.0],[-87.5479,13.3751,1.8447],[-87.5471,13.3715,0.0],[-87.5401,13.3726,1.7848],[-87.5418,13.371,0.0],[-87.5479,13.3704,4.2434],[-87.5537,13.3674,0.0],[-87.5587,13.3585,0.0],[-87.5554,13.3526,0.0],[-87.5443,13.351,0.0],[-87.5343,13.3432,0.0],[-87.5301,13.346,1.0404],[-87.5243,13.3454,0.0],[-87.519,13.3482,0.0],[-87.5185,13.3543,0.0],[-87.516,13.3538,0.0],[-87.5124,13.359,0.0],[-87.5118,13.3582,1.2591],[-87.5126,13.356,0.0],[-87.5101,13.3538,0.8797],[-87.506,13.3576,0.0],[-87.5035,13.3568,0.0],[-87.5021,13.3579,0.0],[-87.5004,13.3676,0.0],[-87.5018,13.3715,0.0],[-87.509,13.3688,0.0],[-87.5137,13.3696,2.5809],[-87.5143,13.3765,1.0547],[-87.5168,13.3788,1.4359],[-87.5132,13.3768,1.0547],[-87.5118,13.3704,0.0],[-87.5107,13.3705,1.9913],[-87.5093,13.3735,0.0],[-87.5113,13.3774,2.1194],[-87.5096,13.381,2.1875],[-87.5032,13.3854,0.0],[-87.4996,13.386,0.8584],[-87.4995,13.3849,4.0818],[-87.4976,13.3875,1.188],[-87.4933,13.3846,3.0631],[-87.4914,13.3931,2.0673],[-87.4851,13.3939,2.2413],[-87.4807,13.3974,1.1742],[-87.4834,13.3979,3.2076],[-87.4806,13.4063,0.0],[-87.478,13.4081,0.0],[-87.4777,13.4059,0.0],[-87.4768,13.4082,0.6609],[-87.4751,13.4079,4.2323],[-87.4728,13.4103,2.2326],[-87.4707,13.4081,4.7433],[-87.469,13.4097,0.7207],[-87.472,13.4147,4.7082],[-87.4745,13.4147,4.7623],[-87.4746,13.4125,4.4479],[-87.4764,13.4117,2.6918],[-87.4842,13.4154,5.5141],[-87.4856,13.418,4.4165],[-87.4899,13.4177,1.5],[-87.4876,13.4213,4.3521],[-87.4839,13.4191,2.3468],[-87.4851,13.4254,2.824],[-87.4863,13.4268,1.5],[-87.4889,13.4258,1.5],[-87.4922,13.4271,1.5],[-87.4905,13.4285,1.5],[-87.4968,13.4315,4.6735],[-87.4989,13.4346,4.7994],[-87.4991,13.4376,5.1236],[-87.4948,13.4459,6.6236],[-87.4966,13.4514,7.7811],[-87.4927,13.4513,8.9662],[-87.4879,13.4553,9.8814],[-87.4844,13.4549,10.1049],[-87.4839,13.4586,11.0682],[-87.4808,13.4573,11.1875],[-87.4763,13.4595,13.7699],[-87.4743,13.4587,12.8296],[-87.4732,13.4631,14.0402],[-87.4645,13.4653,15.5708],[-87.4567,13.4727,18.101],[-87.4481,13.4715,27.1726],[-87.4472,13.475,21.5538],[-87.4446,13.4765,23.4282],[-87.444,13.4802,23.292],[-87.4367,13.4887,27.5597],[-87.4366,13.4951,32.4441],[-87.434,13.498,39.5308],[-87.4351,13.5027,35.9592],[-87.4316,13.5071,37.8819],[-87.4321,13.5115,39.9749],[-87.4286,13.517,44.7591],[-87.425,13.5149,84.5767],[-87.4223,13.5161,55.137],[-87.4191,13.5135,63.2031],[-87.4139,13.5157,57.4324],[-87.4029,13.51,70.517],[-87.4003,13.5105,68.3306],[-87.3976,13.5043,105.4494],[-87.3917,13.5022,90.6743],[-87.3871,13.5094,100.532],[-87.3784,13.5115,126.9641],[-87.3772,13.5149,124.592],[-87.3656,13.5224,357.319],[-87.3745,13.5269,279.3024],[-87.3827,13.5285,398.3439],[-87.3964,13.537,305.686],[-87.4012,13.5434,113.1046],[-87.4159,13.5714,139.2894],[-87.4164,13.5746,70.0331],[-87.413,13.5778,46.627],[-87.4177,13.5862,94.4057],[-87.4238,13.5874,170.6743],[-87.4302,13.5909,192.4083],[-87.4206,13.6223,267.4981],[-87.4141,13.6329,331.5413],[-87.4142,13.6363,437.3642],[-87.4282,13.6465,675.2658],[-87.4369,13.6487,887.1624],[-87.4488,13.6573,760.6304],[-87.4552,13.6591,894.4427],[-87.4587,13.6632,894.2437],[-87.4612,13.6715,862.776]],
[[-87.6338,13.4909,4.1471],[-87.6318,13.4877,10.2816],[-87.6337,13.4878,8.1522],[-87.6347,13.4899,2.9237],[-87.6354,13.4851,6.6364],[-87.637,13.4857,2.1769],[-87.6356,13.4907,8.5959],[-87.6338,13.4909,4.1471]]]]}
,"properties": {"GID_2": "HND.17.7_1","GID_0": "HND","country": "Honduras","GID_1": "HND.17_1","province": "Valle","NL_NAME_1": "NA","county": "Nacaome","VARNAME_2": "NA","NL_NAME_2": "NA","TYPE_2": "Municipio","ENGTYPE_2": "Municipality","CC_2": "NA","HASC_2": "HN.VA.NA","name": "Nacaome.county","area_km2": 611.4345,"hist_schema_id": "Elevation0-9000","hist_area_km2": {"0": 173.312,"25": 115.6584,"50": 78.3081,"75": 47.8393,"100": 34.317,"125": 25.2272,"150": 19.6828,"175": 15.6016,"200": 12.5511,"225": 10.3252,"250": 8.4496,"275": 7.2334,"300": 5.9968,"325": 4.5542,"350": 3.3383,"375": 2.4934,"400": 3.1939,"425": 2.8643,"450": 2.823,"475": 2.8848,"500": 2.5551,"525": 3.4617,"550": 2.9878,"575": 3.0495,"600": 2.1017,"625": 2.555,"650": 2.7816,"675": 2.4725,"700": 2.2046,"725": 1.9573,"750": 2.2046,"775": 1.7925,"800": 0.8241,"825": 0.6387,"850": 0.8653,"875": 1.2362,"900": 0.9065,"925": 0.1442,"950": 0.0412}}}