{"type":"Feature","properties":{"GID_2":"HND.7.12_1","GID_0":"HND","country":"Honduras","GID_1":"HND.7_1","province":"ElParaíso","NL_NAME_1":"NA","county":"SanMatías","VARNAME_2":"NA","NL_NAME_2":"NA","TYPE_2":"Municipio","ENGTYPE_2":"Municipality","CC_2":"NA","HASC_2":"HN.EP.SM","name":"San_Matías.county"},
"geometry":{"type": "MultiPolygon","coordinates": [[[[-86.6911,13.9083,611.6573],[-86.69,13.9104,557.3732],[-86.6859,13.9095,555.9578],[-86.6852,13.9113,588.8693],[-86.6829,13.9116,616.8282],[-86.6841,13.9145,525.7314],[-86.6828,13.9161,528.9008],[-86.6782,13.9145,633.0047],[-86.672,13.9159,559.0308],[-86.6631,13.9141,607.0388],[-86.662,13.9122,602.1281],[-86.658,13.9156,725.1816],[-86.6532,13.9113,732.9897],[-86.6551,13.9095,761.1505],[-86.6533,13.9072,719.5503],[-86.6512,13.909,725.4537],[-86.6308,13.9031,794.284],[-86.6291,13.9059,837.4457],[-86.6318,13.9088,854.4337],[-86.6271,13.91,804.5186],[-86.6271,13.9129,633.9438],[-86.625,13.9154,642.6674],[-86.6187,13.9175,718.1739],[-86.619,13.9221,634.2829],[-86.6138,13.9226,751.6929],[-86.6119,13.9196,801.3442],[-86.6042,13.9196,762.8434],[-86.6006,13.9232,757.2611],[-86.6002,13.9253,748.9947],[-86.602,13.9254,745.8169],[-86.6012,13.9279,687.4438],[-86.5969,13.9315,688.0025],[-86.5939,13.931,675.8015],[-86.5893,13.9334,721.6986],[-86.5835,13.9304,777.9732],[-86.5838,13.9357,744.6797],[-86.5676,13.9521,736.7919],[-86.5897,13.961,756.6709],[-86.621,13.9857,815.2927],[-86.6937,13.9862,918.5112],[-86.7042,13.9833,812.2971],[-86.7046,13.9775,900.537],[-86.7091,13.9725,907.104],[-86.7127,13.971,869.3994],[-86.7192,13.9723,671.3785],[-86.722,13.9706,617.234],[-86.7313,13.956,432.9593],[-86.7351,13.9561,500.2525],[-86.7387,13.9528,496.3967],[-86.7374,13.9482,524.4915],[-86.7421,13.9432,740.6385],[-86.743,13.94,807.183],[-86.7404,13.9378,749.1054],[-86.7307,13.9398,576.7971],[-86.7287,13.937,568.6248],[-86.7306,13.9272,566.6509],[-86.723,13.9263,498.1424],[-86.7207,13.9246,444.505],[-86.7197,13.9294,661.1092],[-86.7169,13.93,575.4147],[-86.7148,13.9253,400.1175],[-86.7115,13.9257,522.2733],[-86.7124,13.9227,442.631],[-86.7104,13.9237,524.66],[-86.7073,13.9199,519.6897],[-86.7018,13.9172,690.4299],[-86.7008,13.9122,688.0369],[-86.6911,13.9083,611.6573]]]]}}