{"type":"Feature","properties":{"GID_2":"HND.14.16_1","GID_0":"HND","country":"Honduras","GID_1":"HND.14_1","province":"Ocotepeque","NL_NAME_1":"NA","county":"Sinuapa","VARNAME_2":"NA","NL_NAME_2":"NA","TYPE_2":"Municipio","ENGTYPE_2":"Municipality","CC_2":"NA","HASC_2":"HN.OC.SI","name":"Sinuapa.county"},
"geometry":{"type": "MultiPolygon","coordinates": [[[[-89.079,14.3391,1696.0227],[-89.0767,14.3438,1844.0953],[-89.0783,14.3472,1862.3096],[-89.0789,14.3607,1782.6898],[-89.0807,14.3619,1782.6898],[-89.0808,14.3642,1788.0615],[-89.0775,14.3668,1868.1656],[-89.0778,14.3695,1856.8986],[-89.0733,14.381,1961.463],[-89.0656,14.3879,2083.7803],[-89.0625,14.4178,2219.7827],[-89.0635,14.441,2128.7351],[-89.081,14.4926,1982.0452],[-89.0808,14.5037,1834.7242],[-89.0793,14.5053,1795.8582],[-89.0804,14.5099,1747.5129],[-89.0783,14.5119,1683.2704],[-89.0828,14.5113,1824.1998],[-89.0904,14.5062,1877.1783],[-89.0971,14.5166,1731.7245],[-89.0997,14.5135,1694.6166],[-89.1037,14.5138,1666.8672],[-89.1047,14.5105,1684.2784],[-89.1189,14.5089,1492.4751],[-89.1219,14.5056,1523.926],[-89.1264,14.5055,1536.9507],[-89.1328,14.5011,1412.4839],[-89.1352,14.4955,1398.5027],[-89.1344,14.4889,1346.9512],[-89.138,14.4808,1371.7009],[-89.1428,14.4807,1333.3618],[-89.1536,14.476,1213.4272],[-89.1597,14.4763,1207.225],[-89.1685,14.4718,917.1746],[-89.1714,14.4721,869.9867],[-89.1749,14.4758,858.8886],[-89.1768,14.4751,840.8234],[-89.1809,14.4657,899.6086],[-89.1801,14.4615,912.0216],[-89.1851,14.4601,887.6448],[-89.1904,14.4623,858.4916],[-89.1943,14.459,833.8864],[-89.1952,14.4515,807.7179],[-89.1994,14.4471,805.4857],[-89.201,14.4396,800.9841],[-89.2057,14.437,755.3958],[-89.2028,14.4276,748.7986],[-89.206,14.4234,790.6691],[-89.2025,14.4172,758.993],[-89.1903,14.4239,767.0898],[-89.1726,14.4279,865.824],[-89.1581,14.4288,1208.1113],[-89.1512,14.4195,1378.3573],[-89.1239,14.4111,1906.1123],[-89.1154,14.4032,2130.1313],[-89.1053,14.3978,2114.4224],[-89.0982,14.3888,2084.6333],[-89.1075,14.3876,2255.4026],[-89.112799999999993,14.3779,2363.3975],[-89.1254,14.3692,2264.9099],[-89.1222,14.364,2222.8584],[-89.1172,14.3613,2211.8826],[-89.1193,14.3517,2239.5146],[-89.1161,14.3399,2134.2075],[-89.0903,14.3463,1907.0623],[-89.0876,14.3459,1853.1702],[-89.079,14.3391,1696.0227]]]]}}