{"type": "Feature","bbox": [-88.5843,14.794,-88.3963,14.9876],"geometry": {"type": "MultiPolygon","coordinates": [[[[-88.4807,14.7946,1318.8162],[-88.4641,14.8007,1398.1154],[-88.4494,14.8348,1355.8857],[-88.4364,14.8419,1453.9784],[-88.4226,14.8784,1155.2314],[-88.4133,14.8814,1230.9904],[-88.4065,14.8805,1084.853],[-88.3963,14.8927,1178.0654],[-88.42,14.895,1129.0793],[-88.4286,14.8977,1167.0769],[-88.4283,14.9055,1184.2806],[-88.4243,14.9096,1261.926],[-88.4315,14.9214,1165.4248],[-88.4408,14.918,1216.2255],[-88.4515,14.92,1139.0457],[-88.4538,14.9277,1034.8103],[-88.4523,14.933,1036.7111],[-88.4558,14.9343,1080.8975],[-88.4601,14.9407,1023.5026],[-88.4626,14.9412,1062.4287],[-88.4634,14.9449,992.7795],[-88.4702,14.9512,839.3558],[-88.4621,14.9599,765.9948],[-88.4631,14.9669,784.7462],[-88.4591,14.9783,1058.6882],[-88.4599,14.9851,865.8804],[-88.4681,14.9876,810.5549],[-88.4742,14.9848,1066.7079],[-88.4977,14.9866,442.3548],[-88.5057,14.985,551.6483],[-88.5093,14.9863,639.1677],[-88.5351,14.986,1103.2676],[-88.5396,14.9823,880.4656],[-88.5383,14.9725,722.1076],[-88.5349,14.9635,895.4828],[-88.5394,14.9576,916.4064],[-88.5382,14.9549,912.3608],[-88.5329,14.9527,964.0042],[-88.5324,14.9406,1068.2314],[-88.5843,14.9227,911.8591],[-88.5527,14.9145,1394.7109],[-88.5479,14.9167,1402.5137],[-88.524,14.852,1314.5747],[-88.4872,14.8005,1118.4537],[-88.482,14.794,1286.1029],[-88.4807,14.7946,1318.8162]]]]}
,"properties": {"GID_2": "HND.16.2_1","GID_0": "HND","country": "Honduras","GID_1": "HND.16_1","province": "SantaBárbara","NL_NAME_1": "NA","county": "Atima","VARNAME_2": "NA","NL_NAME_2": "NA","TYPE_2": "Municipio","ENGTYPE_2": "Municipality","CC_2": "NA","HASC_2": "HN.SB.AT","name": "Atima.county","area_km2": 194.7519,"hist_schema_id": "Elevation0-9000","hist_area_km2": {"425": 0.041,"450": 0.1434,"475": 0.3072,"500": 0.1843,"525": 0.2048,"550": 0.2663,"575": 0.3892,"600": 0.3687,"625": 0.4096,"650": 0.512,"675": 0.5735,"700": 2.3967,"725": 5.1827,"750": 6.2072,"775": 6.7195,"800": 5.9001,"825": 5.3264,"850": 4.9577,"875": 5.1421,"900": 5.1422,"925": 5.0603,"950": 4.917,"975": 5.4908,"1000": 6.5153,"1025": 6.7409,"1050": 7.2123,"1075": 8.155,"1100": 8.8313,"1125": 9.6717,"1150": 9.1799,"1175": 7.8275,"1200": 8.3399,"1225": 7.5819,"1250": 8.5245,"1275": 8.0328,"1300": 7.0903,"1325": 6.0043,"1350": 5.0411,"1375": 4.6313,"1400": 3.6682,"1425": 2.664,"1450": 1.7624,"1475": 0.7583,"1500": 0.4918,"1525": 0.082,"1550": 0.082,"1575": 0.0205}}}