{"type":"Feature","properties":{"GID_2":"HND.7.4_1","GID_0":"HND","country":"Honduras","GID_1":"HND.7_1","province":"ElParaíso","NL_NAME_1":"NA","county":"Guinope","VARNAME_2":"NA","NL_NAME_2":"NA","TYPE_2":"Municipio","ENGTYPE_2":"Municipality","CC_2":"NA","HASC_2":"HN.EP.GU","name":"Guinope.county"},
"geometry":{"type": "MultiPolygon","coordinates": [[[[-86.8651,13.8554,1048.5289],[-86.8693,13.8601,1113.7499],[-86.8798,13.8654,1225.1356],[-86.8839,13.8654,1278.1974],[-86.8874,13.8685,1352.0157],[-86.8884,13.8746,1154.4052],[-86.8874,13.8801,1035.098],[-86.891,13.8861,1139.4509],[-86.8877,13.8885,1067.7769],[-86.8846,13.9087,1590.071],[-86.9216,13.9419,1640.6316],[-86.9295,13.945,1475.2162],[-86.9336,13.9488,1406.2838],[-86.943,13.9495,1348.3054],[-86.9449,13.9511,1302.5311],[-86.953,13.943,1306.2833],[-86.957,13.9413,1220.7228],[-86.9645,13.9482,1046.541],[-86.9688,13.9482,1030.7898],[-86.9736,13.9505,955.7263],[-86.9819,13.9505,815.5555],[-86.9858,13.9539,799.9844],[-86.9888,13.9538,792.7208],[-86.99,13.9578,785.2725],[-86.9923,13.9578,804.2036],[-86.993,13.9542,804.2559],[-86.9952,13.9533,830.3915],[-86.9953,13.9504,827.7723],[-86.9891,13.9293,849.1564],[-86.9856,13.9232,919.2386],[-86.9879,13.9207,931.5695],[-86.9911,13.9204,913.3586],[-86.9908,13.9181,991.8964],[-86.9936,13.9168,986.8109],[-86.9942,13.9135,985.3881],[-86.9993,13.9093,1010.7029],[-87.0011,13.9008,1319.2119],[-86.9942,13.8917,1262.6562],[-86.9907,13.8778,1267.9309],[-86.9928,13.874,1323.0087],[-86.9986,13.851,1375.7174],[-86.9965,13.8422,1374.0615],[-86.9934,13.839,1410.3022],[-86.9989,13.8127,1361.7883],[-87.0035,13.8092,1405.5377],[-87.0163,13.7836,1505.2758],[-87.0026,13.7806,1548.6974],[-86.9987,13.7784,1454.2544],[-86.994,13.7796,1600.3505],[-86.9837,13.7744,1442.8408],[-86.9796,13.7751,1425.8269],[-86.9763,13.7791,1397.0199],[-86.9745,13.7786,1371.7374],[-86.9738,13.776,1336.967],[-86.9715,13.7774,1426.9277],[-86.9669,13.7751,1409.5261],[-86.9186,13.7768,1175.4739],[-86.9161,13.7734,1123.7325],[-86.9099,13.7717,930.8068],[-86.9006,13.7724,900.6558],[-86.8942,13.7709,848.7016],[-86.8884,13.7733,760.1675],[-86.8867,13.7801,704.5477],[-86.8882,13.7847,774.4664],[-86.896,13.7898,928.0007],[-86.907,13.7934,1162.665],[-86.92,13.8039,1253.6135],[-86.9256,13.8052,1383.91],[-86.9315,13.8155,1417.9384],[-86.9348,13.8267,1641.9293],[-86.941,13.8322,1725.6249],[-86.9112,13.8412,1490.5858],[-86.8944,13.8415,1203.1721],[-86.8829,13.8524,1112.2473],[-86.8651,13.8554,1048.5289]]]]}}