{"type":"Feature","properties":{"GID_2":"HND.11.1_1","GID_0":"HND","country":"Honduras","GID_1":"HND.11_1","province":"IslasdelaBahía","NL_NAME_1":"NA","county":"Guanaja","VARNAME_2":"NA","NL_NAME_2":"NA","TYPE_2":"Municipio","ENGTYPE_2":"Municipality","CC_2":"NA","HASC_2":"HN.IB.GU","name":"Guanaja.county"},
"geometry":{"type": "MultiPolygon","coordinates": [[[[-85.8476,16.4435,0.0],[-85.8485,16.4435,0.0],[-85.851,16.4399,0.0],[-85.8474,16.4421,0.0],[-85.8476,16.4435,0.0]]],
[[[-85.829,16.4593,0.0],[-85.8326,16.459,0.0],[-85.8307,16.4574,0.0],[-85.8365,16.4501,0.0],[-85.8379,16.4504,0.0],[-85.8374,16.4488,0.0],[-85.8274,16.4588,0.0],[-85.829,16.4593,0.0]]],
[[[-85.8251,16.4685,0.0],[-85.8265,16.469,0.0],[-85.8279,16.4671,0.0],[-85.8257,16.4671,0.5038],[-85.8251,16.4685,0.0]]],
[[[-85.8818,16.4088,0.0],[-85.8838,16.4079,0.0],[-85.8863,16.4037,0.0],[-85.8821,16.406,0.0],[-85.8818,16.4088,0.0]]],
[[[-85.886,16.4424,1.449],[-85.8863,16.4435,1.449],[-85.8901,16.4429,0.0],[-85.8874,16.4396,0.0],[-85.8854,16.4401,0.8846],[-85.886,16.4424,1.449]]],
[[[-85.8551,16.5163,0.0],[-85.8593,16.5165,0.0],[-85.8649,16.5101,0.0],[-85.8674,16.5096,0.0],[-85.8657,16.5076,0.0],[-85.8657,16.5029,0.0],[-85.8685,16.4993,2.6832],[-85.8718,16.5024,0.0],[-85.8779,16.5046,0.4559],[-85.8849,16.5029,3.0545],[-85.8907,16.4979,4.4219],[-85.8929,16.491,2.1986],[-85.9001,16.4818,10.8699],[-85.9074,16.4815,0.1515],[-85.9057,16.4801,2.461],[-85.9057,16.476,1.503],[-85.9143,16.4682,0.0],[-85.9151,16.4654,17.8075],[-85.9143,16.4551,2.0564],[-85.9154,16.4521,1.9972],[-85.9176,16.4512,2.5292],[-85.9235,16.4554,8.0723],[-85.931,16.4538,0.0],[-85.9304,16.4512,3.8939],[-85.9326,16.4499,1.6912],[-85.9321,16.4463,29.5283],[-85.939,16.4354,0.0],[-85.9365,16.4346,3.3592],[-85.9365,16.431,0.0],[-85.946,16.4174,0.0],[-85.9512,16.4021,7.385],[-85.944,16.4037,0.0],[-85.9368,16.4099,2.1044],[-85.9335,16.4104,0.0],[-85.9329,16.414,5.381],[-85.9274,16.4196,19.8594],[-85.9207,16.4207,10.0161],[-85.9179,16.4257,0.0],[-85.9135,16.4293,5.0143],[-85.9049,16.4326,0.6163],[-85.8974,16.4379,1.179],[-85.8974,16.4396,1.7458],[-85.9024,16.4407,1.7034],[-85.9035,16.4424,1.3566],[-85.899,16.4415,0.0],[-85.894,16.4429,0.0],[-85.8893,16.4493,13.4851],[-85.8857,16.4499,0.0],[-85.884,16.4521,14.1009],[-85.8726,16.4576,3.11],[-85.8688,16.4568,0.0],[-85.8651,16.4538,0.2097],[-85.8665,16.4521,2.2752],[-85.8607,16.4524,8.8044],[-85.8474,16.4685,0.0],[-85.8501,16.4718,9.9957],[-85.8485,16.4804,1.674],[-85.8526,16.486,2.9558],[-85.8465,16.4837,0.0],[-85.8404,16.484,2.0126],[-85.8374,16.4863,0.5121],[-85.8315,16.4854,0.0],[-85.8254,16.4901,8.5231],[-85.8182,16.4926,0.0],[-85.8157,16.4993,2.5699],[-85.8179,16.5015,9.1151],[-85.8204,16.5007,3.8387],[-85.8224,16.5024,11.9454],[-85.8224,16.509,0.0],[-85.8249,16.509,0.0],[-85.831,16.5032,6.5677],[-85.8376,16.506,0.0],[-85.8418,16.5051,4.2577],[-85.8424,16.5068,0.234],[-85.8476,16.5057,0.0],[-85.846,16.5088,0.7164],[-85.8412,16.5099,0.803],[-85.8418,16.5138,0.0],[-85.8449,16.516,0.0],[-85.8496,16.5163,0.0],[-85.851,16.5149,0.0],[-85.8521,16.5165,0.0],[-85.8526,16.5154,0.0],[-85.8551,16.5163,0.0]]]]}}