{"type": "Feature","bbox": [-87.2502,13.6478,-87.1015,13.8414],"geometry": {"type": "MultiPolygon","coordinates": [[[[-87.2136,13.6627,533.2111],[-87.1864,13.6805,810.2702],[-87.1444,13.6555,875.5104],[-87.1412,13.6563,911.473],[-87.1343,13.6528,842.4902],[-87.1286,13.6478,786.5976],[-87.1265,13.6481,816.7672],[-87.1251,13.6494,771.9213],[-87.1282,13.6606,807.6268],[-87.1324,13.6673,897.8412],[-87.1165,13.6941,928.8702],[-87.1015,13.7036,588.21],[-87.1035,13.7081,504.9093],[-87.1144,13.7197,559.7315],[-87.1149,13.7241,488.1509],[-87.1187,13.7275,528.184],[-87.1203,13.7358,537.2723],[-87.1302,13.7442,546.585],[-87.1296,13.7899,517.863],[-87.1279,13.7921,556.0386],[-87.1227,13.7916,602.6159],[-87.1237,13.7996,547.9789],[-87.1186,13.8025,610.5643],[-87.1316,13.8252,551.7959],[-87.1318,13.8294,558.8939],[-87.1451,13.839,648.0004],[-87.1785,13.8414,1190.0488],[-87.2013,13.8333,952.5198],[-87.2,13.8296,1030.2852],[-87.2017,13.8263,896.8],[-87.1984,13.817,1102.3351],[-87.2042,13.7796,730.2141],[-87.1925,13.7657,872.5077],[-87.1966,13.7219,919.1849],[-87.2032,13.718,773.5877],[-87.2066,13.7115,759.5745],[-87.2085,13.7114,759.4481],[-87.2115,13.7151,762.0771],[-87.2145,13.716,681.7916],[-87.2169,13.7138,682.5297],[-87.2185,13.7079,690.7661],[-87.2211,13.7069,671.1379],[-87.2225,13.7088,666.2291],[-87.2264,13.7087,590.1825],[-87.2311,13.7031,447.7372],[-87.235,13.7026,492.4916],[-87.2344,13.6934,425.8695],[-87.2285,13.6869,518.4027],[-87.2286,13.6852,488.9377],[-87.2367,13.6806,421.1357],[-87.2452,13.6787,414.2113],[-87.2502,13.6792,314.8865],[-87.2136,13.6627,533.2111]]]]}
,"properties": {"GID_2": "HND.8.12_1","GID_0": "HND","country": "Honduras","GID_1": "HND.8_1","province": "FranciscoMorazán","NL_NAME_1": "NA","county": "NuevaArmenia","VARNAME_2": "NA","NL_NAME_2": "NA","TYPE_2": "Municipio","ENGTYPE_2": "Municipality","CC_2": "NA","HASC_2": "HN.FM.NA","name": "Nueva_Armenia.county","area_km2": 174.0705,"hist_schema_id": "Elevation0-9000","hist_area_km2": {"375": 0.0412,"400": 0.1648,"425": 1.0094,"450": 1.2154,"475": 1.133,"500": 1.7303,"525": 3.2745,"550": 4.7778,"575": 5.8071,"600": 8.6489,"625": 11.491,"650": 10.0702,"675": 9.3702,"700": 8.567,"725": 7.8261,"750": 7.3938,"775": 8.2585,"800": 9.2061,"825": 12.1311,"850": 12.9552,"875": 10.3188,"900": 6.4673,"925": 7.9714,"950": 8.4245,"975": 4.9846,"1000": 2.0596,"1025": 1.627,"1050": 1.2151,"1075": 1.4624,"1100": 1.524,"1125": 1.5236,"1150": 1.0089,"1175": 0.3912,"1200": 0.0206}}}