{"type": "Feature","bbox": [-87.753,14.2462,-87.6335,14.3023],"geometry": {"type": "MultiPolygon","coordinates": [[[[-87.6569,14.2523,646.9626],[-87.6504,14.2545,620.9799],[-87.6454,14.2586,629.1086],[-87.6482,14.2695,630.8049],[-87.6459,14.2692,618.1454],[-87.6443,14.2667,610.5579],[-87.6416,14.2669,616.4272],[-87.6392,14.2695,609.4689],[-87.6379,14.2763,606.6274],[-87.6349,14.2741,615.9615],[-87.6335,14.2751,625.1917],[-87.6374,14.2823,605.8688],[-87.6373,14.2877,616.4321],[-87.6395,14.2903,613.7903],[-87.6386,14.2927,611.5127],[-87.6428,14.2927,618.4869],[-87.6416,14.2976,608.3695],[-87.6549,14.3023,644.057],[-87.6701,14.2991,666.2441],[-87.6794,14.2995,695.1382],[-87.6876,14.2967,721.0626],[-87.6982,14.2822,777.868],[-87.7168,14.2809,972.7097],[-87.7236,14.2753,1062.7478],[-87.7316,14.2773,1200.0308],[-87.753,14.2612,1169.903],[-87.7489,14.2498,1079.2352],[-87.7299,14.2494,918.6292],[-87.7252,14.2462,852.4521],[-87.7198,14.2472,874.7121],[-87.716,14.2497,820.6166],[-87.7173,14.2544,951.3729],[-87.7008,14.2601,735.5539],[-87.6924,14.2593,690.5721],[-87.685,14.2548,692.8247],[-87.6831,14.248,687.571],[-87.6762,14.253,671.6047],[-87.6764,14.2487,672.137],[-87.674,14.2475,661.943],[-87.6692,14.2566,651.9731],[-87.6634,14.2534,647.0996],[-87.6619,14.2587,643.3396],[-87.6597,14.2579,643.1914],[-87.6569,14.2523,646.9626]]]]}
,"properties": {"GID_2": "HND.12.3_1","GID_0": "HND","country": "Honduras","GID_1": "HND.12_1","province": "LaPaz","NL_NAME_1": "NA","county": "Cane","VARNAME_2": "NA","NL_NAME_2": "NA","TYPE_2": "Municipio","ENGTYPE_2": "Municipality","CC_2": "NA","HASC_2": "HN.LP.CN","name": "Cane.county","area_km2": 44.93799,"hist_schema_id": "Elevation0-9000","hist_area_km2": {"600": 0.92464,"625": 7.06835,"650": 8.40389,"675": 7.00666,"700": 4.47928,"725": 1.89035,"750": 0.96575,"775": 0.88357,"800": 0.82194,"825": 0.80139,"850": 0.63701,"875": 0.69865,"900": 0.73975,"925": 0.63701,"950": 1.29457,"975": 1.64388,"1000": 1.41785,"1025": 0.76031,"1050": 0.61645,"1075": 0.61646,"1100": 0.7603,"1125": 0.53426,"1150": 0.41097,"1175": 0.51371,"1200": 0.30822,"1225": 0.08219,"1250": 0.02055}}}