{"type":"Feature","properties":{"GID_2":"HND.13.24_1","GID_0":"HND","country":"Honduras","GID_1":"HND.13_1","province":"Lempira","NL_NAME_1":"NA","county":"Talgua","VARNAME_2":"NA","NL_NAME_2":"NA","TYPE_2":"Municipio","ENGTYPE_2":"Municipality","CC_2":"NA","HASC_2":"HN.LE.TG","name":"Talgua.county"},
"geometry":{"type": "MultiPolygon","coordinates": [[[[-88.7665,14.6361,1477.3723],[-88.7544,14.6341,1396.1254],[-88.7533,14.6316,1327.7234],[-88.7478,14.6286,1214.4529],[-88.7433,14.6322,1255.7517],[-88.7305,14.6377,1099.6515],[-88.7228,14.6343,902.3433],[-88.718,14.6363,1003.1713],[-88.7108,14.6363,989.294],[-88.7066,14.6397,926.8926],[-88.6914,14.6376,1178.1788],[-88.6755,14.6667,1029.9447],[-88.6703,14.6712,880.3995],[-88.667,14.6712,813.7867],[-88.6662,14.6733,805.5433],[-88.661,14.6767,673.2507],[-88.6606,14.6801,658.9293],[-88.664,14.6923,689.176],[-88.6632,14.6946,666.4335],[-88.6592,14.6983,563.5743],[-88.6577,14.6964,580.3995],[-88.6505,14.7006,519.2128],[-88.6506,14.7044,535.3556],[-88.6552,14.7055,561.3779],[-88.6573,14.7014,570.1623],[-88.6593,14.7009,567.0999],[-88.6603,14.7049,584.2542],[-88.6668,14.7029,653.7863],[-88.6681,14.7047,644.2158],[-88.6744,14.7067,643.8165],[-88.6788,14.7026,671.2804],[-88.6807,14.698,674.6365],[-88.6844,14.696,757.9796],[-88.6981,14.6972,569.9136],[-88.7257,14.6914,995.3453],[-88.7298,14.694,892.2318],[-88.7381,14.6937,1023.5756],[-88.7499,14.699,743.6219],[-88.7563,14.6971,790.9881],[-88.7682,14.6973,811.873],[-88.7735,14.7009,744.4263],[-88.7848,14.7036,926.9128],[-88.7891,14.6979,828.1158],[-88.79,14.6887,893.9376],[-88.7932,14.6883,879.0536],[-88.7941,14.6864,812.0059],[-88.7708,14.6389,1378.7583],[-88.7665,14.6361,1477.3723]]]]}}