{"type":"Feature","properties":{"GID_2":"HND.3.3_1","GID_0":"HND","country":"Honduras","GID_1":"HND.3_1","province":"Colón","NL_NAME_1":"NA","county":"Iriona","VARNAME_2":"NA","NL_NAME_2":"NA","TYPE_2":"Municipio","ENGTYPE_2":"Municipality","CC_2":"NA","HASC_2":"HN.CL.IR","name":"Iriona.county"},
"geometry":{"type": "MultiPolygon","coordinates": [[[[-85.7059,15.5758,451.2214],[-85.5968,15.5232,194.4041],[-85.537,15.4621,393.3434],[-85.5135,15.4458,1217.0251],[-85.5056,15.442,1174.1111],[-85.4879,15.4379,1104.5624],[-85.3729,15.3959,265.9766],[-85.3166,15.3129,595.8499],[-85.2315,15.2062,877.4501],[-85.0944,15.1731,318.088],[-84.994,15.0612,163.946],[-84.9981,15.9718,5.6904],[-84.9972,15.9783,0.7938],[-84.9941,15.9793,0.644],[-85.011,15.9846,0.0],[-85.014,15.9838,0.0],[-85.0074,15.9824,0.5171],[-85.0057,15.9785,0.3649],[-85.0001,15.9788,1.7616],[-85.0001,15.9776,2.2962],[-85.006,15.9774,0.3649],[-85.0079,15.9812,0.0],[-85.011,15.9826,0.3245],[-85.0221,15.9815,1.8174],[-85.024,15.9779,0.0],[-85.0246,15.971,1.469],[-85.031,15.9613,2.1453],[-85.034,15.9526,2.0595],[-85.0318,15.9613,4.0148],[-85.0257,15.9699,1.8605],[-85.0249,15.979,0.1926],[-85.0215,15.9835,0.0],[-85.0179,15.9851,0.0],[-85.0212,15.9846,0.0],[-85.0301,15.9868,0.0],[-85.0451,15.9865,0.0],[-85.0668,15.9826,0.0],[-85.0729,15.9751,1.8023],[-85.0687,15.9735,1.6847],[-85.0735,15.9743,1.8023],[-85.0732,15.9762,2.0741],[-85.0699,15.9793,0.7593],[-85.0713,15.9807,0.0],[-85.1007,15.9668,3.5595],[-85.1288,15.9487,0.5692],[-85.1496,15.9282,3.4466],[-85.1571,15.9238,0.0],[-85.1646,15.9162,2.8298],[-85.1757,15.909,1.4916],[-85.1921,15.9012,2.1142],[-85.2324,15.8882,4.2125],[-85.2479,15.8862,0.7467],[-85.2637,15.8818,4.5684],[-85.2906,15.8788,0.0],[-85.293,15.8691,6.0435],[-85.2805,15.8498,53.4387],[-85.2788,15.8386,136.7156],[-85.2996,15.8249,140.8757],[-85.4064,15.7654,338.2454],[-85.5518,15.664,263.2181],[-85.616,15.6671,172.7496],[-85.6327,15.6658,159.2638],[-85.6296,15.658,217.8646],[-85.6307,15.6456,231.7328],[-85.6274,15.6416,390.8167],[-85.6272,15.6387,332.5457],[-85.6666,15.5975,606.8498],[-85.7059,15.5758,451.2214]]]]}}