{"type": "Feature","bbox": [-88.2478,14.2341,-87.9998,14.6441],"geometry": {"type": "MultiPolygon","coordinates": [[[[-88.1231,14.4951,1711.0897],[-88.1442,14.488,2089.863],[-88.1502,14.4976,2152.5508],[-88.1527,14.5142,2008.4071],[-88.1515,14.5206,1739.6161],[-88.1561,14.5375,1867.1848],[-88.1539,14.5392,1715.8802],[-88.1534,14.5426,1680.1379],[-88.1401,14.551,1504.3903],[-88.1614,14.5801,1379.7991],[-88.1557,14.5849,1290.1339],[-88.155,14.593,1342.6846],[-88.1399,14.5995,1144.746],[-88.1337,14.6049,1147.6904],[-88.1262,14.6067,1080.9949],[-88.1258,14.6133,1017.0717],[-88.1241,14.6162,1010.9854],[-88.1303,14.6179,900.3861],[-88.1304,14.6215,934.2751],[-88.129,14.6273,836.5748],[-88.1241,14.6309,838.8746],[-88.1216,14.6355,806.2424],[-88.1529,14.6441,882.0132],[-88.1851,14.6419,660.2481],[-88.1909,14.634,1050.446],[-88.1911,14.6291,1221.3368],[-88.1955,14.6217,1446.9746],[-88.1985,14.6219,1360.3765],[-88.1989,14.6191,1391.3184],[-88.2036,14.6164,1330.8081],[-88.2116,14.6028,969.1644],[-88.2106,14.5985,902.5382],[-88.1904,14.5952,1388.5508],[-88.1865,14.5934,1484.7546],[-88.1865,14.5903,1341.4005],[-88.1924,14.5865,1218.6404],[-88.1983,14.5786,1141.3027],[-88.2097,14.5739,932.2781],[-88.2134,14.5589,1080.7596],[-88.2128,14.5558,1142.3225],[-88.2151,14.5524,1029.7542],[-88.2131,14.5431,1190.8633],[-88.2156,14.5426,1168.4575],[-88.2191,14.5364,1173.593],[-88.2302,14.5275,1222.0294],[-88.2364,14.5173,1141.0684],[-88.2429,14.5153,1070.9248],[-88.2429,14.5082,1159.75],[-88.2454,14.5053,1285.3098],[-88.2428,14.5005,1142.0912],[-88.2342,14.499,1283.361],[-88.2322,14.4931,1369.802],[-88.2327,14.4867,1203.2098],[-88.2359,14.4803,1347.5012],[-88.2338,14.4761,1409.6439],[-88.2352,14.4718,1538.4283],[-88.2332,14.4687,1463.3745],[-88.2394,14.4659,1390.7389],[-88.2385,14.4585,1592.635],[-88.2476,14.4529,1455.6498],[-88.2478,14.4434,1450.5995],[-88.2451,14.4374,1554.5461],[-88.2452,14.4305,1549.2012],[-88.2402,14.4209,1766.1643],[-88.2424,14.415,1845.5253],[-88.2424,14.4021,1877.5143],[-88.2381,14.3901,1992.4531],[-88.2167,14.3646,1955.0586],[-88.216,14.3348,2081.3269],[-88.2014,14.326,1853.4059],[-88.2087,14.305,1901.0046],[-88.2049,14.3053,1874.2976],[-88.1968,14.3018,1837.9307],[-88.1907,14.3028,1788.2303],[-88.1682,14.2958,1678.0104],[-88.1435,14.2977,1852.6738],[-88.1351,14.301,1915.1008],[-88.1297,14.3002,1956.2203],[-88.119,14.2943,1893.0437],[-88.1097,14.2919,1896.1458],[-88.101,14.2838,1745.7197],[-88.0881,14.2778,1740.2197],[-88.0796,14.2684,1525.728],[-88.0747,14.2669,1517.7644],[-88.0722,14.2623,1493.7233],[-88.0656,14.2586,1415.5404],[-88.0649,14.2497,1544.4883],[-88.0528,14.2404,1346.9099],[-88.0513,14.2341,1318.9385],[-88.044,14.2379,1345.6588],[-88.0037,14.237,1065.4652],[-87.9998,14.2533,1134.1791],[-88.0015,14.2583,1012.6605],[-88.0094,14.2576,1063.7378],[-88.0166,14.2627,1072.5432],[-88.0184,14.2685,1052.3195],[-88.0224,14.2729,1015.4459],[-88.0251,14.2834,1054.939],[-88.036,14.2975,1267.3429],[-88.0375,14.3047,1226.5779],[-88.0613,14.3271,1687.6278],[-88.0588,14.3284,1618.5719],[-88.0547,14.3407,1819.0293],[-88.0507,14.3419,1712.2864],[-88.0506,14.3478,1705.0188],[-88.0512,14.3512,1591.0999],[-88.0549,14.3557,1495.6984],[-88.0531,14.3629,1439.6898],[-88.0575,14.3729,1311.7188],[-88.0596,14.3841,1118.8246],[-88.0629,14.3888,1090.6396],[-88.0601,14.3914,1047.7136],[-88.058,14.3987,1181.4463],[-88.0559,14.3983,1249.0471],[-88.0544,14.4023,1179.7693],[-88.0476,14.4075,1033.0923],[-88.055,14.4098,1086.6855],[-88.0624,14.4148,840.2488],[-88.1114,14.4297,1504.0591],[-88.1243,14.4916,1867.8116],[-88.1231,14.4951,1711.0897]]]]}
,"properties": {"GID_2": "HND.10.5_1","GID_0": "HND","country": "Honduras","GID_1": "HND.10_1","province": "Intibucá","NL_NAME_1": "NA","county": "Intibucá","VARNAME_2": "NA","NL_NAME_2": "NA","TYPE_2": "Municipio","ENGTYPE_2": "Municipality","CC_2": "NA","HASC_2": "HN.IN.IN","name": "Intibucá.county","area_km2": 520.7706,"hist_schema_id": "Elevation0-9000","hist_area_km2": {"650": 0.0205,"675": 0.0205,"700": 0.0821,"725": 0.0615,"750": 0.2051,"775": 0.1641,"800": 0.5949,"825": 0.9233,"850": 1.0669,"875": 1.19,"900": 1.7442,"925": 1.888,"950": 2.4423,"975": 3.387,"1000": 3.695,"1025": 4.5986,"1050": 5.6253,"1075": 5.8922,"1100": 5.5844,"1125": 5.0095,"1150": 5.8097,"1175": 6.6309,"1200": 7.5344,"1225": 8.4989,"1250": 7.5346,"1275": 8.0892,"1300": 8.3969,"1325": 9.2383,"1350": 10.0387,"1375": 10.5316,"1400": 10.2651,"1425": 10.9224,"1450": 10.1225,"1475": 9.5891,"1500": 8.6037,"1525": 9.0351,"1550": 8.132,"1575": 8.9532,"1600": 9.097,"1625": 9.22,"1650": 9.4661,"1675": 17.1908,"1700": 19.8602,"1725": 16.4503,"1750": 19.0587,"1775": 19.0383,"1800": 20.6613,"1825": 23.9685,"1850": 23.6195,"1875": 23.1466,"1900": 18.8744,"1925": 17.7649,"1950": 14.6223,"1975": 11.9317,"2000": 8.1112,"2025": 4.8253,"2050": 4.5784,"2075": 4.4758,"2100": 4.2295,"2125": 4.0858,"2150": 3.9216,"2175": 2.4842,"2200": 2.4432,"2225": 2.4432,"2250": 2.0737,"2275": 0.7597,"2300": 0.2053,"2325": 0.0411}}}