{"type":"Feature","properties":{"GID_2":"HND.7.6_1","GID_0":"HND","country":"Honduras","GID_1":"HND.7_1","province":"ElParaíso","NL_NAME_1":"NA","county":"Liure","VARNAME_2":"NA","NL_NAME_2":"NA","TYPE_2":"Municipio","ENGTYPE_2":"Municipality","CC_2":"NA","HASC_2":"HN.EP.LI","name":"Liure.county"},
"geometry":{"type": "MultiPolygon","coordinates": [[[[-87.0147,13.5399,758.316],[-87.0091,13.5463,844.6323],[-87.0084,13.5559,904.0452],[-87.0107,13.5638,762.8731],[-87.0033,13.5707,949.533],[-87.0042,13.5768,903.8005],[-87.0014,13.582,802.7341],[-87.0067,13.5917,638.5549],[-87.0096,13.5939,567.7614],[-87.0163,13.5953,570.5226],[-87.0311,13.5938,451.0611],[-87.0357,13.5851,483.391],[-87.0452,13.5777,405.3451],[-87.0462,13.5751,380.5873],[-87.0513,13.5783,426.3097],[-87.0526,13.5928,357.6849],[-87.0861,13.5803,482.4667],[-87.0884,13.5761,420.7448],[-87.0884,13.5684,505.9404],[-87.1121,13.5471,223.4774],[-87.1141,13.5299,256.9189],[-87.1074,13.522,334.182],[-87.1069,13.511,227.5637],[-87.1004,13.5043,261.757],[-87.0822,13.4975,411.7838],[-87.0808,13.5063,536.5092],[-87.0669,13.4976,158.6674],[-87.062,13.4987,233.3445],[-87.0562,13.5036,270.9006],[-87.0548,13.5116,217.6368],[-87.0513,13.516,272.5485],[-87.0408,13.5193,378.564],[-87.036,13.5173,447.2574],[-87.0264,13.5192,632.4145],[-87.0243,13.5295,569.4483],[-87.0254,13.5344,674.6122],[-87.0221,13.5348,678.436],[-87.0147,13.5399,758.316]]]]}}