{"type": "Feature","bbox": [-86.2041,15.6302,-85.6952,16.0279],"geometry": {"type": "MultiPolygon","coordinates": [[[[-86.2041,15.7513,853.9903],[-86.1485,15.683,189.4671],[-86.1327,15.6713,49.7686],[-86.0946,15.6302,43.5361],[-86.0934,15.6321,43.086],[-86.0977,15.6365,43.6674],[-86.0946,15.639099999999999,43.1735],[-86.0866,15.6379,42.0482],[-86.0857,15.6442,41.8938],[-86.0774,15.643,40.2171],[-86.0699,15.6462,41.6592],[-86.0638,15.6426,36.3261],[-86.0624,15.6498,37.0832],[-86.0552,15.6514,36.5439],[-86.0508,15.6564,35.1437],[-86.0406,15.6505,34.7738],[-86.0378,15.6527,40.2403],[-86.0339,15.6574,35.9514],[-86.0339,15.6604,35.9033],[-86.0422,15.6623,35.4357],[-86.0457,15.6646,34.7513],[-86.0488,15.674,34.8411],[-86.0457,15.6769,36.6921],[-86.0421,15.6776,37.1851],[-86.0336,15.67,32.1112],[-86.0313,15.6703,33.7656],[-86.0282,15.6729,31.9877],[-86.0277,15.682,30.6482],[-86.0199,15.6861,31.2452],[-86.0117,15.6939,29.0],[-86.0107,15.7015,30.5571],[-86.0043,15.7109,35.9886],[-85.9941,15.7069,36.8163],[-85.9858,15.7119,30.7557],[-85.9765,15.7119,33.1963],[-85.9672,15.714,29.8279],[-85.9671,15.7165,30.3603],[-85.9785,15.7223,37.6293],[-85.9808,15.7346,25.5],[-85.9768,15.736,29.2867],[-85.9608,15.7322,26.4396],[-85.9577,15.7359,27.1105],[-85.9553,15.745,31.821],[-85.959,15.7494,25.8569],[-85.9591,15.7515,23.3644],[-85.9561,15.7547,23.598],[-85.9492,15.7556,29.6712],[-85.9362,15.7408,23.7245],[-85.9316,15.7406,22.9043],[-85.9263,15.7443,22.6281],[-85.9233,15.7443,20.1437],[-85.9216,15.7421,19.0],[-85.923,15.7358,23.2897],[-85.9199,15.7336,26.9666],[-85.916,15.7349,25.3109],[-85.915,15.7428,19.0],[-85.9124,15.7454,20.7113],[-85.9014,15.7495,22.8782],[-85.8926,15.7572,23.8064],[-85.8912,15.7572,24.7429],[-85.8843,15.7461,18.5529],[-85.8728,15.7476,23.0287],[-85.8701,15.7581,19.5348],[-85.867,15.7606,19.3005],[-85.8587,15.7631,22.5027],[-85.8547,15.7688,17.3591],[-85.8467,15.7672,18.5403],[-85.8418,15.7704,23.8172],[-85.8353,15.766,21.2525],[-85.8321,15.767,23.711],[-85.8339,15.774,26.2351],[-85.8325,15.7762,22.9931],[-85.8248,15.78,21.2699],[-85.826,15.7903,17.9903],[-85.8177,15.7973,17.0019],[-85.8153,15.8063,11.876],[-85.8123,15.8057,12.1596],[-85.8066,15.8006,15.4549],[-85.802,15.8021,12.748],[-85.7947,15.8084,18.2895],[-85.7854,15.8064,12.6127],[-85.7865,15.8105,16.2563],[-85.7969,15.8154,13.8972],[-85.7958,15.8189,12.716],[-85.7904,15.8177,14.0878],[-85.7795,15.8105,11.9298],[-85.7746,15.8092,12.1286],[-85.7732,15.8108,11.7073],[-85.7748,15.8138,12.1884],[-85.7795,15.8173,11.0831],[-85.7773,15.8198,10.8262],[-85.7711,15.8211,16.2074],[-85.7696,15.8281,15.9507],[-85.7681,15.8287,15.9507],[-85.7659,15.8273,19.1809],[-85.7646,15.8218,15.1232],[-85.7395,15.824,11.2588],[-85.7351,15.8236,10.8341],[-85.7295,15.8198,9.1123],[-85.728,15.8206,8.4869],[-85.7269,15.8274,9.9061],[-85.724,15.8307,14.0557],[-85.7211,15.8275,11.8261],[-85.7222,15.8192,8.5661],[-85.7189,15.8213,9.8254],[-85.7165,15.8288,9.0536],[-85.7149,15.8204,8.4413],[-85.7125,15.8203,7.6491],[-85.7079,15.8236,9.6291],[-85.7063,15.8263,8.182],[-85.7088,15.8312,8.1998],[-85.7073,15.835,9.3609],[-85.6987,15.8316,8.5177],[-85.6958,15.833,7.5194],[-85.6952,15.8358,6.1287],[-85.7015,15.8445,10.6621],[-85.7044,15.8444,8.7271],[-85.7046,15.8467,11.2818],[-85.7027,15.8483,14.9744],[-85.7174,15.8683,14.495],[-85.7438,15.8912,9.6973],[-85.744,15.9085,6.3358],[-85.7382,15.941,0.9165],[-85.7415,15.9423,2.4936],[-85.7394,15.9509,0.7664],[-85.7424,15.9532,0.1866],[-85.7365,15.9566,0.2161],[-85.7379,15.9596,0.4848],[-85.7371,15.9629,0.7328],[-85.739,15.9637,5.8509],[-85.739,15.9665,1.2585],[-85.7438,15.9651,0.5285],[-85.7454,15.9624,1.5721],[-85.7426,15.9574,2.0159],[-85.744,15.9576,0.2495],[-85.746,15.9601,0.0],[-85.7457,15.964,9.1131],[-85.7412,15.9679,1.8472],[-85.7518,15.9771,0.0],[-85.7896,15.9896,0.0],[-85.8685,16.009,0.0],[-85.894,16.0124,0.0],[-85.9104,16.0124,1.556],[-85.9851,16.0268,4.2573],[-86.0043,16.0279,2.6391],[-86.0093,16.0265,6.1651],[-86.0104,16.0226,7.4806],[-85.9935,16.0157,7.5337],[-85.9818,16.0049,0.0],[-85.9749,16.0063,1.6234],[-85.9707,16.0046,0.3655],[-85.9671,16.0054,0.0],[-85.9624,16.0093,1.9574],[-85.9504,16.0082,0.0],[-85.9371,16.0113,2.4943],[-85.9287,16.0101,0.0],[-85.919,16.0049,0.5477],[-85.9124,15.9946,0.7294],[-85.9107,15.9821,0.8533],[-85.9137,15.964,2.3538],[-85.9221,15.9485,0.0],[-85.9226,15.9463,0.8085],[-85.9173,15.9537,2.9505],[-85.9226,15.9435,0.4896],[-85.9187,15.9432,0.7758],[-85.9151,15.9454,2.1446],[-85.9049,15.9579,1.0],[-85.9035,15.9646,1.5092],[-85.899,15.9696,2.293],[-85.8957,15.9699,1.4846],[-85.8926,15.9729,2.5755],[-85.8863,15.9754,1.0],[-85.8874,15.9815,2.0469],[-85.8899,15.9829,1.5034],[-85.891,15.9807,1.931],[-85.891,15.9851,1.0],[-85.8868,15.9885,1.0],[-85.8863,15.9904,1.0],[-85.8879,15.9929,1.6379],[-85.8804,15.9951,1.0],[-85.8771,15.999,8.6941],[-85.8696,15.999,7.1347],[-85.8688,15.9974,1.0],[-85.8704,15.9968,6.0799],[-85.8704,15.9943,4.3818],[-85.8729,15.9912,3.3299],[-85.8771,15.9918,1.5357],[-85.8851,15.9857,1.0],[-85.8849,15.9838,3.2017],[-85.8715,15.9882,1.0],[-85.871,15.9926,2.7988],[-85.8676,15.9949,2.5818],[-85.8562,15.9982,3.6916],[-85.8393,15.9924,3.3047],[-85.8332,15.9876,4.6941],[-85.8235,15.9868,1.0],[-85.8179,15.9838,10.4129],[-85.8157,15.981,2.5978],[-85.816,15.9729,1.8599],[-85.8193,15.9693,4.0633],[-85.8301,15.9712,2.1376],[-85.8324,15.9704,1.0],[-85.8385,15.9571,1.0],[-85.8299,15.9563,1.0],[-85.8296,15.9535,3.5845],[-85.8332,15.9526,1.0],[-85.8368,15.9557,1.8192],[-85.8404,15.9557,1.0],[-85.8457,15.9504,3.0073],[-85.8485,15.944,1.0],[-85.8515,15.9424,1.9692],[-85.8571,15.9432,1.0],[-85.8593,15.9415,7.1886],[-85.8626,15.9418,3.5713],[-85.866,15.939,1.0],[-85.871,15.9379,5.169],[-85.8774,15.941,4.2929],[-85.8865,15.9521,1.0],[-85.8968,15.9579,2.3203],[-85.8999,15.9618,7.8554],[-85.9026,15.9615,1.0],[-85.9018,15.9576,1.0],[-85.9044,15.956,1.0],[-85.9049,15.9535,7.5485],[-85.9065,15.9549,0.625],[-85.9065,15.9532,4.0595],[-85.9163,15.9435,6.5964],[-85.9182,15.9426,0.7758],[-85.9249,15.9432,1.3667],[-85.9318,15.9338,1.6366],[-85.9396,15.9265,2.4678],[-85.9512,15.9235,1.3428],[-85.9549,15.9207,4.8748],[-85.9646,15.9188,0.0],[-85.9754,15.9115,5.9796],[-85.994,15.9034,6.5888],[-85.9915,15.9013,9.2292],[-85.9924,15.8947,30.2],[-85.9902,15.8834,104.0838],[-85.9909,15.8764,161.6557],[-85.995,15.871,204.0972],[-86.0382,15.8524,704.8792],[-86.0966,15.8122,347.4725],[-86.121,15.7845,323.9264],[-86.1561,15.7566,191.1884],[-86.2041,15.7513,853.9903]]],
[[[-85.7465,15.9757,0.0],[-85.7487,15.9751,1.3248],[-85.7401,15.971,8.203],[-85.7374,15.9635,0.7328],[-85.7307,15.966,0.0],[-85.7299,15.9693,0.0],[-85.7343,15.9729,0.2793],[-85.7465,15.9757,0.0]]],
[[[-86.0001,16.0001,0.0],[-86.0001,15.9999,0.0],[-85.9999,15.9999,0.0],[-85.9999,16.0001,0.0],[-86.0001,16.0001,0.0]]]]}
,"properties": {"GID_2": "HND.3.10_1","GID_0": "HND","country": "Honduras","GID_1": "HND.3_1","province": "Colón","NL_NAME_1": "NA","county": "Trujillo","VARNAME_2": "NA","NL_NAME_2": "NA","TYPE_2": "Municipio","ENGTYPE_2": "Municipality","CC_2": "NA","HASC_2": "HN.CL.TR","name": "Trujillo.county","area_km2": 933.5159,"hist_schema_id": "Elevation0-9000","hist_area_km2": {"0": 215.018,"25": 236.4047,"50": 134.1767,"75": 57.5983,"100": 42.8851,"125": 38.5789,"150": 30.4783,"175": 23.0108,"200": 19.277,"225": 17.3795,"250": 15.0743,"275": 13.7482,"300": 11.8509,"325": 9.8315,"350": 7.8529,"375": 7.1389,"400": 6.2415,"425": 4.6912,"450": 4.9358,"475": 3.9569,"500": 3.5693,"525": 3.814,"550": 3.0798,"575": 3.1613,"600": 2.3863,"625": 2.1415,"650": 1.7947,"675": 1.9375,"700": 1.1421,"725": 1.1421,"750": 0.9381,"775": 1.0605,"800": 0.7546,"825": 0.8157,"850": 0.5506,"875": 0.8157,"900": 0.571,"925": 0.5914,"950": 0.5302,"975": 0.4691,"1000": 0.3671,"1025": 0.3263,"1050": 0.2855,"1075": 0.3671,"1100": 0.2447,"1125": 0.2855,"1150": 0.1224,"1175": 0.0612,"1200": 0.0612}}}