{"type": "Feature","bbox": [-85.9996,14.0464,-85.0252,15.0717],"geometry": {"type": "MultiPolygon","coordinates": [[[[-85.5748,14.0627,238.9262],[-85.5614,14.0652,211.838],[-85.56,14.0617,241.6593],[-85.5625,14.0559,290.2263],[-85.5619,14.0521,209.2992],[-85.5564,14.0482,335.6945],[-85.5411,14.047,212.541],[-85.5331,14.0483,219.874],[-85.523,14.0464,230.5607],[-85.5196,14.0603,218.4367],[-85.5125,14.0621,237.8436],[-85.509,14.0816,230.5392],[-85.5052,14.0864,217.9656],[-85.5006,14.079,277.1653],[-85.4949,14.078,225.5589],[-85.4927,14.0934,236.9225],[-85.4815,14.0809,326.0077],[-85.4786,14.0859,204.7225],[-85.4786,14.0931,195.0838],[-85.4699,14.0918,263.2444],[-85.4674,14.1008,341.5549],[-85.4653,14.1035,301.0813],[-85.4584,14.1053,214.9514],[-85.456,14.1121,196.0905],[-85.4506,14.113,205.5296],[-85.4427,14.1042,243.9377],[-85.4365,14.1074,203.0544],[-85.4283,14.1061,204.0314],[-85.4249,14.1151,214.7969],[-85.4178,14.1155,210.0357],[-85.4147,14.1207,185.7007],[-85.4053,14.1248,195.8383],[-85.4052,14.1287,185.6331],[-85.4031,14.1323,199.6194],[-85.3969,14.1362,187.1052],[-85.3964,14.1412,199.1262],[-85.4,14.156,199.7867],[-85.3794,14.1755,204.9694],[-85.3777,14.1797,190.9494],[-85.3811,14.1886,254.359],[-85.3759,14.195,195.6309],[-85.377,14.2029,210.4801],[-85.3748,14.2088,178.2369],[-85.3752,14.2113,171.5],[-85.3818,14.2171,175.7421],[-85.3796,14.2229,188.2165],[-85.3706,14.2248,173.4043],[-85.3679,14.2154,185.0152],[-85.3644,14.2135,174.4525],[-85.3574,14.2139,232.78],[-85.3521,14.218,257.0578],[-85.3492,14.2254,207.249],[-85.3415,14.2323,173.3802],[-85.3387,14.2446,203.3696],[-85.3284,14.2473,234.7372],[-85.3174,14.2546,165.3082],[-85.3074,14.2545,175.8427],[-85.2967,14.2488,185.5544],[-85.2929,14.2492,186.5455],[-85.2859,14.2547,229.5747],[-85.2784,14.2574,189.0943],[-85.2467,14.2578,182.5835],[-85.2324,14.2532,158.5096],[-85.2286,14.2532,164.1789],[-85.2217,14.2566,170.7731],[-85.2104,14.2529,163.4233],[-85.1972,14.2571,176.0311],[-85.1921,14.2481,174.3609],[-85.1869,14.2476,175.7221],[-85.1836,14.2506,156.3591],[-85.1579,14.2935,158.0402],[-85.1602,14.2983,206.2594],[-85.1642,14.3009,197.9595],[-85.1764,14.3033,180.4665],[-85.1783,14.3059,186.9748],[-85.1803,14.3135,160.3459],[-85.1795,14.322,165.0433],[-85.1811,14.328,167.8783],[-85.1832,14.3284,163.2078],[-85.1903,14.3253,176.4811],[-85.1943,14.3311,168.4065],[-85.1987,14.333,172.2352],[-85.2013,14.3364,177.2679],[-85.2018,14.3525,169.4093],[-85.2039,14.3565,190.2927],[-85.2098,14.3588,166.9569],[-85.2197,14.3594,194.6599],[-85.2241,14.3631,184.1382],[-85.2255,14.3668,215.4601],[-85.2228,14.3725,162.2722],[-85.2138,14.3788,160.1895],[-85.2067,14.3896,152.7239],[-85.2033,14.402,147.848],[-85.1977,14.4091,160.9759],[-85.1954,14.4189,148.6482],[-85.1877,14.4294,170.8332],[-85.1783,14.461,151.7798],[-85.1724,14.4694,181.0446],[-85.1558,14.4829,133.9924],[-85.1507,14.4893,151.0903],[-85.1452,14.5062,146.2359],[-85.139,14.5126,147.7193],[-85.1376,14.5172,152.887],[-85.1394,14.5276,144.222],[-85.1443,14.5379,129.1955],[-85.1406,14.5481,141.5935],[-85.151,14.5666,127.1478],[-85.1489,14.5702,144.491],[-85.1376,14.5712,176.9578],[-85.1297,14.5797,143.4659],[-85.1266,14.5801,143.6808],[-85.1226,14.5766,169.6775],[-85.1139,14.5742,137.3866],[-85.1035,14.5583,143.497],[-85.0946,14.5499,132.8495],[-85.0897,14.5491,138.9098],[-85.0814,14.5553,155.9297],[-85.0762,14.5559,127.7932],[-85.0689,14.5542,141.3726],[-85.0655,14.5567,170.4678],[-85.0603,14.5651,123.0806],[-85.0451,14.5723,118.8836],[-85.0252,14.602,118.7175],[-85.0266,14.6059,143.8741],[-85.0405,14.6074,118.0263],[-85.0423,14.6109,106.9502],[-85.0287,14.6243,100.875],[-85.0263,14.6309,111.833],[-85.0279,14.6365,124.1763],[-85.0309,14.6402,135.6437],[-85.0459,14.6484,125.1394],[-85.0494,14.6523,142.2359],[-85.0513,14.6616,106.7646],[-85.0569,14.6669,145.7435],[-85.1455,14.7415,153.3004],[-85.1573,14.7549,122.3697],[-85.1537,14.7574,164.3365],[-85.146,14.7589,156.9078],[-85.1439,14.7619,128.0004],[-85.1386,14.7627,159.0814],[-85.1377,14.7705,173.5539],[-85.1434,14.7766,141.3003],[-85.144,14.7797,136.4874],[-85.132,14.8099,121.98779999999999],[-85.1275,14.8348,126.1269],[-85.124,14.8387,116.2977],[-85.1135,14.8377,106.6566],[-85.1103,14.8431,152.3285],[-85.1031,14.8473,142.1231],[-85.1016,14.8559,173.77],[-85.104,14.8567,68.5],[-85.1058,14.852,98.1654],[-85.1144,14.8576,95.6122],[-85.1168,14.8558,93.1387],[-85.1184,14.8513,99.9731],[-85.1217,14.8539,87.2357],[-85.127,14.8539,102.8557],[-85.1323,14.8607,96.5006],[-85.1333,14.8665,89.5378],[-85.1352,14.8668,88.0286],[-85.1408,14.8658,185.2409],[-85.1455,14.863,197.7841],[-85.147,14.8655,164.3877],[-85.148,14.8628,169.7601],[-85.1535,14.8602,183.7195],[-85.157,14.8513,144.5667],[-85.1603,14.8508,145.4888],[-85.162,14.8537,142.337],[-85.1601,14.8598,97.519],[-85.1608,14.8625,115.0216],[-85.168,14.865,103.6921],[-85.1747,14.8605,165.6031],[-85.1783,14.8505,174.2365],[-85.175299999999993,14.8406,129.8672],[-85.1769,14.8405,129.8672],[-85.1766,14.8387,110.3936],[-85.1725,14.8312,231.1046],[-85.1738,14.8297,185.614],[-85.1762,14.8313,149.596],[-85.1795,14.8289,175.7867],[-85.1863,14.829,154.3671],[-85.1877,14.8338,107.7642],[-85.1953,14.8434,152.5421],[-85.2003,14.8435,185.393],[-85.2014,14.8423,185.393],[-85.2051,14.8444,181.7636],[-85.2067,14.848,124.3887],[-85.2039,14.8523,174.719],[-85.2052,14.8538,176.8183],[-85.2114,14.854,120.3823],[-85.2232,14.8617,165.6261],[-85.2285,14.8627,152.1949],[-85.2311,14.866,148.2732],[-85.2307,14.8706,147.139],[-85.2369,14.8685,218.9331],[-85.2422,14.8723,178.1964],[-85.2448,14.8685,277.1235],[-85.2552,14.8701,241.3138],[-85.2602,14.8773,146.9732],[-85.2674,14.8807,188.6112],[-85.2677,14.883,165.2099],[-85.2719,14.8818,208.3959],[-85.273,14.8835,183.8636],[-85.272,14.8878,167.9775],[-85.2733,14.8889,150.0752],[-85.2807,14.8898,238.3831],[-85.2813,14.8926,228.4285],[-85.283,14.8934,277.3419],[-85.2834,14.8916,277.5513],[-85.2939,14.889,226.2271],[-85.3026,14.8945,224.0611],[-85.3056,14.8894,326.2907],[-85.3102,14.8871,310.227],[-85.3143,14.8881,245.506],[-85.328,14.8775,190.5069],[-85.3332,14.8795,189.7442],[-85.3361,14.8782,250.5634],[-85.3438,14.8812,227.4323],[-85.3475,14.8806,256.2332],[-85.3548,14.8824,301.6507],[-85.3582,14.8802,240.5787],[-85.3611,14.8745,286.9153],[-85.3629,14.8739,314.802],[-85.3633,14.8703,384.8849],[-85.3664,14.8687,328.6034],[-85.3659,14.8673,328.6034],[-85.3732,14.8647,248.9307],[-85.3709,14.8591,276.4179],[-85.374,14.857,272.4143],[-85.3785,14.8569,284.5779],[-85.3801,14.8595,256.753],[-85.3852,14.8572,280.2414],[-85.3894,14.8648,259.5643],[-85.3914,14.8652,282.4534],[-85.3938,14.863,277.8963],[-85.4004,14.8676,334.2839],[-85.4019,14.8603,304.1295],[-85.4052,14.8589,305.9761],[-85.4154,14.8616,448.1652],[-85.4179,14.8638,386.6635],[-85.4245,14.864,405.9384],[-85.4268,14.8668,401.1742],[-85.4274,14.8744,414.0152],[-85.4344,14.8783,470.52],[-85.4346,14.883,384.9456],[-85.4497,14.8888,581.4663],[-85.4512,14.8915,519.8472],[-85.4552,14.8894,628.8066],[-85.4559,14.8991,533.6841],[-85.4655,14.9046,652.3667],[-85.4713,14.9099,653.7296],[-85.4786,14.9122,794.144],[-85.4861,14.919,827.191],[-85.5229,14.9813,591.2211],[-85.5554,14.9963,525.4278],[-85.6085,15.0175,575.8236],[-85.6634,15.052,1046.5249],[-85.6911,15.0717,923.406],[-85.7237,15.0615,1560.2458],[-85.7449,15.0503,1389.7861],[-85.7996,15.0261,1269.2859],[-85.8029,15.0262,1300.9565],[-85.8064,15.0288,1133.8998],[-85.8361,15.057,777.1785],[-85.9327,15.041,743.6104],[-85.9376,15.0279,1008.8051],[-85.9383,15.0187,1207.8149],[-85.9337,14.9202,1293.0149],[-85.9362,14.9145,1610.2311],[-85.9411,14.9113,1629.8228],[-85.9407,14.8971,970.2468],[-85.9374,14.8934,974.6234],[-85.9224,14.8861,685.8131],[-85.9194,14.8792,701.8939],[-85.9157,14.8476,529.4734],[-85.9011,14.7594,305.25],[-85.9058,14.7577,306.909],[-85.9097,14.7488,311.9958],[-85.9188,14.7486,312.2507],[-85.9303,14.7405,309.0],[-85.9272,14.7341,324.6018],[-85.9276,14.73,325.7151],[-85.9226,14.7272,330.6861],[-85.9195,14.7221,341.5583],[-85.9189,14.7121,342.7305],[-85.915,14.7084,357.7685],[-85.9179,14.7044,356.3125],[-85.9166,14.7012,355.6869],[-85.918,14.7006,353.9723],[-85.9153,14.686,370.1339],[-85.9188,14.6865,382.3],[-85.9238,14.6803,388.9109],[-85.927,14.6708,443.7706],[-85.9391,14.6585,392.3289],[-85.9544,14.6373,450.6307],[-85.9573,14.6298,558.6311],[-85.963,14.6027,472.8134],[-85.9627,14.566,571.6034],[-85.9884,14.5246,396.1389],[-85.98,14.5205,354.3924],[-85.9728,14.5231,348.2932],[-85.9702,14.5226,332.1867],[-85.9616,14.5181,272.6976],[-85.9608,14.5161,296.7504],[-85.9671,14.494,307.7769],[-85.9772,14.4892,279.0037],[-85.9776,14.4872,273.0797],[-85.975,14.4835,292.2866],[-85.9763,14.4801,300.4361],[-85.9882,14.4647,262.5842],[-85.9983,14.4568,263.4956],[-85.9996,14.451599999999999,259.6173],[-85.9975,14.4468,263.5399],[-85.9902,14.4407,257.7275],[-85.9822,14.4377,341.6548],[-85.9758,14.4371,339.4786],[-85.9614,14.4431,445.0799],[-85.9565,14.4428,258.8952],[-85.9531,14.4388,274.5956],[-85.9496,14.4275,285.0313],[-85.9386,14.4186,312.0199],[-85.9307,14.4078,265.7133],[-85.9187,14.4083,304.5339],[-85.8925,14.406,277.7841],[-85.8867,14.4034,254.8549],[-85.8748,14.3952,240.9231],[-85.8704,14.383,236.6341],[-85.8612,14.3771,229.7305],[-85.8574,14.3702,228.8589],[-85.8561,14.3624,254.9113],[-85.8414,14.3557,279.0348],[-85.8359,14.3585,359.9648],[-85.8325,14.3585,347.6095],[-85.8209,14.3544,235.7318],[-85.8072,14.3406,235.5738],[-85.8038,14.3275,248.8959],[-85.805,14.3236,259.1315],[-85.8126,14.3166,280.5005],[-85.8176,14.3149,286.5811],[-85.8252,14.2911,291.6323],[-85.8255,14.2848,299.7497],[-85.8196,14.2748,333.7389],[-85.8216,14.2662,309.9116],[-85.8168,14.2508,331.5822],[-85.8202,14.248,348.0091],[-85.8199,14.2343,353.1858],[-85.8222,14.2263,353.0499],[-85.8249,14.2251,358.4359],[-85.8267,14.2209,366.5424],[-85.8381,14.2126,400.6238],[-85.8461,14.2118,409.3396],[-85.8489,14.2062,431.1157],[-85.8543,14.204,444.0636],[-85.859,14.1983,467.1206],[-85.8605,14.1997,436.3427],[-85.8738,14.1948,451.5305],[-85.8778,14.1892,465.3726],[-85.8782,14.1844,576.1548],[-85.8868,14.1867,587.5778],[-85.8922,14.184,665.9459],[-85.9089,14.1591,872.0526],[-85.9157,14.1469,1020.1033],[-85.9217,14.131,979.7937],[-85.9173,14.1268,882.2143],[-85.9141,14.1259,888.5229],[-85.8911,14.1259,991.1447],[-85.882,14.1411,1022.6772],[-85.8812,14.1568,788.781],[-85.8759,14.1649,768.9711],[-85.8634,14.1693,922.5751],[-85.8398,14.1815,1062.2902],[-85.8363,14.1812,926.3748],[-85.8305,14.1742,919.1481],[-85.8132,14.1632,1013.9128],[-85.8036,14.1623,849.3207],[-85.7981,14.1594,668.1479],[-85.7946,14.1594,671.4038],[-85.7917,14.1606,790.0443],[-85.7861,14.1678,759.4512],[-85.7815,14.1751,681.3237],[-85.7763,14.1885,687.0632],[-85.7707,14.1949,818.3892],[-85.7643,14.1955,933.8987],[-85.7608,14.192,822.9104],[-85.7605,14.1879,809.7424],[-85.7576,14.1853,767.7719],[-85.7506,14.1833,763.3856],[-85.7364,14.1879,1023.6298],[-85.7208,14.1897,1118.0367],[-85.7086,14.185,1090.6711],[-85.6897,14.1818,1130.2985],[-85.6809,14.1757,1309.7638],[-85.6774,14.1751,1307.7627],[-85.6702,14.1754,1432.7555],[-85.667,14.1885,1421.0334],[-85.6609,14.1917,1416.9623],[-85.6579,14.1899,1549.6071],[-85.6547,14.1833,1468.9348],[-85.6437,14.1684,1308.7743],[-85.6267,14.1611,965.0591],[-85.6211,14.1542,739.9466],[-85.6217,14.1498,763.532],[-85.6168,14.1393,639.3701],[-85.6095,14.132,548.1799],[-85.6118,14.1216,419.6973],[-85.6188,14.1157,632.4421],[-85.6203,14.1114,572.9652],[-85.6194,14.1015,379.0796],[-85.6176,14.0986,509.4384],[-85.6118,14.0939,431.5909],[-85.5967,14.0866,315.2034],[-85.5938,14.0823,385.8004],[-85.5871,14.0826,288.4482],[-85.582,14.0796,344.3279],[-85.5756,14.0692,437.6449],[-85.5748,14.0627,238.9262]]]]}
,"properties": {"GID_2": "HND.15.2_1","GID_0": "HND","country": "Honduras","GID_1": "HND.15_1","province": "Olancho","NL_NAME_1": "NA","county": "Catacamas","VARNAME_2": "NA","NL_NAME_2": "NA","TYPE_2": "Municipio","ENGTYPE_2": "Municipality","CC_2": "NA","HASC_2": "HN.OL.CT","name": "Catacamas.county","area_km2": 7331.854,"hist_schema_id": "Elevation0-9000","hist_area_km2": {"75": 5.022,"100": 16.568,"125": 48.79,"150": 115.475,"175": 207.357,"200": 232.983,"225": 233.446,"250": 267.44,"275": 315.182,"300": 387.019,"325": 421.364,"350": 437.474,"375": 448.878,"400": 429.424,"425": 380.225,"450": 344.963,"475": 309.85,"500": 273.737,"525": 247.329,"550": 225.367,"575": 195.663,"600": 171.663,"625": 155.028,"650": 134.438,"675": 123.965,"700": 111.352,"725": 98.669,"750": 88.832,"775": 83.965,"800": 75.51,"825": 68.905,"850": 63.632,"875": 55.549,"900": 52.264,"925": 46.092,"950": 39.569,"975": 34.874,"1000": 31.121,"1025": 27.038,"1050": 23.16,"1075": 20.084,"1100": 17.783,"1125": 15.897,"1150": 14.293,"1175": 13.286,"1200": 14.638,"1225": 14.535,"1250": 13.776,"1275": 13.794,"1300": 12.625,"1325": 12.645,"1350": 11.704,"1375": 10.636,"1400": 9.282,"1425": 8.873,"1450": 8.052,"1475": 6.946,"1500": 6.29,"1525": 6.535,"1550": 5.859,"1575": 5.449,"1600": 5.511,"1625": 4.404,"1650": 4.179,"1675": 3.81,"1700": 3.564,"1725": 3.646,"1750": 2.663,"1775": 2.519,"1800": 2.601,"1825": 2.048,"1850": 2.519,"1875": 2.437,"1900": 2.376,"1925": 2.13,"1950": 2.13,"1975": 1.905,"2000": 1.802,"2025": 1.7,"2050": 1.454,"2075": 1.434,"2100": 1.208,"2125": 0.84,"2150": 0.758,"2175": 0.635,"2200": 0.492,"2225": 0.307,"2250": 0.348,"2300": 0.123,"2325": 0.061}}}