{"type": "Feature","bbox": [-88.6538,14.0074,-88.5833,14.0733],"geometry": {"type": "MultiPolygon","coordinates": [[[[-88.612799999999993,14.0074,122.8007],[-88.5927,14.0259,310.0428],[-88.5983,14.0481,256.6307],[-88.5833,14.0709,565.6211],[-88.5856,14.0733,522.0527],[-88.5949,14.0701,430.0603],[-88.6001,14.0641,413.9542],[-88.6071,14.0606,479.696],[-88.6167,14.0594,324.6758],[-88.6166,14.057,396.2199],[-88.6181,14.0562,340.8818],[-88.6238,14.0569,294.6763],[-88.6244,14.0591,288.5757],[-88.6294,14.0609,220.4453],[-88.6319,14.0592,233.1858],[-88.6337,14.0618,221.9425],[-88.641,14.0599,250.4215],[-88.6422,14.0586,227.9153],[-88.6418,14.0501,300.0809],[-88.6449,14.0483,248.8385],[-88.6489,14.0493,230.2961],[-88.6514,14.0465,243.9702],[-88.6513,14.041,193.2383],[-88.6538,14.0393,133.1789],[-88.6518,14.0309,227.7242],[-88.6498,14.0281,176.2233],[-88.645,14.0258,156.2615],[-88.64,14.0176,117.5022],[-88.6398,14.0145,151.8428],[-88.6363,14.0188,118.1386],[-88.6285,14.0191,150.5528],[-88.612799999999993,14.0074,122.8007]]]]}
,"properties": {"GID_2": "HND.13.14_1","GID_0": "HND","country": "Honduras","GID_1": "HND.13_1","province": "Lempira","NL_NAME_1": "NA","county": "Mapulaca","VARNAME_2": "NA","NL_NAME_2": "NA","TYPE_2": "Municipio","ENGTYPE_2": "Municipality","CC_2": "NA","HASC_2": "HN.LE.MA","name": "Mapulaca.county","area_km2": 29.37239,"hist_schema_id": "Elevation0-9000","hist_area_km2": {"100": 0.57598,"125": 1.1108,"150": 3.3735,"175": 4.52534,"200": 4.29901,"225": 3.02363,"250": 2.63276,"275": 2.11854,"300": 1.50147,"325": 1.27522,"350": 0.96669,"375": 0.86385,"400": 0.67873,"425": 0.49362,"450": 0.5553,"475": 0.3085,"500": 0.2468,"525": 0.2468,"550": 0.26736,"575": 0.22623,"600": 0.0617,"625": 0.02057}}}