{"type": "Feature","bbox": [-87.0519,14.3069,-86.7242,14.6499],"geometry": {"type": "MultiPolygon","coordinates": [[[[-86.7271,14.4119,906.9198],[-86.7242,14.4191,957.0182],[-86.7244,14.4239,929.2078],[-86.7475,14.4699,908.3829],[-86.7431,14.4802,941.0999],[-86.7438,14.496,891.2599],[-86.7563,14.4995,874.6084],[-86.7634,14.5209,967.2131],[-86.7629,14.5355,1006.4804],[-86.7551,14.5674,956.8791],[-86.7714,14.577,960.0687],[-86.7737,14.588,1060.9674],[-86.7801,14.5967,1103.3241],[-86.7899,14.6011,1098.3264],[-86.8009,14.6103,1355.667],[-86.8077,14.6131,1337.4814],[-86.8107,14.6254,1653.9672],[-86.815,14.63,1671.6825],[-86.8299,14.6291,1434.8018],[-86.8388,14.6302,1197.0068],[-86.8408,14.6318,1222.678],[-86.8607,14.6323,1432.7692],[-86.866,14.6279,1265.7852],[-86.8811,14.6266,1007.9209],[-86.8867,14.6282,1159.8582],[-86.8921,14.6343,1059.7041],[-86.9161,14.6354,1182.8624],[-86.9314,14.6307,1064.2332],[-86.9404,14.6364,1093.0245],[-86.9488,14.6361,1027.9871],[-86.9636,14.6474,1005.5594],[-86.9994,14.6499,885.324],[-86.9989,14.6416,851.7621],[-87.0005,14.6351,802.3538],[-87.0149,14.6174,896.6946],[-87.0241,14.596,925.4825],[-87.0314,14.5921,910.7697],[-87.0355,14.597,946.0898],[-87.0393,14.5971,967.9459],[-87.0417,14.601,1002.5754],[-87.0481,14.6009,1037.4708],[-87.0481,14.598,1039.6119],[-87.0449,14.5955,1037.3197],[-87.0431,14.5911,998.7617],[-87.0445,14.5848,991.9511],[-87.0426,14.5815,1007.8249],[-87.0453,14.5803,981.5197],[-87.0462,14.5729,978.533],[-87.049,14.5713,1031.0001],[-87.0498,14.5619,951.514],[-87.0519,14.5588,1000.9374],[-87.0466,14.5489,939.2907],[-87.0434,14.5482,905.5231],[-87.0387,14.5411,987.8996],[-87.0364,14.5338,1001.4984],[-87.0347,14.47,910.0544],[-86.9903,14.4613,952.6937],[-86.9783,14.4547,958.7023],[-86.975,14.4505,944.4789],[-86.962,14.4548,926.7929],[-86.9604,14.4526,963.3881],[-86.9567,14.4547,888.2885],[-86.9465,14.4536,1011.4752],[-86.9439,14.4492,1046.6399],[-86.9274,14.4374,937.3079],[-86.925,14.4333,1042.6279],[-86.9202,14.436,970.2858],[-86.9182,14.43,983.4997],[-86.911,14.4286,889.372],[-86.907,14.4251,848.3033],[-86.9039,14.4275,825.3276],[-86.8954,14.4261,890.0114],[-86.8932,14.4279,882.9369],[-86.894,14.4092,1076.7904],[-86.8951,14.4046,1001.4741],[-86.8975,14.4022,909.8029],[-86.8955,14.3996,884.4547],[-86.8965,14.3954,1033.995],[-86.9006,14.3933,925.6251],[-86.9018,14.3897,1018.8538],[-86.9067,14.3907,921.3553],[-86.9116,14.3892,1004.6934],[-86.9139,14.3847,1018.9325],[-86.9165,14.3834,1059.1833],[-86.921,14.3687,1041.7286],[-86.9183,14.3648,1053.8608],[-86.9158,14.3645,1031.9724],[-86.9192,14.3614,1098.9192],[-86.919,14.3599,1150.9952],[-86.915,14.3571,1137.6526],[-86.915,14.3545,1081.9136],[-86.9129,14.3538,1088.3137],[-86.9089,14.3573,1080.1398],[-86.9076,14.3634,1089.6036],[-86.9046,14.3623,1068.1008],[-86.9025,14.3651,1050.7354],[-86.8996,14.3643,1060.321],[-86.8979,14.3664,1080.058],[-86.8953,14.3647,1203.7172],[-86.8908,14.3577,1355.1926],[-86.8867,14.3556,1380.1749],[-86.8866,14.35,1209.7762],[-86.8818,14.3488,1335.1104],[-86.8767,14.3433,1265.5344],[-86.8707,14.3397,1411.4163],[-86.862799999999993,14.3286,1632.88],[-86.8603,14.3127,1998.2584],[-86.8573,14.3171,1755.424],[-86.8512,14.3099,1929.6301],[-86.8407,14.3069,2078.355],[-86.8423,14.3214,1991.0834],[-86.7818,14.3713,738.7512],[-86.7271,14.4119,906.9198]]]]}
,"properties": {"GID_2": "HND.8.6_1","GID_0": "HND","country": "Honduras","GID_1": "HND.8_1","province": "FranciscoMorazán","NL_NAME_1": "NA","county": "Guaimaca","VARNAME_2": "NA","NL_NAME_2": "NA","TYPE_2": "Municipio","ENGTYPE_2": "Municipality","CC_2": "NA","HASC_2": "HN.FM.GU","name": "Guaimaca.county","area_km2": 787.316,"hist_schema_id": "Elevation0-9000","hist_area_km2": {"700": 0.0205,"725": 1.3965,"750": 7.3921,"775": 13.7358,"800": 36.5409,"825": 60.368899999999996,"850": 73.5467,"875": 86.6396,"900": 86.8236,"925": 79.7196,"950": 69.8248,"975": 53.6907,"1000": 41.3351,"1025": 35.5895,"1050": 25.6769,"1075": 23.4603,"1100": 20.5056,"1125": 10.7976,"1150": 6.693,"1175": 4.6401,"1200": 4.1477,"1225": 4.0042,"1250": 3.3469,"1275": 2.7925,"1300": 2.7927,"1325": 2.7926,"1350": 2.5257,"1375": 1.9303,"1400": 2.1973,"1425": 1.7661,"1450": 1.5606,"1475": 1.4376,"1500": 1.0678,"1525": 0.9857,"1550": 0.6571,"1575": 0.5751,"1600": 0.9858,"1625": 0.4724,"1650": 0.6367,"1675": 0.6368,"1700": 0.5135,"1725": 0.8216,"1750": 0.6573,"1775": 0.7189,"1800": 0.5546,"1825": 0.493,"1850": 0.8011,"1875": 0.6163,"1900": 0.5136,"1925": 0.5752,"1950": 0.5546,"1975": 0.8217,"2000": 0.8012,"2025": 0.6779,"2050": 0.6574,"2075": 0.8217,"2100": 0.4519,"2125": 0.3287,"2150": 0.1849,"2175": 0.0411}}}