{"type": "Feature","bbox": [-86.7504,13.951,-86.621,14.1538],"geometry": {"type": "MultiPolygon","coordinates": [[[[-86.6956,14.1538,1065.4552],[-86.7041,14.1376,1230.4741],[-86.7338,14.1288,1175.2391],[-86.7326,14.0854,1157.8767],[-86.7235,14.0796,1110.0275],[-86.7226,14.0751,1104.6157],[-86.7204,14.073,1088.8059],[-86.7215,14.0705,1098.2937],[-86.7164,14.0641,1073.778],[-86.7187,14.0577,1041.876],[-86.7178,14.0511,1084.4902],[-86.7193,14.046,1111.756],[-86.7161,14.042,1053.1077],[-86.7136,14.0348,1059.4036],[-86.7297,14.0005,844.5089],[-86.7294,13.9958,695.9744],[-86.7337,13.9899,605.4337],[-86.7344,13.9835,648.061],[-86.7361,13.982,585.502],[-86.7443,13.981,560.0926],[-86.7473,13.9671,594.5516],[-86.7504,13.9634,634.1897],[-86.7488,13.96,604.2324],[-86.7431,13.9591,607.9061],[-86.7424,13.954,540.4265],[-86.7389,13.951,524.2885],[-86.7351,13.9561,500.2525],[-86.7327,13.9553,481.7411],[-86.7306,13.9568,484.0678],[-86.722,13.9706,617.234],[-86.7192,13.9723,671.3785],[-86.7127,13.971,869.3994],[-86.7091,13.9725,907.104],[-86.7046,13.9775,900.537],[-86.7042,13.9833,812.2971],[-86.6937,13.9862,918.5112],[-86.621,13.9857,815.2927],[-86.6493,14.0376,882.7053],[-86.6931,14.0685,1082.6914],[-86.7,14.1312,1274.3298],[-86.6956,14.1538,1065.4552]]]]}
,"properties": {"GID_2": "HND.7.5_1","GID_0": "HND","country": "Honduras","GID_1": "HND.7_1","province": "ElParaíso","NL_NAME_1": "NA","county": "Jacaleapa","VARNAME_2": "NA","NL_NAME_2": "NA","TYPE_2": "Municipio","ENGTYPE_2": "Municipality","CC_2": "NA","HASC_2": "HN.EP.JA","name": "Jacaleapa.county","area_km2": 109.88088,"hist_schema_id": "Elevation0-9000","hist_area_km2": {"425": 0.14403,"450": 0.37035,"475": 0.59669,"500": 0.65842,"525": 0.84359,"550": 1.02877,"575": 1.06991,"600": 1.0699,"625": 0.8024,"650": 0.8641,"675": 0.84353,"700": 0.96697,"725": 0.84351,"750": 0.57606,"775": 0.72007,"800": 3.37393,"825": 7.75558,"850": 7.17944,"875": 5.43086,"900": 5.43079,"925": 5.08104,"950": 4.83414,"975": 5.59496,"1000": 5.51259,"1025": 5.82108,"1050": 5.16284,"1075": 5.57405,"1100": 4.93638,"1125": 3.33195,"1150": 3.00278,"1175": 3.18767,"1200": 2.92008,"1225": 2.46757,"1250": 2.15906,"1275": 2.48801,"1300": 2.98151,"1325": 2.77584,"1350": 1.13088,"1375": 0.32899,"1400": 0.02056}}}