{"type":"Feature","properties":{"GID_2":"HND.9.5_1","GID_0":"HND","country":"Honduras","GID_1":"HND.9_1","province":"GraciasaDios","NL_NAME_1":"NA","county":"RamónVilledaMorales","VARNAME_2":"RamonV.Morales","NL_NAME_2":"NA","TYPE_2":"Municipio","ENGTYPE_2":"Municipality","CC_2":"NA","HASC_2":"HN.GD.RV","name":"Ramón_Villeda_Morales.county"},
"geometry":{"type": "MultiPolygon","coordinates": [[[[-83.0001,14.9999,0.0],[-82.9999,14.9999,0.0],[-82.9999,15.0001,0.0],[-83.0001,15.0001,0.0],[-83.0001,14.9999,0.0]]],
[[[-83.5543,14.937,8.5499],[-83.5544,14.9328,11.7455],[-83.5472,14.9312,7.6873],[-83.5451,14.935,8.3426],[-83.5514,14.9422,8.2151],[-83.5525,14.9473,7.9184],[-83.5501,14.9488,8.1321],[-83.5378,14.9423,2.0],[-83.5353,14.9442,7.8802],[-83.5416,14.9522,3.2345],[-83.545,14.962,10.9162],[-83.5453,14.9674,8.0891],[-83.5416,14.974,5.7045],[-83.5348,14.9715,8.6339],[-83.5297,14.966,7.6844],[-83.5257,14.9671,7.6506],[-83.5303,14.9758,8.5149],[-83.5317,14.9863,6.4652],[-83.5289,14.9898,6.7778],[-83.5178,14.9802,9.2352],[-83.5136,14.9907,7.3549],[-83.5066,14.9988,8.976],[-83.4981,15.0029,5.3668],[-83.4921,15.004,5.4595],[-83.4837,15.0,8.3787],[-83.4822,14.9933,7.0008],[-83.4839,14.9871,5.7249],[-83.4681,14.9751,5.2148],[-83.4556,14.9776,5.9019],[-83.4398,14.9883,4.1472],[-83.4277,14.9873,7.2631],[-83.4249,14.9888,6.2148],[-83.4204,14.9942,4.1854],[-83.4085,15.0034,4.9559],[-83.4063,15.0072,2.6251],[-83.4073,15.0213,1.2828],[-83.4048,15.0259,6.5383],[-83.3973,15.0246,5.2088],[-83.3892,15.0151,5.1143],[-83.3773,15.0149,0.0],[-83.3665,15.0105,5.4633],[-83.3624,15.0065,5.2589],[-83.36,15.0,5.2923],[-83.3556,14.9961,9.3936],[-83.3497,14.9975,5.6997],[-83.3476,15.01,1.5068],[-83.3448,15.0108,6.4119],[-83.3307,15.0076,3.3023],[-83.3032,14.9947,7.8224],[-83.2809,14.999,3.8236],[-83.2785,14.9971,4.1048],[-83.2794,14.9914,0.0],[-83.291,14.9829,2.9829],[-83.2926,14.9802,10.2588],[-83.2917,14.9778,8.4065],[-83.2837,14.9742,6.3293],[-83.2805,14.9741,5.5772],[-83.2769,14.9822,4.123],[-83.2742,14.9838,3.3336],[-83.2533,14.9845,2.6591],[-83.2369,14.9805,2.8818],[-83.2255,14.9843,1.8432],[-83.2092,14.993,1.5638],[-83.1962,14.9933,0.4726],[-83.1684,14.9897,3.2948],[-83.1489,14.9952,3.7437],[-83.1471,14.9918,4.1521],[-83.141,14.9926,6.919],[-83.1335,14.9901,1.3026],[-83.1321,14.994,1.0885],[-83.1382,14.9951,7.3782],[-83.1382,14.9996,1.6418],[-83.1332,14.9999,2.0775],[-83.1357,14.9968,1.0566],[-83.1304,14.9949,1.8355],[-83.1276,15.0007,0.0],[-83.1307,15.0018,0.368],[-83.1326,15.0001,2.0775],[-83.1374,15.0001,0.0],[-83.1351,15.0051,-0.6857],[-83.1374,15.0079,0.4279],[-83.1429,15.0051,4.8209],[-83.1562,15.0071,3.4498],[-83.1462,15.0113,0.0],[-83.151,15.0093,0.0],[-83.156,15.0096,0.0],[-83.1557,15.0082,3.4498],[-83.1588,15.0076,4.8373],[-83.1629,15.0099,1.886],[-83.1949,15.0176,0.6271],[-83.2237,15.0287,1.4871],[-83.256,15.0463,1.4357],[-83.2874,15.0701,3.9293],[-83.3051,15.0885,3.3012],[-83.3135,15.0999,0.5333],[-83.3251,15.1207,0.0],[-83.3382,15.149,0.4123],[-83.3515,15.1974,0.0],[-83.3632,15.2196,0.0],[-83.3812,15.2471,0.0],[-83.3838,15.2493,0.0],[-83.3865,15.2476,0.0],[-83.3901,15.2557,0.0],[-83.4201,15.2697,1.2351],[-83.4241,15.267,3.4593],[-83.4267,15.2627,2.1465],[-83.4274,15.2424,1.1926],[-83.4226,15.2326,0.3887],[-83.4212,15.2251,14.0667],[-83.4294,15.2163,0.7909],[-83.4383,15.2022,4.6395],[-83.4391,15.1918,2.5014],[-83.4511,15.19,5.6667],[-83.4602,15.1844,1.8291],[-83.4738,15.1856,4.9648],[-83.4807,15.171,1.7517],[-83.4893,15.1648,15.6172],[-83.4901,15.1624,4.4723],[-83.4856,15.1501,2.0519],[-83.4852,15.142,2.1228],[-83.4918,15.1323,8.0247],[-83.4969,15.1178,3.4164],[-83.5013,15.1135,2.554],[-83.5066,15.1127,2.6776],[-83.5217,15.1221,6.7809],[-83.539,15.1229,4.4619],[-83.5455,15.1149,6.7946],[-83.546,15.1122,7.7579],[-83.5446,15.1116,4.3002],[-83.5308,15.1136,4.2689],[-83.527,15.1093,3.9378],[-83.5297,15.1028,2.3834],[-83.5349,15.1022,1.951],[-83.545,15.104,4.4901],[-83.5483,15.101,7.8605],[-83.5502,15.0911,3.0671],[-83.5422,15.0829,2.5903],[-83.5484,15.0691,6.2871],[-83.5491,15.0542,4.6925],[-83.5469,15.0462,4.162],[-83.5489,15.0393,11.0913],[-83.5477,15.0326,1.9155],[-83.5506,15.024,2.5917],[-83.5596,15.0147,3.0639],[-83.5612,15.0059,7.6238],[-83.5654,14.9997,7.5533],[-83.5649,14.9757,10.1318],[-83.5616,14.9707,6.8962],[-83.5614,14.9614,7.212],[-83.5574,14.9558,8.158],[-83.5551,14.9489,7.865],[-83.5543,14.937,8.5499]]]]}}