{"type": "Feature","bbox": [-88.8463,14.894,-88.6885,14.9646],"geometry": {"type": "MultiPolygon","coordinates": [[[[-88.8307,14.916,1047.3335],[-88.782,14.894,756.0096],[-88.767,14.9088,842.6442],[-88.7656,14.915,961.8395],[-88.7622,14.9154,922.7351],[-88.7597,14.9187,842.291],[-88.7384,14.9154,918.3794],[-88.7356,14.9155,953.5581],[-88.7345,14.9178,1041.4307],[-88.7311,14.9161,951.2406],[-88.725,14.918,1001.3447],[-88.7215,14.9158,899.5521],[-88.7169,14.9218,872.9091],[-88.6885,14.9219,521.1927],[-88.6966,14.9363,649.1013],[-88.6893,14.9543,957.6927],[-88.7303,14.9594,973.0557],[-88.7497,14.957,800.3312],[-88.7772,14.9576,684.3821],[-88.784,14.9544,682.9841],[-88.8128,14.9646,856.4801],[-88.8153,14.9574,918.3546],[-88.824,14.9548,769.2521],[-88.8264,14.9465,1034.4963],[-88.8303,14.9474,908.3452],[-88.8323,14.9464,995.458],[-88.8373,14.9496,877.9485],[-88.8386,14.948,802.0584],[-88.8381,14.9444,758.4531],[-88.8433,14.9451,874.5985],[-88.8463,14.943,944.5594],[-88.845,14.9425,870.1105],[-88.8447,14.9384,834.1711],[-88.8354,14.9343,789.2483],[-88.8353,14.9291,991.3594],[-88.832,14.9267,1035.0232],[-88.8354,14.9261,971.7316],[-88.8362,14.9229,964.8961],[-88.8324,14.9207,997.8462],[-88.8307,14.916,1047.3335]]]]}
,"properties": {"GID_2": "HND.5.22_1","GID_0": "HND","country": "Honduras","GID_1": "HND.5_1","province": "Copán","NL_NAME_1": "NA","county": "Trinidad","VARNAME_2": "NA","NL_NAME_2": "NA","TYPE_2": "Municipio","ENGTYPE_2": "Municipality","CC_2": "NA","HASC_2": "HN.SB.TR","name": "Trinidad.county","area_km2": 77.35539,"hist_schema_id": "Elevation0-9000","hist_area_km2": {"525": 0.12292,"550": 0.28682,"575": 0.3073,"600": 0.32779,"625": 0.28682,"650": 0.34827,"675": 0.65552,"700": 1.39297,"725": 2.6016,"750": 4.30196,"775": 5.20337,"800": 4.8756,"825": 4.22005,"850": 4.56832,"875": 4.4864,"900": 4.42495,"925": 4.52739,"950": 4.15864,"975": 4.17912,"1000": 4.13817,"1025": 3.7285,"1050": 3.56464,"1075": 2.51983,"1100": 2.15107,"1125": 1.72088,"1150": 1.47503,"1175": 1.00388,"1200": 0.90144,"1225": 0.59414,"1250": 0.47121,"1275": 0.63512,"1300": 0.6966,"1325": 0.3483,"1350": 0.38928,"1375": 0.30733,"1400": 0.5327,"1425": 0.51221,"1450": 0.32782,"1475": 0.06146}}}