{"type":"Feature","properties":{"GID_2":"HND.18.2_1","GID_0":"HND","country":"Honduras","GID_1":"HND.18_1","province":"Yoro","NL_NAME_1":"NA","county":"ElNegrito","VARNAME_2":"NA","NL_NAME_2":"NA","TYPE_2":"Municipio","ENGTYPE_2":"Municipality","CC_2":"NA","HASC_2":"HN.YO.EN","name":"El_Negrito.county"},
"geometry":{"type": "MultiPolygon","coordinates": [[[[-87.7346,15.6752,11.5634],[-87.7439,15.6699,8.5803],[-87.7456,15.6644,12.3252],[-87.7449,15.6608,10.4341],[-87.7382,15.6549,9.3461],[-87.7654,15.6496,10.3083],[-87.7657,15.6252,12.3259],[-87.7591,15.6197,12.1298],[-87.7578,15.6131,16.658],[-87.7508,15.6101,12.2573],[-87.7481,15.6063,14.7398],[-87.751,15.5885,12.6949],[-87.7586,15.5815,23.8663],[-87.7636,15.5657,13.3604],[-87.7702,15.5601,15.796],[-87.7699,15.5569,21.4646],[-87.768,15.5536,18.34],[-87.754,15.545,18.7539],[-87.753,15.5411,21.6979],[-87.7451,15.5367,27.62],[-87.7451,15.5307,24.1881],[-87.741,15.5315,24.6224],[-87.7415,15.5296,27.5009],[-87.7383,15.5305,22.8211],[-87.7278,15.526,19.9201],[-87.7199,15.5272,23.6504],[-87.7188,15.5238,27.5189],[-87.7131,15.5248,28.2738],[-87.6923,15.4912,225.4108],[-87.6932,15.4561,588.4421],[-87.7309,15.4317,655.7009],[-87.7666,15.3563,508.3964],[-87.7723,15.331,763.3783],[-87.7774,15.3244,793.8616],[-87.7783,15.2985,589.6051],[-87.7869,15.2585,1192.371],[-87.8099,15.2285,1104.3176],[-87.8045,15.2242,1035.5961],[-87.8025,15.2185,877.1776],[-87.7967,15.2142,754.1139],[-87.7736,15.2077,445.2094],[-87.764,15.201,344.8792],[-87.7627,15.197,452.1201],[-87.7555,15.1972,275.9401],[-87.7512,15.2007,195.6934],[-87.7334,15.2002,110.3392],[-87.7359,15.197,110.6305],[-87.7347,15.1935,132.6816],[-87.7294,15.1937,90.7073],[-87.7275,15.1918,94.0021],[-87.7265,15.1954,90.8276],[-87.7242,15.1973,90.2356],[-87.7249,15.2002,90.3505],[-87.7229,15.201,91.1214],[-87.7249,15.2039,93.1113],[-87.7213,15.2027,92.0332],[-87.7206,15.2064,95.0819],[-87.7167,15.2055,94.9599],[-87.7163,15.2092,97.0887],[-87.7141,15.2084,96.0848],[-87.7141,15.2128,98.191],[-87.713,15.2151,100.5449],[-87.7105,15.2136,98.8251],[-87.7084,15.2222,99.8643],[-87.7012,15.2262,101.6356],[-87.6999,15.2306,105.8387],[-87.7029,15.2347,105.2082],[-87.6994,15.2343,106.3813],[-87.7006,15.2375,107.3729],[-87.6941,15.2399,111.1618],[-87.6973,15.2447,109.1897],[-87.6961,15.2483,111.0748],[-87.6983,15.2491,111.625],[-87.6933,15.2573,113.3679],[-87.69,15.2582,115.3061],[-87.688,15.261,116.3039],[-87.689,15.2654,116.7898],[-87.6881,15.2669,117.596],[-87.6858,15.2661,118.2329],[-87.6867,15.2692,120.059],[-87.6855,15.2748,122.4917],[-87.682,15.2769,123.8252],[-87.6761,15.275,121.0402],[-87.6731,15.2759,122.7347],[-87.6729,15.2833,124.1959],[-87.6755,15.2858,128.6872],[-87.6496,15.2936,279.8667],[-87.6431,15.3315,407.0494],[-87.6358,15.3531,649.2568],[-87.6414,15.3673,473.2653],[-87.6377,15.3811,741.6766],[-87.6409,15.3835,572.7292],[-87.6414,15.3863,725.3848],[-87.6384,15.3904,760.5426],[-87.636,15.3907,635.8491],[-87.6368,15.3978,974.6149],[-87.6347,15.4015,973.7805],[-87.635,15.4052,874.913],[-87.633,15.406,787.8595],[-87.6317,15.4094,762.9241],[-87.6336,15.4151,741.4315],[-87.6307,15.4249,688.562],[-87.6287,15.4264,636.4193],[-87.6284,15.4306,677.5268],[-87.6233,15.4341,544.7925],[-87.6151,15.435,300.0634],[-87.6147,15.4371,347.8276],[-87.6164,15.4407,467.1967],[-87.6191,15.4396,470.3259],[-87.6207,15.4406,589.5339],[-87.6215,15.4461,521.1404],[-87.6264,15.4472,610.9004],[-87.6263,15.4508,437.905],[-87.6312,15.4499,427.3505],[-87.6424,15.4514,344.152],[-87.6447,15.4528,451.5848],[-87.6441,15.4562,420.0164],[-87.6482,15.4572,527.7831],[-87.6447,15.4594,418.7225],[-87.6449,15.464,475.2345],[-87.6467,15.4655,495.7923],[-87.6439,15.4703,337.9885],[-87.6349,15.4709,221.6114],[-87.6273,15.4746,297.4371],[-87.6267,15.4801,476.231],[-87.6244,15.4826,583.2475],[-87.6287,15.4875,562.8705],[-87.6265,15.4929,787.1138],[-87.6267,15.5009,519.3519],[-87.6283,15.504,451.5473],[-87.6348,15.5051,348.3013],[-87.6388,15.5078,454.6971],[-87.6412,15.5121,414.4436],[-87.6451,15.5145,297.8262],[-87.6516,15.5287,69.923],[-87.6546,15.5312,63.0046],[-87.6611,15.5319,48.3658],[-87.6649,15.5351,41.9495],[-87.6665,15.5376,39.3872],[-87.6654,15.5402,40.8352],[-87.6687,15.5445,36.0088],[-87.6722,15.544,34.1262],[-87.6757,15.5456,37.9832],[-87.6779,15.5538,26.8967],[-87.6843,15.5633,31.033],[-87.6835,15.5671,36.7321],[-87.6877,15.5724,25.2785],[-87.6855,15.5757,21.8435],[-87.688,15.5806,22.8616],[-87.6867,15.5829,24.6681],[-87.6908,15.5912,22.2286],[-87.6906,15.5968,22.6819],[-87.6886,15.6012,26.6017],[-87.6928,15.6149,16.0143],[-87.6921,15.644,12.1055],[-87.6986,15.6474,7.9232],[-87.6994,15.6503,7.8534],[-87.7022,15.6498,8.4671],[-87.705,15.6538,7.5358],[-87.7051,15.6604,9.5739],[-87.7072,15.6657,6.6372],[-87.7097,15.6664,6.1135],[-87.7116,15.6639,6.1415],[-87.7149,15.6635,5.8762],[-87.716,15.6647,5.8499],[-87.7146,15.6678,5.9629],[-87.7285,15.6687,12.3589],[-87.7344,15.6733,11.6182],[-87.7346,15.6752,11.5634]]]]}}