{"type":"Feature","properties":{"GID_2":"HND.16.27_1","GID_0":"HND","country":"Honduras","GID_1":"HND.16_1","province":"SantaBárbara","NL_NAME_1":"NA","county":"SantaRita","VARNAME_2":"NA","NL_NAME_2":"NA","TYPE_2":"Municipio","ENGTYPE_2":"Municipality","CC_2":"NA","HASC_2":"HN.CP.SR","name":"Santa_Rita.county"},
"geometry":{"type": "MultiPolygon","coordinates": [[[[-88.3108,14.6991,1494.5604],[-88.2812,14.6929,932.6595],[-88.2771,14.6866,793.5459],[-88.2741,14.685,758.3678],[-88.264,14.6865,704.002],[-88.2522,14.6848,797.6671],[-88.2498,14.6866,765.1818],[-88.242,14.6948,667.2392],[-88.2389,14.701,808.7855],[-88.2351,14.7277,638.3802],[-88.2314,14.7312,549.799],[-88.2295,14.736,564.7295],[-88.2272,14.7372,495.7899],[-88.2245,14.7435,389.4745],[-88.229,14.7517,399.2901],[-88.2246,14.7602,327.0953],[-88.2191,14.7634,299.6193],[-88.2194,14.7686,365.8326],[-88.2163,14.7725,339.6426],[-88.222,14.7767,401.5193],[-88.2234,14.7805,346.5638],[-88.2275,14.7814,297.2715],[-88.229,14.7844,316.3723],[-88.2336,14.7826,449.153],[-88.2367,14.7835,478.6201],[-88.239,14.7905,343.2053],[-88.2445,14.7901,356.0756],[-88.2521,14.7982,247.2246],[-88.2655,14.7977,257.5183],[-88.2672,14.7991,295.0919],[-88.2758,14.7845,436.9103],[-88.2764,14.7793,516.997],[-88.2804,14.7716,456.2305],[-88.301,14.7505,1242.5997],[-88.2971,14.7393,1285.3077],[-88.2998,14.7303,1546.0693],[-88.3045,14.7265,1656.3354],[-88.3099,14.7188,1312.5278],[-88.3108,14.6991,1494.5604]]]]}}