{"type": "Feature","bbox": [-89.081,14.4184,-88.9652,14.5429],"geometry": {"type": "MultiPolygon","coordinates": [[[[-89.0783,14.5119,1683.2704],[-89.0804,14.5099,1747.5129],[-89.0793,14.5053,1795.8582],[-89.0808,14.5037,1834.7242],[-89.081,14.4926,1982.0452],[-89.064,14.4431,2089.2666],[-89.0633,14.4262,2190.8186],[-89.0616,14.4234,2164.4033],[-89.0423,14.4191,1710.1047],[-89.0266,14.4184,1352.9248],[-89.0122,14.4419,1189.4829],[-88.9981,14.4449,1037.5015],[-88.9803,14.4554,1018.7773],[-88.9778,14.4545,997.8107],[-88.9753,14.4574,983.7177],[-88.9717,14.4572,978.6993],[-88.9652,14.4614,911.7534],[-88.9679,14.4648,919.2068],[-88.9779,14.4666,961.1451],[-88.9747,14.4737,911.6243],[-88.9949,14.5009,980.9351],[-88.9902,14.5156,936.9067],[-88.9919,14.5188,956.8334],[-88.988,14.5205,941.7683],[-88.9894,14.5254,967.3817],[-88.995,14.524,1007.5822],[-89.0004,14.5292,934.4247],[-89.0057,14.5298,954.7551],[-89.0066,14.5326,996.8502],[-89.0109,14.5329,1041.4995],[-89.0118,14.5368,980.5077],[-89.0174,14.5378,1055.5554],[-89.018,14.5406,1026.4982],[-89.0287,14.5395,1033.0093],[-89.0293,14.5376,1032.213],[-89.0361,14.5429,1196.129],[-89.0374,14.5359,1148.5773],[-89.0408,14.5336,1151.0725],[-89.0454,14.5327,1203.3152],[-89.0468,14.5341,1244.7148],[-89.0476,14.5319,1191.7358],[-89.051,14.532,1253.1123],[-89.0523,14.5306,1235.2908],[-89.0603,14.5316,1250.2729],[-89.0652,14.5275,1317.9569],[-89.0684,14.5216,1508.9041],[-89.0751,14.5182,1590.2556],[-89.0783,14.5119,1683.2704]]]]}
,"properties": {"GID_2": "HND.14.6_1","GID_0": "HND","country": "Honduras","GID_1": "HND.14_1","province": "Ocotepeque","NL_NAME_1": "NA","county": "LaLabor","VARNAME_2": "NA","NL_NAME_2": "NA","TYPE_2": "Municipio","ENGTYPE_2": "Municipality","CC_2": "NA","HASC_2": "HN.OC.LL","name": "La_Labor.county","area_km2": 108.00093,"hist_schema_id": "Elevation0-9000","hist_area_km2": {"900": 0.10265,"925": 1.19068,"950": 3.92079,"975": 5.3371,"1000": 5.66564,"1025": 4.78295,"1050": 4.92657,"1075": 4.96767,"1100": 4.20813,"1125": 3.57183,"1150": 3.63333,"1175": 2.70961,"1200": 2.68905,"1225": 2.46325,"1250": 2.56587,"1275": 2.23748,"1300": 2.01172,"1325": 2.19651,"1350": 2.05284,"1375": 1.95026,"1400": 1.99133,"1425": 1.97082,"1450": 2.31985,"1475": 2.09399,"1500": 1.86814,"1525": 2.03239,"1550": 1.72448,"1575": 1.90923,"1600": 1.43704,"1625": 1.66285,"1650": 1.47812,"1675": 1.7245,"1700": 1.27283,"1725": 1.27281,"1750": 1.53971,"1775": 1.37549,"1800": 1.4371,"1825": 1.70406,"1850": 1.19075,"1875": 1.08812,"1900": 1.14972,"1925": 1.0471,"1950": 0.8007,"1975": 1.00604,"2000": 0.96496,"2025": 0.61595,"2050": 0.92391,"2075": 0.92392,"2100": 1.00604,"2125": 0.94445,"2150": 0.69809,"2175": 0.55433,"2200": 0.45169,"2225": 0.41063,"2250": 0.20531,"2275": 0.02053}}}