{"type": "Feature","bbox": [-88.0518,14.7846,-87.7359,15.1809],"geometry": {"type": "MultiPolygon","coordinates": [[[[-87.7433,15.0045,269.0],[-87.7426,15.0061,269.0],[-87.7384,15.007,269.0],[-87.737,15.0109,269.0],[-87.738,15.0132,269.0],[-87.7455,15.0183,391.0105],[-87.7522,15.04,175.8072],[-87.7478,15.0504,118.337],[-87.7479,15.0664,249.3461],[-87.7396,15.071,243.9543],[-87.7366,15.0765,143.472],[-87.7364,15.0794,131.6623],[-87.7411,15.083,194.5474],[-87.7391,15.0891,128.3896],[-87.7426,15.0935,257.1038],[-87.7359,15.1028,88.1867],[-87.7433,15.1055,452.0309],[-87.7482,15.11,367.0001],[-87.7572,15.119,234.4589],[-87.7593,15.1261,114.0242],[-87.7693,15.1302,88.854],[-87.7722,15.1336,75.613],[-87.7835,15.1267,267.3825],[-87.7998,15.1294,204.0977],[-87.8013,15.1317,159.6376],[-87.7981,15.1336,173.1952],[-87.7974,15.1392,66.4898],[-87.8038,15.1472,88.9765],[-87.8074,15.147,89.4195],[-87.8147,15.1417,95.0586],[-87.8164,15.1427,108.9469],[-87.8184,15.1494,105.4225],[-87.8215,15.1511,228.1644],[-87.8323,15.1482,212.9717],[-87.846,15.1483,156.129],[-87.8508,15.1532,178.6575],[-87.8479,15.1587,130.2637],[-87.8487,15.163,54.1099],[-87.8592,15.1665,220.1052],[-87.862799999999993,15.1716,199.9454],[-87.8649,15.1786,129.5512],[-87.8697,15.1806,132.0311],[-87.8788,15.1809,79.0975],[-87.8964,15.1771,45.7466],[-87.9023,15.1796,44.9331],[-87.9345,15.1629,38.6681],[-87.9315,15.1623,38.4335],[-87.9277,15.1561,41.3076],[-87.922,15.155,39.094],[-87.9239,15.1501,42.793],[-87.9268,15.1488,40.3322],[-87.9265,15.1461,44.8735],[-87.9232,15.1464,44.3364],[-87.9246,15.1446,52.4823],[-87.9237,15.142,41.8634],[-87.92,15.1401,61.0633],[-87.9201,15.136,60.6019],[-87.9185,15.1374,60.0199],[-87.9176,15.1366,71.2123],[-87.9182,15.132,61.1221],[-87.9223,15.131,46.2588],[-87.9239,15.1287,54.4291],[-87.92,15.1205,74.1785],[-87.9252,15.1201,61.0467],[-87.9238,15.1166,66.8668],[-87.9269,15.1105,56.8245],[-87.9297,15.1103,55.6825],[-87.9295,15.1121,54.8339],[-87.9312,15.1112,54.5307],[-87.9314,15.1076,62.3444],[-87.9348,15.1039,49.9894],[-87.9344,15.1027,75.1162],[-87.9306,15.1033,78.2496],[-87.9316,15.0972,56.9341],[-87.9338,15.0974,57.7591],[-87.934,15.0932,53.7508],[-87.9361,15.0935,50.1863],[-87.9344,15.0874,60.0051],[-87.9358,15.0842,47.6982],[-87.933,15.081,52.4265],[-87.934,15.0773,51.7115],[-87.9328,15.0763,54.5049],[-87.9342,15.0752,59.192],[-87.9313,15.0735,58.4299],[-87.9325,15.0722,58.4299],[-87.9317,15.0698,61.5899],[-87.9332,15.0702,59.1603],[-87.9366,15.0632,50.449],[-87.9365,15.0567,57.35],[-87.9389,15.0542,53.3494],[-87.9382,15.052,59.4064],[-87.941,15.0473,63.6011],[-87.939,15.0448,72.9827],[-87.9345,14.9932,309.4496],[-87.9375,14.9896,401.2943],[-87.9699,14.9685,770.3027],[-87.9843,14.9689,840.9406],[-87.9915,14.9712,811.4261],[-88.0115,14.971,654.3511],[-88.0405,14.9811,587.2281],[-88.0518,14.9144,865.49],[-88.0459,14.9143,750.1014],[-88.0204,14.923,634.0],[-88.0201,14.9199,634.0],[-88.0271,14.914,634.0],[-88.0261,14.9106,634.0],[-88.0307,14.9089,634.0],[-88.03,14.9022,634.0],[-88.0318,14.8991,647.3914],[-88.0277,14.9012,634.0],[-88.0293,14.8982,643.8629],[-88.0274,14.8974,634.0],[-88.0252,14.9023,634.0],[-88.0224,14.9029,634.0],[-88.0242,14.8939,634.0],[-88.0186,14.8895,634.0],[-88.0158,14.8828,657.6504],[-88.0178,14.8764,868.1999],[-88.0216,14.8755,777.1493],[-88.012,14.873,997.5334],[-88.0019,14.8741,672.1904],[-87.9971,14.8717,634.0],[-87.9946,14.8672,634.0],[-87.9916,14.8659,634.0],[-87.991,14.8618,634.0],[-87.998,14.8424,634.0],[-88.0008,14.8149,634.0],[-88.0001,14.8076,634.0],[-87.9973,14.8053,634.0],[-87.996,14.7968,634.0],[-87.9907,14.7863,763.6423],[-87.9875,14.7846,642.6618],[-87.976,14.7856,657.8392],[-87.9664,14.7975,825.5195],[-87.8917,14.8447,1152.7874],[-87.8763,14.8563,1222.6825],[-87.8717,14.8659,850.4233],[-87.8679,14.8692,779.1135],[-87.8526,14.8777,736.1087],[-87.8538,14.8837,592.6083],[-87.8491,14.8857,583.921],[-87.8468,14.8909,601.8731],[-87.8411,14.8956,504.6919],[-87.8344,14.8951,488.9683],[-87.8326,14.8974,436.8397],[-87.8267,14.8963,520.8198],[-87.824,14.8983,477.4915],[-87.8242,14.9017,512.4789],[-87.8169,14.9015,430.9538],[-87.8139,14.9087,394.5727],[-87.8088,14.9051,490.2668],[-87.8009,14.911,531.4283],[-87.7986,14.9183,557.1672],[-87.7989,14.9233,313.1429],[-87.7848,14.9194,362.5829],[-87.7844,14.9296,283.4194],[-87.7792,14.9362,440.5879],[-87.7637,14.9394,433.86],[-87.7558,14.9447,371.4093],[-87.7505,14.9448,355.555],[-87.7384,14.9593,269.0],[-87.7391,14.9643,269.0],[-87.736,14.9699,269.0],[-87.7385,14.9782,269.0],[-87.7444,14.9796,368.5551],[-87.7457,14.9852,269.0],[-87.7429,14.9917,269.0],[-87.7452,14.9963,269.0],[-87.7433,15.0045,269.0]]]]}
,"properties": {"GID_2": "HND.6.11_1","GID_0": "HND","country": "Honduras","GID_1": "HND.6_1","province": "Cortés","NL_NAME_1": "NA","county": "SantaCruzdeYojoa","VARNAME_2": "NA","NL_NAME_2": "NA","TYPE_2": "Municipio","ENGTYPE_2": "Municipality","CC_2": "NA","HASC_2": "HN.CR.SC","name": "Santa_Cruzde_Yojoa.county","area_km2": 781.3617,"hist_schema_id": "Elevation0-9000","hist_area_km2": {"50": 31.4768,"75": 15.2289,"100": 12.6302,"125": 14.2483,"150": 14.2068,"175": 13.0398,"200": 14.6773,"225": 14.2477,"250": 10.7064,"275": 17.2826,"300": 16.8083,"325": 23.7092,"350": 19.8207,"375": 24.0599,"400": 24.3066,"425": 22.6491,"450": 22.0553,"475": 21.9949,"500": 24.8214,"525": 24.2897,"550": 23.8185,"575": 22.3447,"600": 19.9489,"625": 104.2907,"650": 59.2253,"675": 41.1556,"700": 25.7713,"725": 21.8178,"750": 16.717,"775": 11.8827,"800": 9.5886,"825": 8.5232,"850": 6.1879,"875": 4.0573,"900": 2.8075,"925": 3.115,"950": 2.5412,"975": 2.3158,"1000": 1.9059,"1025": 1.4346,"1050": 1.2501,"1075": 1.3936,"1100": 1.2091,"1125": 1.0042,"1150": 0.8403,"1175": 0.9837,"1200": 0.6148,"1225": 0.3279,"1250": 0.3894,"1275": 0.2254,"1300": 0.2459,"1325": 0.1435,"1350": 0.2049,"1375": 0.2049,"1400": 0.2254,"1425": 0.1844,"1450": 0.1844,"1475": 0.0205}}}