{"type":"Feature","properties":{"GID_2":"HND.7.10_1","GID_0":"HND","country":"Honduras","GID_1":"HND.7_1","province":"ElParaíso","NL_NAME_1":"NA","county":"SanAntoniodeFlores","VARNAME_2":"NA","NL_NAME_2":"NA","TYPE_2":"Municipio","ENGTYPE_2":"Municipality","CC_2":"NA","HASC_2":"HN.CH.SF","name":"San_Antoniode_Flores.county"},
"geometry":{"type": "MultiPolygon","coordinates": [[[[-86.7708,13.6934,363.1124],[-86.7619,13.7208,288.6346],[-86.7682,13.7499,323.4904],[-86.7658,13.7607,341.513],[-86.7686,13.7595,311.1527],[-86.7748,13.7623,585.6886],[-86.7813,13.7598,545.5402],[-86.785,13.7636,531.642],[-86.7935,13.765,586.9636],[-86.7979,13.7628,499.1404],[-86.8305,13.7571,712.3226],[-86.8531,13.7418,1043.7593],[-86.8589,13.7469,859.6801],[-86.8619,13.7528,756.1797],[-86.8648,13.7528,801.4825],[-86.8771,13.7396,956.8452],[-86.8905,13.7293,1011.1788],[-86.9118,13.73,1166.6594],[-86.9248,13.735,1465.5918],[-86.9305,13.7317,1339.1174],[-86.9096,13.7099,930.5577],[-86.9177,13.698,891.8248],[-86.9357,13.6831,1151.4341],[-86.9135,13.6812,774.5066],[-86.9111,13.6791,695.673],[-86.9073,13.6791,555.9591],[-86.906,13.6729,568.6141],[-86.8958,13.6734,619.266],[-86.8941,13.6652,485.6304],[-86.89,13.6639,486.8878],[-86.8882,13.6596,380.3568],[-86.8909,13.6448,274.3075],[-86.8869,13.6415,225.5122],[-86.8711,13.6481,316.489],[-86.8657,13.6529,336.1523],[-86.8527,13.6575,313.7288],[-86.8481,13.6617,252.5155],[-86.844,13.6701,248.7331],[-86.8414,13.6721,244.7164],[-86.8216,13.6731,359.9598],[-86.8155,13.6661,388.6856],[-86.8082,13.6656,507.3766],[-86.8055,13.6786,293.9524],[-86.793,13.6945,386.2498],[-86.7885,13.689,449.5405],[-86.7832,13.6926,338.6069],[-86.7761,13.692,399.4],[-86.7708,13.6934,363.1124]]]]}}