{"type":"Feature","properties":{"GID_2":"HND.7.19_1","GID_0":"HND","country":"Honduras","GID_1":"HND.7_1","province":"ElParaíso","NL_NAME_1":"NA","county":"Yuscarán","VARNAME_2":"NA","NL_NAME_2":"NA","TYPE_2":"Municipio","ENGTYPE_2":"Municipality","CC_2":"NA","HASC_2":"HN.EP.YU","name":"Yuscarán.county"},
"geometry":{"type": "MultiPolygon","coordinates": [[[[-86.7207,13.9246,444.505],[-86.723,13.9263,498.1424],[-86.7306,13.9272,566.6509],[-86.7287,13.937,568.6248],[-86.7307,13.9398,576.7971],[-86.7404,13.9378,749.1054],[-86.7426,13.9387,794.446],[-86.7426,13.9424,740.6385],[-86.7374,13.9492,488.6759],[-86.7424,13.954,540.4265],[-86.7436,13.9595,609.6012],[-86.7497,13.9605,615.9203],[-86.7504,13.9634,634.1897],[-86.7475,13.9679,594.5516],[-86.7601,13.9691,811.0572],[-86.7604,13.9783,697.0483],[-86.7628,13.9804,680.7955],[-86.7663,13.9813,650.4073],[-86.7712,13.9778,728.2468],[-86.778,13.9759,881.627],[-86.778,13.983,614.4925],[-86.7817,13.9872,646.6523],[-86.7838,13.9932,655.8322],[-86.7891,13.9957,951.2104],[-86.7986,14.0056,675.405],[-86.8105,14.0125,776.9977],[-86.8189,14.0132,761.8903],[-86.8228,14.0152,698.1202],[-86.8244,14.0146,744.9103],[-86.8253,14.0101,770.292],[-86.8297,14.0145,837.2173],[-86.8337,14.0116,852.8406],[-86.8383,14.0136,881.8449],[-86.8373,14.0166,808.713],[-86.8402,14.0246,622.45],[-86.8419,14.0373,657.2278],[-86.8465,14.0382,588.0418],[-86.8464,14.0411,633.8915],[-86.8499,14.0431,606.9283],[-86.8528,14.0479,598.0876],[-86.8615,14.049,621.1763],[-86.8669,14.0607,590.5314],[-86.8716,14.06,588.9836],[-86.8812,14.0545,654.6916],[-86.8851,14.0544,668.2214],[-86.8894,14.0567,622.9744],[-86.9046,14.0479,623.6979],[-86.9078,14.0487,612.1345],[-86.9143,14.0421,639.3911],[-86.9177,14.0416,650.1481],[-86.9165,14.0402,648.4712],[-86.9181,14.0028,1148.6749],[-86.9168,13.9908,1356.7133],[-86.9254,13.9902,1380.879],[-86.9205,13.9789,1411.533],[-86.9449,13.9511,1302.5311],[-86.943,13.9495,1348.3054],[-86.9336,13.9488,1406.2838],[-86.9295,13.945,1475.2162],[-86.9216,13.9419,1640.6316],[-86.8846,13.9087,1590.071],[-86.8877,13.8885,1067.7769],[-86.891,13.8861,1139.4509],[-86.8874,13.8801,1035.098],[-86.8876,13.8694,1373.1768],[-86.885,13.8659,1298.3472],[-86.8798,13.8654,1225.1356],[-86.87,13.8605,1059.9224],[-86.8651,13.8554,1048.5289],[-86.8278,13.862,740.2517],[-86.7889,13.8725,420.9249],[-86.7868,13.8722,415.1573],[-86.7852,13.8685,401.4383],[-86.7764,13.8606,552.7956],[-86.7742,13.8617,489.9255],[-86.77,13.86,373.6121],[-86.7636,13.8685,367.7719],[-86.7476,13.8683,632.2827],[-86.7451,13.8672,552.6693],[-86.7399,13.8594,551.661],[-86.7372,13.8661,441.6173],[-86.7286,13.864,401.1293],[-86.727,13.8653,401.1293],[-86.7305,13.872,385.4398],[-86.7275,13.879,422.6867],[-86.7245,13.8809,382.0198],[-86.7288,13.885,519.3148],[-86.7294,13.8893,505.6306],[-86.7244,13.8918,482.4723],[-86.7198,13.9,403.8888],[-86.716,13.903,452.0285],[-86.7219,13.9138,655.8578],[-86.7207,13.9246,444.505]]]]}}