{"type":"Feature","properties":{"GID_2":"HND.10.17_1","GID_0":"HND","country":"Honduras","GID_1":"HND.10_1","province":"Intibucá","NL_NAME_1":"NA","county":"Yamaranguila","VARNAME_2":"NA","NL_NAME_2":"NA","TYPE_2":"Municipio","ENGTYPE_2":"Municipality","CC_2":"NA","HASC_2":"HN.IN.YA","name":"Yamaranguila.county"},
"geometry":{"type": "MultiPolygon","coordinates": [[[[-88.3282,14.2118,1010.9174],[-88.3252,14.2052,704.6105],[-88.3177,14.2009,1070.0364],[-88.3158,14.1974,1134.4597],[-88.3166,14.1918,1084.2231],[-88.3217,14.1853,938.9133],[-88.3213,14.1753,973.9401],[-88.3251,14.1696,903.804],[-88.3253,14.1514,521.0692],[-88.3184,14.1527,441.3046],[-88.3135,14.1561,523.2932],[-88.3038,14.1558,960.5504],[-88.2757,14.1623,1220.1754],[-88.1924,14.161,1153.7737],[-88.1837,14.1635,1221.8934],[-88.1778,14.1617,1345.02],[-88.1609,14.1675,979.2137],[-88.1621,14.1774,1082.6497],[-88.1547,14.1856,1315.9116],[-88.151,14.1932,1330.1785],[-88.1504,14.1986,1378.2745],[-88.1545,14.2024,1262.6886],[-88.1565,14.2085,1125.0374],[-88.1571,14.2278,1414.6987],[-88.1593,14.2328,1355.7087],[-88.1699,14.2407,1534.0751],[-88.1724,14.2457,1536.3745],[-88.1811,14.254,1675.2019],[-88.1803,14.2567,1686.1992],[-88.2136,14.2913,1884.0161],[-88.2014,14.326,1853.4059],[-88.216,14.3348,2081.3269],[-88.2167,14.3646,1955.0586],[-88.2391,14.3924,1959.4335],[-88.2436,14.3913,2178.4771],[-88.261,14.379,1790.2568],[-88.2708,14.367,1996.2736],[-88.2786,14.3675,1978.3553],[-88.2845,14.3649,1930.661],[-88.2966,14.3518,1642.668],[-88.3053,14.3471,1603.7844],[-88.3054,14.3417,1712.8354],[-88.2878,14.3312,1840.3663],[-88.2798,14.3183,1828.1381],[-88.3001,14.3032,1749.1119],[-88.3064,14.2906,1539.6672],[-88.3134,14.2893,1496.6986],[-88.3177,14.283,1532.7134],[-88.3249,14.2775,1515.5367],[-88.3147,14.2777,1607.197],[-88.3106,14.2808,1596.9175],[-88.3074,14.2812,1598.4579],[-88.2966,14.2722,1675.3315],[-88.2901,14.2712,1496.4587],[-88.2893,14.2687,1379.6182],[-88.2928,14.2644,1349.3131],[-88.3,14.2443,1196.718],[-88.3006,14.2348,1231.6443],[-88.3117,14.2184,815.3977],[-88.3104,14.2132,814.8035],[-88.3282,14.2118,1010.9174]]]]}}