{"type":"Feature","properties":{"GID_2":"HND.5.11_1","GID_0":"HND","country":"Honduras","GID_1":"HND.5_1","province":"Copán","NL_NAME_1":"NA","county":"LaUnión","VARNAME_2":"NA","NL_NAME_2":"NA","TYPE_2":"Municipio","ENGTYPE_2":"Municipality","CC_2":"NA","HASC_2":"HN.CP.LU","name":"La_Unión.county"},
"geometry":{"type": "MultiPolygon","coordinates": [[[[-89.007,14.701,1514.1549],[-89.001,14.684,1559.2686],[-89.0028,14.6771,1692.2172],[-88.9983,14.6693,1949.1198],[-88.9975,14.6647,2019.0031],[-88.9958,14.664,1981.7087],[-88.9966,14.6517,2152.333],[-88.9914,14.643,1908.0933],[-88.9786,14.6286,1534.4768],[-88.9707,14.6256,1337.629],[-88.9676,14.6221,1198.536],[-88.9545,14.6168,1311.9944],[-88.9132,14.58,916.6307],[-88.9001,14.5898,925.9148],[-88.8986,14.5931,883.7086],[-88.8942,14.592,852.893],[-88.8731,14.5935,848.406],[-88.8722,14.597,840.4846],[-88.8741,14.6011,830.1014],[-88.8744,14.6113,810.9025],[-88.8787,14.6136,786.0759],[-88.8749,14.6227,804.3884],[-88.8762,14.6244,800.5497],[-88.8806,14.6246,774.7067],[-88.8813,14.6283,777.4526],[-88.8784,14.6316,793.2396],[-88.87,14.6325,778.0093],[-88.8712,14.6359,768.3759],[-88.8777,14.641,750.4066],[-88.8752,14.6492,725.1356],[-88.875,14.6552,741.0145],[-88.8765,14.659,741.6267],[-88.874,14.6626,740.6042],[-88.874,14.6653,733.6146],[-88.8872,14.6819,707.0117],[-88.8828,14.6867,710.3323],[-88.8837,14.6898,703.8922],[-88.8893,14.6945,696.7592],[-88.8948,14.6957,698.8591],[-88.8904,14.7012,689.788],[-88.8912,14.7045,694.4028],[-88.8943,14.707,690.4463],[-88.8991,14.7065,691.5779],[-88.902,14.7122,713.7917],[-88.9017,14.7151,688.9801],[-88.8994,14.716,682.9381],[-88.8948,14.71,696.2865],[-88.8923,14.7112,705.9993],[-88.8952,14.7203,708.2265],[-88.8981,14.7231,683.9725],[-88.9078,14.7252,678.7975],[-88.9086,14.7266,704.7264],[-88.9065,14.7319,691.5662],[-88.8895,14.7408,917.2644],[-88.8946,14.7655,936.8342],[-88.9319,14.7742,995.2224],[-88.9338,14.7786,903.9011],[-88.942,14.7823,1034.035],[-88.9485,14.7815,1293.2655],[-88.9526,14.774,1342.7266],[-88.9625,14.7738,1340.8131],[-88.9747,14.7861,1671.2112],[-88.9844,14.782,1390.1664],[-88.9869,14.7716,1555.7148],[-88.9864,14.7611,1142.6277],[-88.9885,14.7579,1070.3068],[-89.0064,14.7626,1269.7621],[-89.02,14.7428,1256.7671],[-89.0061,14.7364,1472.2804],[-89.007,14.701,1514.1549]]]]}}