{"type": "Feature","bbox": [-86.6553,14.6698,-86.4468,14.8552],"geometry": {"type": "MultiPolygon","coordinates": [[[[-86.4468,14.7833,669.1011],[-86.4488,14.7867,669.1023],[-86.4648,14.7866,623.3455],[-86.4668,14.7923,613.3632],[-86.4712,14.7958,552.1145],[-86.4738,14.795,621.2985],[-86.4833,14.8023,602.1761],[-86.4917,14.8025,600.5196],[-86.4976,14.8003,578.2778],[-86.4987,14.8004,581.5031],[-86.4994,14.8047,575.9601],[-86.5068,14.804,598.4227],[-86.5114,14.8163,554.9284],[-86.5116,14.827,752.6115],[-86.5259,14.832,699.472],[-86.53,14.8317,697.8864],[-86.5328,14.8277,638.7549],[-86.5376,14.8281,665.525],[-86.5406,14.8331,855.9769],[-86.5417,14.8389,810.6645],[-86.5463,14.8427,745.6744],[-86.5489,14.8493,705.7103],[-86.557,14.8552,780.6124],[-86.5621,14.8458,635.8849],[-86.5694,14.8387,637.8456],[-86.5751,14.836,686.1251],[-86.5808,14.829,638.8311],[-86.5795,14.8255,637.1744],[-86.5814,14.8255,673.2692],[-86.5793,14.8198,655.0981],[-86.5798,14.8127,607.7139],[-86.5766,14.8088,622.1896],[-86.574,14.7961,663.1401],[-86.5811,14.793,761.9999],[-86.5916,14.7766,866.8478],[-86.6076,14.7632,1046.4899],[-86.6084,14.7553,1030.1766],[-86.6219,14.7413,712.7662],[-86.6202,14.722,733.8911],[-86.6235,14.7231,728.5007],[-86.6276,14.7209,735.4767],[-86.6393,14.7199,694.4077],[-86.6452,14.7237,701.3055],[-86.6483,14.724,768.9328],[-86.651,14.7213,767.1208],[-86.6553,14.7211,660.3818],[-86.6533,14.7194,714.1352],[-86.6527,14.7093,788.7682],[-86.6464,14.7027,730.2919],[-86.6462,14.6997,757.1143],[-86.6415,14.6935,800.7512],[-86.635,14.6884,863.3224],[-86.621,14.6846,903.5397],[-86.6102,14.6759,839.8134],[-86.5597,14.6698,1014.607],[-86.5505,14.6753,1221.7777],[-86.5389,14.6864,1173.7805],[-86.5296,14.693,1226.322],[-86.5202,14.704,1082.137],[-86.4703,14.7071,1443.0591],[-86.4853,14.7159,1326.1111],[-86.4674,14.7419,818.3287],[-86.4468,14.7833,669.1011]]]]}
,"properties": {"GID_2": "HND.15.22_1","GID_0": "HND","country": "Honduras","GID_1": "HND.15_1","province": "Olancho","NL_NAME_1": "NA","county": "Silca","VARNAME_2": "NA","NL_NAME_2": "NA","TYPE_2": "Municipio","ENGTYPE_2": "Municipality","CC_2": "NA","HASC_2": "HN.OL.SI","name": "Silca.county","area_km2": 233.986,"hist_schema_id": "Elevation0-9000","hist_area_km2": {"550": 0.9019,"575": 5.0015,"600": 7.7689,"625": 10.905,"650": 7.6052,"675": 9.328,"700": 17.0383,"725": 28.8294,"750": 24.8106,"775": 20.6895,"800": 16.6502,"825": 13.0821,"850": 10.6627,"875": 8.9403,"900": 6.8897,"925": 6.0284,"950": 4.8185,"975": 3.8547,"1000": 3.6906,"1025": 3.9161,"1050": 3.5881,"1075": 2.9729,"1100": 2.563,"1125": 2.1939,"1150": 2.5015,"1175": 2.0092,"1200": 1.4967,"1225": 1.2917,"1250": 0.9021,"1275": 0.5126,"1300": 0.5946,"1325": 0.4511,"1350": 0.082,"1375": 0.1845,"1400": 0.1025,"1425": 0.1435,"1450": 0.2461,"1475": 0.123,"1500": 0.2461,"1525": 0.2051,"1550": 0.123,"1575": 0.041}}}