{"type":"Feature","properties":{"GID_2":"HND.15.18_1","GID_0":"HND","country":"Honduras","GID_1":"HND.15_1","province":"Olancho","NL_NAME_1":"NA","county":"SanEsteban","VARNAME_2":"NA","NL_NAME_2":"NA","TYPE_2":"Municipio","ENGTYPE_2":"Municipality","CC_2":"NA","HASC_2":"HN.OL.SE","name":"San_Esteban.county"},
"geometry":{"type": "MultiPolygon","coordinates": [[[[-85.7837,15.5702,1017.2196],[-85.7844,15.5628,915.0093],[-85.7814,15.5549,806.4879],[-85.7832,15.5508,852.0295],[-85.7902,15.5464,795.024],[-85.8084,15.5418,1047.6985],[-85.8155,15.5326,1147.6104],[-85.8198,15.5305,1265.2047],[-85.8214,15.5259,1210.4038],[-85.826,15.5231,1219.7437],[-85.8326,15.5079,1337.6223],[-85.8245,15.505,1229.4617],[-85.7714,15.4467,301.5896],[-85.7752,15.4317,312.2981],[-85.7692,15.4221,339.2204],[-85.7681,15.4147,397.7552],[-85.7709,15.409,401.7751],[-85.7781,15.4048,296.7004],[-85.7788,15.4028,311.7529],[-85.7767,15.3989,324.0816],[-85.7702,15.3951,358.6024],[-85.7694,15.3834,347.8577],[-85.7751,15.3771,398.8524],[-85.8009,15.3913,484.6673],[-85.8378,15.4062,505.8902],[-85.887,15.3751,1047.7948],[-85.9564,15.3362,1079.8169],[-85.9479,15.3019,1066.9651],[-85.939,15.2526,798.1154],[-85.9367,15.2487,773.3534],[-85.9387,15.2418,658.0306],[-85.9351,15.2348,704.4542],[-85.9446,15.2122,563.3271],[-85.9198,15.2091,549.8843],[-85.9229,15.2044,554.2477],[-85.945,15.1969,555.9753],[-85.9406,15.1786,519.9281],[-85.9397,15.1772,519.9281],[-85.9356,15.1773,526.2781],[-85.9325,15.1749,527.8983],[-85.9322,15.1727,528.3508],[-85.9364,15.1651,516.37],[-85.937,15.1563,502.402],[-85.9406,15.1509,476.3248],[-85.928,15.1479,474.983],[-85.9207,15.1414,494.5847],[-85.9109,15.1443,466.4914],[-85.9101,15.1423,467.2464],[-85.9125,15.1362,479.532],[-85.9067,15.1354,474.7311],[-85.9045,15.1402,464.0986],[-85.9023,15.1326,474.5728],[-85.8921,15.1351,464.4431],[-85.889,15.1298,458.6014],[-85.8888,15.1282,457.8145],[-85.8913,15.1267,458.8966],[-85.8906,15.1239,467.6291],[-85.8871,15.125,459.4853],[-85.8809,15.121,465.6566],[-85.8794,15.1232,463.6497],[-85.8736,15.1213,456.1133],[-85.8726,15.1179,463.4949],[-85.8694,15.1177,462.6552],[-85.8677,15.121,450.8629],[-85.8598,15.125,447.4207],[-85.8582,15.125,448.1169],[-85.851,15.1174,452.389],[-85.8489,15.1204,465.597],[-85.8472,15.1179,475.841],[-85.8444,15.1023,478.0803],[-85.8464,15.1017,476.9129],[-85.8469,15.0979,481.8462],[-85.8497,15.0972,466.9085],[-85.8416,15.0888,494.4286],[-85.841,15.0757,523.9205],[-85.8356,15.0602,626.489],[-85.8361,15.057,777.1785],[-85.8064,15.0288,1133.8998],[-85.801,15.026,1192.0974],[-85.755,15.0455,1386.6743],[-85.7237,15.0615,1560.2458],[-85.6911,15.0717,923.406],[-85.6177,15.1179,788.3008],[-85.6164,15.1209,757.1061],[-85.6161,15.1308,838.737],[-85.6178,15.1357,920.9787],[-85.616,15.1635,1027.0485],[-85.612799999999993,15.1849,1157.9915],[-85.5896,15.2029,1299.7421],[-85.5028,15.2643,900.9171],[-85.4962,15.2753,855.9788],[-85.473,15.3013,781.1175],[-85.4718,15.3249,1003.671],[-85.4704,15.431,1138.3618],[-85.4879,15.4379,1104.5624],[-85.5071,15.4425,1065.7604],[-85.5336,15.4591,445.8428],[-85.5968,15.5232,194.4041],[-85.7027,15.5746,459.6766],[-85.7075,15.5754,385.5713],[-85.7137,15.5719,460.128],[-85.7185,15.5713,738.4501],[-85.7246,15.5632,669.7711],[-85.7332,15.5603,502.2509],[-85.7431,15.5626,721.8953],[-85.7552,15.5769,715.5705],[-85.7611,15.5795,899.5281],[-85.7632,15.5795,933.5016],[-85.7649,15.576,991.1013],[-85.7682,15.5738,965.1544],[-85.7837,15.5702,1017.2196]]]]}}