{"type":"Feature","properties":{"GID_2":"HND.17.8_1","GID_0":"HND","country":"Honduras","GID_1":"HND.17_1","province":"Valle","NL_NAME_1":"NA","county":"SanFranciscodeCoray","VARNAME_2":"NA","NL_NAME_2":"NA","TYPE_2":"Municipio","ENGTYPE_2":"Municipality","CC_2":"NA","HASC_2":"HN.VA.SF","name":"San_Franciscode_Coray.county"},
"geometry":{"type": "MultiPolygon","coordinates": [[[[-87.603,13.722,698.2896],[-87.5992,13.6986,468.8048],[-87.5919,13.6902,305.2354],[-87.6035,13.6698,354.3051],[-87.572,13.6226,195.3119],[-87.5495,13.6331,333.6081],[-87.5463,13.6315,387.4498],[-87.5437,13.6322,339.6161],[-87.542,13.6269,224.987],[-87.536,13.6247,164.398],[-87.5344,13.6223,151.9314],[-87.5311,13.6227,125.2719],[-87.5284,13.627,134.3042],[-87.526,13.6271,126.2427],[-87.5251,13.629,133.843],[-87.5228,13.629,193.0876],[-87.5146,13.6349,198.0849],[-87.5122,13.6603,137.9745],[-87.4869,13.6685,424.8982],[-87.4644,13.6725,606.0649],[-87.472,13.6733,504.0313],[-87.4783,13.681,403.0313],[-87.4859,13.6813,383.1543],[-87.4906,13.6846,249.2158],[-87.493,13.683,228.8456],[-87.4963,13.687,191.6755],[-87.5038,13.6892,171.4007],[-87.5086,13.6884,227.0766],[-87.5209,13.6934,480.6306],[-87.526,13.7001,469.9639],[-87.5466,13.7127,479.6787],[-87.549,13.7204,357.8462],[-87.568,13.7174,569.8235],[-87.5887,13.7165,500.5797],[-87.603,13.722,698.2896]]]]}}