{"type": "Feature","bbox": [-86.5329,14.9754,-86.2482,15.3516],"geometry": {"type": "MultiPolygon","coordinates": [[[[-86.5329,15.1914,1076.058],[-86.5244,15.1934,1108.7681],[-86.5179,15.1972,950.5862],[-86.5143,15.1949,758.6792],[-86.5043,15.1966,757.843],[-86.4941,15.2032,719.6332],[-86.4779,15.2106,708.6754],[-86.4729,15.2099,643.0519],[-86.4664,15.212,568.6576],[-86.4544,15.21,697.0568],[-86.4592,15.2053,689.7748],[-86.4741,15.2013,735.5908],[-86.4904,15.1882,778.29],[-86.4983,15.1704,1019.0927],[-86.5051,15.163,1268.3342],[-86.5077,15.1525,1088.0322],[-86.5142,15.1479,1023.6257],[-86.5161,15.1435,959.1915],[-86.5157,15.141,927.9061],[-86.4883,15.1189,717.3821],[-86.4837,15.1115,802.9178],[-86.4744,15.1019,958.2129],[-86.4818,15.075,771.5677],[-86.4757,15.0732,875.9848],[-86.471,15.0693,745.1655],[-86.4625,15.0679,743.9518],[-86.4631,15.0435,829.8256],[-86.4702,15.0359,846.0292],[-86.4738,15.0237,970.0968],[-86.4509,14.9955,1129.0884],[-86.4323,14.9849,895.9783],[-86.4158,14.9786,913.8427],[-86.3963,14.9754,971.986],[-86.3848,14.9756,1271.71],[-86.3467,14.9832,1244.9663],[-86.2858,15.0135,1161.5604],[-86.2751,15.0234,1374.1736],[-86.2699,15.0399,1080.9854],[-86.2697,15.0459,1044.947],[-86.2482,15.063,1030.1033],[-86.249,15.0767,1299.1335],[-86.2681,15.1272,1011.6021],[-86.2659,15.1543,865.5548],[-86.2633,15.1579,839.6832],[-86.2563,15.1611,861.9247],[-86.2561,15.164,863.0853],[-86.2532,15.1676,850.1458],[-86.283,15.1983,770.3084],[-86.3011,15.2143,848.6375],[-86.3107,15.2184,798.9264],[-86.3166,15.226,795.3531],[-86.316,15.2318,816.6787],[-86.3178,15.2377,801.6122],[-86.3264,15.2504,537.5662],[-86.3204,15.2527,586.6755],[-86.3109,15.2517,560.6086],[-86.3068,15.2532,698.9276],[-86.3032,15.2653,583.3544],[-86.2981,15.2678,665.393],[-86.2959,15.2744,601.8439],[-86.2909,15.2793,750.6679],[-86.2939,15.2846,855.66],[-86.2911,15.2904,749.5805],[-86.2916,15.2918,735.0396],[-86.2955,15.2911,667.6062],[-86.303,15.3032,716.359],[-86.3108,15.3098,845.6954],[-86.314,15.3249,830.202],[-86.3222,15.3354,972.4423],[-86.3252,15.3413,889.375],[-86.3256,15.3456,903.7241],[-86.3307,15.3489,849.8316],[-86.3391,15.3516,919.1315],[-86.3624,15.3365,1320.5887],[-86.3989,15.3179,1168.1926],[-86.4104,15.3153,1269.6808],[-86.416,15.3154,1190.1857],[-86.4189,15.3177,881.6455],[-86.4745,15.3121,586.014],[-86.485,15.2991,315.1716],[-86.492,15.2857,627.3029],[-86.4888,15.2802,673.7402],[-86.4922,15.2769,810.7959],[-86.491,15.2715,708.512],[-86.5054,15.2515,1233.473],[-86.5089,15.2375,968.2247],[-86.5185,15.2158,1085.1606],[-86.5329,15.1914,1076.058]]]]}
,"properties": {"GID_2": "HND.15.9_1","GID_0": "HND","country": "Honduras","GID_1": "HND.15_1","province": "Olancho","NL_NAME_1": "NA","county": "Guata","VARNAME_2": "NA","NL_NAME_2": "NA","TYPE_2": "Municipio","ENGTYPE_2": "Municipality","CC_2": "NA","HASC_2": "HN.OL.GT","name": "Guata.county","area_km2": 833.5523,"hist_schema_id": "Elevation0-9000","hist_area_km2": {"275": 0.0818,"300": 0.4704,"325": 1.0635,"350": 1.1045,"375": 1.7385,"400": 3.2932,"425": 3.5591,"450": 4.6638,"475": 5.6457,"500": 5.9937,"525": 7.2007,"550": 8.2237,"575": 9.6764,"600": 13.5851,"625": 15.5287,"650": 17.6775,"675": 22.9575,"700": 26.5197,"725": 31.5344,"750": 32.9475,"775": 36.5701,"800": 37.3061,"825": 38.0214,"850": 38.4509,"875": 37.264,"900": 36.568,"925": 35.3002,"950": 30.3696,"975": 32.0073,"1000": 30.8012,"1025": 28.4882,"1050": 25.9922,"1075": 24.09,"1100": 23.5787,"1125": 24.1328,"1150": 21.6771,"1175": 19.713,"1200": 15.9264,"1225": 14.0632,"1250": 12.5489,"1275": 11.1163,"1300": 9.3766,"1325": 7.6161,"1350": 7.1246,"1375": 5.4454,"1400": 4.8516,"1425": 3.009,"1450": 2.4152,"1475": 2.0263,"1500": 1.6578,"1525": 1.0642,"1550": 0.7777,"1575": 0.4707,"1600": 0.2456,"1625": 0.0205}}}