{"type": "Feature","bbox": [-88.1145,15.0383,-87.9313,15.2224],"geometry": {"type": "MultiPolygon","coordinates": [[[[-88.017,15.2224,97.9948],[-88.0213,15.2195,443.5055],[-88.0235,15.2122,257.9121],[-88.026,15.2094,290.9077],[-88.04,15.2049,394.112],[-88.0573,15.2019,407.9601],[-88.0628,15.1934,109.8791],[-88.0634,15.1818,468.846],[-88.0678,15.18,336.8967],[-88.0765,15.171,181.6624],[-88.0769,15.1614,451.2384],[-88.0841,15.1571,385.2808],[-88.0901,15.146,190.0288],[-88.0977,15.1426,175.6943],[-88.1145,15.1181,492.6949],[-88.0988,15.0952,721.6317],[-88.0845,15.0848,953.0808],[-88.079,15.078,975.4734],[-88.065,15.0774,697.0765],[-88.0603,15.0701,632.3865],[-88.0346,15.0672,429.6514],[-88.029,15.0585,545.4669],[-88.0216,15.0536,502.9848],[-88.0224,15.0451,484.9565],[-88.0123,15.0383,410.0003],[-87.9809,15.0471,72.8084],[-87.9873,15.0506,81.5143],[-87.9903,15.0552,97.045],[-87.991,15.0602,96.5955],[-87.988,15.0629,69.7969],[-87.9832,15.062,64.2903],[-87.9729,15.0558,59.0],[-87.9672,15.06,56.2549],[-87.9583,15.0581,52.9872],[-87.9556,15.0606,53.2087],[-87.9508,15.0612,50.6933],[-87.9402,15.0499,62.9015],[-87.9365,15.0567,57.35],[-87.9366,15.0632,50.449],[-87.9332,15.0702,59.1603],[-87.9317,15.0702,61.5899],[-87.9325,15.0722,58.4299],[-87.9313,15.0737,58.4299],[-87.9342,15.0752,59.192],[-87.9328,15.0763,54.5049],[-87.934,15.0773,51.7115],[-87.933,15.081,52.4265],[-87.9359,15.085,47.6982],[-87.9344,15.0874,60.0051],[-87.9361,15.0935,50.1863],[-87.9334,15.0941,50.9086],[-87.9618,15.1312,207.8608],[-87.9648,15.152,124.6222],[-87.9674,15.1594,282.5939],[-87.9926,15.1783,326.0875],[-87.9935,15.188,410.0586],[-87.997,15.2001,303.9566],[-88.0058,15.2034,253.4242],[-88.0112,15.2089,153.0768],[-88.0172,15.2116,250.379],[-88.0189,15.2175,275.417],[-88.017,15.2224,97.9948]]]]}
,"properties": {"GID_2": "HND.6.7_1","GID_0": "HND","country": "Honduras","GID_1": "HND.6_1","province": "Cortés","NL_NAME_1": "NA","county": "SanAntoniodeCortés","VARNAME_2": "NA","NL_NAME_2": "NA","TYPE_2": "Municipio","ENGTYPE_2": "Municipality","CC_2": "NA","HASC_2": "HN.CR.SA","name": "San_Antoniode_Cortés.county","area_km2": 221.3006,"hist_schema_id": "Elevation0-9000","hist_area_km2": {"50": 21.905,"75": 7.3289,"100": 4.8721,"125": 4.2578,"150": 3.8072,"175": 4.9737,"200": 4.5847,"225": 5.4647,"250": 5.5671,"275": 6.3038,"300": 7.1225,"325": 7.3473,"350": 8.7186,"375": 8.9029,"400": 9.2507,"425": 9.8441,"450": 10.1309,"475": 10.7448,"500": 10.8269,"525": 13.2012,"550": 11.7278,"575": 10.6638,"600": 7.2663,"625": 6.3044,"650": 4.278,"675": 3.5413,"700": 2.3541,"725": 1.9652,"750": 1.5967,"775": 1.5763,"800": 1.2283,"825": 0.9621,"850": 0.5937,"875": 0.3685,"900": 0.4094,"925": 0.2866,"950": 0.1842,"975": 0.2661,"1000": 0.1638,"1025": 0.1433,"1050": 0.0819,"1075": 0.1842}}}