{"type": "Feature","bbox": [-88.7345,14.3532,-88.5985,14.5086],"geometry": {"type": "MultiPolygon","coordinates": [[[[-88.7124,14.505,2221.6052],[-88.7117,14.4979,2262.4595],[-88.7172,14.4889,2145.5913],[-88.7196,14.479,2030.0273],[-88.719,14.4758,1832.9435],[-88.723,14.4718,1827.8479],[-88.723,14.4662,1740.4894],[-88.7253,14.4659,1725.3313],[-88.7285,14.46,1655.8396],[-88.7281,14.4558,1711.4045],[-88.7261,14.4536,1626.0425],[-88.727,14.446,1512.7966],[-88.7322,14.4438,1393.7661],[-88.7345,14.437,1312.4893],[-88.731,14.4259,1355.3982],[-88.7237,14.4231,1266.699],[-88.7202,14.418,1278.7695],[-88.7189,14.4122,1501.6841],[-88.7147,14.4118,1384.9044],[-88.7061,14.4044,1193.1091],[-88.704,14.3982,1103.7496],[-88.7038,14.3887,1268.7979],[-88.6985,14.3811,1227.4974],[-88.6947,14.3784,1002.1405],[-88.6874,14.3551,1258.6326],[-88.6854,14.3532,1141.9597],[-88.6607,14.3626,1359.6381],[-88.6487,14.3576,1136.2584],[-88.639,14.3579,948.7125],[-88.6384,14.3625,1009.044],[-88.615,14.3624,916.5604],[-88.6131,14.367,937.2063],[-88.6185,14.3771,1151.8083],[-88.6147,14.3809,1115.9745],[-88.6144,14.3844,1116.516],[-88.6195,14.3886,1185.4343],[-88.6199,14.3963,1233.6182],[-88.6271,14.4011,1326.3925],[-88.6066,14.4326,1346.7318],[-88.6155,14.4594,1301.647],[-88.6164,14.4602,1310.912],[-88.6206,14.4582,1365.9722],[-88.6208,14.4634,1345.5875],[-88.6259,14.4654,1286.5383],[-88.6301,14.4766,1308.6675],[-88.6241,14.4772,1235.834],[-88.6152,14.4729,1266.4618],[-88.605,14.4737,1183.0396],[-88.6036,14.4817,1212.2078],[-88.5985,14.4882,1169.6974],[-88.6024,14.4881,1142.137],[-88.5993,14.4987,1226.6543],[-88.5994,14.504,1101.2577],[-88.6167,14.506,1196.1243],[-88.6296,14.4979,1293.175],[-88.6435,14.4967,1416.3835],[-88.6516,14.498,1658.6875],[-88.6537,14.4997,1787.3647],[-88.6621,14.4996,2114.3621],[-88.6649,14.5015,2252.8433],[-88.6774,14.5042,2343.6238],[-88.6807,14.5072,2452.1265],[-88.6854,14.5086,2454.7256],[-88.6905,14.5084,2349.8345],[-88.6941,14.5053,2234.103],[-88.7023,14.5064,2285.2322],[-88.7124,14.505,2221.6052]]]]}
,"properties": {"GID_2": "HND.13.19_1","GID_0": "HND","country": "Honduras","GID_1": "HND.13_1","province": "Lempira","NL_NAME_1": "NA","county": "SanManuelColohete","VARNAME_2": "SanManueldelColohete","NL_NAME_2": "NA","TYPE_2": "Municipio","ENGTYPE_2": "Municipality","CC_2": "NA","HASC_2": "HN.LE.SH","name": "San_Manuel_Colohete.county","area_km2": 173.7891,"hist_schema_id": "Elevation0-9000","hist_area_km2": {"875": 0.0411,"900": 0.2465,"925": 0.4108,"950": 0.5546,"975": 0.5135,"1000": 0.4929,"1025": 0.8216,"1050": 0.801,"1075": 1.0885,"1100": 1.3349,"1125": 2.4642,"1150": 3.7368,"1175": 4.3733,"1200": 4.4557,"1225": 4.1067,"1250": 4.1273,"1275": 4.2917,"1300": 5.2362,"1325": 5.544,"1350": 6.8171,"1375": 6.9815,"1400": 7.1251,"1425": 7.4125,"1450": 7.1251,"1475": 6.8992,"1500": 6.9814,"1525": 6.6733,"1550": 7.3304,"1575": 5.9546,"1600": 6.6938,"1625": 6.2215,"1650": 5.6464,"1675": 5.2769,"1700": 5.0099,"1725": 4.1064,"1750": 3.5314,"1775": 2.7306,"1800": 1.4577,"1825": 1.4781,"1850": 1.1086,"1875": 1.0059,"1900": 0.8827,"1925": 0.8211,"1950": 0.5748,"1975": 0.698,"2000": 0.5543,"2025": 0.6569,"2050": 0.6158,"2075": 0.5953,"2100": 0.6774,"2125": 0.5337,"2150": 0.6364,"2175": 0.6774,"2200": 0.6364,"2225": 0.7595,"2250": 1.0674,"2275": 0.78,"2300": 0.6569,"2325": 0.78,"2350": 0.5953,"2375": 0.6158,"2400": 0.4516,"2425": 0.4311,"2450": 0.4105,"2475": 0.349,"2500": 0.0616,"2525": 0.0616}}}