{"type":"Feature","properties":{"GID_2":"HND.8.9_1","GID_0":"HND","country":"Honduras","GID_1":"HND.8_1","province":"FranciscoMorazán","NL_NAME_1":"NA","county":"Lepaterique","VARNAME_2":"NA","NL_NAME_2":"NA","TYPE_2":"Municipio","ENGTYPE_2":"Municipality","CC_2":"NA","HASC_2":"HN.FM.LE","name":"Lepaterique.county"},
"geometry":{"type": "MultiPolygon","coordinates": [[[[-87.6256,14.0748,1152.5905],[-87.6152,14.0224,935.5544],[-87.6156,13.9902,780.5182],[-87.6134,13.9848,760.3883],[-87.6029,13.9718,1347.3605],[-87.6082,13.9624,1060.751],[-87.6026,13.9571,1313.2023],[-87.6029,13.9522,1569.9409],[-87.6059,13.9451,1568.8367],[-87.5605,13.9193,1093.7731],[-87.4936,13.928,883.8445],[-87.4491,13.9309,912.646],[-87.4509,13.9342,931.996],[-87.4503,13.937,921.0248],[-87.4537,13.9398,1040.7294],[-87.4568,13.9461,1070.8832],[-87.4461,13.9483,919.0902],[-87.4427,13.9538,910.1447],[-87.4327,13.9527,1042.8188],[-87.4209,13.9546,1016.3745],[-87.4188,13.9618,1125.217],[-87.4135,13.9655,1211.0236],[-87.4118,13.9717,1323.4907],[-87.4081,13.9746,1298.5344],[-87.4097,13.9913,1470.9349],[-87.3809,14.0107,1550.2416],[-87.3848,14.048,1672.6604],[-87.3793,14.0676,1654.6288],[-87.3739,14.0693,1604.2865],[-87.372,14.072,1502.6758],[-87.3616,14.0744,1400.8485],[-87.3792,14.0945,1518.615],[-87.3765,14.0967,1488.3967],[-87.3776,14.1013,1500.3103],[-87.3762,14.1056,1444.551],[-87.386,14.1082,1496.6351],[-87.3896,14.1017,1507.7148],[-87.3964,14.1049,1570.7092],[-87.3996,14.1088,1556.5863],[-87.4048,14.1069,1630.2991],[-87.4113,14.1071,1693.9294],[-87.4169,14.1089,1746.2886],[-87.4207,14.1127,1777.5278],[-87.4267,14.1136,1838.4238],[-87.4506,14.1597,1875.01],[-87.4577,14.1679,1844.4219],[-87.4583,14.1734,1794.2507],[-87.4607,14.1779,1785.1669],[-87.4768,14.1992,1659.7606],[-87.4815,14.1917,1816.9762],[-87.481,14.1896,1825.8418],[-87.4834,14.1865,1826.0662],[-87.4826,14.182,1875.4814],[-87.4888,14.169,1762.6973],[-87.5095,14.1591,1431.9769],[-87.5521,14.1281,1002.4575],[-87.5893,14.1344,1451.5254],[-87.5998,14.1287,1700.4312],[-87.6047,14.1205,1636.901],[-87.6257,14.0975,1257.6489],[-87.6239,14.0807,1166.6206],[-87.6256,14.0748,1152.5905]]]]}}