{"type": "Feature","bbox": [-87.1373,14.2115,-86.8384,14.3888],"geometry": {"type": "MultiPolygon","coordinates": [[[[-86.8402,14.2818,1607.4926],[-86.8384,14.2853,1402.7961],[-86.8407,14.3069,2078.355],[-86.8512,14.3099,1929.6301],[-86.8573,14.3171,1755.424],[-86.859,14.3159,1868.9333],[-86.8595,14.3127,1998.2584],[-86.8606,14.313,2001.9791],[-86.862799999999993,14.3286,1632.88],[-86.8707,14.3397,1411.4163],[-86.8767,14.3433,1265.5344],[-86.8818,14.3488,1335.1104],[-86.8866,14.35,1209.7762],[-86.8867,14.3556,1380.1749],[-86.8908,14.3577,1355.1926],[-86.8953,14.3647,1203.7172],[-86.8979,14.3664,1080.058],[-86.8996,14.3643,1060.321],[-86.9025,14.3651,1050.7354],[-86.9046,14.3623,1068.1008],[-86.9076,14.3634,1089.6036],[-86.9089,14.3573,1080.1398],[-86.9137,14.3539,1088.3137],[-86.9193,14.3608,1098.9192],[-86.916,14.3652,1094.2489],[-86.9183,14.3648,1053.8608],[-86.9201,14.3677,1041.7286],[-86.9268,14.3641,1035.3044],[-86.9331,14.3645,1060.4254],[-86.9358,14.3672,1101.8361],[-86.9846,14.3888,1090.564],[-86.988,14.3855,1036.9324],[-86.9939,14.3847,989.138],[-86.9975,14.3795,1009.2786],[-87.0052,14.3605,974.5169],[-87.0676,14.3367,1061.218],[-87.0919,14.2968,847.5735],[-87.1015,14.2963,700.2753],[-87.104,14.2932,772.3378],[-87.1059,14.2856,1005.3163],[-87.1083,14.2877,892.2213],[-87.1147,14.2858,999.0889],[-87.1178,14.2804,1057.193],[-87.1239,14.2759,1167.4487],[-87.1262,14.2696,1270.8693],[-87.1349,14.2641,1363.0386],[-87.1373,14.2528,1496.1578],[-87.1361,14.2472,1446.3063],[-87.0368,14.2115,1055.8101],[-87.0247,14.2289,804.9167],[-86.9772,14.2208,703.793],[-86.97,14.2225,668.5137],[-86.9669,14.2195,647.8484],[-86.9591,14.2168,623.972],[-86.8983,14.2245,1036.4991],[-86.8936,14.232,1124.9274],[-86.8851,14.2394,1307.9421],[-86.8822,14.24,1250.7163],[-86.8798,14.2457,1361.646],[-86.8716,14.251,1499.1204],[-86.8534,14.2821,1677.9778],[-86.8402,14.2818,1607.4926]]]]}
,"properties": {"GID_2": "HND.8.20_1","GID_0": "HND","country": "Honduras","GID_1": "HND.8_1","province": "FranciscoMorazán","NL_NAME_1": "NA","county": "SanJuandeFlores","VARNAME_2": "NA","NL_NAME_2": "NA","TYPE_2": "Municipio","ENGTYPE_2": "Municipality","CC_2": "NA","HASC_2": "HN.FM.SJ","name": "San_Juande_Flores.county","area_km2": 392.0616,"hist_schema_id": "Elevation0-9000","hist_area_km2": {"600": 2.0758,"625": 9.0628,"650": 12.2884,"675": 15.9866,"700": 15.6987,"725": 17.5477,"750": 17.3416,"775": 16.4782,"800": 14.5673,"825": 13.437,"850": 13.6425,"875": 12.1429,"900": 11.9784,"925": 10.8075,"950": 11.5472,"975": 16.0862,"1000": 16.9483,"1025": 15.8803,"1050": 15.2846,"1075": 13.3742,"1100": 12.2855,"1125": 10.4984,"1150": 9.1836,"1175": 7.8074,"1200": 7.0676,"1225": 5.5678,"1250": 4.212,"1275": 3.9655,"1300": 4.0477,"1325": 3.1437,"1350": 2.7944,"1375": 2.9588,"1400": 2.9383,"1425": 2.815,"1450": 2.7739,"1475": 3.0205,"1500": 3.5753,"1525": 3.1437,"1550": 2.8972,"1575": 2.7738,"1600": 2.0546,"1625": 2.178,"1650": 1.8903,"1675": 1.8081,"1700": 1.7464,"1725": 1.767,"1750": 1.6848,"1775": 1.4793,"1800": 1.5615,"1825": 1.3971,"1850": 1.1711,"1875": 0.6369,"1900": 0.5958,"1925": 0.5342,"1950": 0.4109,"1975": 0.3287,"2000": 0.226,"2025": 0.1644,"2050": 0.1644,"2075": 0.1438,"2100": 0.1233,"2125": 0.1027,"2150": 0.1644,"2175": 0.0822}}}