{"type": "Feature","bbox": [-87.0539,15.5424,-86.8826,15.7771],"geometry": {"type": "MultiPolygon","coordinates": [[[[-87.0402,15.7757,0.0],[-87.042,15.7701,8.3133],[-87.0351,15.7666,6.1274],[-87.0426,15.7685,9.1152],[-87.0357,15.7647,8.2392],[-87.0345,15.7655,6.1274],[-87.0331,15.7609,6.3968],[-87.0434,15.7564,8.6856],[-87.046,15.7539,10.4125],[-87.0449,15.7522,6.8095],[-87.0539,15.7431,-0.0972],[-87.0451,15.73,11.8912],[-87.0474,15.7221,8.7201],[-87.046,15.7203,9.5288],[-87.0485,15.7189,10.0898],[-87.0469,15.708,12.0402],[-87.0422,15.7073,3.3334],[-87.0429,15.7016,14.7604],[-87.0374,15.6973,9.35],[-87.0376,15.6927,11.2266],[-87.035,15.6899,5.9708],[-87.0312,15.6905,4.8515],[-87.0276,15.6885,8.3142],[-87.0106,15.6902,5.6279],[-86.9939,15.6965,11.2887],[-86.9916,15.6957,10.6234],[-86.9901,15.6928,8.5483],[-86.991,15.6817,3.7581],[-86.9955,15.6773,6.352],[-86.9945,15.6733,20.8977],[-86.9957,15.6649,182.7665],[-87.0018,15.6605,123.0561],[-87.0005,15.6589,144.5497],[-86.9948,15.6584,312.9419],[-86.9937,15.6523,467.2922],[-86.998,15.6511,367.2744],[-86.9966,15.6486,320.8719],[-86.9971,15.6431,369.978],[-87.0041,15.638,645.5176],[-86.9983,15.6347,828.3563],[-87.0023,15.6261,1035.6173],[-86.9992,15.6197,694.936],[-87.0003,15.6135,838.2115],[-86.9958,15.6101,1115.8198],[-86.9954,15.6041,1190.2739],[-86.999,15.6003,1027.1733],[-87.0007,15.5949,1241.7029],[-86.9952,15.5939,1324.6018],[-86.9943,15.5898,1541.4296],[-86.9899,15.5859,1374.6282],[-86.9887,15.5742,1774.1985],[-86.9934,15.5681,1712.8767],[-86.9988,15.5666,1729.2334],[-87.0037,15.5583,1444.3857],[-87.0148,15.5474,1108.5691],[-87.0153,15.5447,927.3608],[-87.0054,15.5424,1026.7471],[-86.9992,15.5443,1076.4351],[-86.9624,15.5426,1219.2657],[-86.9418,15.5573,1185.3334],[-86.9322,15.5528,1472.9709],[-86.9154,15.5581,1853.4387],[-86.9106,15.5564,1999.6132],[-86.9027,15.5575,2131.2822],[-86.8998,15.5595,2113.1169],[-86.8986,15.566,1809.5137],[-86.9004,15.5762,2074.8069],[-86.905,15.5804,2118.4312],[-86.9069,15.5852,1851.1708],[-86.9101,15.5863,1432.9603],[-86.9112,15.5901,1417.1227],[-86.9094,15.5927,1456.4209],[-86.913,15.5942,1514.5959],[-86.9132,15.6022,1496.7509],[-86.9183,15.6068,1655.1975],[-86.9149,15.6074,1790.7906],[-86.9108,15.6107,1785.3418],[-86.9036,15.6119,1464.7495],[-86.9037,15.6152,1687.2603],[-86.9016,15.615,1651.121],[-86.9009,15.6202,1872.0312],[-86.8961,15.6224,1692.8298],[-86.896,15.6283,1388.5225],[-86.8915,15.6264,1598.9343],[-86.8876,15.6284,1841.5131],[-86.8883,15.6348,1758.5049],[-86.8857,15.6397,1782.7354],[-86.8829,15.6407,1880.3085],[-86.8826,15.6469,1739.1849],[-86.8869,15.6581,1400.7629],[-86.8858,15.6708,722.2407],[-86.8838,15.6735,741.264],[-86.8851,15.6774,585.2727],[-86.8834,15.6836,494.4773],[-86.888,15.6895,233.8272],[-86.8889,15.6952,63.0159],[-86.8937,15.6997,69.351],[-86.894,15.7038,49.0268],[-86.8977,15.7106,31.6846],[-86.8993,15.7254,18.6707],[-86.9033,15.7334,10.6231],[-86.9058,15.7557,0.0],[-86.9249,15.7563,0.3207],[-86.9635,15.7612,1.0749],[-86.994,15.7685,1.3281],[-87.0032,15.7735,0.0],[-87.0124,15.7762,0.0],[-87.0079,15.7721,0.9802],[-87.0038,15.7715,1.304],[-87.0001,15.7685,2.7463],[-86.9976,15.7551,0.0],[-86.9951,15.7529,6.5431],[-86.9996,15.751,3.9494],[-86.9999,15.7657,0.6593],[-87.004,15.7707,1.304],[-87.0068,15.771,1.9172],[-87.0196,15.7771,0.0],[-87.0402,15.7757,0.0]]]]}
,"properties": {"GID_2": "HND.1.2_1","GID_0": "HND","country": "Honduras","GID_1": "HND.1_1","province": "Atlántida","NL_NAME_1": "NA","county": "ElPorvenir","VARNAME_2": "NA","NL_NAME_2": "NA","TYPE_2": "Municipio","ENGTYPE_2": "Municipality","CC_2": "NA","HASC_2": "HN.AT.EP","name": "El_Porvenir.county","area_km2": 297.3974,"hist_schema_id": "Elevation0-9000","hist_area_km2": {"0": 93.4473,"25": 29.064,"50": 5.3274,"75": 3.1843,"100": 1.8779,"125": 1.6738,"150": 1.5514,"175": 1.4902,"200": 1.5514,"225": 1.4698,"250": 1.7147,"275": 1.3677,"300": 1.5311,"325": 1.4902,"350": 1.674,"375": 1.9802,"400": 1.674,"425": 2.0823,"450": 2.1437,"475": 2.5315,"500": 2.0824,"525": 2.307,"550": 2.1437,"575": 2.2458,"600": 2.45,"625": 2.2051,"650": 2.2254,"675": 2.4501,"700": 2.6747,"725": 2.8177,"750": 2.7156,"775": 2.4297,"800": 2.9607,"825": 2.8178,"850": 2.5115,"875": 2.9608,"900": 2.8995,"925": 2.9199,"950": 3.4712,"975": 3.2875,"1000": 3.4101,"1025": 4.0432,"1050": 3.5124,"1075": 3.7777,"1100": 3.6144,"1125": 3.4102,"1150": 2.8181,"1175": 3.5941,"1200": 3.3695,"1225": 2.7364,"1250": 3.0836,"1275": 3.247,"1300": 3.0633,"1325": 3.7168,"1350": 3.002,"1375": 2.7365,"1400": 2.5936,"1425": 2.9203,"1450": 2.2464,"1475": 2.4506,"1500": 2.2668,"1525": 1.6133,"1550": 1.8584,"1575": 1.9197,"1600": 1.45,"1625": 1.4908,"1650": 1.3682,"1675": 1.2049,"1700": 0.9394,"1725": 1.0619,"1750": 0.7352,"1775": 0.776,"1800": 0.5105,"1825": 0.6331,"1850": 0.2451,"1875": 0.388,"1900": 0.3676,"1925": 0.5718,"1950": 0.3676,"1975": 0.4085,"2000": 0.2655,"2025": 0.2859,"2050": 0.2859,"2075": 0.3268,"2100": 0.4493,"2125": 0.2247,"2150": 0.3063,"2175": 0.2451,"2200": 0.0408,"2225": 0.0408}}}