{"type":"Feature","properties":{"GID_2":"HND.12.7_1","GID_0":"HND","country":"Honduras","GID_1":"HND.12_1","province":"LaPaz","NL_NAME_1":"NA","county":"Lauterique","VARNAME_2":"NA","NL_NAME_2":"NA","TYPE_2":"Municipio","ENGTYPE_2":"Municipality","CC_2":"NA","HASC_2":"HN.LP.LA","name":"Lauterique.county"},
"geometry":{"type": "MultiPolygon","coordinates": [[[[-87.6248,13.8684,1189.6632],[-87.6445,13.8744,584.1249],[-87.6526,13.8736,510.6424],[-87.6545,13.8769,463.2419],[-87.6579,13.8783,440.6412],[-87.666,13.8769,451.2244],[-87.6702,13.8819,380.5583],[-87.674,13.8794,422.7817],[-87.6749,13.8742,342.5451],[-87.6778,13.8738,241.3941],[-87.6799,13.8748,272.153],[-87.6811,13.8797,239.7117],[-87.6841,13.8805,337.8696],[-87.686,13.8784,271.5905],[-87.6864,13.8735,341.2347],[-87.685,13.8716,225.9012],[-87.6868,13.8675,227.8164],[-87.6837,13.8649,238.8411],[-87.691,13.8586,214.6957],[-87.6915,13.8502,220.2649],[-87.6973,13.8431,170.7178],[-87.6942,13.8381,173.708],[-87.6821,13.8331,221.8602],[-87.674,13.823,377.2673],[-87.6498,13.8229,999.4595],[-87.646,13.8341,1086.1165],[-87.6361,13.8411,1280.8392],[-87.631,13.8473,1180.8965],[-87.6237,13.8633,1205.0732],[-87.6248,13.8684,1189.6632]]]]}}