{"type":"Feature","properties":{"GID_2":"HND.6.1_1","GID_0":"HND","country":"Honduras","GID_1":"HND.6_1","province":"Cortés","NL_NAME_1":"NA","county":"Choloma","VARNAME_2":"NA","NL_NAME_2":"NA","TYPE_2":"Municipio","ENGTYPE_2":"Municipality","CC_2":"NA","HASC_2":"HN.CR.CH","name":"Choloma.county"},
"geometry":{"type": "MultiPolygon","coordinates": [[[[-87.7887,15.5909,15.2939],[-87.7954,15.6195,11.3122],[-87.8201,15.6243,10.8699],[-87.8295,15.6246,10.8094],[-87.8289,15.6367,10.0178],[-87.8317,15.6428,8.8732],[-87.8417,15.6475,9.4912],[-87.8476,15.6537,9.4068],[-87.8549,15.6572,8.2622],[-87.8612,15.6628,9.8368],[-87.8689,15.6749,5.6132],[-87.8675,15.6808,5.7198],[-87.8696,15.683,5.4856],[-87.8693,15.6881,5.6796],[-87.8742,15.692,6.0359],[-87.8753,15.697,4.0467],[-87.8783,15.6992,5.0241],[-87.883,15.6995,4.0095],[-87.885,15.7018,3.8299],[-87.8846,15.7041,3.6912],[-87.8811,15.7064,3.736],[-87.8826,15.7183,3.7576],[-87.8764,15.7193,5.6009],[-87.8758,15.716,5.6292],[-87.872,15.7165,5.7646],[-87.8741,15.7239,6.0993],[-87.8671,15.7401,3.9817],[-87.8733,15.7407,4.979],[-87.8691,15.746,4.3081],[-87.8674,15.746,4.2674],[-87.8673,15.7479,4.458],[-87.9353,15.7496,294.7457],[-87.9418,15.7511,233.7616],[-87.9539,15.7502,246.2812],[-87.9587,15.748,382.0408],[-87.9692,15.7492,204.4768],[-87.9745,15.7449,318.5842],[-87.9835,15.7409,333.9873],[-87.9938,15.7315,398.173],[-87.9972,15.7222,567.8527],[-88.0249,15.7026,652.7343],[-88.0454,15.7003,470.7383],[-88.0517,15.6944,395.8409],[-88.0568,15.6921,296.6946],[-88.0659,15.6745,709.6593],[-88.0501,15.6315,1179.3037],[-87.9692,15.5482,71.9375],[-87.9532,15.552,43.2294],[-87.8934,15.5306,45.6222],[-87.8555,15.5383,16.4078],[-87.8555,15.5434,15.2474],[-87.8524,15.5515,14.5736],[-87.8578,15.5574,15.0131],[-87.8583,15.5651,14.3238],[-87.8463,15.5678,14.5943],[-87.8461,15.5698,14.2667],[-87.8421,15.5702,15.0759],[-87.8412,15.5721,14.8691],[-87.8346,15.573,15.1145],[-87.8255,15.5814,15.8589],[-87.8201,15.5824,14.9543],[-87.7953,15.596,15.6718],[-87.7924,15.5881,16.98],[-87.7911,15.5904,16.0356],[-87.7887,15.5909,15.2939]]]]}}