{"type":"Feature","properties":{"GID_2":"HND.8.25_1","GID_0":"HND","country":"Honduras","GID_1":"HND.8_1","province":"FranciscoMorazán","NL_NAME_1":"NA","county":"Tatumbla","VARNAME_2":"NA","NL_NAME_2":"NA","TYPE_2":"Municipio","ENGTYPE_2":"Municipality","CC_2":"NA","HASC_2":"HN.FM.TT","name":"Tatumbla.county"},
"geometry":{"type": "MultiPolygon","coordinates": [[[[-87.0932,13.9459,1531.5569],[-87.0629,13.9443,899.3324],[-87.0609,13.9366,850.7026],[-87.056,13.9333,814.8688],[-87.0561,13.9286,797.0757],[-87.0549,13.9286,811.5543],[-87.0456,13.9354,927.5143],[-87.0202,13.9453,1088.5815],[-87.0224,13.9494,1044.5223],[-87.0177,13.9761,887.0983],[-87.0223,13.9828,875.2426],[-87.0309,13.9825,844.9617],[-87.0418,13.9876,945.0619],[-87.0447,13.9955,992.9756],[-87.0575,14.0019,1387.8877],[-87.0681,14.0115,1523.7112],[-87.0709,14.0113,1534.7552],[-87.0743,14.0187,1705.0795],[-87.0963,14.0197,1319.3652],[-87.1117,14.028,1259.7518],[-87.1163,14.0245,1310.2993],[-87.1197,14.0148,1194.4706],[-87.1257,14.0092,1292.3823],[-87.1181,13.9935,1543.2324],[-87.1228,13.976,1694.2234],[-87.1315,13.9648,1676.2546],[-87.1319,13.9599,1689.666],[-87.1085,13.9539,1918.1998],[-87.0932,13.9459,1531.5569]]]]}}