{"type":"Feature","properties":{"GID_2":"HND.10.12_1","GID_0":"HND","country":"Honduras","GID_1":"HND.10_1","province":"Intibucá","NL_NAME_1":"NA","county":"SanIsidro","VARNAME_2":"NA","NL_NAME_2":"NA","TYPE_2":"Municipio","ENGTYPE_2":"Municipality","CC_2":"NA","HASC_2":"HN.CH.SI","name":"San_Isidro.county"},
"geometry":{"type": "MultiPolygon","coordinates": [[[[-88.1231,14.4951,1711.0897],[-88.1029,14.5162,1287.454],[-88.0918,14.5165,1090.3899],[-88.0896,14.5195,1144.6633],[-88.0841,14.5196,1156.4014],[-88.0781,14.5256,1084.1172],[-88.0767,14.5348,1048.1841],[-88.0643,14.5432,810.8896],[-88.0623,14.5495,772.5857],[-88.0582,14.5509,719.8511],[-88.0574,14.5558,656.4427],[-88.0554,14.5572,593.3944],[-88.0706,14.5631,642.6404],[-88.0731,14.5662,626.624],[-88.0746,14.5736,623.832],[-88.0825,14.5794,598.6202],[-88.0856,14.5861,645.5438],[-88.0952,14.5921,760.5699],[-88.0993,14.5965,830.5346],[-88.1096,14.5992,846.5676],[-88.1195,14.6063,902.5288],[-88.1258,14.6133,1017.0717],[-88.1263,14.6066,1080.9949],[-88.1337,14.6049,1147.6904],[-88.1399,14.5995,1144.746],[-88.155,14.593,1342.6846],[-88.1557,14.5849,1290.1339],[-88.1614,14.5801,1379.7991],[-88.1401,14.551,1504.3903],[-88.1534,14.5426,1680.1379],[-88.1539,14.5392,1715.8802],[-88.1561,14.5375,1867.1848],[-88.1515,14.5206,1739.6161],[-88.1527,14.5142,2008.4071],[-88.1502,14.4976,2152.5508],[-88.1442,14.488,2089.863],[-88.1231,14.4951,1711.0897]]]]}}