{"type":"Feature","properties":{"GID_2":"HND.3.2_1","GID_0":"HND","country":"Honduras","GID_1":"HND.3_1","province":"Colón","NL_NAME_1":"NA","county":"BonitoOriental","VARNAME_2":"NA","NL_NAME_2":"NA","TYPE_2":"Municipio","ENGTYPE_2":"Municipality","CC_2":"NA","HASC_2":"HN.CL.BO","name":"Bonito_Oriental.county"},
"geometry":{"type": "MultiPolygon","coordinates": [[[[-85.6327,15.6658,159.2638],[-85.6332,15.6812,170.9335],[-85.637,15.684,125.4459],[-85.6381,15.6921,159.5085],[-85.6452,15.6965,128.3709],[-85.6497,15.7038,154.4137],[-85.652,15.7162,138.7003],[-85.6572,15.7165,94.0017],[-85.6512,15.7219,181.8082],[-85.6427,15.7261,80.2543],[-85.6425,15.7279,58.398],[-85.6455,15.7318,45.1504],[-85.6406,15.7335,66.5306],[-85.6377,15.7365,46.451],[-85.6439,15.7382,40.5633],[-85.6451,15.7421,59.3854],[-85.6508,15.7448,32.368],[-85.6614,15.7451,95.2401],[-85.6622,15.7477,28.3398],[-85.6602,15.7514,53.6366],[-85.6633,15.7538,30.0897],[-85.6617,15.7572,112.9904],[-85.6678,15.7559,51.4058],[-85.6725,15.7586,35.334],[-85.6724,15.7661,28.3189],[-85.6754,15.7716,22.434],[-85.6677,15.7848,18.7289],[-85.67,15.7902,15.3351],[-85.6674,15.7979,11.2691],[-85.6698,15.8037,17.7305],[-85.6578,15.8161,10.0296],[-85.6566,15.8253,4.0939],[-85.6544,15.8287,4.0004],[-85.6473,15.8284,4.1815],[-85.64,15.8356,1.5802],[-85.6359,15.8362,4.2456],[-85.6343,15.8397,4.8087],[-85.6333,15.8363,2.8896],[-85.6264,15.8352,4.5299],[-85.6238,15.8376,3.2142],[-85.6206,15.8369,8.3706],[-85.613,15.8413,2.0739],[-85.6301,15.8534,3.2466],[-85.6323,15.8499,2.2454],[-85.6363,15.8514,4.6536],[-85.6433,15.85,6.2346],[-85.6467,15.8559,5.1074],[-85.6508,15.8514,6.0473],[-85.659,15.8514,6.0957],[-85.6604,15.8475,4.1957],[-85.6572,15.8422,11.8712],[-85.6567,15.8381,4.7542],[-85.6646,15.8391,12.3923],[-85.667,15.833,7.1139],[-85.6704,15.8379,7.2326],[-85.6764,15.8369,6.0876],[-85.6839,15.8447,10.6122],[-85.6945,15.8445,6.6045],[-85.7032,15.8483,14.9744],[-85.7049,15.8451,8.7271],[-85.701,15.844,10.6621],[-85.6952,15.8346,7.3388],[-85.6964,15.8324,7.5194],[-85.7,15.8316,9.2507],[-85.7047,15.835,11.997],[-85.7073,15.835,9.3609],[-85.7088,15.8312,8.1998],[-85.7063,15.8263,8.182],[-85.7125,15.8203,7.6491],[-85.7149,15.8204,8.4413],[-85.7165,15.8288,9.0536],[-85.7189,15.8213,9.8254],[-85.7227,15.8195,8.8911],[-85.7211,15.8275,11.8261],[-85.724,15.8307,14.0557],[-85.7269,15.8274,9.9061],[-85.728,15.8206,8.4869],[-85.7295,15.8198,9.1123],[-85.7351,15.8236,10.8341],[-85.7395,15.824,11.2588],[-85.7646,15.8218,15.1232],[-85.7659,15.8273,19.1809],[-85.7696,15.8281,15.9507],[-85.7711,15.8211,16.2074],[-85.7773,15.8198,10.8262],[-85.7795,15.8173,11.0831],[-85.7748,15.8138,12.1884],[-85.7732,15.8108,11.7073],[-85.7746,15.8092,12.1286],[-85.7795,15.8105,11.9298],[-85.7904,15.8177,14.0878],[-85.7958,15.8189,12.716],[-85.7969,15.8154,13.8972],[-85.7865,15.8105,16.2563],[-85.7854,15.8064,12.6127],[-85.7947,15.8084,18.2895],[-85.802,15.8021,12.748],[-85.8066,15.8006,15.4549],[-85.8123,15.8057,12.1596],[-85.8153,15.8063,11.876],[-85.8177,15.7973,17.0019],[-85.826,15.7903,17.9903],[-85.8248,15.78,21.2699],[-85.8325,15.7762,22.9931],[-85.8339,15.774,26.2351],[-85.8321,15.767,23.711],[-85.8353,15.766,21.2525],[-85.8409,15.7701,23.8172],[-85.8439,15.7698,21.6001],[-85.8427,15.767,19.9246],[-85.8442,15.7627,16.6534],[-85.8425,15.7626,18.9391],[-85.8431,15.7602,16.2949],[-85.8384,15.7604,16.5744],[-85.8455,15.7554,19.7024],[-85.8469,15.7478,25.0473],[-85.8452,15.7387,40.3205],[-85.8479,15.7332,49.9461],[-85.8494,15.7224,81.7749],[-85.8445,15.719,86.2614],[-85.8403,15.7203,142.4507],[-85.8384,15.7151,107.502],[-85.8367,15.7147,144.6884],[-85.8387,15.6914,198.4481],[-85.7959,15.6065,845.3563],[-85.7837,15.5702,1017.2196],[-85.7682,15.5738,965.1544],[-85.7649,15.576,991.1013],[-85.7632,15.5795,933.5016],[-85.7611,15.5795,899.5281],[-85.7552,15.5769,715.5705],[-85.7431,15.5626,721.8953],[-85.7338,15.5603,502.2509],[-85.7292,15.5609,526.5756],[-85.7231,15.5646,834.018],[-85.7185,15.5713,738.4501],[-85.7108,15.573,420.9897],[-85.6666,15.5975,606.8498],[-85.6272,15.6387,332.5457],[-85.6274,15.6416,390.8167],[-85.6307,15.6456,231.7328],[-85.6296,15.658,217.8646],[-85.6327,15.6658,159.2638]]]]}}