{"type":"Feature","properties":{"GID_2":"HND.18.1_1","GID_0":"HND","country":"Honduras","GID_1":"HND.18_1","province":"Yoro","NL_NAME_1":"NA","county":"Arenal","VARNAME_2":"NA","NL_NAME_2":"NA","TYPE_2":"Municipio","ENGTYPE_2":"Municipality","CC_2":"NA","HASC_2":"HN.YO.AR","name":"Arenal.county"},
"geometry":{"type": "MultiPolygon","coordinates": [[[[-86.8026,15.2876,553.2222],[-86.8006,15.2905,708.0638],[-86.8048,15.2941,819.5651],[-86.8052,15.2984,889.6274],[-86.8102,15.3026,888.4446],[-86.8112,15.3059,898.8492],[-86.8078,15.3116,992.5728],[-86.8064,15.3215,797.7685],[-86.8036,15.3243,687.0714],[-86.7966,15.327,795.2639],[-86.7974,15.3336,842.0786],[-86.7893,15.3311,556.5648],[-86.7843,15.3329,552.3134],[-86.7807,15.348,480.8246],[-86.7852,15.356,344.3755],[-86.7862,15.3687,244.3277],[-86.7814,15.3803,196.0059],[-86.7763,15.383,186.2328],[-86.7754,15.3761,193.016],[-86.7718,15.376,190.4312],[-86.7688,15.3785,189.1942],[-86.7644,15.3759,190.7307],[-86.7638,15.3786,190.9656],[-86.767,15.3818,186.9962],[-86.7656,15.3853,167.789],[-86.7597,15.3852,163.8077],[-86.7539,15.3903,164.0398],[-86.7464,15.3901,160.5296],[-86.7419,15.3952,159.4948],[-86.7365,15.3974,169.4444],[-86.7322,15.3972,154.5505],[-86.7328,15.4024,160.3195],[-86.7283,15.403,153.9368],[-86.7257,15.4069,155.0165],[-86.7234,15.4077,154.2735],[-86.7331,15.4167,159.8555],[-86.7442,15.4183,157.8899],[-86.7498,15.415,157.5219],[-86.7633,15.4135,164.3175],[-86.7678,15.4107,167.8554],[-86.772,15.4114,167.966],[-86.7763,15.4089,169.9326],[-86.7794,15.4089,170.6135],[-86.7804,15.4009,172.1076],[-86.7869,15.3908,182.938],[-86.7926,15.3923,179.5304],[-86.7985,15.3903,194.4761],[-86.8057,15.3939,179.7009],[-86.8136,15.391,182.5724],[-86.8192,15.3911,185.8415],[-86.8236,15.3876,209.1362],[-86.8297,15.3888,208.0156],[-86.8335,15.3929,194.7242],[-86.8532,15.389,220.8223],[-86.8565,15.3946,196.1381],[-86.8616,15.3948,205.9917],[-86.8664,15.3995,196.2602],[-86.8727,15.3966,199.7669],[-86.8788,15.3963,201.1767],[-86.8807,15.3943,202.0594],[-86.8925,15.3933,210.4077],[-86.8968,15.3909,210.3034],[-86.9058,15.3936,217.1938],[-86.9146,15.3884,214.1395],[-86.9191,15.383,229.9789],[-86.9251,15.3828,222.8121],[-86.9315,15.3798,236.2986],[-86.9445,15.3825,225.977],[-86.9505,15.3883,233.2751],[-86.9536,15.3838,236.1181],[-86.9613,15.3841,238.4049],[-86.9779,15.3758,439.2369],[-86.9742,15.3743,442.0587],[-86.9615,15.3758,424.3884],[-86.9544,15.358,818.8683],[-86.944,15.3517,801.8998],[-86.9429,15.3473,904.8486],[-86.92,15.3279,926.4757],[-86.9128,15.3232,914.1452],[-86.9034,15.3203,860.9438],[-86.9016,15.317,775.499],[-86.8901,15.3071,1064.2596],[-86.8881,15.3015,1024.3079],[-86.8824,15.2977,832.4548],[-86.8817,15.2956,771.0342],[-86.8588,15.286,1059.8137],[-86.8536,15.278,936.027],[-86.8439,15.2748,733.5668],[-86.8428,15.2765,791.9995],[-86.8409,15.2763,788.4229],[-86.8357,15.2729,522.2495],[-86.8239,15.2715,414.973],[-86.8194,15.2692,391.1669],[-86.818,15.273,350.4241],[-86.8138,15.2735,523.3768],[-86.8114,15.2766,587.2616],[-86.8082,15.2772,487.3599],[-86.8037,15.2833,295.8213],[-86.8026,15.2876,553.2222]]]]}}