{"type": "Feature","bbox": [-86.7634,14.3613,-86.5612,14.5887],"geometry": {"type": "MultiPolygon","coordinates": [[[[-86.5651,14.3613,909.6396],[-86.5652,14.3659,961.9728],[-86.5612,14.3788,857.6065],[-86.5668,14.4125,798.3845],[-86.5668,14.4231,770.8227],[-86.5697,14.4299,763.0508],[-86.5763,14.4386,767.2113],[-86.5777,14.4623,716.7358],[-86.5804,14.4675,759.1133],[-86.5814,14.4769,700.8607],[-86.5781,14.4816,683.9186],[-86.5779,14.4893,738.7343],[-86.572,14.5015,680.177],[-86.5696,14.5025,651.6498],[-86.5709,14.5077,653.7787],[-86.568,14.5081,631.5103],[-86.5656,14.5156,609.8855],[-86.5628,14.5184,652.234],[-86.564,14.5242,604.3785],[-86.5616,14.5277,647.3029],[-86.5614,14.5308,590.6238],[-86.568,14.5328,628.179],[-86.5756,14.5317,593.3026],[-86.5808,14.5354,570.3824],[-86.5803,14.5409,544.8369],[-86.5765,14.5485,527.1919],[-86.5819,14.5605,551.3916],[-86.5895,14.5679,643.6364],[-86.6049,14.5772,652.1029],[-86.6087,14.5852,628.4771],[-86.6171,14.5887,624.6957],[-86.6168,14.5826,639.229],[-86.6261,14.5793,631.2701],[-86.6329,14.5699,666.7924],[-86.6403,14.5697,691.9592],[-86.6572,14.5644,689.3081],[-86.6607,14.5648,698.0283],[-86.6649,14.5727,754.7585],[-86.6832,14.5823,986.5994],[-86.6932,14.5725,956.9866],[-86.7556,14.564,948.8056],[-86.7629,14.5355,1006.4804],[-86.7634,14.5209,967.2131],[-86.7563,14.4995,874.6084],[-86.7438,14.496,891.2599],[-86.7431,14.4802,941.0999],[-86.7475,14.4699,908.3829],[-86.7244,14.4239,929.2078],[-86.7242,14.4191,957.0182],[-86.7271,14.4119,906.9198],[-86.6921,14.4001,1043.36],[-86.6846,14.3993,1000.7686],[-86.6801,14.3917,1065.2036],[-86.6711,14.3886,1110.6565],[-86.6675,14.3894,1054.2123],[-86.6625,14.3991,1237.5326],[-86.6589,14.399,1261.2715],[-86.6552,14.3959,1222.8069],[-86.6491,14.3955,1222.4814],[-86.6469,14.3981,1170.7842],[-86.6443,14.3977,1151.6345],[-86.6417,14.3955,1169.2793],[-86.6399,14.3904,1171.5892],[-86.6285,14.3824,1108.8787],[-86.6278,14.3718,1166.4224],[-86.6224,14.3635,1225.8857],[-86.6152,14.3706,1183.4883],[-86.6114,14.3714,1170.7312],[-86.5651,14.3613,909.6396]]]]}
,"properties": {"GID_2": "HND.15.1_1","GID_0": "HND","country": "Honduras","GID_1": "HND.15_1","province": "Olancho","NL_NAME_1": "NA","county": "Campamento","VARNAME_2": "NA","NL_NAME_2": "NA","TYPE_2": "Municipio","ENGTYPE_2": "Municipality","CC_2": "NA","HASC_2": "HN.OL.CP","name": "Campamento.county","area_km2": 383.1047,"hist_schema_id": "Elevation0-9000","hist_area_km2": {"500": 1.8265,"525": 1.9291,"550": 2.4832,"575": 2.8527,"600": 3.7146,"625": 6.2799,"650": 10.446,"675": 15.228,"700": 16.378,"725": 17.1999,"750": 19.5818,"775": 21.9435,"800": 22.376,"825": 22.9311,"850": 23.1161,"875": 25.4565,"900": 26.0109,"925": 23.4038,"950": 21.1457,"975": 17.738,"1000": 14.864,"1025": 11.6821,"1050": 9.9784,"1075": 7.7614,"1100": 7.0224,"1125": 6.8171,"1150": 6.2016,"1175": 5.3392,"1200": 5.0106,"1225": 3.5116,"1250": 2.0329,"1275": 0.5955,"1300": 0.1643,"1325": 0.0821}}}