{"type": "Feature","bbox": [-88.0804,14.0359,-87.2337,15.049],"geometry": {"type": "MultiPolygon","coordinates": [[[[-87.6566,14.2523,640.1618],[-87.66,14.2582,643.1914],[-87.6619,14.2587,643.3396],[-87.6634,14.2534,647.0996],[-87.6692,14.2566,651.9731],[-87.674,14.2475,661.943],[-87.6764,14.2487,672.137],[-87.6762,14.253,671.6047],[-87.6831,14.248,687.571],[-87.6834,14.2527,677.8931],[-87.6861,14.255,702.1472],[-87.6883,14.2507,690.5024],[-87.6912,14.2506,701.6934],[-87.6934,14.2466,721.7956],[-87.6969,14.2467,754.8754],[-87.6979,14.2428,749.8641],[-87.7012,14.243,772.7488],[-87.7039,14.2399,786.6584],[-87.7104,14.2425,778.9447],[-87.7159,14.2421,868.6118],[-87.7204,14.2392,826.3179],[-87.7249,14.2396,1035.4319],[-87.7271,14.2364,958.8617],[-87.737,14.2349,1028.8776],[-87.7424,14.2257,1080.0565],[-87.756,14.2284,1109.7831],[-87.764,14.2238,1202.6704],[-87.7701,14.2254,1279.3644],[-87.7744,14.2231,1222.8605],[-87.7796,14.2319,1167.0972],[-87.8129,14.2172,1545.1199],[-87.8142,14.2228,1544.5043],[-87.8254,14.2169,1694.6394],[-87.829,14.2106,1793.7521],[-87.8216,14.2012,1786.9222],[-87.821,14.1882,1905.2449],[-87.7971,14.1799,1610.9563],[-87.7858,14.1783,1580.2429],[-87.7687,14.1516,1308.3219],[-87.7841,14.1421,1496.2129],[-87.784,14.1268,1401.5017],[-87.7594,14.1208,849.4103],[-87.7397,14.1202,873.9279],[-87.717,14.0839,703.9139],[-87.7013,14.0937,661.2979],[-87.6999,14.0875,676.88],[-87.6912,14.0715,568.0531],[-87.6915,14.0701,578.9532],[-87.6948,14.0695,604.8644],[-87.6947,14.0562,584.702],[-87.6976,14.0552,592.4783],[-87.6947,14.0526,575.9531],[-87.6948,14.0433,613.6146],[-87.6921,14.0419,584.452],[-87.695,14.0408,574.8369],[-87.6933,14.0359,560.4919],[-87.6849,14.0413,513.8777],[-87.6857,14.0448,523.5524],[-87.6832,14.0481,531.5263],[-87.6663,14.0617,694.593],[-87.6655,14.0683,621.478],[-87.6591,14.0746,654.5342],[-87.6526,14.077,737.3397],[-87.6425,14.0744,821.1254],[-87.6247,14.0753,1152.5905],[-87.6239,14.0807,1166.6206],[-87.6257,14.0975,1257.6489],[-87.6047,14.1205,1636.901],[-87.5989,14.1295,1623.3572],[-87.5893,14.1344,1451.5254],[-87.5521,14.1281,1002.4575],[-87.5095,14.1591,1431.9769],[-87.4888,14.169,1762.6973],[-87.4826,14.182,1875.4814],[-87.4834,14.1865,1826.0662],[-87.481,14.1896,1825.8418],[-87.4811,14.1926,1790.7676],[-87.4741,14.2023,1714.3624],[-87.4674,14.2036,1580.3577],[-87.4488,14.2123,1528.1874],[-87.4353,14.2121,1491.406],[-87.4351,14.2161,1484.292],[-87.4318,14.2159,1462.302],[-87.4337,14.2187,1461.0269],[-87.4302,14.2217,1435.9299],[-87.4356,14.2284,1443.8595],[-87.4271,14.2302,1281.3116],[-87.4247,14.232,1209.5353],[-87.4243,14.2347,1169.0],[-87.4367,14.237,1390.6843],[-87.4383,14.2383,1450.0112],[-87.438,14.2417,1300.9587],[-87.443,14.2424,1378.7994],[-87.4478,14.2462,1315.4562],[-87.4565,14.2481,1516.8301],[-87.4725,14.2581,1385.1603],[-87.4823,14.2828,1349.5818],[-87.4533,14.3272,1437.4108],[-87.4488,14.3306,1409.2249],[-87.4401,14.3316,1415.6962],[-87.4304,14.3362,1309.6665],[-87.419,14.3385,1323.8151],[-87.4161,14.3424,1321.8121],[-87.4022,14.3776,1633.379],[-87.3992,14.3859,1559.5146],[-87.3991,14.3909,1678.7834],[-87.4063,14.3937,1721.0131],[-87.4104,14.4068,1721.2168],[-87.4201,14.4073,1672.2262],[-87.4333,14.4105,1741.6672],[-87.4327,14.4133,1722.9664],[-87.4218,14.4161,1678.6671],[-87.4173,14.4207,1772.6306],[-87.4183,14.4309,1638.4027],[-87.4172,14.4391,1453.0159],[-87.4303,14.4395,1511.2251],[-87.4358,14.4475,1517.7827],[-87.4448,14.4491,1611.0454],[-87.4541,14.4595,1565.1344],[-87.4681,14.462,1705.2526],[-87.484,14.5077,1549.3229],[-87.4353,14.5496,980.7286],[-87.4338,14.5542,867.0294],[-87.4275,14.5611,863.597],[-87.4239,14.5616,792.3469],[-87.4234,14.5671,799.6475],[-87.4268,14.5724,756.1327],[-87.4247,14.5751,747.3945],[-87.4261,14.5783,734.567],[-87.4223,14.5831,750.6569],[-87.4189,14.5946,758.0895],[-87.4213,14.6075,751.8474],[-87.4143,14.6101,711.1245],[-87.4078,14.6061,686.2991],[-87.3978,14.605,800.0287],[-87.3943,14.6028,830.192],[-87.3825,14.6055,741.884],[-87.382,14.5997,873.9591],[-87.3745,14.5955,748.6057],[-87.3668,14.5968,707.8884],[-87.3641,14.5954,700.4657],[-87.3531,14.5964,714.5004],[-87.3542,14.6,717.9797],[-87.35,14.6046,658.5302],[-87.3522,14.6144,610.3904],[-87.3477,14.6217,672.3069],[-87.3435,14.6221,652.5099],[-87.3437,14.6246,643.9045],[-87.3481,14.6282,629.1085],[-87.3449,14.6299,608.1949],[-87.3417,14.6347,668.5898],[-87.3422,14.6426,712.7902],[-87.3469,14.6519,761.5837],[-87.3455,14.6567,745.5897],[-87.3435,14.658,703.8002],[-87.34,14.6573,685.4453],[-87.339,14.6512,770.5661],[-87.3316,14.6517,677.285],[-87.3301,14.6544,600.7823],[-87.3358,14.6592,669.867],[-87.3343,14.6674,617.2278],[-87.329,14.666,553.1046],[-87.3235,14.6673,547.2832],[-87.3193,14.6701,604.1554],[-87.315,14.6759,542.3024],[-87.3087,14.6779,533.0267],[-87.3102,14.6834,546.7548],[-87.3049,14.6812,533.5626],[-87.3015,14.6817,529.8844],[-87.2967,14.6834,529.407],[-87.2962,14.6881,528.0523],[-87.2865,14.6909,527.1375],[-87.2918,14.698,531.1063],[-87.2872,14.7018,528.9648],[-87.2894,14.7061,536.3403],[-87.2868,14.7126,543.3119],[-87.2889,14.716,561.8699],[-87.2773,14.7173,627.3738],[-87.2761,14.7221,622.9888],[-87.277,14.7283,674.994],[-87.2713,14.7346,610.4224],[-87.2721,14.7419,576.7155],[-87.2702,14.7464,595.642],[-87.2722,14.7503,588.3392],[-87.2711,14.7551,603.1227],[-87.2749,14.7588,681.1117],[-87.2728,14.764,672.7258],[-87.2725,14.7763,716.9432],[-87.277,14.7845,811.0063],[-87.2812,14.7879,869.6922],[-87.2828,14.798,756.8303],[-87.2883,14.8009,907.9675],[-87.2846,14.8171,731.3971],[-87.2789,14.8197,769.5599],[-87.2789,14.8252,750.6701],[-87.2748,14.8304,810.4474],[-87.2685,14.8349,745.0141],[-87.2586,14.8353,571.6556],[-87.2502,14.8332,733.6595],[-87.2377,14.8364,621.662],[-87.2347,14.8407,520.7189],[-87.2337,14.8474,556.896],[-87.2357,14.8528,709.6992],[-87.2408,14.8591,715.7786],[-87.2474,14.8597,789.7184],[-87.246,14.8647,704.5453],[-87.2406,14.8678,675.9104],[-87.2412,14.8732,763.7795],[-87.2556,14.8758,833.9138],[-87.2681,14.8845,805.8986],[-87.2778,14.8865,673.8636],[-87.2805,14.8904,685.772],[-87.2899,14.8948,764.7623],[-87.2983,14.9068,675.9628],[-87.2987,14.9103,567.5809],[-87.3021,14.9122,479.4944],[-87.3127,14.911,643.0775],[-87.3185,14.9004,995.718],[-87.3231,14.8985,1009.738],[-87.3271,14.9047,841.5023],[-87.3313,14.9067,780.2535],[-87.3371,14.916,729.7333],[-87.3429,14.912,799.6007],[-87.3473,14.9149,823.03],[-87.356,14.913,877.1754],[-87.367,14.9143,861.609],[-87.3799,14.9208,393.7086],[-87.3803,14.9238,408.2076],[-87.383,14.9248,376.22],[-87.388,14.922,343.2999],[-87.3988,14.9215,330.55],[-87.412,14.9076,323.5785],[-87.4213,14.9011,363.4004],[-87.4254,14.8931,435.7883],[-87.4335,14.8946,480.9532],[-87.4354,14.8924,447.1631],[-87.4476,14.8885,355.6462],[-87.4551,14.8931,362.0761],[-87.458,14.8913,413.2516],[-87.4605,14.894,382.8344],[-87.4705,14.8939,568.6578],[-87.4719,14.8976,383.3066],[-87.475,14.8998,386.8607],[-87.473,14.9105,488.2781],[-87.4765,14.9115,543.8745],[-87.4778,14.9136,551.585],[-87.4769,14.917,503.5177],[-87.4723,14.9205,484.4678],[-87.4722,14.9223,513.6388],[-87.4787,14.925,634.9698],[-87.4827,14.9323,614.3966],[-87.4787,14.9403,414.9771],[-87.4821,14.9506,548.8523],[-87.4811,14.9577,432.3865],[-87.4894,14.9563,621.1443],[-87.4934,14.9571,797.704],[-87.4936,14.9605,670.0676],[-87.4908,14.9637,627.4254],[-87.4913,14.9659,515.1226],[-87.496,14.9665,568.1305],[-87.5004,14.9648,685.5116],[-87.5033,14.9688,611.4978],[-87.5097,14.9717,685.7585],[-87.5101,14.9786,466.1701],[-87.517,14.9843,598.476],[-87.5161,14.9948,449.6889],[-87.5179,15.0015,486.5987],[-87.5143,15.006,384.3882],[-87.5187,15.0167,512.225],[-87.5272,15.0262,576.1018],[-87.5294,15.0331,628.9931],[-87.5359,15.0384,720.0977],[-87.5415,15.0386,578.8653],[-87.5477,15.0468,427.7317],[-87.5515,15.049,333.0274],[-87.5609,15.0442,401.3351],[-87.5709,15.0452,269.0],[-87.5734,15.0407,269.0],[-87.5784,15.038,269.0],[-87.5809,15.0316,269.0],[-87.5879,15.0335,269.0],[-87.5906,15.0313,269.0],[-87.5957,15.0315,350.6355],[-87.5968,15.0297,282.702],[-87.5898,15.0225,269.0],[-87.591,15.0193,269.0],[-87.5943,15.0176,269.0],[-87.6154,15.0155,269.0],[-87.6175,15.0109,269.0],[-87.6259,15.0023,289.4889],[-87.6305,15.0038,269.0],[-87.6412,15.015,269.0],[-87.6505,15.0146,269.0],[-87.6542,15.0106,378.3453],[-87.6586,15.0127,269.0],[-87.6663,15.0113,404.2811],[-87.6742,15.0163,269.0],[-87.6775,15.0117,277.3569],[-87.6788,15.0115,277.3569],[-87.6816,15.0126,269.0],[-87.6921,15.0059,302.7082],[-87.697,15.0096,269.0],[-87.7049,15.0032,392.7455],[-87.713,15.0051,277.8495],[-87.7284,15.0007,398.0661],[-87.7433,15.0045,269.0],[-87.7452,14.9963,269.0],[-87.7429,14.9917,269.0],[-87.7457,14.9852,269.0],[-87.7444,14.9796,368.5551],[-87.7385,14.9782,269.0],[-87.736,14.9699,269.0],[-87.7391,14.9643,269.0],[-87.7384,14.9593,269.0],[-87.7505,14.9448,355.555],[-87.7558,14.9447,371.4093],[-87.7637,14.9394,433.86],[-87.7792,14.9362,440.5879],[-87.7844,14.9296,283.4194],[-87.7848,14.9194,362.5829],[-87.7989,14.9233,313.1429],[-87.7986,14.9183,557.1672],[-87.8009,14.911,531.4283],[-87.8088,14.9051,490.2668],[-87.8139,14.9087,394.5727],[-87.8169,14.9015,430.9538],[-87.8242,14.9017,512.4789],[-87.824,14.8983,477.4915],[-87.8267,14.8963,520.8198],[-87.8326,14.8974,436.8397],[-87.8344,14.8951,488.9683],[-87.8401,14.896,504.6919],[-87.845,14.893,533.5613],[-87.8491,14.8857,583.921],[-87.8538,14.8837,592.6083],[-87.8526,14.8777,736.1087],[-87.8584,14.8756,678.5452],[-87.8712,14.8663,850.4233],[-87.8763,14.8563,1222.6825],[-87.9053,14.8349,1220.2596],[-87.9664,14.7975,825.5195],[-87.976,14.7856,657.8392],[-87.9892,14.7851,698.9485],[-87.9972,14.7752,1038.0447],[-88.0218,14.7519,1050.0786],[-88.0422,14.7437,897.6237],[-88.0793,14.7036,438.1068],[-88.0804,14.7006,436.5604],[-88.0797,14.6964,468.7823],[-88.0684,14.6942,690.3202],[-88.0526,14.6723,937.0468],[-88.0501,14.6668,1042.1016],[-88.0734,14.6472,559.0668],[-88.0658,14.6401,443.3742],[-88.0634,14.6302,464.1466],[-88.0583,14.6231,431.9584],[-88.0384,14.6256,601.1574],[-88.0126,14.6169,882.6598],[-87.9858,14.6114,895.4387],[-87.9767,14.6013,1147.2302],[-87.9731,14.6014,1241.8452],[-87.973,14.6043,1134.4828],[-87.9713,14.6033,1197.7916],[-87.9661,14.6047,995.4443],[-87.9609,14.6015,1054.611],[-87.9557,14.6021,983.3676],[-87.953,14.6005,1004.5354],[-87.9536,14.5853,1301.7539],[-87.9502,14.5834,1374.229],[-87.9484,14.5786,1432.6191],[-87.9426,14.5728,1365.2252],[-87.9425,14.5581,1493.4664],[-87.9351,14.5332,1679.5525],[-87.9331,14.5312,1726.7776],[-87.9238,14.5323,1790.7301],[-87.8966,14.5211,1898.6826],[-87.8921,14.5108,1856.8845],[-87.8928,14.5058,1962.9979],[-87.8967,14.5006,2001.2869],[-87.8964,14.4956,2065.4888],[-87.8937,14.4897,1912.3141],[-87.8816,14.4833,2143.3027],[-87.8779,14.4781,2005.8677],[-87.8759,14.4705,2065.175],[-87.8605,14.4519,2092.0938],[-87.8521,14.4451,2366.3767],[-87.8514,14.4407,2340.0193],[-87.8443,14.4371,2162.5154],[-87.8433,14.4279,2030.9314],[-87.8398,14.4216,1821.1219],[-87.8484,14.415,1888.6617],[-87.8379,14.4021,2101.9126],[-87.8383,14.3982,2097.6987],[-87.8309,14.3832,2037.5879],[-87.8103,14.3841,2082.0889],[-87.7998,14.3806,2044.3901],[-87.7882,14.3807,1764.4835],[-87.7864,14.3707,1801.2407],[-87.7814,14.3626,1936.9663],[-87.777,14.3633,1857.4423],[-87.7549,14.3609,1450.3479],[-87.7352,14.3501,1281.7222],[-87.7255,14.3472,1293.8536],[-87.7157,14.3478,1200.5244],[-87.7049,14.3381,784.5198],[-87.6859,14.3511,618.3604],[-87.6787,14.3534,604.9352],[-87.6728,14.358,596.1525],[-87.6696,14.3581,594.8544],[-87.6679,14.3605,590.6815],[-87.6653,14.3584,592.2629],[-87.6625,14.3636,585.4465],[-87.6606,14.361,585.1799],[-87.6556,14.3595,584.5455],[-87.6526,14.3637,581.0635],[-87.6549,14.3526,588.6243],[-87.6518,14.3524,585.6461],[-87.6504,14.3481,588.4893],[-87.6474,14.3464,589.6221],[-87.6486,14.3439,591.8217],[-87.6468,14.3428,592.5161],[-87.6479,14.337,598.7963],[-87.6456,14.3328,601.7667],[-87.6421,14.3324,590.4007],[-87.6476,14.3222,612.156],[-87.6452,14.3175,613.923],[-87.6467,14.3149,618.4193],[-87.6434,14.314,612.4207],[-87.6447,14.307,620.6775],[-87.6348,14.3032,595.2521],[-87.6375,14.2978,602.7888],[-87.6416,14.2976,608.3695],[-87.6432,14.2939,619.1608],[-87.6421,14.2919,615.8587],[-87.6386,14.2927,611.5127],[-87.6395,14.2903,613.7903],[-87.6373,14.2877,616.4321],[-87.6374,14.2823,605.8688],[-87.6335,14.2751,625.1917],[-87.6349,14.2741,615.9615],[-87.6379,14.2763,606.6274],[-87.6392,14.2695,609.4689],[-87.6416,14.2669,616.4272],[-87.6443,14.2667,610.5579],[-87.6459,14.2692,618.1454],[-87.6482,14.2695,630.8049],[-87.6454,14.2586,629.1086],[-87.6504,14.2545,620.9799],[-87.6566,14.2523,640.1618]]]]}
,"properties": {"GID_1": "HND.4_1","GID_0": "HND","country": "Honduras","province": "Comayagua","VARNAME_1": "NA","NL_NAME_1": "NA","TYPE_1": "Departamento","ENGTYPE_1": "Department","CC_1": "NA","HASC_1": "HN.CM","ISO_1": "HN-CM","name": "Comayagua.province","area_km2": 4944.773,"hist_schema_id": "Elevation0-9000","hist_area_km2": {"275": 44.841,"300": 13.809,"325": 23.256,"350": 28.587,"375": 40.15,"400": 58.647,"425": 62.214,"450": 67.913,"475": 74.921,"500": 75.991,"525": 85.083,"550": 108.732,"575": 156.458,"600": 159.473,"625": 170.285,"650": 160.877,"675": 144.47,"700": 146.206,"725": 146.113,"750": 139.106,"775": 133.506,"800": 129.07,"825": 126.919,"850": 122.572,"875": 117.351,"900": 116.583,"925": 114.306,"950": 118.428,"975": 115.99,"1000": 113.823,"1025": 111.049,"1050": 104.669,"1075": 108.461,"1100": 105.77,"1125": 108.438,"1150": 105.378,"1175": 96.662,"1200": 85.973,"1225": 81.173,"1250": 73.973,"1275": 66.649,"1300": 62.361,"1325": 55.101,"1350": 49.273,"1375": 44.984,"1400": 38.687,"1425": 38.32,"1450": 40.987,"1475": 37.829,"1500": 32.616,"1525": 31.22,"1550": 31.139,"1575": 28.924,"1600": 25.578,"1625": 22.355,"1650": 21.844,"1675": 19.668,"1700": 18.415,"1725": 17.86,"1750": 15.295,"1775": 13.919,"1800": 12.461,"1825": 12.071,"1850": 11.599,"1875": 10.531,"1900": 11.044,"1925": 9.916,"1950": 9.135,"1975": 8.54,"2000": 8.027,"2025": 6.364,"2050": 5.584,"2075": 4.763,"2100": 3.901,"2125": 3.942,"2150": 3.182,"2175": 3.223,"2200": 2.525,"2225": 2.258,"2250": 1.766,"2275": 1.293,"2300": 1.211,"2325": 0.698,"2350": 0.328,"2375": 0.123,"2400": 0.041}}}