{"type": "Feature","id": "646","bbox": [-88.07787,14.05103,-87.20834,15.05763],"geometry": {"type": "Polygon","coordinates": [[[-87.41864,14.90855,322.4403],[-87.43357,14.90875,424.175],[-87.44427,14.91087,453.9313],[-87.44944,14.91392,405.5911],[-87.45202,14.91645,414.9927],[-87.45202,14.91878,381.8047],[-87.45171,14.92136,437.3918],[-87.45179,14.92374,409.8042],[-87.45455,14.92994,349.7661],[-87.45564,14.93428,315.4602],[-87.45874,14.94136,353.7142],[-87.46013,14.94699,436.1032],[-87.46026,14.95165,420.7041],[-87.45944,14.961,302.4788],[-87.46068,14.96591,309.4848],[-87.46375,14.97201,290.6718],[-87.4691,14.97459,306.4174],[-87.47318,14.98022,295.3869],[-87.47714,14.9826,420.5047],[-87.48667,14.9858,430.6896],[-87.4916,14.98927,410.9177],[-87.49644,14.99345,420.6366],[-87.49866,14.99717,394.7638],[-87.50047,15.00157,280.4625],[-87.50323,15.01386,269.5],[-87.50641,15.02265,269.0],[-87.51685,15.03769,269.0],[-87.52473,15.04549,269.0],[-87.53757,15.05407,269.0],[-87.54359,15.0565,269.0],[-87.54827,15.05763,289.185],[-87.55134,15.05701,269.0],[-87.55473,15.05562,269.0],[-87.58387,15.03474,269.0],[-87.58741,15.02627,269.0],[-87.63118,15.0166,269.0],[-87.64235,15.01795,269.0],[-87.73588,15.01655,269.0],[-87.7358,14.98379,269.0],[-87.74069,14.9625,269.0],[-87.75722,14.94793,269.0],[-87.80259,14.91552,418.243],[-87.82146,14.90658,426.1625],[-87.84368,14.90142,453.486],[-87.84742,14.89883,504.0154],[-87.86944,14.87682,894.5566],[-87.88367,14.85821,1269.5774],[-87.96297,14.80354,810.575],[-87.97367,14.81047,634.0],[-87.98028,14.82013,634.0],[-87.98581,14.83641,634.0],[-87.98705,14.79259,636.739],[-88.02253,14.78628,886.9765],[-88.05297,14.75538,650.0319],[-88.05842,14.75197,665.5175],[-88.06981,14.74721,646.9538],[-88.07477,14.74246,623.8753],[-88.07733,14.73522,716.3812],[-88.07787,14.72138,440.0581],[-88.0716,14.71089,363.4036],[-88.06224,14.68562,859.118],[-88.07495,14.66484,356.2028],[-88.06131,14.6465,599.6131],[-88.05614,14.64417,594.0258],[-88.04622,14.64117,516.1033],[-88.03873,14.6403,614.0807],[-88.00421,14.63156,1068.9172],[-87.98734,14.61947,918.2881],[-87.96915,14.61306,942.138],[-87.95977,14.60092,1054.611],[-87.9516,14.58588,1367.4762],[-87.95065,14.58216,1374.229],[-87.94964,14.57182,1514.2163],[-87.94737,14.56536,1465.2583],[-87.94098,14.55307,1495.1119],[-87.93326,14.54692,1632.1321],[-87.90902,14.53524,1983.7577],[-87.90269,14.53028,2035.8359],[-87.89905,14.52599,1982.4697],[-87.89876,14.51591,1969.098],[-87.89975,14.50651,2035.1609],[-87.88794,14.49555,1984.1405],[-87.85582,14.45597,2170.5625],[-87.84822,14.44175,2362.6479],[-87.84778,14.43819,2186.2947],[-87.84815,14.43509,2274.4221],[-87.849,14.43281,2264.8423],[-87.85311,14.42909,2140.6511],[-87.84288,14.41431,2108.1831],[-87.82913,14.40036,2188.8608],[-87.78955,14.38987,1883.4502],[-87.78874,14.38786,1849.8463],[-87.77944,14.37835,1706.6125],[-87.77652,14.37721,1686.3091],[-87.74603,14.37127,1252.6649],[-87.73526,14.36564,1213.1503],[-87.71498,14.3585,922.8018],[-87.70431,14.35773,758.4445],[-87.69611,14.35545,636.5468],[-87.65116,14.37344,566.9936],[-87.64658,14.36982,571.8524],[-87.63446,14.34419,590.1146],[-87.63165,14.33639,579.834],[-87.62819,14.31706,600.3163],[-87.63493,14.30636,597.1573],[-87.62664,14.29856,599.8746],[-87.62994,14.28564,601.8152],[-87.63948,14.2737,609.623],[-87.6441,14.2704,611.5296],[-87.65291,14.26693,619.7913],[-87.66865,14.26363,644.4301],[-87.68374,14.26569,661.3309],[-87.69684,14.25608,697.1078],[-87.70609,14.25174,712.6526],[-87.72766,14.24414,942.2812],[-87.74007,14.2412,945.3878],[-87.75585,14.23898,998.8371],[-87.77585,14.24063,1212.2488],[-87.81324,14.23169,1586.5615],[-87.8191,14.23407,1624.2263],[-87.82071,14.23417,1596.465],[-87.8236,14.23365,1652.0226],[-87.82577,14.23221,1650.1887],[-87.82872,14.22528,1634.4886],[-87.82564,14.20554,1830.701],[-87.79112,14.19138,1345.5613],[-87.77712,14.17536,1355.1992],[-87.78208,14.15965,1473.6621],[-87.78433,14.15562,1492.9192],[-87.7858,14.15056,1584.3494],[-87.78456,14.14668,1566.6021],[-87.78097,14.14312,1444.3059],[-87.76428,14.13692,1002.2976],[-87.75412,14.13495,1055.6443],[-87.74278,14.13066,1126.8635],[-87.73193,14.12441,867.708],[-87.7143,14.10979,692.1153],[-87.70369,14.1042,787.0079],[-87.69658,14.09516,719.0895],[-87.69069,14.08477,626.8564],[-87.68963,14.05103,522.4519],[-87.66361,14.07573,710.0828],[-87.65061,14.08503,716.3703],[-87.61524,14.08849,1467.3125],[-87.61434,14.10911,1561.3735],[-87.59343,14.13376,1453.2103],[-87.58571,14.14033,1306.3157],[-87.57953,14.14353,1201.1255],[-87.57331,14.14332,1247.4354],[-87.54121,14.14679,1008.1803],[-87.51259,14.1596,1430.1278],[-87.50067,14.16673,1561.882],[-87.49427,14.17443,1724.5151],[-87.49354,14.17986,1782.7699],[-87.48295,14.2011,1822.8146],[-87.46321,14.21319,1616.0828],[-87.43709,14.21887,1478.5916],[-87.42964,14.22275,1433.2108],[-87.42546,14.22905,1241.2491],[-87.42569,14.23495,1169.0],[-87.42693,14.23934,1196.2192],[-87.42988,14.24554,1245.8057],[-87.4314,14.24735,1258.4279],[-87.43373,14.24864,1174.8926],[-87.43706,14.24967,1310.7355],[-87.44042,14.25122,1372.7716],[-87.44492,14.25422,1297.1211],[-87.4506,14.25934,1330.8201],[-87.45657,14.26574,1483.5027],[-87.45988,14.27179,1461.948],[-87.46205,14.28218,1392.2815],[-87.46385,14.32161,1295.0303],[-87.46207,14.33225,1290.418],[-87.45928,14.33804,1324.0931],[-87.45471,14.3399,1312.1418],[-87.45013,14.34011,1401.3196],[-87.44435,14.33918,1374.9436],[-87.43205,14.33329,1412.0862],[-87.42455,14.33602,1303.0713],[-87.41941,14.33949,1292.7756],[-87.39319,14.37401,1631.8693],[-87.38275,14.3953,1668.0852],[-87.38626,14.40264,1763.0654],[-87.41068,14.42114,1678.7766],[-87.41236,14.42382,1637.4445],[-87.41319,14.42703,1692.5515],[-87.40985,14.42982,1759.6595],[-87.40737,14.43395,1532.1152],[-87.40696,14.44356,1411.8997],[-87.40897,14.44821,1345.0099],[-87.41189,14.45193,1415.5269],[-87.43523,14.47209,1669.3489],[-87.45106,14.48237,1415.597],[-87.45634,14.48961,1300.2728],[-87.4605,14.49896,1553.5226],[-87.463,14.50682,1555.4745],[-87.46592,14.52221,1428.7906],[-87.41505,14.57151,738.4638],[-87.40603,14.58955,715.6271],[-87.40536,14.59456,723.9545],[-87.40404,14.60009,669.3185],[-87.40342,14.60588,665.8693],[-87.40373,14.62071,656.4392],[-87.40197,14.62469,712.6624],[-87.39869,14.62676,728.6864],[-87.3952,14.6265,788.52],[-87.39063,14.6249,786.6521],[-87.38637,14.62262,708.5729],[-87.38192,14.62081,714.3287],[-87.37774,14.61988,676.3529],[-87.37417,14.61973,688.7511],[-87.37112,14.61988,609.6445],[-87.36838,14.61957,611.8898],[-87.36699,14.61802,586.5393],[-87.3659,14.61394,584.4945],[-87.36456,14.61203,581.0457],[-87.3613,14.61053,592.6646],[-87.35727,14.60924,631.2463],[-87.35322,14.60841,598.619],[-87.34213,14.60779,579.4715],[-87.32714,14.63353,570.9421],[-87.32348,14.64727,558.6903],[-87.3235,14.6527,553.4633],[-87.32417,14.65843,593.7311],[-87.32583,14.66598,572.1918],[-87.32505,14.6696,586.5001],[-87.32366,14.67063,589.8704],[-87.32211,14.6696,591.8768],[-87.32056,14.66794,584.3169],[-87.31867,14.6666,540.1587],[-87.31505,14.66763,563.1162],[-87.31381,14.67027,565.4377],[-87.31335,14.67642,542.3024],[-87.31226,14.67926,563.3431],[-87.31001,14.6806,541.8999],[-87.30629,14.68107,533.5626],[-87.30074,14.68288,529.731],[-87.29198,14.68934,527.5543],[-87.28875,14.69068,527.2995],[-87.28511,14.69161,523.8495],[-87.2804,14.69337,529.963],[-87.27552,14.69574,522.1328],[-87.2681,14.70076,520.4589],[-87.26609,14.70313,537.3613],[-87.26601,14.70505,552.7657],[-87.26702,14.70654,582.1653],[-87.26624,14.71083,519.4467],[-87.25542,14.73833,514.3991],[-87.24945,14.76184,519.8899],[-87.25361,14.79574,548.9152],[-87.25821,14.81129,628.2161],[-87.25725,14.8269,645.2509],[-87.25449,14.83661,473.0418],[-87.25136,14.84178,472.925],[-87.24836,14.84457,559.6659],[-87.24544,14.8455,514.9231],[-87.22454,14.84747,616.9546],[-87.20834,14.85946,466.6724],[-87.21826,14.87429,446.624],[-87.21943,14.88147,504.8999],[-87.22467,14.88695,426.3755],[-87.22839,14.89,421.9187],[-87.24581,14.89775,420.8239],[-87.27268,14.92126,400.277],[-87.27901,14.92302,457.6372],[-87.28524,14.92421,439.2956],[-87.29175,14.91831,433.8257],[-87.2972,14.91666,502.5378],[-87.30286,14.91955,449.51],[-87.31056,14.92581,392.3782],[-87.3149,14.92798,489.9788],[-87.35066,14.93728,582.8707],[-87.37469,14.93883,362.7159],[-87.39407,14.92085,330.7506],[-87.41864,14.90855,322.4403]]]}
,"properties": {"ISO3166-1-Alpha-3": "HND","country": "Honduras","fill": "#F0F","name": "Comayagua","area_km2": 5120.637,"hist_schema_id": "Elevation0-9000","hist_area_km2": {"275": 62.309,"300": 18.827,"325": 29.668,"350": 35.347,"375": 46.315,"400": 64.914,"425": 70.183,"450": 75.37,"475": 82.255,"500": 82.34,"525": 93.892,"550": 115.409,"575": 157.444,"600": 157.4,"625": 180.508,"650": 169.176,"675": 153.014,"700": 152.515,"725": 151.52,"750": 144.802,"775": 138.586,"800": 133.844,"825": 129.601,"850": 124.722,"875": 118.967,"900": 117.441,"925": 114.876,"950": 119.512,"975": 116.519,"1000": 113.695,"1025": 110.779,"1050": 103.967,"1075": 108.232,"1100": 106.385,"1125": 107.985,"1150": 105.726,"1175": 97.071,"1200": 86.383,"1225": 81.173,"1250": 74.26,"1275": 67.43,"1300": 63.779,"1325": 56.457,"1350": 50.957,"1375": 47.592,"1400": 41.295,"1425": 40.25,"1450": 42.464,"1475": 39.388,"1500": 33.683,"1525": 33.068,"1550": 32.884,"1575": 30.977,"1600": 27.466,"1625": 24.737,"1650": 24.657,"1675": 21.988,"1700": 20.058,"1725": 18.599,"1750": 15.212,"1775": 13.548,"1800": 11.824,"1825": 11.536,"1850": 10.941,"1875": 10.264,"1900": 10.551,"1925": 9.566,"1950": 8.909,"1975": 7.883,"2000": 7.103,"2025": 5.173,"2050": 4.496,"2075": 3.634,"2100": 2.895,"2125": 3.182,"2150": 2.545,"2175": 2.546,"2200": 1.786,"2225": 1.786,"2250": 1.273,"2275": 1.211,"2300": 1.17,"2325": 0.657,"2350": 0.205,"2375": 0.062}}}