{"type":"Feature","properties":{"featurecla":"River","scalerank":11,"rivernum":22184,"dissolve":"22184River","name":"null981","name_alt":null,"note":"ID is link back to CEC data","name_full":null,"min_zoom":6.7,"strokeweig":0.2,"uident":2172401,"min_label":7.7},
"geometry":{"type": "LineString","coordinates": [[-87.6803279287704,15.074164129681535,583.1073],[-87.686594204812067,15.031113999473206,471.4871],[-87.677113410541224,15.017442124473206,269.0],[-87.642323371478724,15.017930405723206,269.0],[-87.631214973041224,15.016628322389877,269.0],[-87.587391730853724,15.026231186973206,269.0],[-87.583851691791224,15.034735418744035,269.0],[-87.554758267312067,15.055609442181535,269.0],[-87.551340298562067,15.056992905723206,269.0],[-87.5482478506454,15.057643947389877,289.185],[-87.543568488666224,15.056463934369035,269.0],[-87.537587043353724,15.054063218223206,269.0],[-87.524728970437067,15.045477606244035,269.0],[-87.516835090228724,15.037665106244035,269.0],[-87.506418423562067,15.022650457806535,269.0],[-87.503244595437067,15.013861395306535,269.5],[-87.500477668353724,15.001532293744035,280.4625],[-87.498646613666224,14.997178452598206,394.7638],[-87.496449348041224,14.993475653119035,420.6366],[-87.4916072256454,14.989284572389877,410.9177],[-87.486683723041224,14.985785223431535,430.6896],[-87.477162238666224,14.982611395306535,420.5047],[-87.473215298562067,14.980251369264877,295.3869],[-87.469105598041224,14.974636134889877,306.4174],[-87.463734504291224,14.971991278119035,290.6718],[-87.460682746478724,14.965887762494035,309.4848],[-87.459462043353724,14.961004949994035,302.4788],[-87.460275845437067,14.951686916139877,420.7041],[-87.4601130850204,14.946966864056535,436.1032],[-87.458729621478724,14.941351629681535,353.7142],[-87.455637173562067,14.934271551556535,315.4602],[-87.454579230853724,14.929958400514877,349.7661],[-87.451771613666224,14.923773504681535,385.9324],[-87.451730923562067,14.921332098431535,437.3918],[-87.452015754291224,14.918768621869035,381.8047],[-87.452015754291224,14.916449285931535,414.9927],[-87.449452277728724,14.913926499473206,405.5911],[-87.4442439443954,14.910915431764877,453.9313],[-87.433583137103724,14.908758856244035,349.6516],[-87.4186091787704,14.908514715619035,322.4403],[-87.394032355853724,14.920843817181535,330.7506],[-87.3746638662704,14.938828843223206,362.7159],[-87.350656704812067,14.937282619264877,582.8707],[-87.314930793353724,14.928005275514877,489.9788],[-87.310536262103724,14.925808009889877,392.3782],[-87.302845832416224,14.919541733848206,449.51],[-87.297230598041224,14.916693426556535,502.5378],[-87.291737433978724,14.918280340619035,433.8257],[-87.285267707416224,14.924180405723206,439.2956],[-87.279042121478724,14.923041082806535,457.6372],[-87.272694465228724,14.921250718223206,400.277],[-87.245838996478724,14.897772528119035,420.8239],[-87.228382941791224,14.890000718223206,421.9187],[-87.224680142312067,14.886989650514877,426.3755],[-87.2193904287704,14.881455796348206,504.8999],[-87.218251105853724,14.874294338014877,446.624],[-87.208363410541224,14.859442449994035,466.6724],[-87.2245173818954,14.847479559369035,616.9546],[-87.216297980853724,14.828192449994035,802.9921],[-87.217355923562067,14.788682358848206,853.5411],[-87.200917121478724,14.716823634889877,546.3126],[-87.261341926166224,14.672715561973206,654.5525],[-87.285023566791224,14.636175848431535,890.3656],[-87.285755988666224,14.606512762494035,931.9382]]}}