{"type": "Feature","bbox": [-86.4547,15.5367,-86.0942,15.7512],"geometry": {"type": "MultiPolygon","coordinates": [[[[-86.4547,15.5733,496.9075],[-86.4326,15.5669,390.4067],[-86.4179,15.5546,470.3082],[-86.4038,15.5476,387.2508],[-86.4016,15.5452,292.8719],[-86.4009,15.5407,236.0086],[-86.3946,15.5367,272.9216],[-86.3667,15.5395,232.3042],[-86.3643,15.5437,239.7511],[-86.3601,15.5443,283.6792],[-86.3593,15.5465,306.2052],[-86.3507,15.5449,253.963],[-86.348,15.5464,243.4822],[-86.3267,15.5471,246.7832],[-86.3212,15.5485,122.1685],[-86.3182,15.545,130.0983],[-86.3141,15.548,168.5355],[-86.3127,15.5474,182.6639],[-86.3121,15.5441,111.7423],[-86.3048,15.5441,100.435],[-86.3031,15.5424,99.7106],[-86.2978,15.5437,111.2551],[-86.2949,15.5403,98.9751],[-86.2846,15.5396,82.3457],[-86.285,15.5736,82.0184],[-86.2878,15.5758,118.549],[-86.2879,15.5779,156.8287],[-86.2807,15.5756,91.4433],[-86.2737,15.578,105.0493],[-86.2675,15.5769,75.853],[-86.2646,15.5797,76.6864],[-86.2603,15.58,72.8412],[-86.2525,15.5786,69.4627],[-86.2474,15.5752,69.0794],[-86.243,15.5756,64.9888],[-86.2367,15.5806,67.02],[-86.2285,15.583,60.5609],[-86.2225,15.5888,62.515],[-86.2198,15.5885,63.7358],[-86.2133,15.5815,59.7747],[-86.2108,15.5837,59.1741],[-86.2073,15.592,56.6687],[-86.1895,15.5972,55.4523],[-86.1877,15.5956,54.6957],[-86.1845,15.596,54.0232],[-86.1841,15.5947,54.2633],[-86.1831,15.5956,54.2122],[-86.1778,15.5894,54.0303],[-86.1698,15.5897,54.7251],[-86.167,15.587,53.1835],[-86.1632,15.588,52.4344],[-86.157,15.5948,51.9247],[-86.1522,15.5884,49.2897],[-86.1471,15.5882,48.0302],[-86.1406,15.591,46.462],[-86.1386,15.5896,48.6525],[-86.1378,15.5863,49.1544],[-86.1236,15.5931,43.8445],[-86.1098,15.6066,41.8955],[-86.1057,15.6165,43.623],[-86.1011,15.6195,43.7045],[-86.1038,15.6235,44.1293],[-86.1031,15.629,44.6355],[-86.0942,15.6299,43.5361],[-86.1327,15.6713,49.7686],[-86.1485,15.683,189.4671],[-86.2043,15.7512,853.9903],[-86.2408,15.7288,726.1741],[-86.2659,15.7187,899.0075],[-86.3454,15.6803,550.0079],[-86.353,15.6722,448.3844],[-86.3719,15.6643,415.062],[-86.3696,15.6624,428.5807],[-86.3687,15.6581,351.0439],[-86.3733,15.6181,455.1324],[-86.3693,15.6125,290.2106],[-86.3726,15.6064,299.1946],[-86.3747,15.6046,266.6517],[-86.3963,15.5989,469.745],[-86.4049,15.5941,572.8146],[-86.4432,15.5859,539.3613],[-86.4547,15.5733,496.9075]]]]}
,"properties": {"GID_2": "HND.3.8_1","GID_0": "HND","country": "Honduras","GID_1": "HND.3_1","province": "Colón","NL_NAME_1": "NA","county": "Sonaguera","VARNAME_2": "NA","NL_NAME_2": "NA","TYPE_2": "Municipio","ENGTYPE_2": "Municipality","CC_2": "NA","HASC_2": "HN.CL.SO","name": "Sonaguera.county","area_km2": 448.7028,"hist_schema_id": "Elevation0-9000","hist_area_km2": {"50": 70.7521,"75": 78.3254,"100": 49.6368,"125": 25.0936,"150": 18.4169,"175": 14.4356,"200": 11.3727,"225": 10.8831,"250": 10.1484,"275": 9.9848,"300": 9.6989,"325": 9.0048,"350": 9.5356,"375": 9.066,"400": 10.7812,"425": 10.9445,"450": 11.2304,"475": 10.2707,"500": 8.9432,"525": 8.351,"550": 6.35,"575": 5.492,"600": 4.4299,"625": 3.4295,"650": 2.8373,"675": 2.8373,"700": 3.1638,"725": 3.1432,"750": 3.1024,"775": 3.1635,"800": 2.4695,"825": 3.3063,"850": 2.5308,"875": 2.4083,"900": 1.6123,"925": 0.7143,"950": 0.5102,"975": 0.2041,"1000": 0.1224}}}