{"type": "Feature","bbox": [-87.4823,13.8872,-87.0157,14.3643],"geometry": {"type": "MultiPolygon","coordinates": [[[[-87.4768,14.1992,1659.7606],[-87.4607,14.1779,1785.1669],[-87.4583,14.1734,1794.2507],[-87.4577,14.1679,1844.4219],[-87.4506,14.1597,1875.01],[-87.4267,14.1136,1838.4238],[-87.4207,14.1127,1777.5278],[-87.4169,14.1089,1746.2886],[-87.4113,14.1071,1693.9294],[-87.4048,14.1069,1630.2991],[-87.3996,14.1088,1556.5863],[-87.3964,14.1049,1570.7092],[-87.3896,14.1017,1507.7148],[-87.386,14.1082,1496.6351],[-87.3755,14.1049,1461.6198],[-87.3776,14.1013,1500.3103],[-87.3767,14.096,1488.3967],[-87.3792,14.0945,1518.615],[-87.3616,14.0744,1400.8485],[-87.372,14.072,1502.6758],[-87.3739,14.0693,1604.2865],[-87.3793,14.0676,1654.6288],[-87.3848,14.048,1672.6604],[-87.3809,14.0107,1550.2416],[-87.3492,14.0244,1557.0848],[-87.3521,14.0193,1564.9622],[-87.3339,14.0101,1553.0348],[-87.3294,14.0093,1528.4125],[-87.3269,14.0065,1505.4277],[-87.3187,14.003,1432.3942],[-87.3147,13.9974,1231.8884],[-87.3076,13.9969,1230.2659],[-87.3062,13.9936,1313.3013],[-87.2967,13.9925,1278.8525],[-87.2819,13.9847,1285.4751],[-87.2711,13.9841,1258.5172],[-87.2664,13.978,1212.1536],[-87.2592,13.9792,1125.9731],[-87.2523,13.9846,1184.454],[-87.2499,13.9835,1121.9808],[-87.2398,13.9689,1466.1628],[-87.2217,13.9666,1289.1666],[-87.2082,13.9592,1378.604],[-87.1873,13.9559,1344.1234],[-87.1272,13.8872,1435.9977],[-87.0932,13.9459,1531.5569],[-87.1085,13.9539,1918.1998],[-87.1319,13.9599,1689.666],[-87.1315,13.9648,1676.2546],[-87.1228,13.976,1694.2234],[-87.1181,13.9935,1543.2324],[-87.1257,14.0092,1292.3823],[-87.1197,14.0148,1194.4706],[-87.1163,14.0245,1310.2993],[-87.0965,14.0401,1472.2716],[-87.061,14.0475,1437.2866],[-87.0517,14.0655,1356.608],[-87.0545,14.0672,1279.3088],[-87.0663,14.0686,1142.441],[-87.0688,14.0707,1185.3342],[-87.0703,14.0785,1177.6162],[-87.0637,14.0793,1109.5929],[-87.0647,14.0833,1109.7637],[-87.0592,14.0878,1108.9258],[-87.057,14.0872,1109.5444],[-87.059,14.0928,1144.7361],[-87.0583,14.096,1259.5524],[-87.0647,14.099,1278.2181],[-87.0686,14.0963,1383.4167],[-87.0814,14.0939,1257.6158],[-87.1031,14.0744,1468.358],[-87.1058,14.075,1517.6683],[-87.1129,14.072,1447.8401],[-87.1146,14.0729,1522.5],[-87.1197,14.0834,1523.5474],[-87.1364,14.0933,1201.4371],[-87.1377,14.1036,1188.0266],[-87.1442,14.1214,1138.5239],[-87.1395,14.138,1413.406],[-87.1118,14.1527,1537.8953],[-87.1035,14.1602,1735.4214],[-87.0416,14.1846,1702.6589],[-87.042,14.1902,1634.7666],[-87.0367,14.2039,1157.6541],[-87.0234,14.2083,1001.1791],[-87.0157,14.2161,927.9821],[-87.0173,14.2275,767.3029],[-87.0247,14.2289,804.9167],[-87.0368,14.2115,1055.8101],[-87.1361,14.2472,1446.3063],[-87.1372,14.2544,1475.2039],[-87.1349,14.2641,1363.0386],[-87.1262,14.2696,1270.8693],[-87.1239,14.2759,1167.4487],[-87.1178,14.2804,1057.193],[-87.1147,14.2858,999.0889],[-87.1371,14.2908,1082.384],[-87.1506,14.2902,955.3984],[-87.1502,14.2952,870.7109],[-87.1407,14.303,794.9376],[-87.1398,14.3148,1041.3021],[-87.1341,14.3282,1097.8295],[-87.1337,14.3406,1139.7391],[-87.1291,14.3453,1191.3489],[-87.1487,14.3616,1026.865],[-87.1654,14.3598,1101.6161],[-87.2488,14.3643,1041.7943],[-87.2729,14.3512,1385.9172],[-87.2901,14.352,1478.9902],[-87.3074,14.3472,1543.917],[-87.3313,14.3522,1979.2188],[-87.3389,14.3454,1981.9867],[-87.3872,14.3623,1697.0253],[-87.3962,14.3591,1578.734],[-87.4094,14.361,1484.5538],[-87.4161,14.3424,1321.8121],[-87.419,14.3385,1323.8151],[-87.4304,14.3362,1309.6665],[-87.4401,14.3316,1415.6962],[-87.4488,14.3306,1409.2249],[-87.4533,14.3272,1437.4108],[-87.4823,14.2828,1349.5818],[-87.4725,14.2581,1385.1603],[-87.4565,14.2481,1516.8301],[-87.4478,14.2462,1315.4562],[-87.443,14.2424,1378.7994],[-87.438,14.2417,1300.9587],[-87.4383,14.2383,1450.0112],[-87.4367,14.237,1390.6843],[-87.4243,14.2347,1169.0],[-87.4241,14.2332,1183.2285],[-87.429,14.2293,1291.8369],[-87.4356,14.2284,1443.8595],[-87.43,14.221,1435.9299],[-87.4335,14.2193,1472.4764],[-87.4316,14.2163,1462.302],[-87.4356,14.2155,1484.292],[-87.4353,14.2121,1491.406],[-87.4506,14.2117,1537.0939],[-87.4674,14.2036,1580.3577],[-87.4741,14.2023,1714.3624],[-87.4768,14.1992,1659.7606]]]]}
,"properties": {"GID_2": "HND.8.4_1","GID_0": "HND","country": "Honduras","GID_1": "HND.8_1","province": "FranciscoMorazán","NL_NAME_1": "NA","county": "DistritoCentral","VARNAME_2": "NA","NL_NAME_2": "NA","TYPE_2": "Municipio","ENGTYPE_2": "Municipality","CC_2": "NA","HASC_2": "HN.FM.DC","name": "Distrito_Central.county","area_km2": 1483.898,"hist_schema_id": "Elevation0-9000","hist_area_km2": {"725": 0.103,"750": 0.493,"775": 2.918,"800": 11.116,"825": 15.555,"850": 22.356,"875": 29.362,"900": 32.712,"925": 29.49,"950": 32.884,"975": 44.87,"1000": 52.584,"1025": 50.424,"1050": 54.617,"1075": 59.183,"1100": 52.671,"1125": 50.308,"1150": 47.041,"1175": 45.521,"1200": 44.986,"1225": 45.13,"1250": 43.959,"1275": 43.402,"1300": 43.504,"1325": 43.195,"1350": 45.969,"1375": 48.085,"1400": 44.672,"1425": 46.519,"1450": 46.868,"1475": 41.401,"1500": 37.764,"1525": 30.078,"1550": 27.387,"1575": 27.222,"1600": 22.904,"1625": 21.917,"1650": 18.032,"1675": 15.42,"1700": 13.096,"1725": 12.437,"1750": 11.882,"1775": 9.415,"1800": 10.135,"1825": 8.161,"1850": 6.805,"1875": 6.146,"1900": 4.913,"1925": 3.885,"1950": 3.474,"1975": 2.816,"2000": 2.795,"2025": 2.405,"2050": 1.911,"2075": 1.439,"2100": 1.809,"2125": 1.439,"2150": 1.686,"2175": 1.418,"2200": 1.192,"2225": 1.007,"2250": 0.534,"2275": 0.267,"2300": 0.144,"2325": 0.062}}}