{"type": "Feature","bbox": [-87.3103,13.6069,-87.2136,13.6819],"geometry": {"type": "MultiPolygon","coordinates": [[[[-87.2252,13.6123,789.9236],[-87.2221,13.6192,678.6188],[-87.2136,13.6627,533.2111],[-87.2559,13.6819,304.0831],[-87.2845,13.6732,345.9825],[-87.2866,13.6746,298.7231],[-87.2924,13.6736,281.1825],[-87.3038,13.6747,165.6705],[-87.3033,13.6588,278.4542],[-87.3054,13.653,312.7731],[-87.3039,13.6467,254.8653],[-87.3085,13.6364,326.1925],[-87.3103,13.6242,437.462],[-87.2779,13.6069,302.9201],[-87.2252,13.6123,789.9236]]]]}
,"properties": {"GID_2": "HND.2.13_1","GID_0": "HND","country": "Honduras","GID_1": "HND.2_1","province": "Choluteca","NL_NAME_1": "NA","county": "SanIsidro","VARNAME_2": "NA","NL_NAME_2": "NA","TYPE_2": "Municipio","ENGTYPE_2": "Municipality","CC_2": "NA","HASC_2": "HN.CH.SI","name": "San_Isidro.county","area_km2": 66.67438,"hist_schema_id": "Elevation0-9000","hist_area_km2": {"150": 0.14421,"175": 0.45324,"200": 0.65925,"225": 1.00948,"250": 1.54514,"275": 1.89543,"300": 3.6673,"325": 4.61513,"350": 5.54229,"375": 7.25237,"400": 7.08761,"425": 5.8927,"450": 5.41894,"475": 4.43,"500": 3.29682,"525": 2.30777,"550": 1.99871,"575": 1.81327,"600": 1.66905,"625": 1.60724,"650": 1.35998,"675": 1.15393,"700": 0.55635,"725": 0.32969,"750": 0.22667,"775": 0.22666,"800": 0.18545,"825": 0.20606,"850": 0.04121,"875": 0.02061,"900": 0.04121,"925": 0.02061}}}