{"type": "Feature","bbox": [-89.0808,14.2107,-88.9432,14.3791],"geometry": {"type": "MultiPolygon","coordinates": [[[[-88.9664,14.2107,561.6926],[-88.9626,14.2194,887.0062],[-88.9648,14.2249,720.9385],[-88.9649,14.2311,708.092],[-88.9677,14.2358,688.8265],[-88.9687,14.2465,816.9952],[-88.9659,14.2502,1038.6864],[-88.9657,14.255,1033.2418],[-88.962,14.2576,999.4307],[-88.9618,14.2606,1124.2468],[-88.9642,14.2662,1059.0785],[-88.9663,14.2673,943.1947],[-88.9658,14.2687,943.1947],[-88.9682,14.2702,905.4953],[-88.972,14.2812,1016.8367],[-88.9758,14.2844,1156.0629],[-88.977,14.2888,1063.5265],[-88.9717,14.2909,1184.0239],[-88.9659,14.2909,1221.8745],[-88.9556,14.2997,1369.2042],[-88.9511,14.3011,1321.5002],[-88.9502,14.3038,1386.8783],[-88.9529,14.3056,1314.4181],[-88.9497,14.3095,1392.0736],[-88.9469,14.3103,1395.4474],[-88.9479,14.3131,1431.0425],[-88.9432,14.3197,1558.9315],[-88.9446,14.3263,1551.4197],[-88.9674,14.3272,1499.631],[-88.9824,14.3304,1413.4957],[-88.9861,14.3327,1453.559],[-88.9931,14.3321,1480.1411],[-88.9991,14.3294,1450.8801],[-89.0183,14.3306,1383.2507],[-89.0208,14.3349,1411.3749],[-89.0249,14.3369,1211.9918],[-89.028,14.3427,1410.4391],[-89.0342,14.3461,1602.8661],[-89.0376,14.3508,1778.7002],[-89.0395,14.3579,1645.95],[-89.0433,14.3588,1719.2351],[-89.0487,14.3568,1954.3262],[-89.0567,14.3582,1955.365],[-89.0644,14.3639,1983.5693],[-89.0723,14.364,1921.1259],[-89.0716,14.3707,1950.6609],[-89.0612,14.3791,2127.7544],[-89.0704,14.3773,1981.8442],[-89.0723,14.3737,1958.5747],[-89.076,14.3726,1879.3666],[-89.0777,14.3665,1868.1656],[-89.0808,14.3642,1788.0615],[-89.0807,14.3619,1782.6898],[-89.0789,14.3607,1782.6898],[-89.0783,14.3472,1862.3096],[-89.0767,14.3438,1844.0953],[-89.079,14.3391,1696.0227],[-89.0525,14.3279,1568.5717],[-89.0433,14.3273,1325.0182],[-89.0308,14.3188,1120.0314],[-89.0262,14.3089,1064.0167],[-89.0236,14.2903,1028.823],[-89.0299,14.2793,907.9009],[-89.0273,14.2738,861.7314],[-88.9902,14.2507,858.2867],[-88.9743,14.2253,826.7634],[-88.9746,14.2211,647.3682],[-88.9782,14.2171,726.3393],[-88.9759,14.2129,691.8348],[-88.9664,14.2107,561.6926]]]]}
,"properties": {"GID_2": "HND.14.8_1","GID_0": "HND","country": "Honduras","GID_1": "HND.14_1","province": "Ocotepeque","NL_NAME_1": "NA","county": "Mercedes","VARNAME_2": "NA","NL_NAME_2": "NA","TYPE_2": "Municipio","ENGTYPE_2": "Municipality","CC_2": "NA","HASC_2": "HN.OC.ME","name": "Mercedes.county","area_km2": 83.96775,"hist_schema_id": "Elevation0-9000","hist_area_km2": {"525": 0.04111,"550": 0.14387,"575": 0.16442,"600": 0.34939,"625": 0.49325,"650": 0.61655,"675": 0.65764,"700": 0.82204,"725": 0.90421,"750": 0.822,"775": 1.17133,"800": 1.02746,"825": 1.23294,"850": 1.54117,"875": 1.08909,"900": 1.29456,"925": 1.1507,"950": 1.19178,"975": 1.31505,"1000": 1.31502,"1025": 1.39717,"1050": 1.64372,"1075": 1.54095,"1100": 2.09564,"1125": 2.23949,"1150": 2.34215,"1175": 2.85577,"1200": 3.55433,"1225": 3.34879,"1250": 3.16391,"1275": 3.78026,"1300": 4.39657,"1325": 4.58144,"1350": 3.92396,"1375": 3.10218,"1400": 3.14321,"1425": 2.32145,"1450": 2.13654,"1475": 1.27367,"1500": 0.94496,"1525": 0.719,"1550": 0.5341,"1575": 0.47246,"1600": 0.32867,"1625": 0.30813,"1650": 0.49299,"1675": 0.41083,"1700": 0.26704,"1725": 0.36974,"1750": 0.41082,"1775": 0.26703,"1800": 0.43136,"1825": 0.6573,"1850": 1.21188,"1875": 1.88971,"1900": 1.4789,"1925": 1.15024,"1950": 0.57512,"1975": 0.45188,"2000": 0.18485,"2025": 0.10269,"2050": 0.02054,"2100": 0.02054,"2125": 0.08215}}}