{"type":"Feature","properties":{"GID_2":"HND.17.1_1","GID_0":"HND","country":"Honduras","GID_1":"HND.17_1","province":"Valle","NL_NAME_1":"NA","county":"Alianza","VARNAME_2":"NA","NL_NAME_2":"NA","TYPE_2":"Municipio","ENGTYPE_2":"Municipality","CC_2":"NA","HASC_2":"HN.VA.AL","name":"Alianza.county"},
"geometry":{"type": "MultiPolygon","coordinates": [[[[-87.6543,13.4432,0.0],[-87.6571,13.441,0.0],[-87.6526,13.439,0.0],[-87.6524,13.4424,0.0],[-87.6543,13.4432,0.0]]],
[[[-87.8103,13.4033,8.8709],[-87.8119,13.4035,0.0],[-87.8054,13.3943,0.0],[-87.8037,13.3966,5.9054],[-87.8023,13.3924,2.9773],[-87.7971,13.3924,3.9515],[-87.7996,13.391,1.898],[-87.7996,13.3854,0.0],[-87.7915,13.3818,0.0],[-87.7815,13.3843,1.8926],[-87.7779,13.3868,1.5546],[-87.7721,13.3871,11.4059],[-87.7721,13.3971,11.1146],[-87.7685,13.3963,0.0],[-87.766,13.3924,2.0058],[-87.7624,13.3904,1.3621],[-87.7649,13.3946,1.919],[-87.7649,13.3993,6.4169],[-87.7629,13.4007,6.9526],[-87.7604,13.4001,1.6216],[-87.7574,13.4029,5.5441],[-87.7518,13.401,1.8945],[-87.7526,13.4004,5.1976],[-87.7565,13.4021,5.5441],[-87.7599,13.3996,1.6216],[-87.7635,13.3996,0.0],[-87.7635,13.3935,0.0],[-87.761,13.3918,0.0],[-87.761,13.3899,3.6747],[-87.7657,13.3907,2.2068],[-87.7701,13.3963,4.4389],[-87.7718,13.396,4.4389],[-87.7701,13.3893,0.0],[-87.7715,13.3862,2.4656],[-87.779,13.3851,1.4873],[-87.786,13.3796,5.6144],[-87.784,13.3768,1.3872],[-87.7712,13.3787,0.0],[-87.7654,13.3763,2.3931],[-87.7649,13.374,0.4309],[-87.7538,13.3632,0.0],[-87.7524,13.3596,0.0],[-87.7459,13.3629,0.0],[-87.7438,13.3721,9.7459],[-87.7399,13.3751,0.0],[-87.7371,13.3738,5.0148],[-87.7426,13.371,0.0],[-87.7427,13.3665,3.3248],[-87.7468,13.3576,4.7661],[-87.7457,13.3529,0.0],[-87.7396,13.3571,6.9845],[-87.7304,13.356,1.2385],[-87.7251,13.3562,0.0],[-87.7224,13.3582,0.0],[-87.7182,13.3574,0.8564],[-87.7168,13.3596,2.5329],[-87.7185,13.3635,0.0],[-87.7176,13.3671,0.0],[-87.7202,13.3685,1.5055],[-87.7171,13.3676,0.0],[-87.7171,13.364,0.0],[-87.7046,13.3665,0.0],[-87.6946,13.3663,0.0],[-87.6932,13.3682,0.0],[-87.6942,13.3724,0.0],[-87.7001,13.3746,1.1962],[-87.6951,13.3741,10.9046],[-87.689,13.3701,0.0],[-87.6835,13.3688,1.2523],[-87.6768,13.3732,0.0],[-87.6766,13.3815,0.0],[-87.6787,13.3824,3.0376],[-87.6835,13.3796,0.0],[-87.679,13.3829,3.0376],[-87.6729,13.3827,0.0],[-87.6732,13.3913,0.9732],[-87.6668,13.3932,0.0],[-87.6593,13.3896,0.0],[-87.6571,13.3946,3.2298],[-87.6582,13.3985,0.0],[-87.6701,13.4087,2.9374],[-87.6724,13.409,3.5559],[-87.6757,13.4046,10.8709],[-87.6774,13.4054,7.9793],[-87.6751,13.4057,0.0],[-87.6743,13.4079,5.0843],[-87.671,13.411,5.1192],[-87.6699,13.409,1.8648],[-87.6637,13.4065,0.0],[-87.6621,13.4038,7.4918],[-87.656,13.4038,0.0],[-87.6496,13.4163,0.0],[-87.6505,13.4246,0.0],[-87.6526,13.4274,0.0],[-87.6515,13.4293,0.0],[-87.6529,13.4346,0.0],[-87.6549,13.4338,5.8451],[-87.6618,13.4363,0.0],[-87.669,13.4335,23.4256],[-87.676,13.4329,0.0],[-87.6771,13.431,10.6282],[-87.6796,13.4321,3.7596],[-87.6715,13.4346,3.4663],[-87.6668,13.4401,0.0],[-87.661,13.4419,0.0],[-87.6624,13.4507,2.2373],[-87.6654,13.451,4.5877],[-87.6676,13.4463,3.3322],[-87.6693,13.4457,0.0],[-87.6732,13.4474,0.0],[-87.6749,13.4504,0.0],[-87.6693,13.4543,0.0],[-87.6701,13.4518,8.4337],[-87.6738,13.4496,0.0],[-87.6687,13.4465,3.3322],[-87.6665,13.451,4.5877],[-87.6626,13.4521,6.858],[-87.6579,13.4424,0.0],[-87.6551,13.4479,12.1288],[-87.6562,13.4538,1.2753],[-87.6526,13.4529,0.0],[-87.6462,13.4563,0.0],[-87.6471,13.4677,7.9692],[-87.6457,13.4615,0.0],[-87.6415,13.4607,0.9813],[-87.6351,13.464,0.0],[-87.6408,13.4759,4.3046],[-87.6388,13.4819,8.135],[-87.635,13.4827,10.2782],[-87.6316,13.4804,10.4277],[-87.6323,13.483,10.2968],[-87.6288,13.4811,2.4845],[-87.6347,13.4849,6.6364],[-87.6348,13.4836,10.2782],[-87.6381,13.4839,3.5861],[-87.643,13.4797,2.7033],[-87.6471,13.4895,11.5061],[-87.6505,13.4891,10.3507],[-87.6515,13.4919,4.0773],[-87.6533,13.4902,7.4143],[-87.6548,13.4914,3.978],[-87.654,13.5003,6.8819],[-87.6635,13.5125,17.8864],[-87.6706,13.5153,22.2282],[-87.6711,13.521,29.0491],[-87.6751,13.5276,45.8981],[-87.675,13.5317,56.4334],[-87.6798,13.5443,251.2597],[-87.7153,13.536,50.6731],[-87.7289,13.5377,31.5391],[-87.7384,13.5337,24.1299],[-87.745,13.5329,21.2023],[-87.7807,13.5048,37.5416],[-87.7763,13.5055,47.8696],[-87.7657,13.5013,56.0508],[-87.7535,13.5103,58.7797],[-87.7512,13.5099,14.3753],[-87.7488,13.5029,20.8895],[-87.7459,13.5027,20.4527],[-87.7408,13.5063,17.7394],[-87.7359,13.5057,16.1237],[-87.7224,13.4997,8.5149],[-87.7217,13.4933,15.5805],[-87.7249,13.4849,11.4371],[-87.7183,13.4609,11.11],[-87.7231,13.4483,9.2747],[-87.7235,13.4407,9.2071],[-87.7257,13.4381,7.541],[-87.7405,13.4385,8.0135],[-87.7503,13.4301,4.7467],[-87.7541,13.4305,4.286],[-87.7569,13.4329,4.8807],[-87.7716,13.4225,2.4296],[-87.7739,13.4175,6.7494],[-87.7868,13.4167,12.9029],[-87.7952,13.4041,12.0568],[-87.8103,13.4033,8.8709]]],
[[[-87.6333,13.4889,1.5],[-87.635,13.4911,8.5959],[-87.6375,13.4861,2.1769],[-87.6354,13.4851,6.6364],[-87.6352,13.4897,2.9237],[-87.6321,13.4874,8.1522],[-87.6317,13.4886,10.2816],[-87.6333,13.4889,1.5]]]]}}