{"type": "Feature","bbox": [-88.7723,14.4967,-88.4894,14.7308],"geometry": {"type": "MultiPolygon","coordinates": [[[[-88.7723,14.5354,1967.4309],[-88.7589,14.5295,2194.4717],[-88.7477,14.5267,2026.2944],[-88.737,14.5309,2039.8069],[-88.7263,14.5315,2184.7791],[-88.7185,14.5298,2283.8931],[-88.7095,14.5209,2208.5962],[-88.7107,14.5182,2161.5767],[-88.7099,14.513,2031.2349],[-88.7127,14.511,1993.769],[-88.7124,14.505,2221.6052],[-88.7023,14.5064,2285.2322],[-88.6941,14.5053,2234.103],[-88.6905,14.5084,2349.8345],[-88.6854,14.5086,2454.7256],[-88.6807,14.5072,2452.1265],[-88.6774,14.5042,2343.6238],[-88.6649,14.5015,2252.8433],[-88.6621,14.4996,2114.3621],[-88.6537,14.4997,1787.3647],[-88.6516,14.498,1658.6875],[-88.6435,14.4967,1416.3835],[-88.6296,14.4979,1293.175],[-88.6251,14.5016,1242.9363],[-88.6146,14.5062,1167.1777],[-88.5981,14.5038,1107.3954],[-88.5851,14.505,1235.9326],[-88.5817,14.5021,1264.1799],[-88.57,14.5018,1134.8954],[-88.567,14.4992,1159.0326],[-88.5593,14.4985,1139.6631],[-88.5531,14.5018,1110.8701],[-88.5526,14.5057,1080.1475],[-88.547,14.509,986.7402],[-88.5339,14.5119,891.4114],[-88.5326,14.5194,921.2596],[-88.5283,14.5251,967.2701],[-88.5239,14.5266,1072.2729],[-88.5242,14.5281,1059.3232],[-88.5136,14.5307,1038.666],[-88.5111,14.5423,881.8793],[-88.5077,14.5437,857.8912],[-88.5062,14.5497,809.6409],[-88.5068,14.5521,809.5674],[-88.5133,14.5554,881.4612],[-88.5188,14.5545,889.3705],[-88.519,14.5564,867.9012],[-88.5158,14.558,842.1302],[-88.5154,14.5643,870.9663],[-88.5201,14.5656,874.0258],[-88.5228,14.5696,823.886],[-88.5293,14.5732,928.4553],[-88.5291,14.5765,878.4595],[-88.5316,14.5806,801.7283],[-88.5212,14.6004,1023.8138],[-88.5136,14.6039,1033.5654],[-88.516,14.6107,980.2562],[-88.5191,14.6129,974.4014],[-88.521,14.6218,888.074],[-88.523,14.6227,895.3007],[-88.5222,14.628,889.6623],[-88.5196,14.6314,761.6046],[-88.5349,14.6697,882.4987],[-88.52,14.6906,932.0144],[-88.4896,14.6988,1401.2477],[-88.4894,14.7308,1340.1934],[-88.5404,14.7289,1773.6157],[-88.5718,14.7059,1013.6116],[-88.5756,14.7051,1076.3838],[-88.587,14.7074,870.3354],[-88.5952,14.7053,728.46],[-88.6027,14.6996,668.3588],[-88.6068,14.6943,609.4717],[-88.6127,14.6937,553.4208],[-88.6204,14.6889,514.1416],[-88.6216,14.6871,524.3564],[-88.6201,14.6824,524.9265],[-88.6123,14.6815,631.9768],[-88.608,14.6759,540.7657],[-88.6088,14.6737,541.4178],[-88.612,14.672,599.7079],[-88.6184,14.6748,567.7238],[-88.6137,14.6671,631.0455],[-88.6134,14.6634,598.8779],[-88.6116,14.6627,598.8779],[-88.6118,14.6574,637.6099],[-88.6146,14.6543,655.9191],[-88.6235,14.6531,664.2217],[-88.6279,14.6492,718.4235],[-88.6287,14.6458,800.0095],[-88.6375,14.6399,893.662],[-88.6426,14.64,920.8201],[-88.6459,14.642,941.4408],[-88.6522,14.6387,1017.8192],[-88.6632,14.6419,1265.874],[-88.672,14.6386,1330.3765],[-88.6867,14.6248,1276.0178],[-88.6956,14.6218,1173.1516],[-88.7,14.603,1752.517],[-88.7052,14.5973,2111.6453],[-88.7282,14.597,2013.921],[-88.7462,14.5811,1433.8955],[-88.7527,14.5798,1472.9113],[-88.7665,14.5545,1809.3354],[-88.7723,14.5354,1967.4309]]]]}
,"properties": {"GID_2": "HND.13.5_1","GID_0": "HND","country": "Honduras","GID_1": "HND.13_1","province": "Lempira","NL_NAME_1": "NA","county": "Gracias","VARNAME_2": "NA","NL_NAME_2": "NA","TYPE_2": "Municipio","ENGTYPE_2": "Municipality","CC_2": "NA","HASC_2": "HN.LE.GR","name": "Gracias.county","area_km2": 430.287,"hist_schema_id": "Elevation0-9000","hist_area_km2": {"500": 0.1231,"525": 0.1641,"550": 1.6819,"575": 2.1947,"600": 2.8716,"625": 5.5384,"650": 6.5848,"675": 7.7337,"700": 9.2315,"725": 9.3754,"750": 10.9961,"775": 13.2118,"800": 13.8892,"825": 15.0386,"850": 13.7464,"875": 12.7415,"900": 12.7827,"925": 13.3983,"950": 13.7268,"975": 12.7215,"1000": 11.5518,"1025": 11.3464,"1050": 9.8693,"1075": 10.3618,"1100": 8.6591,"1125": 7.8794,"1150": 7.0999,"1175": 5.8687,"1200": 5.3145,"1225": 4.617,"1250": 4.1655,"1275": 4.2062,"1300": 3.7341,"1325": 3.9186,"1350": 4.3904,"1375": 3.5082,"1400": 3.8363,"1425": 3.4669,"1450": 3.1799,"1475": 3.303,"1500": 3.221,"1525": 2.5029,"1550": 2.626,"1575": 2.5441,"1600": 2.7699,"1625": 2.257,"1650": 2.5442,"1675": 2.7289,"1700": 2.4008,"1725": 2.606,"1750": 2.1547,"1775": 2.0931,"1800": 2.2984,"1825": 2.1753,"1850": 2.4831,"1875": 2.1342,"1900": 2.4626,"1925": 2.4215,"1950": 2.6678,"1975": 2.7089,"2000": 2.8525,"2025": 2.9141,"2050": 2.7089,"2075": 3.222,"2100": 3.0373,"2125": 3.222,"2150": 3.5709,"2175": 2.9962,"2200": 3.3862,"2225": 3.2015,"2250": 2.6679,"2275": 2.9962,"2300": 2.709,"2325": 2.1959,"2350": 2.3396,"2375": 2.0522,"2400": 2.4626,"2425": 2.0317,"2450": 2.0932,"2475": 1.7854,"2500": 2.0111,"2525": 2.2368,"2550": 2.2984,"2575": 2.3394,"2600": 2.3189,"2625": 2.4216,"2650": 3.0988,"2675": 3.263,"2700": 2.9141,"2725": 1.7238,"2750": 1.9496,"2775": 1.0261,"2800": 0.2873,"2825": 0.1231}}}