{"type":"Feature","properties":{"GID_2":"HND.8.26_1","GID_0":"HND","country":"Honduras","GID_1":"HND.8_1","province":"FranciscoMorazán","NL_NAME_1":"NA","county":"ValledeÁngeles","VARNAME_2":"NA","NL_NAME_2":"NA","TYPE_2":"Municipio","ENGTYPE_2":"Municipality","CC_2":"NA","HASC_2":"HN.FM.VA","name":"Vallede_Ángeles.county"},
"geometry":{"type": "MultiPolygon","coordinates": [[[[-86.9158,14.1334,602.9821],[-86.9269,14.1375,623.9722],[-86.9324,14.1367,628.3352],[-86.935,14.1388,641.181],[-86.9405,14.1379,645.865],[-86.9467,14.1403,669.4238],[-87.0005,14.1516,1447.8097],[-87.011,14.1841,1499.2966],[-87.0157,14.2161,927.9821],[-87.0234,14.2083,1001.1791],[-87.0367,14.2039,1157.6541],[-87.042,14.1902,1634.7666],[-87.0416,14.1846,1702.6589],[-87.0769,14.1707,1987.0436],[-87.0731,14.1271,1425.6776],[-87.0669,14.1238,1301.7598],[-87.0678,14.1156,1333.3823],[-87.0626,14.1025,1191.2025],[-87.0625,14.099,1291.2019],[-87.0596,14.0963,1259.5524],[-87.0484,14.0956,1108.7725],[-87.0401,14.0883,1229.7744],[-87.0298,14.0895,1226.1299],[-87.0292,14.0873,1253.2014],[-87.0245,14.0886,1210.6573],[-87.0194,14.0875,1179.2417],[-87.0173,14.0937,1134.2104],[-86.9936,14.1154,1156.7279],[-86.9809,14.132,950.7333],[-86.9704,14.1299,835.7697],[-86.956,14.1297,710.6729],[-86.9397,14.1217,641.7218],[-86.9394,14.1242,643.135],[-86.9353,14.121,633.0098],[-86.9241,14.1216,610.0977],[-86.9211,14.12,607.3754],[-86.9205,14.1272,608.8878],[-86.9158,14.1334,602.9821]]]]}}