{"type": "Feature","bbox": [-88.782,14.8705,-88.6321,14.9219],"geometry": {"type": "MultiPolygon","coordinates": [[[[-88.6327,14.8807,454.7131],[-88.6321,14.8837,475.542],[-88.6382,14.9005,446.3104],[-88.6354,14.9098,716.7274],[-88.6371,14.9124,548.8139],[-88.642,14.914,447.4038],[-88.653,14.914,776.9808],[-88.6694,14.9045,867.8676],[-88.6785,14.9049,1095.072],[-88.6829,14.9061,814.899],[-88.686,14.9103,625.6523],[-88.6885,14.9219,521.1927],[-88.7169,14.9218,872.9091],[-88.7215,14.9158,899.5521],[-88.725,14.918,1001.3447],[-88.7311,14.9161,951.2406],[-88.7345,14.9178,1041.4307],[-88.7356,14.9155,953.5581],[-88.7384,14.9154,918.3794],[-88.7597,14.9187,842.291],[-88.7622,14.9154,922.7351],[-88.7656,14.915,961.8395],[-88.767,14.9088,842.6442],[-88.782,14.894,756.0096],[-88.7604,14.8881,642.6127],[-88.756,14.8751,915.0332],[-88.75,14.8722,892.1012],[-88.7438,14.8738,872.4398],[-88.7425,14.8705,1030.9818],[-88.7332,14.8725,799.0673],[-88.7258,14.8717,734.8883],[-88.724,14.8746,631.1537],[-88.6943,14.8778,793.9498],[-88.6578,14.8742,664.6846],[-88.651,14.8779,435.0045],[-88.6327,14.8807,454.7131]]]]}
,"properties": {"GID_2": "HND.5.16_1","GID_0": "HND","country": "Honduras","GID_1": "HND.5_1","province": "Copán","NL_NAME_1": "NA","county": "SanJosé","VARNAME_2": "NA","NL_NAME_2": "NA","TYPE_2": "Municipio","ENGTYPE_2": "Municipality","CC_2": "NA","HASC_2": "HN.CH.SJ","name": "San_José.county","area_km2": 62.55504,"hist_schema_id": "Elevation0-9000","hist_area_km2": {"350": 0.02049,"375": 0.45077,"400": 0.47127,"425": 0.81961,"450": 1.10649,"475": 0.79912,"500": 0.75813,"525": 0.65566,"550": 0.81958,"575": 0.94249,"600": 2.80716,"625": 3.7087,"650": 4.79464,"675": 4.77409,"700": 4.26184,"725": 3.70861,"750": 3.70861,"775": 3.97496,"800": 3.85201,"825": 3.77005,"850": 3.05292,"875": 3.01197,"900": 2.54072,"925": 2.13092,"950": 1.88505,"975": 0.98351,"1000": 0.96303,"1025": 0.45078,"1050": 0.4098,"1075": 0.28686,"1100": 0.40981,"1125": 0.10245,"1150": 0.08196,"1175": 0.04098}}}