{"type": "Feature","id": "645","bbox": [-87.81716,13.24917,-87.34779,13.8499],"geometry": {"type": "MultiPolygon","coordinates": [[[[-87.62434,13.25292,10.9453],[-87.61388,13.26732,6.6749],[-87.61197,13.28286,0.0],[-87.61514,13.29011,0.0],[-87.64485,13.29084,41.4215],[-87.65762,13.28913,0.0],[-87.67382,13.28388,0.0],[-87.67003,13.27855,0.0],[-87.66397,13.26748,0.0],[-87.66015,13.26219,61.3071],[-87.66706,13.26219,0.0],[-87.66706,13.25601,0.0],[-87.66275,13.25275,0.0],[-87.65856,13.25096,4.8456],[-87.64656,13.24917,7.2821],[-87.62434,13.25292,10.9453]]],
[[[-87.6223,13.36888,0.0],[-87.63443,13.37348,0.0],[-87.64346,13.36774,13.1298],[-87.65648,13.34907,0.0],[-87.65901,13.33169,0.0],[-87.63756,13.31916,54.9907],[-87.5913,13.30439,0.0],[-87.57628,13.31855,0.0],[-87.58812,13.35798,1.3095],[-87.57079,13.36587,3.3095],[-87.57079,13.37202,0.0],[-87.58544,13.37173,1.372],[-87.61242,13.36603,9.0787],[-87.6223,13.36888,0.0]]],
[[[-87.69286,13.8499,275.7787],[-87.7341,13.84841,533.8229],[-87.74953,13.84563,392.1047],[-87.7212,13.8219,180.6388],[-87.70361,13.815,266.7133],[-87.71263,13.80045,191.066],[-87.73281,13.7551,113.3937],[-87.73784,13.73877,143.0656],[-87.73136,13.72221,85.2143],[-87.73629,13.71146,80.2165],[-87.74632,13.70219,87.6862],[-87.75503,13.68991,73.6038],[-87.75864,13.67227,82.7965],[-87.75782,13.63516,70.2092],[-87.76009,13.61695,102.9427],[-87.78407,13.56047,28.9289],[-87.78993,13.53282,35.4716],[-87.77947,13.50998,23.8619],[-87.76916,13.50636,33.0981],[-87.74797,13.51323,19.0031],[-87.73343,13.5077,16.0397],[-87.72573,13.49897,11.8132],[-87.72058,13.48698,7.5264],[-87.7188,13.47367,8.0961],[-87.72115,13.46083,6.1773],[-87.73841,13.44169,9.5431],[-87.81716,13.40656,0.0],[-87.80301,13.40139,14.9042],[-87.79625,13.39985,8.1755],[-87.78649,13.39936,9.3646],[-87.78295,13.39627,6.5286],[-87.78295,13.38943,8.1531],[-87.78136,13.3826,5.1241],[-87.76224,13.37637,2.7198],[-87.73888,13.36237,6.017],[-87.72098,13.35904,8.1582],[-87.69278,13.36648,0.0],[-87.66568,13.38601,0.0],[-87.65099,13.41254,2.0461],[-87.66015,13.44094,0.0],[-87.65038,13.4523,0.0],[-87.63646,13.46369,5.3936],[-87.62401,13.46625,0.0],[-87.61856,13.4512,15.618],[-87.62243,13.423,5.2838],[-87.61925,13.41201,6.2611],[-87.60558,13.40681,14.6234],[-87.61673,13.38186,3.855],[-87.61856,13.37202,0.0],[-87.61181,13.37202,0.0],[-87.59887,13.38434,7.036],[-87.58133,13.38288,8.4106],[-87.5618,13.376,4.2737],[-87.54284,13.37202,0.0],[-87.54284,13.36587,4.5759],[-87.55716,13.36587,0.0],[-87.55716,13.35904,6.3242],[-87.5476,13.35501,2.75],[-87.5386,13.35529,1.6377],[-87.52298,13.35904,3.8829],[-87.48827,13.3583,0.0],[-87.48205,13.35904,1.9394],[-87.47228,13.36701,0.0],[-87.47305,13.37246,0.0],[-87.47643,13.37971,0.0],[-87.4746,13.39313,4.1298],[-87.46963,13.40298,1.5937],[-87.46439,13.40827,4.6204],[-87.4473,13.42048,9.5622],[-87.43777,13.41104,2.638],[-87.42984,13.40937,2.0074],[-87.40978,13.41303,0.0],[-87.40062,13.41116,0.0],[-87.39379,13.40644,2.2299],[-87.37912,13.39322,0.0],[-87.37903,13.39329,0.0],[-87.35872,13.40848,6.8874],[-87.34779,13.43298,33.4563],[-87.34955,13.45334,257.0965],[-87.36068,13.47448,148.6891],[-87.36626,13.48951,235.2453],[-87.36768,13.49881,145.6803],[-87.36443,13.51938,270.6133],[-87.40027,13.54553,98.8337],[-87.41456,13.57592,39.4324],[-87.41572,13.58258,100.074],[-87.4198,13.5907,138.6885],[-87.42437,13.59803,330.4543],[-87.42182,13.63782,439.2415],[-87.42626,13.64454,652.584],[-87.43306,13.64935,702.2349],[-87.4415,13.65359,849.9264],[-87.45913,13.6679,929.6713],[-87.46114,13.67017,930.8643],[-87.46879,13.66583,724.6151],[-87.47902,13.66862,602.9324],[-87.50514,13.68464,181.7901],[-87.54075,13.711,644.3498],[-87.54369,13.71451,530.8541],[-87.5484,13.7173,368.1685],[-87.55199,13.71875,415.7754],[-87.57031,13.71689,555.1869],[-87.60103,13.72268,639.4859],[-87.64185,13.74986,765.369],[-87.6494,13.76123,527.2818],[-87.64728,13.80479,771.0046],[-87.64705,13.83419,1013.8565],[-87.66842,13.83419,440.5537],[-87.69286,13.8499,275.7787]]]]}
,"properties": {"ISO3166-1-Alpha-3": "HND","country": "Honduras","fill": "#FF0","name": "Valle","area_km2": 1602.751,"hist_schema_id": "Elevation0-9000","hist_area_km2": {"0": 380.557,"25": 219.577,"50": 136.281,"75": 92.863,"100": 100.822,"125": 100.048,"150": 88.71,"175": 72.327,"200": 58.705,"225": 47.908,"250": 40.634,"275": 34.801,"300": 30.101,"325": 24.291,"350": 21.014,"375": 16.172,"400": 14.895,"425": 12.794,"450": 12.402,"475": 13.144,"500": 9.909,"525": 10.527,"550": 8.631,"575": 7.087,"600": 5.315,"625": 5.315,"650": 5.253,"675": 4.758,"700": 4.346,"725": 4.079,"750": 3.749,"775": 3.213,"800": 1.895,"825": 1.462,"850": 1.998,"875": 1.916,"900": 1.751,"925": 0.741,"950": 0.474,"975": 0.721,"1000": 0.68,"1025": 0.371,"1050": 0.165,"1075": 0.144,"1100": 0.103,"1125": 0.041,"1150": 0.021,"1175": 0.021,"1200": 0.021}}}