{"type":"Feature","properties":{"GID_1":"HND.17_1","GID_0":"HND","country":"Honduras","province":"Valle","VARNAME_1":"NA","NL_NAME_1":"NA","TYPE_1":"Departamento","ENGTYPE_1":"Department","CC_1":"NA","HASC_1":"HN.VA","ISO_1":"HN-VA","name":"Valle.province"},
"geometry":{"type": "MultiPolygon","coordinates": [[[[-87.6393,13.2981,10.9412],[-87.6443,13.2982,18.5215],[-87.649,13.2943,0.0],[-87.6513,13.2963,0.0],[-87.6571,13.294,0.0],[-87.6582,13.2915,0.0],[-87.6571,13.2868,9.7303],[-87.6593,13.2865,3.0679],[-87.6615,13.2829,0.0],[-87.6593,13.2813,0.0],[-87.6599,13.2788,2.5636],[-87.6635,13.2768,0.0],[-87.6673,13.2785,0.0],[-87.6679,13.2757,0.0],[-87.6646,13.2757,0.0],[-87.661,13.2713,2.8172],[-87.6632,13.2671,0.0],[-87.6637,13.2607,0.0],[-87.6593,13.251,1.9914],[-87.6521,13.2518,6.05],[-87.6474,13.2482,0.0],[-87.644,13.2493,8.0671],[-87.6332,13.2487,0.0],[-87.6276,13.2518,0.0],[-87.624,13.2518,0.0],[-87.6151,13.2576,0.0],[-87.6137,13.2685,6.6749],[-87.6113,13.2743,0.0],[-87.6171,13.2787,0.0],[-87.6132,13.2823,0.0],[-87.6157,13.2899,1.0903],[-87.6193,13.2918,0.0],[-87.6249,13.2885,3.3927],[-87.6282,13.2938,0.0],[-87.6354,13.2938,0.0],[-87.6393,13.2981,10.9412]]],
[[[-87.6296,13.2979,0.0],[-87.6326,13.2985,0.0],[-87.6326,13.2968,0.0],[-87.6293,13.2963,2.2406],[-87.6296,13.2979,0.0]]],
[[[-87.5957,13.3013,4.6399],[-87.5973,13.3021,0.0],[-87.5976,13.3007,0.8329],[-87.5949,13.2993,0.0],[-87.5951,13.301,4.6399],[-87.5957,13.3013,4.6399]]],
[[[-87.5987,13.3035,0.0],[-87.6001,13.3043,0.0],[-87.601,13.3029,0.2084],[-87.5979,13.301,0.8329],[-87.5979,13.3024,0.0],[-87.5987,13.3035,0.0]]],
[[[-87.7032,13.3154,27.0994],[-87.7046,13.3163,2.6649],[-87.706,13.3151,49.7878],[-87.7057,13.3118,0.0],[-87.6996,13.3143,0.0],[-87.7032,13.3154,27.0994]]],
[[[-87.674,13.3299,5.8186],[-87.6746,13.3315,0.7823],[-87.676,13.3312,0.0],[-87.6807,13.3229,0.0],[-87.6804,13.3188,0.0],[-87.6829,13.3149,28.8327],[-87.6851,13.3143,6.4398],[-87.6837,13.3112,0.0],[-87.6807,13.3101,14.1774],[-87.6813,13.306,28.191],[-87.6793,13.3037,0.0],[-87.6751,13.3076,0.0],[-87.6768,13.3126,0.9922],[-87.6671,13.3174,23.9664],[-87.6679,13.3229,4.5536],[-87.674,13.3299,5.8186]]],
[[[-87.7124,13.3223,10.4406],[-87.7132,13.3232,10.4406],[-87.7146,13.321,2.0859],[-87.7135,13.3213,0.0],[-87.7124,13.3223,10.4406]]],
[[[-87.7199,13.3251,0.0],[-87.7196,13.3274,3.6723],[-87.7229,13.326,0.0],[-87.7221,13.3243,17.3113],[-87.7199,13.3251,0.0]]],
[[[-87.7143,13.3349,0.0],[-87.7157,13.3363,0.0],[-87.7204,13.334,7.6202],[-87.7157,13.3276,15.5311],[-87.7112,13.3293,29.5578],[-87.7043,13.3293,10.256],[-87.7085,13.3324,14.1157],[-87.7099,13.336,0.0],[-87.7143,13.3349,0.0]]],
[[[-87.6535,13.4426,0.0],[-87.6546,13.4435,0.0],[-87.6571,13.441,0.0],[-87.6526,13.439,0.0],[-87.6521,13.4415,0.0],[-87.6535,13.4426,0.0]]],
[[[-87.8094,13.4031,8.8709],[-87.8119,13.4035,0.0],[-87.8054,13.3943,0.0],[-87.8037,13.3966,5.9054],[-87.8023,13.3924,2.9773],[-87.7971,13.3924,3.9515],[-87.7996,13.391,1.898],[-87.7996,13.3854,0.0],[-87.7915,13.3818,0.0],[-87.7815,13.3843,1.8926],[-87.7779,13.3868,1.5546],[-87.7721,13.3871,11.4059],[-87.7721,13.3971,11.1146],[-87.7685,13.3963,0.0],[-87.766,13.3924,2.0058],[-87.7624,13.3904,1.3621],[-87.7649,13.3946,1.919],[-87.7649,13.3993,6.4169],[-87.7629,13.4007,6.9526],[-87.7604,13.4001,1.6216],[-87.7574,13.4029,5.5441],[-87.7518,13.401,1.8945],[-87.7526,13.4004,5.1976],[-87.7565,13.4021,5.5441],[-87.7599,13.3996,1.6216],[-87.7635,13.3996,0.0],[-87.7635,13.3935,0.0],[-87.761,13.3918,0.0],[-87.761,13.3899,3.6747],[-87.7657,13.3907,2.2068],[-87.7701,13.3963,4.4389],[-87.7718,13.396,4.4389],[-87.7707,13.3874,0.0],[-87.7721,13.3857,0.0],[-87.779,13.3851,1.4873],[-87.7838,13.3826,0.0],[-87.786,13.3804,5.6144],[-87.7854,13.3774,3.4149],[-87.769,13.3782,0.0],[-87.7591,13.3693,2.5982],[-87.7524,13.3596,0.0],[-87.7459,13.3629,0.0],[-87.7438,13.3721,9.7459],[-87.7399,13.3751,0.0],[-87.7371,13.3738,5.0148],[-87.7426,13.371,0.0],[-87.7427,13.3665,3.3248],[-87.7468,13.3576,4.7661],[-87.7457,13.3529,0.0],[-87.7396,13.3571,6.9845],[-87.7251,13.3562,0.0],[-87.7215,13.3583,0.0],[-87.7187,13.3571,1.7379],[-87.7168,13.3596,2.5329],[-87.7185,13.3635,0.0],[-87.7176,13.3671,0.0],[-87.7204,13.3685,1.5055],[-87.7171,13.3676,0.0],[-87.7171,13.364,0.0],[-87.7046,13.3665,0.0],[-87.6946,13.3663,0.0],[-87.6932,13.3682,0.0],[-87.6942,13.3724,0.0],[-87.7001,13.3746,1.1962],[-87.6951,13.3741,10.9046],[-87.689,13.3701,0.0],[-87.6835,13.3688,1.2523],[-87.6768,13.3732,0.0],[-87.6766,13.3815,0.0],[-87.6787,13.3824,3.0376],[-87.6835,13.3796,0.0],[-87.679,13.3829,3.0376],[-87.6729,13.3827,0.0],[-87.6732,13.3913,0.9732],[-87.6668,13.3932,0.0],[-87.6593,13.3896,0.0],[-87.6574,13.3935,1.1863],[-87.6582,13.3985,0.0],[-87.6701,13.4087,2.9374],[-87.6724,13.409,3.5559],[-87.6757,13.4046,10.8709],[-87.6774,13.4054,7.9793],[-87.6751,13.4057,0.0],[-87.6743,13.4079,5.0843],[-87.671,13.411,5.1192],[-87.6699,13.409,1.8648],[-87.6637,13.4065,0.0],[-87.6621,13.4038,7.4918],[-87.6551,13.4043,0.0],[-87.6554,13.4063,2.2542],[-87.6529,13.4076,0.5226],[-87.6496,13.4163,0.0],[-87.6505,13.4246,0.0],[-87.6526,13.4274,0.0],[-87.6518,13.4329,0.0],[-87.6529,13.4346,0.0],[-87.6549,13.4338,5.8451],[-87.6618,13.4363,0.0],[-87.669,13.4335,23.4256],[-87.676,13.4329,0.0],[-87.6771,13.431,10.6282],[-87.6796,13.4321,3.7596],[-87.6715,13.4346,3.4663],[-87.6668,13.4401,0.0],[-87.661,13.4419,0.0],[-87.6624,13.4507,2.2373],[-87.6654,13.451,4.5877],[-87.6676,13.4463,3.3322],[-87.6696,13.4457,0.0],[-87.6751,13.4493,0.0],[-87.6743,13.451,5.3035],[-87.6693,13.4543,0.0],[-87.6701,13.4518,8.4337],[-87.6738,13.4496,0.0],[-87.6687,13.4465,3.3322],[-87.6665,13.451,4.5877],[-87.6626,13.4521,6.858],[-87.6579,13.4424,0.0],[-87.6551,13.4479,12.1288],[-87.6562,13.4538,1.2753],[-87.6526,13.4529,0.0],[-87.6462,13.4563,0.0],[-87.6471,13.4677,7.9692],[-87.6457,13.4615,0.0],[-87.6415,13.4607,0.9813],[-87.6351,13.464,0.0],[-87.6385,13.4713,7.5746],[-87.6332,13.4649,0.0],[-87.6254,13.4668,0.0],[-87.6196,13.4644,4.4995],[-87.6179,13.4621,0.0],[-87.6232,13.4599,0.0],[-87.6224,13.4579,0.0],[-87.6162,13.4587,3.0844],[-87.6168,13.4601,0.0],[-87.5921,13.4629,1.6591],[-87.5993,13.4604,2.8993],[-87.6021,13.461,0.0],[-87.6074,13.4582,0.0],[-87.614,13.4585,0.0],[-87.6152,13.4541,6.4378],[-87.6215,13.4504,0.0],[-87.6221,13.4468,0.0],[-87.6207,13.4465,0.0],[-87.6148,13.4493,0.0],[-87.6126,13.4527,7.9224],[-87.6079,13.4527,0.0],[-87.6229,13.4443,0.0],[-87.6249,13.436,0.7555],[-87.6202,13.4335,0.0],[-87.6207,13.4285,5.0233],[-87.624,13.4235,0.0],[-87.6199,13.4187,4.727],[-87.6285,13.4204,0.0],[-87.631,13.4143,0.0],[-87.6296,13.4126,0.0],[-87.6243,13.4129,0.0],[-87.6132,13.4082,2.9824],[-87.6087,13.4018,0.0],[-87.6062,13.4018,0.0],[-87.6051,13.4054,0.0],[-87.6024,13.406,2.2745],[-87.6043,13.404,0.0],[-87.6046,13.396,0.0],[-87.6118,13.3929,0.0],[-87.6126,13.3876,1.5016],[-87.6176,13.3826,5.7069],[-87.6182,13.3757,2.9152],[-87.6137,13.376,5.8822],[-87.6046,13.3829,1.5748],[-87.5987,13.3832,0.0],[-87.5932,13.3863,4.6576],[-87.589,13.3865,1.4055],[-87.5868,13.3913,0.0],[-87.5879,13.3976,1.816],[-87.5868,13.3993,3.073],[-87.5854,13.3921,0.0],[-87.5868,13.3871,3.5103],[-87.5882,13.3843,0.0],[-87.5921,13.3846,0.8572],[-87.5951,13.3826,0.0],[-87.5949,13.3813,0.0],[-87.5888,13.379,5.6564],[-87.5799,13.3801,0.0],[-87.5735,13.3774,2.9118],[-87.5687,13.3799,0.125],[-87.5707,13.3785,0.4397],[-87.5707,13.3763,0.0],[-87.5676,13.3732,0.0],[-87.571,13.3701,0.0],[-87.5693,13.3685,0.0],[-87.5643,13.3693,1.0258],[-87.5607,13.366,0.0],[-87.5485,13.3718,0.0],[-87.5479,13.3751,1.8447],[-87.5471,13.3715,0.0],[-87.5401,13.3726,1.7848],[-87.5418,13.371,0.0],[-87.5479,13.3704,4.2434],[-87.5537,13.3674,0.0],[-87.5587,13.3585,0.0],[-87.5554,13.3526,0.0],[-87.5443,13.351,0.0],[-87.5335,13.3432,0.0],[-87.5301,13.346,1.0404],[-87.5243,13.3454,0.0],[-87.519,13.3482,0.0],[-87.5185,13.3543,0.0],[-87.516,13.3538,0.0],[-87.5124,13.359,0.0],[-87.5118,13.3582,1.2591],[-87.5126,13.356,0.0],[-87.5101,13.3538,0.8797],[-87.506,13.3576,0.0],[-87.5035,13.3568,0.0],[-87.5021,13.3579,0.0],[-87.5004,13.3676,0.0],[-87.5018,13.3715,0.0],[-87.509,13.3688,0.0],[-87.5137,13.3696,2.5809],[-87.5143,13.3765,1.0547],[-87.5168,13.3785,2.9179],[-87.5151,13.3788,1.4359],[-87.5132,13.3768,1.0547],[-87.5118,13.3704,0.0],[-87.5107,13.3705,1.9913],[-87.5093,13.3735,0.0],[-87.511,13.3749,2.0217],[-87.511,13.379,3.7223],[-87.5032,13.3854,0.0],[-87.4996,13.386,0.8584],[-87.5004,13.3846,0.9035],[-87.5074,13.3801,0.0],[-87.5093,13.3757,0.9369],[-87.4985,13.3726,0.0],[-87.4912,13.3654,0.0],[-87.491,13.3632,0.0],[-87.489,13.3626,0.0],[-87.4885,13.3587,0.0],[-87.4782,13.3571,3.0714],[-87.4746,13.3635,0.0],[-87.4749,13.3701,0.0],[-87.4804,13.3871,0.0],[-87.4837,13.3907,0.0],[-87.4837,13.3949,0.0],[-87.4793,13.3988,2.4519],[-87.4818,13.4032,1.3703],[-87.4782,13.4001,2.4519],[-87.4824,13.3932,0.0],[-87.4799,13.3879,0.0],[-87.4771,13.391,0.0],[-87.4757,13.4004,4.0537],[-87.4724,13.3993,0.6707],[-87.4701,13.4013,2.3446],[-87.4704,13.4029,1.5937],[-87.4754,13.4038,0.0],[-87.4768,13.4082,0.6609],[-87.474,13.4043,0.0],[-87.4665,13.404,1.9651],[-87.4632,13.406,0.0],[-87.4624,13.4129,1.3568],[-87.4585,13.4168,0.0],[-87.4449,13.4146,0.7714],[-87.4432,13.4121,0.0],[-87.4437,13.4071,0.0],[-87.4362,13.4043,1.2029],[-87.429,13.3963,0.0],[-87.4243,13.4018,0.0],[-87.4238,13.4074,0.0],[-87.4199,13.4124,0.0],[-87.4204,13.4143,0.0],[-87.4229,13.414,0.5499],[-87.4212,13.4163,0.0],[-87.4193,13.4151,0.0],[-87.4143,13.419,0.0],[-87.4137,13.4213,0.0],[-87.411,13.4213,0.873],[-87.4104,13.4184,0.6901],[-87.4129,13.4126,0.0],[-87.4118,13.4115,0.0],[-87.406,13.4179,0.0],[-87.4024,13.4182,0.0],[-87.3999,13.4132,0.0],[-87.3999,13.4071,0.0],[-87.4026,13.4065,0.4231],[-87.4043,13.404,0.0],[-87.3918,13.4043,2.0659],[-87.3893,13.4013,0.4958],[-87.3896,13.3993,0.0],[-87.3932,13.4021,0.0],[-87.3971,13.4021,0.0],[-87.3965,13.3993,1.7772],[-87.3987,13.4015,0.0],[-87.4071,13.3979,0.5521],[-87.409,13.4007,0.0],[-87.4121,13.4024,0.0],[-87.4135,13.401,0.0],[-87.4137,13.4032,0.0],[-87.4179,13.4049,0.0],[-87.4238,13.3918,1.2146],[-87.4274,13.3754,0.0],[-87.4262,13.3715,2.3806],[-87.4279,13.3635,0.0],[-87.4243,13.3574,0.7938],[-87.4151,13.3701,0.0],[-87.4071,13.3732,0.0],[-87.4121,13.3765,2.4075],[-87.4174,13.3765,0.0],[-87.4118,13.3771,3.2831],[-87.4065,13.374,0.7259],[-87.4037,13.3746,1.2021],[-87.4029,13.379,0.0],[-87.4076,13.384,0.8793],[-87.4046,13.381,0.5459],[-87.399,13.381,0.8637],[-87.4018,13.3801,0.0],[-87.4029,13.3715,0.0],[-87.3985,13.369,2.3001],[-87.3913,13.3693,0.0],[-87.3871,13.3743,0.0],[-87.3876,13.3868,0.6627],[-87.3846,13.3896,0.0],[-87.3819,13.3886,2.6749],[-87.3802,13.3903,1.2136],[-87.3826,13.3936,4.4213],[-87.3811,13.3953,0.9708],[-87.3824,13.3968,0.0],[-87.3813,13.3974,2.0513],[-87.3814,13.4036,1.3528],[-87.3802,13.3977,1.0297],[-87.3779,13.3993,2.0885],[-87.3719,13.3969,3.5869],[-87.3632,13.399,3.5322],[-87.3608,13.4028,4.3978],[-87.356,13.4035,7.5488],[-87.3516,13.41,9.3114],[-87.35,13.4219,16.8443],[-87.3443,13.4278,25.2006],[-87.346,13.4316,30.5657],[-87.3455,13.4375,57.6644],[-87.3416,13.4407,119.7398],[-87.3547,13.4578,298.5748],[-87.3597,13.4693,181.934],[-87.3672,13.4778,144.9165],[-87.3682,13.4879,312.7461],[-87.3632,13.4998,196.1416],[-87.362,13.5203,319.6439],[-87.3703,13.5253,363.0536],[-87.3827,13.5285,398.3439],[-87.3964,13.537,305.686],[-87.4012,13.5434,113.1046],[-87.4159,13.5714,139.2894],[-87.4164,13.5746,70.0331],[-87.413,13.5778,46.627],[-87.4177,13.5862,94.4057],[-87.4238,13.5874,170.6743],[-87.4302,13.5909,192.4083],[-87.4206,13.6223,267.4981],[-87.4141,13.6329,331.5413],[-87.4142,13.6363,437.3642],[-87.4282,13.6465,675.2658],[-87.4369,13.6487,887.1624],[-87.4488,13.6573,760.6304],[-87.4552,13.6591,894.4427],[-87.4587,13.6632,894.2437],[-87.4616,13.6721,648.7072],[-87.4712,13.6729,536.2625],[-87.4783,13.681,403.0313],[-87.4859,13.6813,383.1543],[-87.4906,13.6846,249.2158],[-87.493,13.683,228.8456],[-87.4963,13.687,191.6755],[-87.5038,13.6892,171.4007],[-87.5086,13.6884,227.0766],[-87.5224,13.6943,555.3756],[-87.526,13.7001,469.9639],[-87.5466,13.7127,479.6787],[-87.549,13.7204,357.8462],[-87.568,13.7174,569.8235],[-87.5887,13.7165,500.5797],[-87.6036,13.7223,750.5218],[-87.6145,13.7294,1037.5636],[-87.6196,13.735,1128.6681],[-87.6271,13.7365,940.3657],[-87.6344,13.7432,979.6266],[-87.6456,13.7441,992.9487],[-87.655,13.739,645.3732],[-87.6559,13.7449,627.7831],[-87.6529,13.7686,328.1311],[-87.6512,13.7743,567.9739],[-87.6491,13.7756,677.1892],[-87.6521,13.801,530.1112],[-87.6505,13.8229,999.4595],[-87.674,13.823,377.2673],[-87.6821,13.8331,221.8602],[-87.6942,13.8381,173.708],[-87.6973,13.8431,170.7178],[-87.7138,13.8432,253.4907],[-87.7305,13.84,489.0188],[-87.7453,13.8342,220.2048],[-87.7413,13.8273,280.8575],[-87.7288,13.8177,227.9876],[-87.7197,13.8165,172.9981],[-87.7103,13.8108,159.8418],[-87.7089,13.802,139.2446],[-87.7111,13.776,126.2581],[-87.7216,13.7592,132.2664],[-87.7301,13.7515,109.7045],[-87.7343,13.7421,105.6099],[-87.7339,13.7357,110.5461],[-87.7278,13.7309,88.909],[-87.727,13.7255,104.1272],[-87.7331,13.71,99.0163],[-87.7494,13.6941,79.5175],[-87.7534,13.6868,81.3874],[-87.7548,13.6772,68.7641],[-87.7517,13.6552,62.1522],[-87.7544,13.634,51.0259],[-87.7566,13.6285,66.5493],[-87.7568,13.6005,57.1156],[-87.7636,13.5945,59.4213],[-87.7746,13.5791,45.1009],[-87.7768,13.5695,39.2304],[-87.7863,13.5661,48.1717],[-87.7862,13.5637,35.1572],[-87.7808,13.5607,31.8771],[-87.7857,13.5564,26.5696],[-87.7877,13.5521,35.6366],[-87.7867,13.5449,28.8516],[-87.7893,13.5359,34.5133],[-87.7849,13.5267,26.2455],[-87.7913,13.5188,58.1637],[-87.7909,13.5155,61.4556],[-87.7834,13.5111,22.7559],[-87.7819,13.5043,37.5416],[-87.7763,13.5055,47.8696],[-87.7657,13.5013,56.0508],[-87.7535,13.5103,58.7797],[-87.7512,13.5099,14.3753],[-87.7488,13.5029,20.8895],[-87.7459,13.5027,20.4527],[-87.7408,13.5063,17.7394],[-87.7359,13.5057,16.1237],[-87.7224,13.4997,8.5149],[-87.7217,13.4933,15.5805],[-87.7249,13.4849,11.4371],[-87.7183,13.4609,11.11],[-87.7231,13.4483,9.2747],[-87.7235,13.4407,9.2071],[-87.7257,13.4381,7.541],[-87.7405,13.4385,8.0135],[-87.7503,13.4301,4.7467],[-87.7541,13.4305,4.286],[-87.7569,13.4329,4.8807],[-87.7716,13.4225,2.4296],[-87.7739,13.4175,6.7494],[-87.7868,13.4167,12.9029],[-87.7952,13.4041,12.0568],[-87.8094,13.4031,8.8709]]],
[[[-87.5943,13.3793,0.0],[-87.6018,13.3799,0.0],[-87.6054,13.3777,0.0],[-87.609,13.3701,9.9689],[-87.6215,13.3643,0.0],[-87.6307,13.3657,2.6728],[-87.6307,13.3676,1.1383],[-87.6346,13.3704,1.9931],[-87.6363,13.3746,0.0],[-87.639,13.3726,0.0],[-87.6432,13.3732,1.6552],[-87.6429,13.3707,6.127],[-87.6457,13.3651,0.9238],[-87.6487,13.3621,0.0],[-87.6532,13.3632,9.1812],[-87.6554,13.3663,0.0],[-87.6568,13.3657,0.0],[-87.6551,13.3621,0.0],[-87.6574,13.3601,0.0],[-87.6571,13.3546,0.0],[-87.6532,13.3501,4.6377],[-87.661,13.3465,0.0],[-87.659,13.3382,0.0],[-87.6599,13.3346,0.0],[-87.6526,13.3268,0.0],[-87.6485,13.3255,35.0674],[-87.646,13.3218,0.0],[-87.646,13.3179,0.0],[-87.6418,13.3179,9.5441],[-87.6393,13.3154,0.0],[-87.6312,13.314,13.4384],[-87.6284,13.3124,0.0],[-87.6271,13.3093,0.0],[-87.6193,13.3093,14.8225],[-87.6162,13.3071,5.4614],[-87.6132,13.3079,0.0],[-87.6107,13.3121,5.3813],[-87.609,13.3121,13.6917],[-87.6082,13.309,2.625],[-87.6062,13.3101,0.0],[-87.6001,13.3093,0.0],[-87.5974,13.3126,4.7618],[-87.596,13.3107,0.0],[-87.5929,13.3107,0.0],[-87.5924,13.309,0.0],[-87.5915,13.3129,2.8292],[-87.5893,13.3112,0.0],[-87.5912,13.3088,0.0],[-87.5896,13.306,4.7279],[-87.5874,13.3065,4.388],[-87.586,13.3051,0.0],[-87.586,13.3079,9.1637],[-87.581,13.3079,2.1765],[-87.5815,13.3154,1.4459],[-87.5804,13.3171,0.0],[-87.5821,13.3193,0.0],[-87.581,13.3213,4.5609],[-87.5768,13.3218,0.0],[-87.5749,13.3249,29.7297],[-87.5749,13.3285,21.6855],[-87.5785,13.3312,0.0],[-87.5785,13.3332,0.7176],[-87.5765,13.3332,0.0],[-87.5788,13.3388,2.2326],[-87.5743,13.3457,1.0872],[-87.5879,13.3504,5.7036],[-87.5943,13.3551,1.4616],[-87.5946,13.3574,1.0319],[-87.5923,13.3587,0.0],[-87.5876,13.3576,1.3095],[-87.5832,13.3615,1.504],[-87.5793,13.3626,3.039],[-87.5743,13.3621,5.3174],[-87.5707,13.3593,0.8069],[-87.5646,13.3593,0.0],[-87.5612,13.3651,0.0],[-87.5651,13.3679,0.0],[-87.5704,13.3676,1.9999],[-87.5724,13.3716,0.0],[-87.569,13.3729,1.4442],[-87.5729,13.3768,0.902],[-87.5818,13.379,0.0],[-87.5885,13.3768,8.7645],[-87.5943,13.3793,0.0]]],
[[[-87.5745,13.3607,3.3876],[-87.5813,13.3612,0.0],[-87.586,13.3568,3.9916],[-87.5912,13.3557,0.0],[-87.5907,13.354,5.6166],[-87.5829,13.3499,0.0],[-87.5768,13.3501,0.0],[-87.5738,13.3485,2.4542],[-87.5726,13.3452,1.6043],[-87.5765,13.3401,3.3263],[-87.5746,13.3346,0.0],[-87.564,13.334,0.0],[-87.5546,13.3368,0.0],[-87.5465,13.3371,0.485],[-87.5415,13.3415,0.0],[-87.5415,13.3438,0.0],[-87.5457,13.3463,0.0],[-87.5543,13.3468,1.8305],[-87.5576,13.3488,0.0],[-87.5609,13.3529,2.9998],[-87.5618,13.3582,0.0],[-87.5676,13.3576,1.5466],[-87.5745,13.3607,3.3876]]],
[[[-87.5579,13.3635,1.4851],[-87.5571,13.3657,0.0],[-87.5582,13.366,0.0],[-87.5596,13.3621,0.8767],[-87.5579,13.3635,1.4851]]],
[[[-87.6217,13.4538,0.0],[-87.6162,13.4546,0.0],[-87.6154,13.4582,0.0],[-87.6212,13.4568,0.0],[-87.6217,13.4538,0.0]]],
[[[-87.4693,13.3679,0.0],[-87.4707,13.3693,0.0],[-87.4713,13.3668,0.0],[-87.4685,13.3638,0.0],[-87.4693,13.366,0.0],[-87.4693,13.3679,0.0]]],
[[[-87.4601,13.4062,0.0],[-87.4612,13.4076,1.8616],[-87.4634,13.4049,0.5563],[-87.4682,13.4029,1.5726],[-87.469,13.4001,3.559],[-87.4715,13.3988,0.0],[-87.469,13.3915,1.2784],[-87.4707,13.3918,0.7482],[-87.4749,13.3999,0.0],[-87.4743,13.3979,0.4912],[-87.4779,13.3854,0.9078],[-87.4735,13.3779,1.2014],[-87.4662,13.3718,0.0],[-87.4543,13.376,1.5889],[-87.4457,13.3732,0.0],[-87.4415,13.374,0.9478],[-87.4321,13.3821,0.0],[-87.4313,13.3849,0.0],[-87.4329,13.3862,0.0],[-87.4385,13.3843,0.5315],[-87.444,13.3857,0.0],[-87.4465,13.3896,0.0],[-87.4476,13.3968,1.631],[-87.4551,13.3918,1.461],[-87.4587,13.3929,0.0],[-87.4607,13.3959,1.6215],[-87.4626,13.3957,0.6185],[-87.4638,13.3932,1.7034],[-87.464,13.3963,3.0933],[-87.4604,13.3965,1.6215],[-87.4587,13.399,1.5675],[-87.4582,13.4026,0.0],[-87.4601,13.4062,0.0]]],
[[[-87.456,13.4146,0.0],[-87.4593,13.4154,1.2142],[-87.4607,13.4132,3.3393],[-87.4574,13.4035,0.0],[-87.4596,13.3949,0.0],[-87.4554,13.3929,1.4072],[-87.4501,13.3977,1.196],[-87.4468,13.3974,2.2025],[-87.4451,13.3946,0.0],[-87.4451,13.389,0.0],[-87.4415,13.3857,2.302],[-87.436,13.389,1.8369],[-87.4304,13.3893,0.0],[-87.4357,13.4013,0.9057],[-87.4488,13.4004,2.0281],[-87.4535,13.4029,1.9195],[-87.4526,13.4082,0.0],[-87.4479,13.4076,0.0],[-87.4446,13.4101,0.0],[-87.446,13.414,0.7714],[-87.456,13.4146,0.0]]],
[[[-87.4437,13.4054,1.837],[-87.4443,13.4074,0.0],[-87.4468,13.4068,0.6646],[-87.4474,13.4051,3.2077],[-87.4485,13.4071,0.0],[-87.4515,13.4079,0.0],[-87.4532,13.404,1.0615],[-87.4463,13.4013,0.0],[-87.4404,13.4038,0.0],[-87.4437,13.4054,1.837]]]]}}