{"type":"Feature","properties":{"GID_2":"HND.13.8_1","GID_0":"HND","country":"Honduras","GID_1":"HND.13_1","province":"Lempira","NL_NAME_1":"NA","county":"LaCampa","VARNAME_2":"NA","NL_NAME_2":"NA","TYPE_2":"Municipio","ENGTYPE_2":"Municipality","CC_2":"NA","HASC_2":"HN.LE.LC","name":"La_Campa.county"},
"geometry":{"type": "MultiPolygon","coordinates": [[[[-88.5327,14.5186,843.1195],[-88.5339,14.5119,891.4114],[-88.547,14.509,986.7402],[-88.5526,14.5057,1080.1475],[-88.5531,14.5018,1110.8701],[-88.5593,14.4985,1139.6631],[-88.567,14.4992,1159.0326],[-88.57,14.5018,1134.8954],[-88.5817,14.5021,1264.1799],[-88.5851,14.505,1235.9326],[-88.5994,14.504,1101.2577],[-88.5993,14.4987,1226.6543],[-88.6024,14.4881,1142.137],[-88.5985,14.4882,1169.6974],[-88.6036,14.4817,1212.2078],[-88.605,14.4737,1183.0396],[-88.6152,14.4729,1266.4618],[-88.6241,14.4772,1235.834],[-88.6301,14.4766,1308.6675],[-88.6259,14.4654,1286.5383],[-88.6208,14.4634,1345.5875],[-88.6206,14.4582,1365.9722],[-88.6164,14.4602,1310.912],[-88.6155,14.4594,1301.647],[-88.6065,14.4318,1314.7736],[-88.5995,14.4292,1339.9529],[-88.5873,14.42,1522.8495],[-88.5763,14.4155,1534.5209],[-88.5582,14.4004,1815.5591],[-88.5516,14.3986,1777.7563],[-88.5297,14.385,1809.7324],[-88.5195,14.4105,1451.0099],[-88.5143,14.4104,1355.7661],[-88.5092,14.4158,1416.1636],[-88.5071,14.4161,1350.9872],[-88.5076,14.4181,1348.6995],[-88.4983,14.4229,1288.6774],[-88.4934,14.4359,1226.9543],[-88.4979,14.4378,1163.9989],[-88.4973,14.442,1103.9879],[-88.4989,14.4474,1055.2197],[-88.5017,14.4479,1119.1077],[-88.5025,14.4508,1090.7942],[-88.5048,14.4495,1227.2732],[-88.5038,14.4527,1039.1354],[-88.5082,14.4549,1118.2872],[-88.5093,14.4605,1065.9918],[-88.5071,14.4632,994.8732],[-88.5082,14.4644,962.9144],[-88.5048,14.4665,966.09],[-88.5044,14.4705,959.5363],[-88.508,14.4764,974.4885],[-88.5139,14.4778,953.9659],[-88.5216,14.4909,992.1155],[-88.5216,14.4943,916.1191],[-88.5245,14.4947,906.6282],[-88.5232,14.4957,877.3079],[-88.5262,14.5028,910.4665],[-88.5265,14.5107,885.546],[-88.5306,14.5138,837.5098],[-88.5301,14.5164,860.9645],[-88.5327,14.5186,843.1195]]]]}}