{"type":"Feature","properties":{"GID_2":"HND.16.20_1","GID_0":"HND","country":"Honduras","GID_1":"HND.16_1","province":"SantaBárbara","NL_NAME_1":"NA","county":"SanJosédeColinas","VARNAME_2":"SanJosedeColimas","NL_NAME_2":"NA","TYPE_2":"Municipio","ENGTYPE_2":"Municipality","CC_2":"NA","HASC_2":"HN.SB.SJ","name":"San_Joséde_Colinas.county"},
"geometry":{"type": "MultiPolygon","coordinates": [[[[-88.2262,15.0168,133.8752],[-88.2318,15.024,123.3747],[-88.2297,15.0406,201.3341],[-88.232,15.0477,198.2964],[-88.2793,15.0697,549.7457],[-88.3105,15.0978,904.7823],[-88.3166,15.1115,1216.1199],[-88.3066,15.1239,1182.4072],[-88.3174,15.1338,1559.3938],[-88.3683,15.1458,1095.6289],[-88.3696,15.1453,1051.7518],[-88.3694,15.1431,1011.0781],[-88.3658,15.1369,992.0969],[-88.3669,15.1367,987.4594],[-88.3704,15.1408,990.9963],[-88.3728,15.141,976.3182],[-88.386,15.1374,910.8195],[-88.3906,15.1317,972.5085],[-88.3974,15.1312,861.6924],[-88.4022,15.1271,770.432],[-88.4058,15.1275,730.9744],[-88.4087,15.1309,719.4802],[-88.4066,15.1118,908.0231],[-88.4036,15.111,919.6105],[-88.4034,15.1067,1032.1372],[-88.395,15.1033,915.2778],[-88.3941,15.1012,937.9215],[-88.3919,15.1017,930.6489],[-88.3906,15.0999,947.1366],[-88.3881,15.1014,948.6407],[-88.3837,15.0945,1183.66],[-88.3805,15.0843,1178.8103],[-88.375,15.0808,1037.1187],[-88.3734,15.068,1141.2075],[-88.3744,15.0659,1127.6606],[-88.3775,15.0648,1141.8439],[-88.3966,15.0362,667.2847],[-88.4035,15.0216,284.5647],[-88.4046,15.0155,222.7972],[-88.3952,15.0002,716.9667],[-88.3954,14.9965,635.4506],[-88.3994,14.9927,623.0966],[-88.3985,14.9918,571.7975],[-88.393,14.9928,534.8203],[-88.3851,15.0004,464.6996],[-88.3809,14.9961,366.5516],[-88.3733,14.9921,277.0069],[-88.3602,14.9897,365.9843],[-88.3534,14.9834,400.0212],[-88.3497,14.9819,477.6911],[-88.3374,14.9893,429.8682],[-88.3352,14.9928,566.6461],[-88.3284,14.9926,665.7856],[-88.326,14.9972,533.1872],[-88.3173,14.997,379.6672],[-88.3098,15.0008,315.0733],[-88.2924,14.9963,324.3732],[-88.2903,14.9996,250.0849],[-88.2874,14.9997,245.3095],[-88.2841,14.9969,260.3196],[-88.2826,14.991,307.9986],[-88.2784,14.9845,347.4489],[-88.2712,14.9779,266.9084],[-88.2641,14.9749,251.2655],[-88.2595,14.9637,215.0977],[-88.2527,14.9568,275.0841],[-88.2479,14.9597,206.8235],[-88.2442,14.9647,178.0072],[-88.2316,14.9684,155.2398],[-88.2208,14.9677,312.2179],[-88.2221,14.9758,205.3593],[-88.231,14.9865,134.6203],[-88.2327,14.9926,133.36],[-88.2321,14.9954,134.3712],[-88.223,14.9968,174.4557],[-88.2183,14.9997,270.6821],[-88.2197,15.0019,290.1256],[-88.2266,15.003,178.1983],[-88.2329,15.0075,157.7794],[-88.2324,15.0117,169.8653],[-88.2262,15.0168,133.8752]]]]}}