{"type": "Feature","bbox": [-88.0224,15.2246,-87.9111,15.2938],"geometry": {"type": "MultiPolygon","coordinates": [[[[-87.9363,15.2358,39.7323],[-87.9361,15.2421,37.9545],[-87.9317,15.2499,37.6348],[-87.9334,15.2593,37.939],[-87.9311,15.2609,36.1607],[-87.9221,15.2585,36.7984],[-87.9152,15.2594,36.027],[-87.9126,15.2616,34.9505],[-87.9111,15.2712,40.9034],[-87.9113,15.2731,34.0],[-87.9142,15.2752,37.028],[-87.9261,15.2768,37.9366],[-87.9275,15.2827,35.2157],[-87.9241,15.2883,33.8945],[-87.9312,15.2938,48.2311],[-87.9471,15.2936,112.3175],[-87.9758,15.2825,46.0255],[-87.9858,15.2877,40.6272],[-88.005,15.2888,64.1866],[-88.0224,15.2724,156.2773],[-88.0135,15.2555,43.4202],[-88.0156,15.2465,42.7309],[-88.0125,15.242,47.0717],[-88.0147,15.2335,44.5],[-88.0124,15.2269,172.8047],[-88.0054,15.2246,221.6316],[-87.9733,15.2394,117.0819],[-87.9363,15.2358,39.7323]]]]}
,"properties": {"GID_2": "HND.6.4_1","GID_0": "HND","country": "Honduras","GID_1": "HND.6_1","province": "Cortés","NL_NAME_1": "NA","county": "Pimienta","VARNAME_2": "NA","NL_NAME_2": "NA","TYPE_2": "Municipio","ENGTYPE_2": "Municipality","CC_2": "NA","HASC_2": "HN.CR.PI","name": "Pimienta.county","area_km2": 58.76551,"hist_schema_id": "Elevation0-9000","hist_area_km2": {"25": 10.39085,"50": 28.10398,"75": 5.37947,"100": 4.74535,"125": 3.06815,"150": 2.7819,"175": 2.33198,"200": 0.96145,"225": 0.38868,"250": 0.26594,"275": 0.32731,"300": 0.02046}}}