{"type": "Feature","bbox": [-87.1316,12.9845,-86.9179,13.183],"geometry": {"type": "MultiPolygon","coordinates": [[[[-87.1067,12.9983,5.9688],[-87.0667,12.9971,8.297],[-87.0544,12.9865,11.0183],[-87.0488,12.9845,10.8672],[-87.0315,12.9867,10.4819],[-87.0277,12.9888,11.9499],[-87.024,13.0046,13.8452],[-87.0219,13.006,13.7682],[-87.0123,13.0025,11.6247],[-87.0079,13.0044,12.6723],[-86.9944,13.0165,20.9187],[-86.9907,13.0181,20.4372],[-86.9823,13.0151,24.5167],[-86.9773,13.0157,29.1973],[-86.9787,13.0176,20.297],[-86.9776,13.0201,18.1405],[-86.9684,13.0256,21.7684],[-86.9656,13.0299,22.9638],[-86.9604,13.0306,23.9765],[-86.959,13.0322,24.7003],[-86.9561,13.0511,51.583],[-86.9525,13.0589,37.0621],[-86.9481,13.0641,39.8753],[-86.9283,13.079,48.2575],[-86.9184,13.0893,61.0044],[-86.9179,13.0923,46.5978],[-86.9263,13.1024,48.6945],[-86.9275,13.1116,59.7656],[-86.9333,13.1211,70.1791],[-86.9294,13.1274,69.2155],[-86.933,13.1327,76.9271],[-86.943,13.1397,95.3],[-86.9382,13.1438,82.0105],[-86.9469,13.1488,92.8457],[-86.9538,13.146,96.7979],[-86.9561,13.1489,108.657],[-86.9568,13.1532,92.7084],[-86.9605,13.1524,117.6599],[-86.9644,13.1543,115.0139],[-86.966,13.1518,172.7298],[-86.9697,13.1519,140.5052],[-86.97,13.1576,111.1372],[-86.9758,13.1594,123.7845],[-86.9792,13.1586,131.6821],[-86.9803,13.1609,164.7876],[-86.9862,13.1627,183.6092],[-87.0185,13.1502,167.037],[-87.0207,13.1539,144.0402],[-87.0226,13.1637,201.7746],[-87.0418,13.183,397.7301],[-87.0431,13.1776,380.5514],[-87.0473,13.1733,269.5301],[-87.0504,13.172,267.8426],[-87.0643,13.1724,349.8263],[-87.0728,13.1694,399.2765],[-87.079,13.1599,437.123],[-87.0907,13.1473,192.6852],[-87.0788,13.1404,294.8863],[-87.0808,13.1363,341.2971],[-87.0819,13.1223,254.1181],[-87.0795,13.1168,147.6482],[-87.079,13.1067,163.6478],[-87.0823,13.0978,84.4749],[-87.0873,13.094,54.8283],[-87.0882,13.0913,48.036],[-87.0873,13.0773,35.9588],[-87.0894,13.0684,26.8372],[-87.0961,13.062,28.8662],[-87.102,13.0643,20.4179],[-87.1057,13.0621,16.2361],[-87.1093,13.0564,14.1402],[-87.1145,13.0571,13.3068],[-87.1182,13.0555,11.6704],[-87.1246,13.0454,8.0545],[-87.1261,13.04,4.5363],[-87.1316,13.0338,2.8161],[-87.13,13.0218,5.4548],[-87.1271,13.0146,2.9061],[-87.1204,13.0077,2.0261],[-87.1067,12.9983,5.9688]]]]}
,"properties": {"GID_2": "HND.2.6_1","GID_0": "HND","country": "Honduras","GID_1": "HND.2_1","province": "Choluteca","NL_NAME_1": "NA","county": "ElTriunfo","VARNAME_2": "NA","NL_NAME_2": "NA","TYPE_2": "Municipio","ENGTYPE_2": "Municipality","CC_2": "NA","HASC_2": "HN.CH.ET","name": "El_Triunfo.county","area_km2": 301.2528,"hist_schema_id": "Elevation0-9000","hist_area_km2": {"0": 35.2625,"25": 77.2311,"50": 51.4662,"75": 41.5692,"100": 23.5608,"125": 15.5071,"150": 13.3179,"175": 11.5008,"200": 9.6218,"225": 6.6071,"250": 4.8932,"275": 3.8402,"300": 2.4156,"325": 1.569,"350": 1.1974,"375": 0.7845,"400": 0.7639,"425": 0.1445}}}