{"type": "Feature","bbox": [-89.2222,14.4813,-88.6306,15.2891],"geometry": {"type": "MultiPolygon","coordinates": [[[[-88.7802,14.7033,780.6564],[-88.7682,14.6973,811.873],[-88.7563,14.6971,790.9881],[-88.7499,14.699,743.6219],[-88.7371,14.6934,1023.5756],[-88.7278,14.6935,985.876],[-88.7262,14.6914,995.3453],[-88.6981,14.6972,569.9136],[-88.6844,14.696,757.9796],[-88.6807,14.698,674.6365],[-88.6788,14.7026,671.2804],[-88.6744,14.7067,643.8165],[-88.6681,14.7047,644.2158],[-88.6668,14.7029,653.7863],[-88.6603,14.7049,584.2542],[-88.6593,14.7009,567.0999],[-88.6573,14.7014,570.1623],[-88.6555,14.7054,547.5167],[-88.6528,14.7054,580.9704],[-88.6506,14.7044,535.3556],[-88.6505,14.7006,519.2128],[-88.6472,14.7009,518.7522],[-88.646,14.7122,506.98],[-88.6502,14.7153,488.7558],[-88.6501,14.7194,477.1824],[-88.6521,14.7209,481.6013],[-88.653,14.7249,479.1899],[-88.6575,14.7266,568.119],[-88.6527,14.7345,532.8266],[-88.658,14.7392,472.0147],[-88.6586,14.7521,549.4417],[-88.6623,14.7563,495.2885],[-88.6612,14.761,572.525],[-88.6728,14.7657,668.459],[-88.6746,14.7696,638.5627],[-88.6719,14.7747,512.1248],[-88.6725,14.7824,479.9875],[-88.67,14.7884,675.2164],[-88.672,14.7987,523.6248],[-88.6628,14.8187,803.6054],[-88.6565,14.821,965.5303],[-88.6553,14.8232,951.0407],[-88.6461,14.8287,845.7164],[-88.6457,14.8326,753.4271],[-88.6499,14.8428,586.1439],[-88.6453,14.8508,583.2585],[-88.6366,14.849,796.793],[-88.6381,14.8535,872.2887],[-88.6413,14.8564,723.5857],[-88.6428,14.8666,491.1262],[-88.6351,14.8757,475.1245],[-88.632,14.8824,475.542],[-88.6382,14.9005,446.3104],[-88.6354,14.9098,716.7274],[-88.6371,14.9124,548.8139],[-88.642,14.914,447.4038],[-88.653,14.914,776.9808],[-88.6699,14.9043,867.8676],[-88.6829,14.9061,814.899],[-88.686,14.9103,625.6523],[-88.6888,14.9228,532.6503],[-88.6966,14.9363,649.1013],[-88.6808,14.9774,865.266],[-88.6742,14.9842,1128.3228],[-88.6691,15.0319,1166.366],[-88.6625,15.0403,1103.1948],[-88.6499,15.0513,985.0001],[-88.6368,15.0532,862.3038],[-88.6316,15.0585,758.6765],[-88.6306,15.0648,919.5641],[-88.6365,15.0727,955.3528],[-88.6388,15.0839,842.9697],[-88.6584,15.1029,993.0788],[-88.6567,15.1146,708.0694],[-88.6577,15.1228,583.2334],[-88.6538,15.1348,519.7906],[-88.6419,15.1424,725.0912],[-88.6499,15.1497,500.5458],[-88.6574,15.1524,430.9708],[-88.664,15.1573,399.1517],[-88.6689,15.1558,398.8767],[-88.6735,15.157,403.2435],[-88.6793,15.1639,439.4968],[-88.6844,15.1769,448.1603],[-88.6848,15.1819,453.1886],[-88.6935,15.1854,594.7455],[-88.6947,15.1896,765.8581],[-88.7019,15.1949,702.9822],[-88.7057,15.2011,611.7591],[-88.7171,15.2062,774.3857],[-88.706,15.2328,907.4176],[-88.7609,15.2891,462.8369],[-88.7982,15.2673,431.8242],[-88.8182,15.2571,508.9272],[-88.8262,15.2552,602.1324],[-88.8824,15.2095,1184.6716],[-88.9671,15.1371,229.8875],[-89.0484,15.1057,533.4534],[-89.1479,15.0703,621.4858],[-89.1544,15.0653,426.0821],[-89.1585,15.0529,529.8819],[-89.1702,15.0341,839.1125],[-89.1718,15.0208,975.4331],[-89.1785,15.014,957.2308],[-89.1805,15.0048,1080.3145],[-89.1765,15.005,1028.3724],[-89.1733,15.0,1061.8159],[-89.1732,14.9961,1175.713],[-89.1632,14.9929,1075.4358],[-89.1618,14.9866,1209.1072],[-89.1517,14.9846,1023.7345],[-89.1516,14.9794,941.5598],[-89.1577,14.9715,997.6944],[-89.156,14.9697,999.8535],[-89.1607,14.9474,934.96],[-89.1691,14.9422,1036.8752],[-89.1695,14.9391,930.3754],[-89.1666,14.9352,984.3206],[-89.1667,14.932,970.7561],[-89.1726,14.9216,959.3378],[-89.1765,14.9275,1100.4205],[-89.1831,14.9091,1174.5166],[-89.1883,14.9033,1187.8088],[-89.2189,14.887,838.6776],[-89.2206,14.8846,780.3395],[-89.2222,14.8656,869.9716],[-89.2187,14.8398,875.6219],[-89.1971,14.8103,780.4758],[-89.1634,14.777,1019.8409],[-89.1604,14.7556,744.2441],[-89.16,14.7328,780.5566],[-89.1267,14.7151,801.0684],[-89.134,14.6976,917.4289],[-89.119,14.7044,884.4896],[-89.0966,14.7111,1211.7153],[-89.0845,14.7108,1276.98],[-89.0793,14.714,1363.8489],[-89.075,14.7132,1390.3738],[-89.0716,14.7089,1244.0967],[-89.0629,14.7037,1298.7881],[-89.0544,14.7039,1311.8628],[-89.0465,14.7013,1345.585],[-89.035,14.7047,1515.7339],[-89.0249,14.7045,1682.6425],[-89.0137,14.6997,1616.7211],[-89.007,14.701,1514.1549],[-89.001,14.684,1559.2686],[-89.0028,14.6771,1692.2172],[-88.9983,14.6693,1949.1198],[-88.9975,14.6647,2019.0031],[-88.9958,14.664,1981.7087],[-88.9971,14.6529,2209.29],[-88.9914,14.643,1908.0933],[-88.9786,14.6286,1534.4768],[-88.9707,14.6256,1337.629],[-88.9676,14.6221,1198.536],[-88.9545,14.6168,1311.9944],[-88.9172,14.5831,1035.4092],[-88.9175,14.577,913.8466],[-88.9221,14.5757,900.5314],[-88.9199,14.5689,872.0972],[-88.9222,14.5676,846.3962],[-88.9243,14.563,851.0782],[-88.9239,14.5529,880.2146],[-88.9226,14.5514,886.1065],[-88.9284,14.5481,878.9276],[-88.9218,14.5427,920.7943],[-88.9118,14.5412,1039.1354],[-88.9094,14.5423,1052.051],[-88.9125,14.5268,1034.327],[-88.8919,14.5038,1314.7938],[-88.8509,14.4964,1587.3983],[-88.8437,14.4813,1748.7969],[-88.8223,14.4869,1753.7083],[-88.8221,14.4893,1724.6056],[-88.8274,14.4975,1621.4634],[-88.8236,14.505,1512.0764],[-88.8283,14.5116,1479.8671],[-88.8292,14.5202,1395.7493],[-88.823,14.5228,1503.028],[-88.809,14.5186,1758.3923],[-88.7943,14.5291,1840.1141],[-88.7724,14.5349,1967.4309],[-88.7665,14.5545,1809.3354],[-88.7527,14.5798,1472.9113],[-88.7462,14.5811,1433.8955],[-88.7279,14.5967,2013.921],[-88.7478,14.6286,1214.4529],[-88.7533,14.6316,1327.7234],[-88.755,14.6344,1396.1254],[-88.7696,14.6371,1397.4292],[-88.7925,14.6817,902.4144],[-88.7942,14.687,812.0059],[-88.79,14.6887,893.9376],[-88.7887,14.6987,828.1158],[-88.7848,14.7036,926.9128],[-88.7802,14.7033,780.6564]]]]}
,"properties": {"GID_1": "HND.5_1","GID_0": "HND","country": "Honduras","province": "Copán","VARNAME_1": "NA","NL_NAME_1": "NA","TYPE_1": "Departamento","ENGTYPE_1": "Department","CC_1": "NA","HASC_1": "HN.CP","ISO_1": "NA","name": "Copán.province","area_km2": 3330.764,"hist_schema_id": "Elevation0-9000","hist_area_km2": {"175": 1.289,"200": 2.088,"225": 1.453,"250": 0.901,"275": 1.085,"300": 1.862,"325": 2.824,"350": 3.52,"375": 5.034,"400": 11.155,"425": 31.136,"450": 50.669,"475": 48.789,"500": 49.544,"525": 49.365,"550": 61.592,"575": 72.782,"600": 80.178,"625": 79.506,"650": 81.52,"675": 86.67,"700": 101.248,"725": 112.031,"750": 119.248,"775": 117.917,"800": 118.724,"825": 115.406,"850": 116.781,"875": 116.08,"900": 115.341,"925": 118.622,"950": 114.483,"975": 105.984,"1000": 98.529,"1025": 88.388,"1050": 87.9,"1075": 88.6,"1100": 87.186,"1125": 77.45,"1150": 71.28,"1175": 65.724,"1200": 56.481,"1225": 50.169,"1250": 46.544,"1275": 43.386,"1300": 38.426,"1325": 38.283,"1350": 31.952,"1375": 26.132,"1400": 23.94,"1425": 22.875,"1450": 20.232,"1475": 18.469,"1500": 16.911,"1525": 15.642,"1550": 13.98,"1575": 13.408,"1600": 12.053,"1625": 11.09,"1650": 10.128,"1675": 9.164,"1700": 7.913,"1725": 6.068,"1750": 5.596,"1775": 4.633,"1800": 4.1,"1825": 3.465,"1850": 2.665,"1875": 2.337,"1900": 1.906,"1925": 1.619,"1950": 1.476,"1975": 1.189,"2000": 1.25,"2025": 1.086,"2050": 1.25,"2075": 1.127,"2100": 0.799,"2125": 0.553,"2150": 0.615,"2175": 0.348,"2200": 0.512,"2225": 0.41,"2250": 0.307,"2275": 0.164,"2300": 0.062,"2325": 0.082,"2350": 0.041,"2400": 0.041}}}