{"type": "Feature","id": "651","bbox": [-89.23243,14.5003,-88.63929,15.29996],"geometry": {"type": "Polygon","coordinates": [[[-88.67988,14.92095,501.0095],[-88.68587,14.92291,540.8298],[-88.69244,14.92694,562.3691],[-88.69538,14.93253,590.7173],[-88.69755,14.93883,708.8421],[-88.69988,14.94353,813.3273],[-88.70225,14.95237,1123.4568],[-88.68941,14.98513,1033.7913],[-88.67936,15.0195,1268.2681],[-88.67771,15.03743,1181.6378],[-88.66897,15.05639,1082.0953],[-88.64458,15.07701,771.1803],[-88.64236,15.08414,808.9034],[-88.64262,15.09148,948.0586],[-88.64495,15.09727,965.8656],[-88.65298,15.10936,948.2164],[-88.6574,15.11443,706.9023],[-88.66391,15.13954,431.7224],[-88.65172,15.1551,495.9297],[-88.65267,15.15856,446.2036],[-88.65466,15.1628,440.6832],[-88.66272,15.16827,395.4755],[-88.6791,15.17566,469.5303],[-88.6997,15.1968,622.1785],[-88.71804,15.21716,603.4321],[-88.71649,15.23091,718.9983],[-88.71517,15.23731,999.0167],[-88.71579,15.24527,1138.4664],[-88.75801,15.29566,575.5598],[-88.7609,15.29996,703.9159],[-88.84703,15.2353,1114.6899],[-88.97343,15.14039,165.2739],[-89.00828,15.1244,444.2873],[-89.10983,15.09146,883.0303],[-89.14052,15.07639,744.5867],[-89.14694,15.07128,602.038],[-89.16081,15.06024,578.0898],[-89.17277,15.04221,923.9493],[-89.18858,14.99609,1020.8768],[-89.1691,14.97842,1135.0198],[-89.16915,14.95206,1020.1704],[-89.18153,14.92366,1169.5334],[-89.18921,14.91306,1027.1895],[-89.19881,14.89982,1093.6794],[-89.22362,14.87902,665.269],[-89.23145,14.86731,678.751],[-89.23243,14.8485,742.6864],[-89.22768,14.83457,1035.6689],[-89.21897,14.82168,577.3549],[-89.19881,14.79809,619.0974],[-89.18941,14.783,630.3925],[-89.17055,14.73879,720.8551],[-89.15967,14.72512,740.3088],[-89.15052,14.71729,756.7502],[-89.14621,14.71086,700.3133],[-89.13104,14.71507,764.6265],[-89.09866,14.72448,932.2674],[-89.08556,14.72892,1135.1383],[-89.02565,14.72081,1734.6417],[-89.01027,14.69998,1576.2034],[-89.00309,14.66985,2048.4541],[-88.99456,14.65564,2249.6499],[-88.93056,14.60857,1094.5872],[-88.92426,14.59487,786.1633],[-88.92482,14.56872,844.7028],[-88.92322,14.56128,839.0814],[-88.90992,14.54087,1069.8442],[-88.89266,14.52325,1210.4717],[-88.8748,14.51591,1171.0377],[-88.86121,14.51255,1435.9481],[-88.8492,14.50268,1639.6311],[-88.83682,14.5003,1676.6191],[-88.826669999999993,14.5033,1607.5087],[-88.82403,14.50501,1512.0764],[-88.82483,14.50831,1558.1764],[-88.82721,14.51141,1542.8812],[-88.82762,14.5155,1420.6268],[-88.82772,14.52743,1436.5541],[-88.82434,14.53519,1333.6907],[-88.81708,14.53999,1355.9509],[-88.80059,14.54599,1574.5308],[-88.79098,14.54857,1502.7263],[-88.78181,14.55002,1767.042],[-88.77377,14.54991,1864.8182],[-88.75432,14.54676,2009.0968],[-88.73052,14.54878,2150.7266],[-88.7336,14.60924,1343.026],[-88.74556,14.63027,1176.2727],[-88.75277,14.64076,1569.5883],[-88.78328,14.66898,1021.5026],[-88.79411,14.69445,779.0523],[-88.7947,14.69859,745.7089],[-88.79284,14.71352,638.8515],[-88.77809,14.71822,604.242],[-88.7282,14.71249,634.9739],[-88.69205,14.71507,571.5062],[-88.66373,14.72308,652.4508],[-88.6559,14.72386,529.0328],[-88.65497,14.72975,493.3256],[-88.65551,14.73548,513.363],[-88.65978,14.75357,463.6858],[-88.67006,14.77595,464.4724],[-88.6768,14.787,470.1926],[-88.67781,14.80189,467.6203],[-88.67631,14.81501,511.7336],[-88.67383,14.82328,482.4928],[-88.66954,14.83088,569.0247],[-88.66412,14.83589,533.3066],[-88.65686,14.84457,494.387],[-88.65482,14.84902,499.3662],[-88.65662,14.85977,450.4632],[-88.64332,14.86927,418.5612],[-88.63929,14.89578,514.4518],[-88.64461,14.92736,373.9345],[-88.67988,14.92095,501.0095]]]}
,"properties": {"ISO3166-1-Alpha-3": "HND","country": "Honduras","fill": "#00F","name": "Copán","area_km2": 3294.792,"hist_schema_id": "Elevation0-9000","hist_area_km2": {"175": 2.497,"200": 2.415,"225": 1.637,"250": 1.044,"275": 1.596,"300": 2.231,"325": 3.499,"350": 4.174,"375": 5.771,"400": 13.794,"425": 32.567,"450": 51.303,"475": 47.579,"500": 48.272,"525": 47.723,"550": 58.536,"575": 70.319,"600": 77.859,"625": 79.851,"650": 82.276,"675": 87.529,"700": 101.534,"725": 111.846,"750": 119.494,"775": 117.569,"800": 118.293,"825": 114.668,"850": 116.495,"875": 115.527,"900": 114.725,"925": 118.191,"950": 114.748,"975": 106.332,"1000": 98.467,"1025": 88.796,"1050": 88.432,"1075": 88.742,"1100": 87.0,"1125": 76.506,"1150": 70.398,"1175": 64.738,"1200": 55.331,"1225": 47.893,"1250": 43.55,"1275": 41.089,"1300": 36.293,"1325": 35.781,"1350": 29.572,"1375": 24.614,"1400": 22.688,"1425": 21.869,"1450": 19.349,"1475": 17.587,"1500": 16.295,"1525": 14.883,"1550": 13.324,"1575": 12.628,"1600": 10.822,"1625": 9.982,"1650": 8.076,"1675": 6.928,"1700": 6.046,"1725": 5.104,"1750": 4.631,"1775": 3.669,"1800": 3.136,"1825": 2.767,"1850": 2.316,"1875": 2.686,"1900": 2.091,"1925": 2.009,"1950": 1.886,"1975": 1.681,"2000": 1.599,"2025": 1.579,"2050": 1.722,"2075": 1.763,"2100": 1.291,"2125": 0.902,"2150": 1.312,"2175": 0.615,"2200": 0.779,"2225": 0.759,"2250": 0.41,"2275": 0.246,"2300": 0.103,"2325": 0.082,"2350": 0.041,"2400": 0.041}}}