{"type":"Feature","properties":{"featurecla":"River","scalerank":11,"rivernum":22183,"dissolve":"22183River","name":"null13","name_alt":null,"note":"ID is link back to CEC data","name_full":null,"min_zoom":6.7,"strokeweig":0.15,"uident":2055401,"min_label":7.7},
"geometry":{"type": "LineString","coordinates": [[-88.856800910541224,14.612412827598206,844.6441],[-88.871652798562067,14.599676824994035,815.688],[-88.872547980853724,14.533392645306535,989.4075],[-88.859445767312067,14.494981186973206,1521.0244],[-88.864572720437067,14.452500718223206,1365.8927],[-88.892404751687067,14.415635483848206,1084.4512],[-88.9471736318954,14.393906968223206,995.6584]]}}