{"type":"Feature","properties":{"featurecla":"River","scalerank":11,"rivernum":22183,"dissolve":"22183River","name":"null980","name_alt":null,"note":"ID is link back to CEC data","name_full":null,"min_zoom":6.7,"strokeweig":0.2,"uident":2055401,"min_label":7.7},
"geometry":{"type": "LineString","coordinates": [[-88.228138801166224,15.025254624473206,146.682],[-88.285511848041224,15.021266994264877,247.37],[-88.308176236062067,15.031765041139877,296.9418],[-88.4085994131454,15.035996811973206,422.9559],[-88.473011848041224,15.010280666139877,308.1062],[-88.5658259756454,14.919378973431535,1145.48],[-88.5680232412704,14.786932684369035,1489.4995],[-88.5868220693954,14.749782619264877,1048.0374],[-88.6283259756454,14.723008530723206,589.1526],[-88.696644660541224,14.725694077598206,768.6395],[-88.764393683978724,14.770941473431535,1057.8087],[-88.8099666006454,14.772650457806535,1169.9963],[-88.8329158193954,14.759304103639877,846.0771],[-88.8607478506454,14.727158921348206,1091.3958],[-88.8522029287704,14.684190171348206,863.0217],[-88.834299282937067,14.664618231244035,888.4584],[-88.834787564187067,14.631455796348206,1160.292],[-88.856800910541224,14.612412827598206,844.6441]]}}