{"type":"Feature","properties":{"GID_2":"HND.8.15_1","GID_0":"HND","country":"Honduras","GID_1":"HND.8_1","province":"FranciscoMorazán","NL_NAME_1":"NA","county":"Reitoca","VARNAME_2":"NA","NL_NAME_2":"NA","TYPE_2":"Municipio","ENGTYPE_2":"Municipality","CC_2":"NA","HASC_2":"HN.FM.RE","name":"Reitoca.county"},
"geometry":{"type": "MultiPolygon","coordinates": [[[[-87.3832,13.7549,244.5145],[-87.3795,13.758,150.3817],[-87.3801,13.7606,217.7555],[-87.3881,13.7651,419.1856],[-87.39,13.7685,289.8741],[-87.3853,13.7702,213.6426],[-87.3866,13.7756,324.0214],[-87.382,13.7758,235.3424],[-87.3809,13.7773,190.8167],[-87.3809,13.7837,268.5729],[-87.3855,13.7944,350.8646],[-87.3754,13.7986,286.3016],[-87.3764,13.8055,625.8284],[-87.3712,13.835,1017.0108],[-87.4074,13.9298,1145.6011],[-87.4489,13.9309,907.3315],[-87.494,13.9278,883.8445],[-87.4914,13.9231,915.6904],[-87.4928,13.9136,870.9077],[-87.4971,13.9071,947.382],[-87.4946,13.901,701.5713],[-87.4987,13.8956,681.0609],[-87.4985,13.8886,807.5414],[-87.4965,13.8815,693.452],[-87.487799999999993,13.8746,667.2745],[-87.4873,13.8626,582.8334],[-87.5008,13.8478,374.8807],[-87.4961,13.8211,504.7566],[-87.4955,13.8224,522.5661],[-87.4887,13.8132,441.5681],[-87.4731,13.8083,560.2534],[-87.4585,13.7953,385.3246],[-87.4399,13.7842,550.7019],[-87.4168,13.7808,255.4892],[-87.4167,13.7568,569.7015],[-87.4025,13.7524,390.4115],[-87.4007,13.7551,436.6391],[-87.3971,13.7565,255.9533],[-87.3832,13.7549,244.5145]]]]}}