{"type": "Feature","bbox": [-87.8087,15.4108,-86.391,15.9276],"geometry": {"type": "MultiPolygon","coordinates": [[[[-87.1729,15.7943,0.0],[-87.2182,15.8029,0.8879],[-87.2349,15.8082,0.0],[-87.2457,15.8099,0.7987],[-87.3018,15.8282,0.0],[-87.304,15.8276,0.0],[-87.304,15.8249,1.1285],[-87.3057,15.8237,0.9568],[-87.3051,15.8276,1.4694],[-87.3082,15.8301,1.6851],[-87.3224,15.8324,1.8769],[-87.326,15.8346,1.0033],[-87.3335,15.8346,3.8992],[-87.3349,15.8363,0.659],[-87.3693,15.8476,0.0],[-87.376,15.8482,2.106],[-87.3754,15.8407,0.0],[-87.3826,15.8318,5.4926],[-87.3821,15.8287,8.4544],[-87.3846,15.8299,1.2781],[-87.3863,15.8287,2.6399],[-87.3938,15.819,0.0],[-87.4007,15.8157,0.0],[-87.4074,15.8146,2.0833],[-87.4313,15.8146,3.9249],[-87.4321,15.8126,22.3533],[-87.4301,15.809,11.1628],[-87.4321,15.8037,4.5134],[-87.4399,15.7968,3.4956],[-87.444,15.789,1.4666],[-87.4524,15.7854,4.3255],[-87.4549,15.7826,1.4628],[-87.4593,15.781,1.6111],[-87.4821,15.7812,4.4179],[-87.5013,15.7868,2.1865],[-87.504,15.7863,2.6411],[-87.5163,15.7926,0.0],[-87.5199,15.7929,1.508],[-87.5218,15.7904,3.2904],[-87.5212,15.7876,1.427],[-87.5124,15.7796,5.295],[-87.5088,15.7788,3.8027],[-87.5124,15.7779,1.0052],[-87.5238,15.7876,6.5176],[-87.5243,15.7904,3.2246],[-87.521,15.7932,1.2166],[-87.5218,15.7946,0.0],[-87.5329,15.7996,0.4122],[-87.5496,15.8107,0.0],[-87.5879,15.8429,0.5574],[-87.5882,15.8418,0.0],[-87.5804,15.836,0.6641],[-87.5785,15.8315,1.6144],[-87.5738,15.829,2.5517],[-87.5701,15.8243,3.056],[-87.5651,15.8221,2.7004],[-87.5626,15.8162,6.1838],[-87.5668,15.8174,11.5548],[-87.5726,15.8229,0.0],[-87.576,15.8221,2.8512],[-87.5818,15.8243,3.4973],[-87.581,15.8287,7.1307],[-87.5896,15.8393,4.9306],[-87.5871,15.8407,0.0],[-87.5888,15.8413,0.0],[-87.589,15.8426,0.0],[-87.5926,15.8426,0.0],[-87.5899,15.8443,0.0],[-87.5904,15.8471,0.0],[-87.6093,15.866,0.0],[-87.6193,15.8801,0.0],[-87.6251,15.8915,1.373],[-87.629,15.9074,4.0981],[-87.6279,15.9087,0.0],[-87.6196,15.9096,0.0],[-87.6185,15.9121,10.8552],[-87.611,15.9165,0.0],[-87.6093,15.9204,0.0],[-87.6032,15.9232,0.0],[-87.6012,15.926,0.0],[-87.6021,15.9276,0.0],[-87.6062,15.9243,26.4705],[-87.6082,15.9249,8.9174],[-87.6115,15.9213,67.4679],[-87.6146,15.9213,16.6152],[-87.6151,15.9193,87.976],[-87.6201,15.921,0.0],[-87.6226,15.919,0.0],[-87.6215,15.9162,10.5707],[-87.624,15.9132,41.3728],[-87.6268,15.9137,17.4954],[-87.6257,15.9182,0.0],[-87.6301,15.9124,0.0],[-87.6326,15.9115,0.0],[-87.6301,15.9101,0.0],[-87.6324,15.9054,12.3661],[-87.6349,15.9046,7.2497],[-87.6387,15.9065,6.7082],[-87.6365,15.9104,23.4494],[-87.644,15.906,28.5899],[-87.644,15.9007,6.4876],[-87.6471,15.896,0.0],[-87.6418,15.9004,0.0],[-87.6418,15.9046,3.6304],[-87.6401,15.9063,6.7082],[-87.6396,15.9024,1.1362],[-87.6357,15.8979,5.0867],[-87.6374,15.8932,0.0],[-87.6346,15.8912,0.8702],[-87.6343,15.8782,0.0],[-87.6401,15.8751,6.9154],[-87.6462,15.8763,7.5929],[-87.6521,15.8824,0.0],[-87.646,15.8943,0.0],[-87.6468,15.8957,0.0],[-87.6507,15.8926,38.6047],[-87.6537,15.8924,6.873],[-87.6554,15.8879,1.1728],[-87.656,15.8887,1.1728],[-87.6554,15.8907,1.6504],[-87.6649,15.8921,1.1245],[-87.6782,15.8982,1.9319],[-87.6796,15.8982,1.9069],[-87.6807,15.8943,1.8892],[-87.684,15.8935,2.5438],[-87.681,15.8968,1.2805],[-87.6821,15.9004,4.2085],[-87.7129,15.9182,1.6499],[-87.7171,15.919,0.0],[-87.7204,15.9171,0.0],[-87.7196,15.919,0.0],[-87.7215,15.9201,0.0],[-87.7307,15.9201,3.3604],[-87.7351,15.9039,4.3347],[-87.7389,15.9001,11.8216],[-87.7381,15.8883,7.9354],[-87.7394,15.8839,3.3578],[-87.7428,15.8805,4.0341],[-87.7488,15.878,1.7552],[-87.7541,15.8787,2.3024],[-87.7587,15.8819,2.1885],[-87.7674,15.8693,4.594],[-87.781,15.8569,11.7154],[-87.7803,15.8497,11.0197],[-87.7744,15.8442,6.941],[-87.7803,15.8398,3.908],[-87.7815,15.8225,5.3908],[-87.7784,15.8184,5.9243],[-87.7827,15.818,3.6824],[-87.7895,15.8241,5.6468],[-87.7927,15.8231,3.5232],[-87.7885,15.8098,4.5529],[-87.7887,15.8064,7.443],[-87.79,15.8044,5.6498],[-87.7941,15.8032,5.0182],[-87.7993,15.8081,7.2944],[-87.8036,15.8084,4.6974],[-87.8028,15.7939,5.9176],[-87.8073,15.7895,7.7098],[-87.8087,15.7853,9.2856],[-87.8056,15.7835,11.7676],[-87.7978,15.7848,7.1464],[-87.7963,15.7784,3.7082],[-87.7895,15.7715,4.4355],[-87.7947,15.759,3.6761],[-87.7938,15.7563,7.2864],[-87.7904,15.7561,2.4388],[-87.7851,15.7694,6.002],[-87.7833,15.7703,3.9981],[-87.7808,15.7683,5.3344],[-87.7786,15.7619,7.3064],[-87.7735,15.7568,3.7552],[-87.7736,15.7434,5.1913],[-87.7649,15.7337,8.0395],[-87.7665,15.7291,7.8045],[-87.7807,15.7294,7.0499],[-87.7844,15.7273,5.9999],[-87.7819,15.7133,7.193],[-87.7844,15.7068,9.5557],[-87.7832,15.7028,7.1821],[-87.779,15.6999,9.5899],[-87.7725,15.7006,11.1815],[-87.7711,15.6988,11.5121],[-87.767,15.6999,10.9744],[-87.7622,15.6973,7.6929],[-87.7568,15.697,5.8104],[-87.7552,15.6938,5.7714],[-87.752,15.6922,5.7275],[-87.7518,15.689,6.3808],[-87.7497,15.6878,7.3187],[-87.7502,15.685,6.0416],[-87.747,15.6808,5.6943],[-87.7429,15.6813,6.33],[-87.7421,15.6784,7.1123],[-87.7395,15.679,6.7223],[-87.7353,15.6766,7.8546],[-87.7344,15.6733,11.6182],[-87.7285,15.6687,12.3589],[-87.7146,15.6678,5.9629],[-87.7159,15.6641,5.8499],[-87.7136,15.6633,6.202],[-87.7097,15.6664,6.1135],[-87.7072,15.6657,6.6372],[-87.7051,15.6604,9.5739],[-87.705,15.6538,7.5358],[-87.7022,15.6498,8.4671],[-87.6994,15.6503,7.8534],[-87.6986,15.6474,7.9232],[-87.6921,15.644,12.1055],[-87.6928,15.6149,16.0143],[-87.6886,15.6012,26.6017],[-87.6906,15.5968,22.6819],[-87.6908,15.5912,22.2286],[-87.6867,15.5829,24.6681],[-87.688,15.5806,22.8616],[-87.6855,15.5757,21.8435],[-87.6877,15.5724,25.2785],[-87.6835,15.5671,36.7321],[-87.6847,15.5641,30.6532],[-87.6779,15.5538,26.8967],[-87.6766,15.5466,37.9832],[-87.6722,15.544,34.1262],[-87.6687,15.5445,36.0088],[-87.6653,15.5399,40.8352],[-87.6665,15.5376,39.3872],[-87.6616,15.5322,53.7952],[-87.6546,15.5312,63.0046],[-87.6516,15.5287,69.923],[-87.6451,15.5145,297.8262],[-87.6412,15.5121,414.4436],[-87.6388,15.5078,454.6971],[-87.634,15.5048,359.4137],[-87.6254,15.5038,502.8465],[-87.5871,15.5057,276.6333],[-87.5794,15.5082,236.7325],[-87.5723,15.5084,221.7877],[-87.5726,15.5107,255.1541],[-87.563,15.5144,219.9411],[-87.5591,15.5116,201.1005],[-87.554,15.5125,186.1947],[-87.548,15.5177,176.4643],[-87.5403,15.5198,167.458],[-87.5336,15.5186,158.1221],[-87.5283,15.5107,201.349],[-87.5242,15.5151,167.7521],[-87.5023,15.5215,105.5214],[-87.4988,15.5279,120.1996],[-87.4944,15.5299,96.888],[-87.4904,15.5363,102.9196],[-87.4867,15.5375,89.0747],[-87.4799,15.5364,80.1412],[-87.4759,15.5406,75.585],[-87.4654,15.5275,90.1612],[-87.4568,15.5262,123.9293],[-87.4527,15.5273,89.2548],[-87.4519,15.526,103.7193],[-87.4519,15.5207,119.3132],[-87.4541,15.5183,137.685],[-87.4511,15.5134,299.0685],[-87.4546,15.5127,198.8206],[-87.4523,15.5109,313.9517],[-87.4532,15.5076,243.8433],[-87.4577,15.506,213.7569],[-87.4557,15.5011,338.9576],[-87.4574,15.4937,616.6938],[-87.4535,15.4914,676.1584],[-87.4531,15.4877,829.9105],[-87.4496,15.4854,787.0722],[-87.4553,15.4813,838.1163],[-87.4555,15.4796,866.2702],[-87.4544,15.4773,771.8992],[-87.4495,15.4768,880.091],[-87.444,15.4727,848.7518],[-87.4408,15.4649,996.0096],[-87.4422,15.458,1013.0712],[-87.4404,15.4574,1069.4242],[-87.4381,15.4594,1138.5916],[-87.4362,15.4529,1190.0469],[-87.4348,15.4524,1190.0469],[-87.4331,15.4548,1153.0671],[-87.4308,15.4531,1165.2435],[-87.4303,15.4493,1229.0911],[-87.4272,15.4493,1180.1552],[-87.4273,15.4513,1178.8861],[-87.4209,15.4488,984.3834],[-87.4236,15.4448,1156.6956],[-87.4226,15.4436,1226.1243],[-87.4205,15.4454,1202.5894],[-87.4204,15.442,1298.8901],[-87.4125,15.4454,1223.9185],[-87.4116,15.4436,1248.0461],[-87.4135,15.4386,1251.5321],[-87.4082,15.4392,1351.465],[-87.4099,15.4369,1197.3506],[-87.4077,15.4354,1276.4192],[-87.4078,15.433,1136.0469],[-87.4065,15.4315,1272.9282],[-87.4027,15.4323,1306.759],[-87.403,15.4301,1214.6763],[-87.3928,15.4345,1385.6147],[-87.3863,15.4355,1251.1016],[-87.3759,15.4457,1409.9204],[-87.3717,15.4485,1441.3762],[-87.3683,15.4488,1486.9949],[-87.3607,15.4435,1344.1307],[-87.3513,15.4444,1443.4581],[-87.3417,15.4322,1122.7664],[-87.3385,15.4323,1141.1531],[-87.3309,15.4369,1419.4861],[-87.3196,15.4393,1501.5447],[-87.3092,15.4361,1718.5798],[-87.3032,15.4282,1435.2822],[-87.2943,15.4289,1625.3719],[-87.2898,15.4245,1429.0524],[-87.2844,15.4276,1426.6577],[-87.2796,15.427,1458.8779],[-87.2492,15.4138,1053.9336],[-87.234,15.4137,1220.5706],[-87.2247,15.4174,1389.3976],[-87.2195,15.4115,1345.3267],[-87.2109,15.4108,1206.3401],[-87.2043,15.4188,1536.9857],[-87.2025,15.4298,1537.6779],[-87.1974,15.434,1357.6074],[-87.1852,15.4501,752.4843],[-87.1793,15.4506,630.3846],[-87.1697,15.4477,782.3015],[-87.1591,15.447,746.507],[-87.1412,15.4483,818.4166],[-87.1265,15.4643,835.6681],[-87.1097,15.4653,1087.3464],[-87.0844,15.4796,843.4325],[-87.0829,15.4812,733.1852],[-87.0846,15.4916,575.5491],[-87.0777,15.497,501.1569],[-87.0779,15.5024,424.9971],[-87.0712,15.506,629.4159],[-87.0644,15.507,680.6432],[-87.0621,15.5117,897.0846],[-87.0558,15.5166,1247.3473],[-87.0443,15.5223,1126.031],[-87.0358,15.5356,829.6075],[-87.0317,15.5383,612.9163],[-87.0264,15.5461,602.3487],[-87.02,15.5506,994.801],[-87.016,15.545,927.3608],[-87.0081,15.5426,1030.2737],[-86.9992,15.5443,1076.4351],[-86.9863,15.5428,972.676],[-86.9795,15.5444,1341.3398],[-86.9624,15.5426,1219.2657],[-86.9418,15.5573,1185.3334],[-86.9343,15.5528,1434.5463],[-86.9305,15.5529,1472.9709],[-86.9154,15.5581,1853.4387],[-86.9106,15.5564,1999.6132],[-86.9027,15.5575,2131.2822],[-86.8923,15.5648,1878.6216],[-86.8855,15.5636,2123.0139],[-86.8831,15.5561,1979.7571],[-86.8829,15.5463,1712.0693],[-86.8728,15.5474,1802.8762],[-86.8589,15.54,1647.7063],[-86.8452,15.5521,1975.9952],[-86.8401,15.5534,2029.334],[-86.8359,15.5527,2025.5991],[-86.8316,15.5461,1900.9535],[-86.8081,15.5428,1432.0365],[-86.8047,15.5406,1382.8673],[-86.8008,15.542,1337.2593],[-86.7968,15.5406,1311.964],[-86.7924,15.5424,1229.7169],[-86.791,15.5462,1374.6072],[-86.7883,15.5474,1301.8997],[-86.7608,15.5548,969.192],[-86.7256,15.5776,628.0202],[-86.6696,15.5985,660.7484],[-86.6038,15.5816,1234.084],[-86.5832,15.5868,1557.5605],[-86.5644,15.5877,1333.0615],[-86.5617,15.5868,1229.5287],[-86.5546,15.5781,935.2006],[-86.5518,15.5768,853.494],[-86.548,15.5779,858.4317],[-86.5474,15.5811,906.7616],[-86.5403,15.5791,941.0369],[-86.5311,15.5838,1115.8018],[-86.5256,15.5825,1209.304],[-86.5207,15.5844,1266.5795],[-86.5145,15.5836,1379.2915],[-86.5119,15.5889,1283.9365],[-86.5028,15.589,1389.6034],[-86.4911,15.5857,971.3987],[-86.4826,15.5796,753.4496],[-86.4738,15.5792,959.8632],[-86.4547,15.5733,496.9075],[-86.4432,15.5859,539.3613],[-86.4049,15.5941,572.8146],[-86.3933,15.5998,334.3044],[-86.3917,15.6041,371.4713],[-86.3917,15.6129,233.0005],[-86.3937,15.6152,224.1869],[-86.3937,15.6344,204.6858],[-86.391,15.6364,281.9575],[-86.391,15.6394,270.1515],[-86.3933,15.6454,284.3163],[-86.3937,15.6679,266.944],[-86.3994,15.6743,257.0306],[-86.4111,15.673,271.7889],[-86.4152,15.6777,302.8912],[-86.4232,15.677,215.0597],[-86.4256,15.6834,386.2028],[-86.4246,15.7002,239.6205],[-86.4263,15.7039,251.7122],[-86.4377,15.716,152.9031],[-86.4481,15.717,155.7607],[-86.4647,15.723,78.2782],[-86.4687,15.7267,120.3291],[-86.4725,15.7388,149.5722],[-86.4735,15.756,17.7023],[-86.4771,15.7617,14.9197],[-86.4775,15.7697,11.5672],[-86.4765,15.7734,7.7927],[-86.4684,15.7748,15.3302],[-86.4687,15.7778,12.6243],[-86.4939,15.7969,7.7139],[-86.4966,15.7983,10.3841],[-86.5007,15.7976,8.6081],[-86.5107,15.8061,4.179],[-86.5118,15.8138,0.0],[-86.5254,15.8068,6.3141],[-86.596,15.7976,1.3357],[-86.6357,15.7976,0.0],[-86.641,15.7968,3.0138],[-86.651,15.7918,3.8967],[-86.6593,15.7915,2.5889],[-86.6649,15.7887,5.634],[-86.6757,15.7876,1.1757],[-86.721,15.7887,2.0467],[-86.7507,15.7935,2.5801],[-86.7585,15.7971,0.0],[-86.7604,15.7949,0.654],[-86.7599,15.7926,0.0],[-86.7618,15.7921,1.4364],[-86.7621,15.7976,0.0],[-86.7668,15.799,0.0],[-86.7787,15.7812,2.4325],[-86.7785,15.776,3.8333],[-86.7796,15.776,3.8333],[-86.7801,15.7818,2.4325],[-86.7757,15.7901,0.0],[-86.776,15.7954,0.0],[-86.7787,15.7993,0.0],[-86.7843,15.7951,1.9627],[-86.7921,15.7926,0.0],[-86.7929,15.7904,3.0765],[-86.8043,15.781,0.5087],[-86.8151,15.7776,0.0],[-86.8185,15.7754,0.1021],[-86.8171,15.7735,0.5971],[-86.8226,15.774,0.0],[-86.8313,15.7674,0.3132],[-86.8749,15.7632,1.0616],[-86.8832,15.7637,0.6861],[-86.8835,15.7621,0.6861],[-86.8854,15.7632,0.0],[-86.8968,15.7571,0.797],[-86.9068,15.7551,3.1856],[-86.9635,15.7612,1.0749],[-86.994,15.7685,1.3281],[-87.0032,15.7735,0.0],[-87.0124,15.7762,0.0],[-87.0079,15.7721,0.9802],[-87.0038,15.7715,1.304],[-87.0001,15.7685,2.7463],[-86.9976,15.7551,0.0],[-86.9951,15.7529,6.5431],[-86.9985,15.751,3.9494],[-86.9999,15.7535,3.6523],[-86.9987,15.7574,7.9174],[-86.9999,15.7657,0.6593],[-87.0015,15.7682,0.7097],[-87.004,15.7707,1.304],[-87.0068,15.771,1.9172],[-87.0196,15.7771,0.0],[-87.0396,15.7757,0.0],[-87.0512,15.7765,0.9453],[-87.0779,15.7824,0.0],[-87.0921,15.7871,0.0],[-87.0904,15.7835,2.0466],[-87.0757,15.7754,2.6694],[-87.0768,15.7749,3.5475],[-87.0857,15.779,0.0],[-87.0876,15.7785,2.0472],[-87.0885,15.7807,0.0],[-87.1046,15.7835,2.7451],[-87.1029,15.7843,2.455],[-87.0929,15.7829,0.0],[-87.0926,15.7863,1.3663],[-87.0943,15.7874,0.0],[-87.1126,15.7868,1.3794],[-87.1438,15.7899,0.5296],[-87.1421,15.7871,0.9361],[-87.1332,15.7849,0.9059],[-87.1326,15.7807,0.4187],[-87.1304,15.7796,0.9666],[-87.1329,15.7779,6.6076],[-87.1344,15.7849,2.5289],[-87.1363,15.784,0.0595],[-87.1343,15.7818,4.5233],[-87.1379,15.7818,7.5962],[-87.1451,15.7887,5.4117],[-87.1507,15.791,0.8958],[-87.1729,15.7943,0.0]]],
[[[-86.7707,15.7996,-0.0077],[-86.7751,15.8001,0.0],[-86.774,15.794,0.0],[-86.7696,15.7963,0.0],[-86.769,15.7996,0.0],[-86.7707,15.7996,-0.0077]]]]}
,"properties": {"GID_1": "HND.1_1","GID_0": "HND","country": "Honduras","province": "Atlántida","VARNAME_1": "NA","NL_NAME_1": "NA","TYPE_1": "Departamento","ENGTYPE_1": "Department","CC_1": "NA","HASC_1": "HN.AT","ISO_1": "NA","name": "Atlántida.province","area_km2": 4468.087,"hist_schema_id": "Elevation0-9000","hist_area_km2": {"0": 929.367,"25": 564.077,"50": 194.393,"75": 150.996,"100": 141.011,"125": 127.168,"150": 121.273,"175": 108.961,"200": 95.18,"225": 87.524,"250": 80.868,"275": 77.522,"300": 71.092,"325": 65.091,"350": 63.539,"375": 62.234,"400": 57.497,"425": 57.723,"450": 54.681,"475": 53.11,"500": 51.273,"525": 50.763,"550": 46.046,"575": 47.253,"600": 45.416,"625": 44.743,"650": 41.475,"675": 39.923,"700": 38.004,"725": 37.8,"750": 36.187,"775": 35.329,"800": 33.757,"825": 31.429,"850": 29.877,"875": 29.612,"900": 28.651,"925": 27.856,"950": 26.672,"975": 24.589,"1000": 23.526,"1025": 24.058,"1050": 22.139,"1075": 19.994,"1100": 21.607,"1125": 20.015,"1150": 19.199,"1175": 18.484,"1200": 18.116,"1225": 16.483,"1250": 17.729,"1275": 16.237,"1300": 17.259,"1325": 17.32,"1350": 15.911,"1375": 15.135,"1400": 14.931,"1425": 14.604,"1450": 13.869,"1475": 14.502,"1500": 14.482,"1525": 13.338,"1550": 13.869,"1575": 14.135,"1600": 12.072,"1625": 11.827,"1650": 11.295,"1675": 10.152,"1700": 9.743,"1725": 9.805,"1750": 8.804,"1775": 8.273,"1800": 7.027,"1825": 7.149,"1850": 6.312,"1875": 5.597,"1900": 4.923,"1925": 4.208,"1950": 3.697,"1975": 3.391,"2000": 3.023,"2025": 2.43,"2050": 2.247,"2075": 2.124,"2100": 1.777,"2125": 1.287,"2150": 1.001,"2175": 0.756,"2200": 0.49,"2225": 0.286,"2250": 0.265,"2275": 0.204,"2300": 0.143,"2325": 0.286,"2350": 0.143,"2375": 0.266,"2400": 0.082,"2425": 0.061,"2450": 0.041}}}