{"type": "Feature","id": "637","bbox": [-87.79487,15.42655,-86.36167,15.98062],"geometry": {"type": "MultiPolygon","coordinates": [[[[-87.60863,15.88768,0.0],[-87.6173,15.8946,0.0],[-87.61042,15.9101,0.0],[-87.5913,15.93549,0.0],[-87.62597,15.91494,0.0],[-87.6363,15.90351,4.8912],[-87.62605,15.89395,3.1396],[-87.62605,15.88768,10.0027],[-87.64306,15.88923,0.0],[-87.68749,15.91498,0.0],[-87.70434,15.92072,0.0],[-87.72216,15.92292,0.0],[-87.72834,15.92101,0.0],[-87.72835,15.921,0.0],[-87.72516,15.89732,2.108],[-87.73069,15.88787,2.242],[-87.74053,15.88203,6.9373],[-87.75161,15.87221,1.8659],[-87.75738,15.8628,5.6218],[-87.76645,15.83862,4.4539],[-87.77373,15.82849,3.2216],[-87.78949,15.81283,5.5578],[-87.79487,15.80389,4.2456],[-87.79466,15.79335,7.4345],[-87.77952,15.77645,6.1632],[-87.77544,15.76322,5.7226],[-87.76738,15.76529,7.7993],[-87.76118,15.76043,11.1662],[-87.75787,15.75113,5.1169],[-87.75841,15.73981,6.0911],[-87.76428,15.72969,7.783],[-87.77324,15.72462,8.4743],[-87.78758,15.721,8.0712],[-87.71459,15.67212,6.006],[-87.6979,15.6637,8.285],[-87.6872,15.64468,9.3675],[-87.678,15.61011,25.3005],[-87.67699,15.59553,30.0214],[-87.67152,15.56468,32.4482],[-87.66867,15.55859,37.5528],[-87.66542,15.55357,32.9976],[-87.62555,15.51078,471.9718],[-87.61,15.50443,516.333],[-87.56535,15.5081,254.0584],[-87.52336,15.5191,148.296],[-87.50886,15.5174,116.5536],[-87.46993,15.53874,76.1239],[-87.46476,15.54065,68.8867],[-87.45556,15.53993,71.2013],[-87.4384,15.52897,99.8475],[-87.4367,15.51843,176.7893],[-87.43616,15.50562,228.7415],[-87.43076,15.48066,509.5607],[-87.42409,15.46981,730.8361],[-87.4167,15.46076,847.2878],[-87.4105,15.4559,854.3628],[-87.40202,15.45048,931.4807],[-87.38719,15.44366,1147.2151],[-87.38197,15.44216,1259.2026],[-87.37572,15.44123,1296.4465],[-87.37076,15.44299,1290.2888],[-87.36487,15.44567,1385.7819],[-87.36063,15.44934,1372.5747],[-87.35474,15.45105,1567.8607],[-87.34947,15.45456,1623.1677],[-87.34275,15.45642,1687.1997],[-87.33539,15.45544,1700.8707],[-87.32394,15.45141,1822.5302],[-87.31466,15.4449,1837.8815],[-87.30521,15.44335,1851.359],[-87.29487,15.4435,1770.955],[-87.22369,15.42717,1347.8463],[-87.18245,15.42655,1201.4048],[-87.1777,15.42945,936.6888],[-87.16757,15.43797,826.4819],[-87.13726,15.4588,1076.3032],[-87.0721,15.48164,919.8993],[-87.05416,15.49156,948.0144],[-87.04458,15.499,1198.6208],[-87.02833,15.51688,1431.4642],[-86.99063,15.54882,1284.8071],[-86.97236,15.55176,1433.1301],[-86.92712,15.55068,1602.6013],[-86.8558,15.56928,1953.0762],[-86.84376,15.553,1962.781],[-86.82498,15.54887,1849.3506],[-86.81002,15.55058,1669.3887],[-86.77894,15.55068,1262.8979],[-86.75721,15.55564,955.6792],[-86.73214,15.56417,856.1804],[-86.69059,15.58675,963.8175],[-86.66956,15.59574,649.3859],[-86.64796,15.60246,555.1917],[-86.63626,15.60463,555.287],[-86.61918,15.60174,900.8655],[-86.58334,15.59202,1447.1743],[-86.54675,15.59429,1112.8145],[-86.53686,15.59285,1218.8916],[-86.52639,15.58871,1032.0477],[-86.51769,15.58799,1372.3148],[-86.50931,15.58944,1215.5165],[-86.5028,15.59181,1361.1576],[-86.49562,15.59347,1072.1388],[-86.4704,15.59646,728.3702],[-86.44278,15.59212,426.0933],[-86.42095,15.58282,673.2421],[-86.39904,15.59553,423.9727],[-86.37552,15.60442,243.4055],[-86.36601,15.61362,337.931],[-86.36167,15.62654,355.9675],[-86.36191,15.64892,557.5593],[-86.36346,15.67217,350.3552],[-86.36601,15.67553,335.3694],[-86.3695,15.67894,386.8618],[-86.37591,15.67827,311.2773],[-86.37961,15.67847,308.787],[-86.3849,15.68111,269.1797],[-86.39433,15.68442,270.6035],[-86.39743,15.68969,242.0819],[-86.40878,15.71418,165.7172],[-86.41774,15.72292,264.9475],[-86.43211,15.73449,334.2731],[-86.43834,15.74193,167.5517],[-86.44154,15.75005,28.1582],[-86.4433,15.764099999999999,8.6178],[-86.44469,15.77025,4.5516],[-86.44642,15.77547,1.7949],[-86.44725,15.77909,0.6107],[-86.44632,15.78141,0.3413],[-86.44482,15.78219,3.4884],[-86.43772,15.78255,1.9213],[-86.43787,15.79085,0.0],[-86.43993,15.79214,0.0],[-86.47057,15.80419,0.3197],[-86.50381,15.80508,1.4769],[-86.69909,15.78864,0.0],[-86.74157,15.79214,0.0],[-86.74645,15.7956,0.0],[-86.75845,15.80231,0.0],[-86.77066,15.80655,0.0],[-86.77636,15.80199,0.0],[-86.78018,15.8002,0.0],[-86.79686,15.78758,0.0],[-86.79963,15.78461,2.3528],[-86.81737,15.78189,0.0],[-86.87873,15.76415,0.0],[-86.91686,15.7604,0.0],[-86.9525,15.76333,0.0],[-87.05899,15.78701,0.0],[-87.15172,15.79686,0.0],[-87.24177,15.82738,0.0],[-87.34508,15.85033,0.0],[-87.36498,15.84833,0.0],[-87.37995,15.8395,0.0],[-87.38585,15.8225,5.2192],[-87.39118,15.81843,3.8854],[-87.41714,15.81953,0.0],[-87.42683,15.81879,0.0],[-87.43155,15.81395,3.9249],[-87.44176,15.79776,0.0],[-87.44734,15.79214,0.0],[-87.4794,15.78604,0.0],[-87.50963,15.79865,0.0],[-87.60314,15.88076,0.0],[-87.60863,15.88768,0.0]]],
[[[-86.4886,15.95864,0.0],[-86.49234,15.96703,0.0],[-86.49446,15.96133,0.0],[-86.49836,15.95649,72.0062],[-86.4936,15.95307,0.0],[-86.4886,15.95864,0.0]]],
[[[-86.46552,15.96894,0.0],[-86.46569,15.97757,0.0],[-86.4711,15.98062,0.0],[-86.47688,15.97671,91.1951],[-86.47663,15.97362,69.7784],[-86.47228,15.96955,42.9449],[-86.46963,15.96544,0.0],[-86.46552,15.96894,0.0]]]]}
,"properties": {"ISO3166-1-Alpha-3": "HND","country": "Honduras","fill": "#F0F","name": "Atlántida","area_km2": 4536.951,"hist_schema_id": "Elevation0-9000","hist_area_km2": {"0": 1018.666,"25": 556.088,"50": 192.942,"75": 149.116,"100": 142.5,"125": 128.658,"150": 123.109,"175": 111.287,"200": 97.527,"225": 91.647,"250": 86.42,"275": 83.829,"300": 75.909,"325": 68.438,"350": 65.498,"375": 64.499,"400": 59.865,"425": 59.029,"450": 54.926,"475": 53.007,"500": 50.763,"525": 49.987,"550": 45.27,"575": 46.415,"600": 45.049,"625": 44.355,"650": 40.904,"675": 39.616,"700": 37.596,"725": 37.493,"750": 35.533,"775": 35.207,"800": 33.226,"825": 31.184,"850": 30.041,"875": 29.53,"900": 28.407,"925": 27.12,"950": 26.406,"975": 24.262,"1000": 23.199,"1025": 23.629,"1050": 21.035,"1075": 19.81,"1100": 20.892,"1125": 19.157,"1150": 18.279,"1175": 17.932,"1200": 17.156,"1225": 15.44,"1250": 16.482,"1275": 15.338,"1300": 15.89,"1325": 16.319,"1350": 14.562,"1375": 13.929,"1400": 13.746,"1425": 13.541,"1450": 12.704,"1475": 13.01,"1500": 12.357,"1525": 11.662,"1550": 12.214,"1575": 12.418,"1600": 10.825,"1625": 10.601,"1650": 10.008,"1675": 8.967,"1700": 8.824,"1725": 8.722,"1750": 8.048,"1775": 7.312,"1800": 6.455,"1825": 6.414,"1850": 5.74,"1875": 5.107,"1900": 4.534,"1925": 3.799,"1950": 3.35,"1975": 3.043,"2000": 2.573,"2025": 2.226,"2050": 1.92,"2075": 1.716,"2100": 1.348,"2125": 1.103,"2150": 0.735,"2175": 0.613,"2200": 0.347,"2225": 0.225,"2250": 0.123,"2275": 0.061,"2300": 0.041,"2325": 0.123}}}