{"type":"Feature","properties":{"featurecla":"River","scalerank":7,"rivernum":530,"dissolve":"530River","name":"Ula2","name_alt":null,"note":null,"min_zoom":6.0,"strokeweig":0.25,"name_en":"Ula","min_label":7.0},
"geometry":{"type": "LineString","coordinates": [[-87.820068359375,15.526971746869123,20.5869],[-87.809863281249989,15.53363678593162,16.6058],[-87.804614257812489,15.54767487186912,14.7516],[-87.800537109375,15.56403229374412,16.1297],[-87.793994140624989,15.57758209843162,17.2108],[-87.790942382812489,15.577020574994123,16.3099],[-87.784960937499989,15.57477448124412,16.845],[-87.777880859374989,15.57404205936912,17.3147],[-87.771337890624991,15.57770416874412,25.3511],[-87.772070312499991,15.58112213749412,15.7117],[-87.764697265624989,15.606805731244123,13.4709],[-87.762304687499991,15.61005280155662,11.0],[-87.777441406249991,15.63312409061912,12.5512],[-87.803564453124991,15.65350983280662,12.4128],[-87.819873046874989,15.67157623905662,8.0487],[-87.805590820312489,15.68781159061912,13.9889],[-87.823657226562489,15.69147369999412,9.8172],[-87.818115234375,15.701288153119123,8.1963],[-87.787695312499991,15.720965887494117,8.0712],[-87.773364257812489,15.72455475468162,8.4743],[-87.764404296875,15.729608465619123,7.783],[-87.758544921875,15.739764715619117,6.0911],[-87.757983398437489,15.75104401249412,5.1169],[-87.761279296874989,15.760370184369123,9.7101],[-87.767431640624991,15.76520416874412,7.7993],[-87.775561523437489,15.763202215619117,5.7226],[-87.779638671874991,15.77643463749412,6.1632],[-87.794775390624991,15.79328034061912,7.4345],[-87.794970703124989,15.803827215619123,4.2456],[-87.789599609374989,15.81281159061912,5.5578],[-87.773876953125,15.82843659061912,3.2216],[-87.766528320312489,15.83856842655662,4.4539],[-87.757495117187489,15.862665106244123,5.6218],[-87.751757812499989,15.87213776249412,1.8659],[-87.740649414062489,15.881952215619123,6.9373],[-87.730761718749989,15.887811590619123,2.242],[-87.725268554687489,15.89728424686912,2.108],[-87.728564453124989,15.92182037968162,0.0]]}}