{"type":"Feature","properties":{"GID_2":"HND.11.2_1","GID_0":"HND","country":"Honduras","GID_1":"HND.11_1","province":"IslasdelaBahía","NL_NAME_1":"NA","county":"JoséSantosGuardiola","VARNAME_2":"NA","NL_NAME_2":"NA","TYPE_2":"Municipio","ENGTYPE_2":"Municipality","CC_2":"NA","HASC_2":"HN.IB.JS","name":"José_Santos_Guardiola.county"},
"geometry":{"type": "MultiPolygon","coordinates": [[[[-86.364,16.3888,7.7102],[-86.3637,16.3876,2.1932],[-86.3625,16.3896,7.7102],[-86.3646,16.3893,0.0],[-86.364,16.3888,7.7102]]],
[[[-86.3407,16.3951,0.2387],[-86.341,16.3939,0.2387],[-86.3393,16.3948,1.99],[-86.3397,16.3954,1.99],[-86.3407,16.3951,0.2387]]],
[[[-86.3426,16.3946,3.5103],[-86.3424,16.3951,3.5103],[-86.3439,16.3952,3.5103],[-86.3437,16.3945,3.5103],[-86.3426,16.3946,3.5103]]],
[[[-86.3551,16.3999,3.2518],[-86.351,16.3955,26.0287],[-86.3455,16.3962,49.2328],[-86.3401,16.4024,5.1834],[-86.3412,16.4037,5.1834],[-86.3371,16.409,6.7753],[-86.3385,16.4024,0.0],[-86.3357,16.3971,1.0984],[-86.3365,16.394,0.9006],[-86.3285,16.3924,7.6592],[-86.3201,16.3946,0.0],[-86.3185,16.4026,1.2729],[-86.3165,16.4043,10.5073],[-86.3026,16.4051,0.0],[-86.3012,16.4071,29.4983],[-86.299,16.4071,21.6751],[-86.2982,16.4126,2.4944],[-86.2954,16.4149,6.4738],[-86.2801,16.4129,15.3754],[-86.2726,16.4082,0.0],[-86.2718,16.409,0.0],[-86.274,16.4112,11.0904],[-86.271,16.414,0.0],[-86.2707,16.4179,6.7294],[-86.2679,16.4199,16.8304],[-86.2607,16.4171,0.4969],[-86.2643,16.4135,0.0],[-86.2629,16.4118,0.0],[-86.2582,16.4168,0.0],[-86.2385,16.4207,4.7696],[-86.2293,16.4171,5.5958],[-86.226,16.4085,0.0],[-86.2154,16.4143,0.0],[-86.2124,16.4188,15.9513],[-86.2082,16.4188,7.9328],[-86.2035,16.424,1.978],[-86.1957,16.424,3.8391],[-86.1913,16.4215,0.0],[-86.1899,16.4232,3.442],[-86.1929,16.4279,0.9059],[-86.1965,16.4285,2.6857],[-86.1974,16.4301,0.0],[-86.2146,16.4262,5.8303],[-86.2176,16.4271,0.0],[-86.2224,16.4246,9.6276],[-86.2307,16.4276,0.0],[-86.2412,16.4282,3.7389],[-86.2599,16.4254,7.2724],[-86.266,16.4268,7.9285],[-86.271,16.431,0.0],[-86.2737,16.4301,45.2013],[-86.2768,16.4315,4.6825],[-86.2904,16.4287,43.2506],[-86.306,16.4293,1.4644],[-86.3087,16.4262,44.2784],[-86.3157,16.4299,0.0],[-86.316,16.4262,1.4999],[-86.3285,16.424,0.0],[-86.3337,16.4215,2.0753],[-86.3412,16.4221,0.0],[-86.3474,16.4171,7.0245],[-86.3493,16.4171,0.5947],[-86.3526,16.421,0.0],[-86.3562,16.4174,6.7615],[-86.3699,16.4149,13.198],[-86.3812,16.4082,10.8435],[-86.3887,16.4074,0.0],[-86.394,16.4018,4.6118],[-86.3982,16.4024,0.0],[-86.3974,16.4054,0.0],[-86.3985,16.4054,3.1743],[-86.4007,16.4026,0.5362],[-86.4065,16.3999,0.2506],[-86.4046,16.3993,2.7139],[-86.4057,16.3963,2.6287],[-86.4157,16.3943,5.1494],[-86.4201,16.3893,8.8115],[-86.4218,16.3907,0.0],[-86.4271,16.3901,0.0],[-86.4313,16.3843,0.3188],[-86.4369,16.3829,0.0],[-86.438,16.3679,37.1183],[-86.4281,16.3675,18.1797],[-86.4252,16.3688,25.1164],[-86.4232,16.3737,16.898],[-86.4112,16.3767,30.9304],[-86.4078,16.38,99.0016],[-86.4059,16.3857,98.1516],[-86.3951,16.3886,41.7443],[-86.3914,16.3949,52.8696],[-86.3856,16.3971,21.5075],[-86.3798,16.4029,30.9641],[-86.3772,16.403,26.2563],[-86.3739,16.4004,35.5544],[-86.3696,16.4019,36.7957],[-86.3551,16.3999,3.2518]]],
[[[-86.2871,16.4051,1.4336],[-86.289,16.4054,0.0],[-86.2896,16.4037,0.0],[-86.2868,16.404,1.4336],[-86.2849,16.4015,0.4537],[-86.281,16.4029,0.6286],[-86.2821,16.4046,0.4854],[-86.2846,16.4035,2.6319],[-86.2871,16.4051,1.4336]]],
[[[-86.2043,16.4163,2.0935],[-86.2068,16.4165,0.0],[-86.2068,16.4135,0.0],[-86.2032,16.4118,0.0],[-86.2018,16.4146,1.1396],[-86.2043,16.4163,2.0935]]],
[[[-86.1843,16.4357,6.7583],[-86.1865,16.4363,6.8948],[-86.1913,16.4332,1.5714],[-86.1907,16.4274,1.2041],[-86.1885,16.4287,0.0],[-86.1843,16.4276,2.2071],[-86.1832,16.4346,0.0],[-86.1843,16.4357,6.7583]]],
[[[-86.1429,16.4468,23.0811],[-86.1454,16.4474,0.0],[-86.1465,16.4449,12.2278],[-86.1576,16.4429,0.0],[-86.1668,16.4351,12.2391],[-86.1679,16.429,0.3713],[-86.1654,16.4279,0.4536],[-86.1557,16.4346,9.4297],[-86.1504,16.4357,13.2876],[-86.1465,16.4351,0.0],[-86.141,16.4299,0.0],[-86.1257,16.4396,0.0],[-86.1224,16.444,26.114],[-86.1226,16.446,0.9689],[-86.139,16.4446,20.8627],[-86.1399,16.4471,0.0],[-86.1429,16.4468,23.0811]]]]}}