{"type": "Feature","bbox": [-88.4369,14.8248,-88.2501,14.9514],"geometry": {"type": "MultiPolygon","coordinates": [[[[-88.4074,14.8248,1237.6216],[-88.4041,14.8302,1380.5442],[-88.4062,14.8417,1568.2772],[-88.4009,14.8456,1564.0049],[-88.4026,14.8503,1507.4952],[-88.3866,14.8511,1267.0253],[-88.3857,14.8698,1170.5006],[-88.3784,14.8725,1009.3392],[-88.3753,14.877,1075.8259],[-88.3703,14.8805,1043.8987],[-88.3703,14.8913,1173.6289],[-88.3612,14.8918,1104.5188],[-88.324,14.8887,553.126],[-88.321,14.8916,497.9902],[-88.323,14.9009,656.2914],[-88.3155,14.903,698.7687],[-88.3102,14.9024,658.5431],[-88.298,14.9186,446.0735],[-88.2946,14.9172,497.3607],[-88.2858,14.9196,462.4457],[-88.2786,14.9194,439.3764],[-88.2751,14.922,362.3049],[-88.2706,14.9228,313.1505],[-88.2656,14.9191,250.735],[-88.2596,14.9179,212.5803],[-88.2559,14.9201,180.0945],[-88.2501,14.9196,216.3041],[-88.2528,14.9267,180.9794],[-88.2512,14.9356,348.0905],[-88.2545,14.935,254.4417],[-88.257,14.9366,216.0378],[-88.2621,14.9338,215.0719],[-88.2646,14.937,248.2047],[-88.2687,14.9369,279.578],[-88.2728,14.9407,331.5407],[-88.2781,14.9425,337.2606],[-88.283,14.9501,375.0738],[-88.2875,14.9488,385.8536],[-88.2905,14.9514,400.7921],[-88.2924,14.95,407.3362],[-88.2945,14.9333,464.0676],[-88.2972,14.9271,562.0896],[-88.3017,14.9302,569.8066],[-88.311,14.9302,483.1777],[-88.3205,14.9367,547.8582],[-88.3352,14.935,764.3552],[-88.343,14.9383,681.2165],[-88.3436,14.932,779.8643],[-88.3774,14.9289,833.268],[-88.376,14.9234,1062.5845],[-88.379,14.9207,1117.113],[-88.3927,14.9173,1114.126],[-88.4018,14.9233,1000.9427],[-88.4241,14.9098,1261.926],[-88.4283,14.9055,1184.2806],[-88.4286,14.8977,1167.0769],[-88.42,14.895,1129.0793],[-88.3963,14.8927,1178.0654],[-88.4065,14.8805,1084.853],[-88.4133,14.8814,1230.9904],[-88.4226,14.8784,1155.2314],[-88.4369,14.8409,1428.129],[-88.418,14.8358,1527.4355],[-88.4149,14.8323,1532.2214],[-88.4115,14.8319,1488.8708],[-88.4074,14.8248,1237.6216]]]]}
,"properties": {"GID_2": "HND.16.23_1","GID_0": "HND","country": "Honduras","GID_1": "HND.16_1","province": "SantaBárbara","NL_NAME_1": "NA","county": "SanNicolás","VARNAME_2": "NA","NL_NAME_2": "NA","TYPE_2": "Municipio","ENGTYPE_2": "Municipality","CC_2": "NA","HASC_2": "HN.CP.SN","name": "San_Nicolás.county","area_km2": 87.16172,"hist_schema_id": "Elevation0-9000","hist_area_km2": {"150": 0.3073,"175": 0.59411,"200": 0.55314,"225": 0.53266,"250": 0.34827,"275": 0.71702,"300": 0.83994,"325": 0.79897,"350": 0.81945,"375": 1.7823,"400": 2.56081,"425": 2.27404,"450": 2.02823,"475": 1.9258,"500": 1.47509,"525": 1.70045,"550": 1.20876,"575": 0.84001,"600": 0.73758,"625": 0.90149,"650": 0.71711,"675": 0.73759,"700": 0.96296,"725": 1.20881,"750": 1.08587,"775": 0.98341,"800": 1.00389,"825": 0.96292,"850": 1.00389,"875": 0.73755,"900": 1.02439,"925": 0.73755,"950": 0.77853,"975": 0.84,"1000": 1.12684,"1025": 1.29078,"1050": 1.76204,"1075": 2.13091,"1100": 2.93001,"1125": 4.17987,"1150": 4.2004,"1175": 3.99555,"1200": 3.91363,"1225": 3.50387,"1250": 3.60631,"1275": 3.0326,"1300": 2.4179,"1325": 2.04912,"1350": 1.90574,"1375": 1.12707,"1400": 1.33205,"1425": 1.14764,"1450": 1.10669,"1475": 0.98372,"1500": 0.96325,"1525": 1.37316,"1550": 0.90178,"1575": 0.4099,"1600": 0.04099}}}