{"type": "Feature","bbox": [-87.0601,14.6266,-86.8408,14.9142],"geometry": {"type": "MultiPolygon","coordinates": [[[[-86.8408,14.6318,1222.678],[-86.8442,14.6386,1513.426],[-86.854,14.6496,1531.7355],[-86.8709,14.6587,1337.5005],[-86.8863,14.6959,1176.6899],[-86.8959,14.7351,936.9977],[-86.919,14.7594,1180.7894],[-86.9094,14.7884,897.0226],[-86.9131,14.7922,851.8503],[-86.9182,14.7928,919.313],[-86.9285,14.7982,875.7722],[-86.9299,14.8057,813.2144],[-86.9287,14.8109,829.6019],[-86.9232,14.8127,844.6219],[-86.9262,14.8271,939.9563],[-86.9376,14.8533,1222.91],[-86.9497,14.859,1091.6354],[-86.9519,14.8617,1145.0796],[-86.9508,14.8735,1445.4586],[-86.9559,14.8894,1152.7441],[-86.9527,14.8935,1312.1101],[-86.9448,14.8985,1418.1644],[-86.9442,14.9092,1377.803],[-86.9933,14.9142,1392.5259],[-87.0121,14.8757,1379.3204],[-87.0193,14.875,1363.1782],[-87.0274,14.8719,1451.317],[-87.034,14.8633,1020.7037],[-87.0439,14.8619,965.2035],[-87.0601,14.8426,1585.0487],[-87.0543,14.8373,1468.3811],[-87.0528,14.8275,1080.8512],[-87.0483,14.8267,1026.5061],[-87.050299999999993,14.8234,1005.0073],[-87.0464,14.8229,1014.1031],[-87.0492,14.8199,1024.4618],[-87.0445,14.8128,1030.325],[-87.0247,14.802,884.7355],[-87.0198,14.7758,947.1417],[-87.0124,14.7656,1070.728],[-87.0088,14.7643,1016.6184],[-87.0068,14.7609,919.4582],[-87.0007,14.757,1049.5503],[-87.004,14.727,938.4806],[-87.0007,14.7202,927.2342],[-86.9986,14.7092,865.8427],[-86.9923,14.6992,999.2076],[-86.9937,14.6973,973.832],[-86.9923,14.6898,1007.5696],[-86.9971,14.6779,1105.7515],[-86.9944,14.6726,1206.8647],[-86.9951,14.6655,1313.1857],[-87.0043,14.6583,1042.5063],[-87.003,14.6531,918.9227],[-86.9997,14.6499,885.324],[-86.9636,14.6474,1005.5594],[-86.9488,14.6361,1027.9871],[-86.9404,14.6364,1093.0245],[-86.9314,14.6307,1064.2332],[-86.9161,14.6354,1182.8624],[-86.8921,14.6343,1059.7041],[-86.8867,14.6282,1159.8582],[-86.8811,14.6266,1007.9209],[-86.866,14.6279,1265.7852],[-86.8607,14.6323,1432.7692],[-86.8408,14.6318,1222.678]]]]}
,"properties": {"GID_2": "HND.8.14_1","GID_0": "HND","country": "Honduras","GID_1": "HND.8_1","province": "FranciscoMorazán","NL_NAME_1": "NA","county": "Orica","VARNAME_2": "NA","NL_NAME_2": "NA","TYPE_2": "Municipio","ENGTYPE_2": "Municipality","CC_2": "NA","HASC_2": "HN.FM.OR","name": "Orica.county","area_km2": 340.2178,"hist_schema_id": "Elevation0-9000","hist_area_km2": {"775": 0.1025,"800": 1.3327,"825": 7.8935,"850": 22.2245,"875": 27.3074,"900": 27.0011,"925": 28.2118,"950": 29.4421,"975": 25.5465,"1000": 21.0971,"1025": 17.8783,"1050": 15.7053,"1075": 13.2039,"1100": 11.3176,"1125": 10.7028,"1150": 9.821,"1175": 8.7755,"1200": 8.2628,"1225": 6.4587,"1250": 6.2538,"1275": 5.536,"1300": 4.3261,"1325": 4.0592,"1350": 3.4235,"1375": 2.993,"1400": 3.0955,"1425": 2.4599,"1450": 2.2139,"1475": 2.296,"1500": 2.173,"1525": 2.1732,"1550": 1.9067,"1575": 1.6811,"1600": 1.4761,"1625": 0.7176,"1650": 0.6765,"1675": 0.369,"1700": 0.0615,"1725": 0.041}}}