{"type":"Feature","properties":{"ISO3166-1-Alpha-3":"HND","country":"Honduras","fill":"#000","id":"649","name":"La Paz"},
"geometry":{"type": "Polygon","coordinates": [[[-87.69611,14.35545,636.5468],[-87.70431,14.35773,758.4445],[-87.71498,14.3585,922.8018],[-87.73526,14.36564,1213.1503],[-87.74603,14.37127,1252.6649],[-87.77652,14.37721,1686.3091],[-87.77944,14.37835,1706.6125],[-87.78874,14.38786,1849.8463],[-87.78955,14.38987,1883.4502],[-87.82913,14.40036,2188.8608],[-87.84288,14.41431,2108.1831],[-87.85311,14.42909,2140.6511],[-87.89765,14.397,1031.3225],[-87.90959,14.39049,1085.064],[-87.92199,14.38538,1001.7048],[-87.93248,14.38527,825.6724],[-87.94036,14.38698,860.5402],[-87.94716,14.38956,769.4434],[-87.95207,14.3893,701.3513],[-87.95514,14.38388,779.3616],[-87.95739,14.3706,698.5017],[-87.95331,14.34011,880.0895],[-87.96941,14.31044,869.6815],[-87.9747,14.30383,869.5002],[-87.98431,14.29732,927.6571],[-87.99623,14.29277,892.2664],[-88.00235,14.28791,938.8072],[-88.00586,14.2753,926.6295],[-88.00519,14.26766,979.8308],[-88.01346,14.2537,1028.5697],[-88.05542,14.25221,1407.5408],[-88.08973,14.22435,1514.0237],[-88.10596,14.20833,1270.4333],[-88.11464,14.18756,1121.5337],[-88.12291,14.17603,1100.5605],[-88.12565,14.1734,1129.6454],[-88.15438,14.15939,914.2158],[-88.16523,14.14952,865.756],[-88.21967,14.09072,607.398],[-88.22595,14.08524,563.8262],[-88.22962,14.08638,549.5337],[-88.23223,14.08359,647.8998],[-88.23221,14.07873,881.071],[-88.22569,14.0687,900.6808],[-88.21931,14.06219,981.9867],[-88.21029,14.04338,1235.767],[-88.21916,13.99336,661.4223],[-88.21774,13.99093,671.8966],[-88.21766,13.9908,671.8966],[-88.19348,13.98556,808.2811],[-88.17753,13.98519,873.6671],[-88.12539,13.99127,1080.13],[-88.09904,13.98982,1305.4341],[-88.08754,13.98054,1165.1785],[-88.07289,13.94341,1054.4492],[-88.05839,13.92649,905.0624],[-88.03997,13.91013,786.6029],[-88.02364,13.89117,678.2987],[-88.01532,13.86636,563.8152],[-87.96974,13.88853,649.1628],[-87.95478,13.89246,713.5773],[-87.95259,13.89203,633.9562],[-87.94693,13.89091,692.4547],[-87.93217,13.88156,646.6165],[-87.92533,13.87962,653.5125],[-87.92075,13.88187,751.1247],[-87.90789,13.89153,792.6918],[-87.90011,13.89414,862.3608],[-87.89011,13.89355,922.3553],[-87.87055,13.88957,794.4001],[-87.86091,13.89019,842.4718],[-87.85122,13.89688,793.6846],[-87.84295,13.90711,817.5933],[-87.8329,13.91525,894.088],[-87.81789,13.91587,1030.4331],[-87.80846,13.90864,971.9691],[-87.79872,13.88233,575.4277],[-87.79061,13.87047,756.7027],[-87.78541,13.8674,624.0806],[-87.77143,13.86213,566.5128],[-87.76534,13.85887,566.441],[-87.74953,13.84563,392.1047],[-87.7341,13.84841,533.8229],[-87.69286,13.8499,275.7787],[-87.66842,13.83419,440.5537],[-87.64705,13.83419,1013.8565],[-87.61937,13.86882,1438.7788],[-87.61152,13.89218,1113.8297],[-87.60883,13.89621,1166.6686],[-87.60604,13.90292,1192.8127],[-87.59832,13.93817,1522.9994],[-87.59659,13.95729,1555.9714],[-87.61524,14.08849,1467.3125],[-87.65061,14.08503,716.3703],[-87.66361,14.07573,710.0828],[-87.68963,14.05103,522.4519],[-87.69069,14.08477,626.8564],[-87.69658,14.09516,719.0895],[-87.70369,14.1042,787.0079],[-87.7143,14.10979,692.1153],[-87.73193,14.12441,867.708],[-87.74278,14.13066,1126.8635],[-87.75412,14.13495,1055.6443],[-87.76428,14.13692,1002.2976],[-87.78097,14.14312,1444.3059],[-87.78456,14.14668,1566.6021],[-87.7858,14.15056,1584.3494],[-87.78433,14.15562,1492.9192],[-87.78208,14.15965,1473.6621],[-87.77712,14.17536,1355.1992],[-87.79112,14.19138,1345.5613],[-87.82564,14.20554,1830.701],[-87.82872,14.22528,1634.4886],[-87.82577,14.23221,1650.1887],[-87.8236,14.23365,1652.0226],[-87.82071,14.23417,1596.465],[-87.8191,14.23407,1624.2263],[-87.81324,14.23169,1586.5615],[-87.77585,14.24063,1212.2488],[-87.75585,14.23898,998.8371],[-87.74007,14.2412,945.3878],[-87.72766,14.24414,942.2812],[-87.70609,14.25174,712.6526],[-87.69684,14.25608,697.1078],[-87.68374,14.26569,661.3309],[-87.66865,14.26363,644.4301],[-87.65291,14.26693,619.7913],[-87.6441,14.2704,611.5296],[-87.63948,14.2737,609.623],[-87.62994,14.28564,601.8152],[-87.62664,14.29856,599.8746],[-87.63493,14.30636,597.1573],[-87.62819,14.31706,600.3163],[-87.63165,14.33639,579.834],[-87.63446,14.34419,590.1146],[-87.64658,14.36982,571.8524],[-87.65116,14.37344,566.9936],[-87.69611,14.35545,636.5468]]]}}