{"type": "Feature","bbox": [-88.2325,13.8229,-87.6026,14.4153],"geometry": {"type": "MultiPolygon","coordinates": [[[[-88.056,13.9451,905.1238],[-88.0487,13.9324,755.1169],[-88.0156,13.8864,511.8794],[-88.0108,13.8683,580.0127],[-87.9586,13.8975,609.1115],[-87.9509,13.8907,659.9086],[-87.9471,13.8932,627.814],[-87.9434,13.8932,643.7892],[-87.9295,13.8865,731.1071],[-87.9119,13.8982,722.1926],[-87.9074,13.8989,715.2366],[-87.8975,13.8959,841.7631],[-87.8914,13.8959,810.1099],[-87.8831,13.8994,773.353],[-87.8737,13.8929,815.3356],[-87.8674,13.8931,795.2436],[-87.8615,13.8902,842.4718],[-87.85,13.8908,861.5539],[-87.8295,13.8839,871.7369],[-87.8199,13.8834,909.0164],[-87.7999,13.8892,736.8228],[-87.775,13.8698,505.9866],[-87.754,13.8614,327.6583],[-87.7503,13.8585,311.226],[-87.7472,13.8525,288.9334],[-87.7453,13.8342,220.2048],[-87.7222,13.8421,432.7535],[-87.6973,13.8431,170.7178],[-87.6942,13.8381,173.708],[-87.6821,13.8331,221.8602],[-87.674,13.823,377.2673],[-87.6498,13.8229,999.4595],[-87.6476,13.8318,1145.2721],[-87.6441,13.8361,1306.9396],[-87.6361,13.8411,1280.8392],[-87.631,13.8473,1180.8965],[-87.624,13.8625,1178.2451],[-87.6249,13.8806,1213.4305],[-87.6186,13.8864,1272.2173],[-87.6117,13.8899,1166.1924],[-87.6118,13.8993,1081.8497],[-87.6135,13.9028,1189.2937],[-87.6088,13.9121,1202.0676],[-87.608,13.918,1115.014],[-87.6096,13.9357,1341.8093],[-87.6026,13.954,1541.2677],[-87.6034,13.9586,1313.7361],[-87.6082,13.9621,1060.751],[-87.6029,13.9718,1347.3605],[-87.6134,13.9848,760.3883],[-87.6156,13.9902,780.5182],[-87.6152,14.0224,935.5544],[-87.6256,14.0752,1152.5905],[-87.631,14.0741,978.2596],[-87.6337,14.0757,971.1386],[-87.6384,14.0756,876.0319],[-87.6425,14.0744,821.1254],[-87.6526,14.077,737.3397],[-87.6591,14.0746,654.5342],[-87.6655,14.0683,621.478],[-87.6663,14.0617,694.593],[-87.6832,14.0481,531.5263],[-87.6857,14.0448,523.5524],[-87.6849,14.0413,513.8777],[-87.6933,14.0359,560.4919],[-87.695,14.0408,574.8369],[-87.6921,14.0419,584.452],[-87.6948,14.0433,613.6146],[-87.6947,14.0526,575.9531],[-87.6976,14.0552,592.4783],[-87.6947,14.0562,584.702],[-87.6948,14.0695,604.8644],[-87.6915,14.0701,578.9532],[-87.6912,14.0715,568.0531],[-87.6999,14.0875,676.88],[-87.7013,14.0937,661.2979],[-87.717,14.0839,703.9139],[-87.7397,14.1202,873.9279],[-87.7594,14.1208,849.4103],[-87.784,14.1268,1401.5017],[-87.7841,14.1421,1496.2129],[-87.7687,14.1516,1308.3219],[-87.7858,14.1783,1580.2429],[-87.7971,14.1799,1610.9563],[-87.821,14.1882,1905.2449],[-87.8216,14.2012,1786.9222],[-87.829,14.2106,1793.7521],[-87.8254,14.2169,1694.6394],[-87.8142,14.2228,1544.5043],[-87.8129,14.2172,1545.1199],[-87.7796,14.2319,1167.0972],[-87.7744,14.2231,1222.8605],[-87.7701,14.2254,1279.3644],[-87.764,14.2238,1202.6704],[-87.756,14.2284,1109.7831],[-87.7429,14.2256,1080.0565],[-87.7403,14.2275,1084.9829],[-87.737,14.2349,1028.8776],[-87.7271,14.2364,958.8617],[-87.7249,14.2396,1035.4319],[-87.7204,14.2392,826.3179],[-87.7159,14.2421,868.6118],[-87.7104,14.2425,778.9447],[-87.7039,14.2399,786.6584],[-87.7012,14.243,772.7488],[-87.6979,14.2428,749.8641],[-87.6969,14.2467,754.8754],[-87.6934,14.2466,721.7956],[-87.6912,14.2506,701.6934],[-87.6883,14.2507,690.5024],[-87.6861,14.255,702.1472],[-87.6834,14.2527,677.8931],[-87.6835,14.2482,687.571],[-87.6762,14.253,671.6047],[-87.6764,14.2487,672.137],[-87.6745,14.2474,661.943],[-87.669,14.2568,649.4823],[-87.6634,14.2534,647.0996],[-87.6623,14.2585,643.3396],[-87.6611,14.2588,636.9866],[-87.6566,14.2523,640.1618],[-87.6504,14.2545,620.9799],[-87.6456,14.2583,629.1086],[-87.6484,14.2694,630.8049],[-87.6463,14.2695,618.1454],[-87.6443,14.2667,610.5579],[-87.6416,14.2669,616.4272],[-87.6392,14.2695,609.4689],[-87.6379,14.2763,606.6274],[-87.6336,14.2745,625.1917],[-87.6374,14.2823,605.8688],[-87.6375,14.2883,616.4321],[-87.6395,14.2899,613.7903],[-87.6386,14.2927,611.5127],[-87.6421,14.2919,615.8587],[-87.6432,14.2939,619.1608],[-87.6416,14.2976,608.3695],[-87.6376,14.2977,602.7888],[-87.6348,14.3029,595.2521],[-87.6447,14.307,620.6775],[-87.6434,14.314,612.4207],[-87.6467,14.3149,618.4193],[-87.6452,14.3175,613.923],[-87.6476,14.3222,612.156],[-87.6421,14.3324,590.4007],[-87.6456,14.3328,601.7667],[-87.6479,14.337,598.7963],[-87.6468,14.3428,592.5161],[-87.6486,14.3439,591.8217],[-87.6474,14.3464,589.6221],[-87.6504,14.3481,588.4893],[-87.6518,14.3524,585.6461],[-87.6549,14.3526,588.6243],[-87.6529,14.364,579.3867],[-87.6556,14.3595,584.5455],[-87.6606,14.361,585.1799],[-87.6625,14.3636,585.4465],[-87.6653,14.3584,592.2629],[-87.6679,14.3605,590.6815],[-87.6696,14.3581,594.8544],[-87.6728,14.358,596.1525],[-87.6787,14.3534,604.9352],[-87.6859,14.3511,618.3604],[-87.7049,14.3381,784.5198],[-87.7157,14.3478,1200.5244],[-87.7255,14.3472,1293.8536],[-87.7352,14.3501,1281.7222],[-87.7549,14.3609,1450.3479],[-87.777,14.3633,1857.4423],[-87.7814,14.3626,1936.9663],[-87.7864,14.3707,1801.2407],[-87.7882,14.3807,1764.4835],[-87.7998,14.3806,2044.3901],[-87.8103,14.3841,2082.0889],[-87.8305,14.3829,2037.5879],[-87.8383,14.3982,2097.6987],[-87.8382,14.4026,2101.9126],[-87.8437,14.4104,2135.9983],[-87.8495,14.4153,1888.6617],[-87.8572,14.4085,1698.3347],[-87.8631,14.3997,1462.8248],[-87.8786,14.3911,1221.0293],[-87.8886,14.3834,1129.8273],[-87.8965,14.381,1092.8706],[-87.9011,14.3741,1065.7844],[-87.9068,14.3716,951.2413],[-87.9087,14.369,1063.7166],[-87.9158,14.3685,1063.8868],[-87.9197,14.3715,1073.439],[-87.9252,14.3689,1033.2491],[-87.9273,14.3703,980.7188],[-87.9409,14.3707,906.7267],[-87.94,14.373,941.0081],[-87.9419,14.3754,836.8599],[-87.9449,14.3742,828.7168],[-87.9451,14.3754,828.7168],[-87.9502,14.3763,885.3467],[-87.9507,14.3701,889.7836],[-87.9494,14.3678,898.084],[-87.951,14.3656,890.0853],[-87.9478,14.3605,838.6547],[-87.9511,14.3593,877.0658],[-87.95,14.3566,899.5384],[-87.9561,14.3525,722.1064],[-87.9511,14.351,854.2009],[-87.9523,14.3475,845.9008],[-87.95,14.3467,927.662],[-87.951,14.3445,858.2875],[-87.9491,14.3426,812.2346],[-87.9523,14.3392,766.1171],[-87.952,14.3351,779.5428],[-87.9477,14.3352,853.6498],[-87.9477,14.3325,874.7018],[-87.9441,14.3279,878.1627],[-87.9478,14.3226,798.5733],[-87.9467,14.3205,797.9564],[-87.9482,14.3174,821.9021],[-87.9464,14.3157,831.2675],[-87.9496,14.3144,843.9243],[-87.9469,14.312,922.0745],[-87.9535,14.3102,983.3374],[-87.9544,14.3079,1046.1218],[-87.9583,14.3066,1027.3015],[-87.96,14.309,1060.5974],[-87.9621,14.3059,885.6462],[-87.9655,14.3055,896.5591],[-87.9665,14.2949,974.4233],[-87.9648,14.2924,978.6047],[-87.9666,14.2919,932.4978],[-87.9663,14.2893,918.0964],[-87.9699,14.2873,946.3881],[-87.9695,14.2833,1062.9272],[-87.973,14.2771,1021.126],[-87.9772,14.2793,983.4844],[-87.9808,14.2764,1035.7784],[-87.9942,14.272,1004.1486],[-87.9973,14.2686,1032.6698],[-88.0021,14.2571,1012.6605],[-87.9998,14.2533,1134.1791],[-88.0037,14.237,1065.4652],[-88.044,14.2379,1345.6588],[-88.0588,14.2305,1471.0089],[-88.0642,14.2234,1386.0619],[-88.1031,14.1959,1419.3435],[-88.1037,14.1777,1104.0122],[-88.1129,14.1703,1238.3223],[-88.1164,14.1581,1185.5208],[-88.1281,14.155,1396.5769],[-88.1282,14.1506,1463.4023],[-88.1332,14.152,1380.4927],[-88.1349,14.1488,1355.4342],[-88.1387,14.1495,1225.4656],[-88.1413,14.1472,1181.5247],[-88.1438,14.1485,1126.6343],[-88.1538,14.1436,1185.8452],[-88.1547,14.1401,1228.316],[-88.1585,14.1378,1167.8655],[-88.1587,14.1349,1048.3794],[-88.162,14.1349,1033.7097],[-88.1671,14.1274,1201.5911],[-88.1714,14.128,1327.46],[-88.1745,14.1237,1410.3828],[-88.1788,14.1236,1183.6095],[-88.1814,14.1202,1293.4484],[-88.1812,14.116,1223.6781],[-88.1832,14.1128,1294.6526],[-88.1881,14.1105,1179.5117],[-88.1934,14.0975,776.7765],[-88.1988,14.0964,921.8391],[-88.1988,14.0938,991.8831],[-88.2021,14.0904,1128.6887],[-88.2013,14.0872,1062.8342],[-88.2092,14.0868,965.8325],[-88.2135,14.0833,786.6969],[-88.2153,14.0777,781.2449],[-88.2186,14.0754,883.1385],[-88.2201,14.0696,974.0685],[-88.2239,14.0737,824.1968],[-88.2285,14.0705,850.786],[-88.2325,14.0711,852.8044],[-88.2312,14.0628,956.4445],[-88.2265,14.0591,1081.087],[-88.2248,14.0539,1026.967],[-88.2201,14.0496,1046.2128],[-88.2163,14.0493,1124.5002],[-88.2098,14.0455,1275.6475],[-88.2013,14.0372,1272.4563],[-88.2066,14.0048,953.604],[-88.2098,13.9972,702.7478],[-88.2117,13.9815,896.2059],[-88.206,13.9816,880.0195],[-88.2039,13.9845,798.8073],[-88.1937,13.9844,842.9963],[-88.1932,13.981,804.7465],[-88.1899,13.9786,806.2087],[-88.1841,13.9772,902.0659],[-88.1763,13.978,929.6642],[-88.1756,13.976,956.2675],[-88.1725,13.9781,882.0397],[-88.1695,13.9724,966.5251],[-88.1606,13.9735,1048.7502],[-88.159,13.9701,1078.751],[-88.1478,13.9725,945.1696],[-88.1442,13.9778,996.0045],[-88.1394,13.9766,1010.4601],[-88.1374,13.9786,1031.1062],[-88.1313,13.9761,1055.7881],[-88.1201,13.9795,1142.9199],[-88.1099,13.9856,1330.6357],[-88.1049,13.9863,1325.1008],[-88.1026,13.9863,1277.8413],[-88.0931,13.98,1074.5757],[-88.0678,13.9784,1382.0374],[-88.0681,13.9604,1175.7847],[-88.0608,13.9493,1027.4612],[-88.056,13.9451,905.1238]]]]}
,"properties": {"GID_1": "HND.12_1","GID_0": "HND","country": "Honduras","province": "LaPaz","VARNAME_1": "NA","NL_NAME_1": "NA","TYPE_1": "Departamento","ENGTYPE_1": "Department","CC_1": "NA","HASC_1": "HN.LP","ISO_1": "HN-LP","name": "La_Paz.province","area_km2": 2457.215,"hist_schema_id": "Elevation0-9000","hist_area_km2": {"150": 0.041,"175": 0.618,"200": 1.029,"225": 1.894,"250": 3.355,"275": 7.76,"300": 10.538,"325": 11.67,"350": 16.711,"375": 19.262,"400": 17.595,"425": 19.344,"450": 18.233,"475": 20.29,"500": 20.371,"525": 21.111,"550": 20.597,"575": 18.682,"600": 27.784,"625": 35.16,"650": 33.023,"675": 30.949,"700": 28.156,"725": 26.556,"750": 26.64,"775": 27.649,"800": 31.763,"825": 31.762,"850": 34.723,"875": 36.285,"900": 35.461,"925": 37.229,"950": 38.542,"975": 43.599,"1000": 43.639,"1025": 44.976,"1050": 49.104,"1075": 50.419,"1100": 50.049,"1125": 47.27,"1150": 50.538,"1175": 53.743,"1200": 51.092,"1225": 51.792,"1250": 55.164,"1275": 50.888,"1300": 47.372,"1325": 46.201,"1350": 45.667,"1375": 45.749,"1400": 47.495,"1425": 44.184,"1450": 44.677,"1475": 43.299,"1500": 40.482,"1525": 38.51,"1550": 39.25,"1575": 39.128,"1600": 39.682,"1625": 36.701,"1650": 41.595,"1675": 45.399,"1700": 47.291,"1725": 38.985,"1750": 34.173,"1775": 33.762,"1800": 34.749,"1825": 34.071,"1850": 28.065,"1875": 23.295,"1900": 21.404,"1925": 16.592,"1950": 11.882,"1975": 9.702,"2000": 8.262,"2025": 8.509,"2050": 8.653,"2075": 9.824,"2100": 9.291,"2125": 9.845,"2150": 7.399,"2175": 7.028,"2200": 5.528,"2225": 3.514,"2250": 1.993,"2275": 1.315,"2300": 1.253,"2325": 1.109,"2350": 0.904,"2375": 0.267,"2400": 0.103}}}