{"type":"Feature","properties":{"GID_2":"HND.10.15_1","GID_0":"HND","country":"Honduras","GID_1":"HND.10_1","province":"Intibucá","NL_NAME_1":"NA","county":"SanMiguelito","VARNAME_2":"NA","NL_NAME_2":"NA","TYPE_2":"Municipio","ENGTYPE_2":"Municipality","CC_2":"NA","HASC_2":"HN.FM.SM","name":"San_Miguelito.county"},
"geometry":{"type": "MultiPolygon","coordinates": [[[[-88.3249,14.2775,1515.5367],[-88.3177,14.283,1532.7134],[-88.3134,14.2893,1496.6986],[-88.3064,14.2906,1539.6672],[-88.3001,14.3032,1749.1119],[-88.2798,14.3183,1828.1381],[-88.2878,14.3312,1840.3663],[-88.3054,14.3417,1712.8354],[-88.3049,14.3477,1539.1343],[-88.2966,14.3518,1642.668],[-88.2845,14.3649,1930.661],[-88.2786,14.3675,1978.3553],[-88.2708,14.367,1996.2736],[-88.2625,14.3777,1761.0361],[-88.259,14.3798,1797.1442],[-88.3578,14.4492,1975.6642],[-88.3709,14.4336,2176.0798],[-88.3312,14.4055,1854.8951],[-88.3315,14.401,1842.5255],[-88.3347,14.3933,1692.1743],[-88.3535,14.3727,1266.3114],[-88.3786,14.359,1068.8389],[-88.3717,14.3561,1132.3809],[-88.3732,14.3514,1127.9222],[-88.3783,14.3501,1105.619],[-88.3813,14.3465,1103.5432],[-88.3898,14.3429,1032.1987],[-88.3985,14.3368,1101.6311],[-88.4072,14.3372,1079.6827],[-88.418,14.3333,1159.9266],[-88.4095,14.3015,1183.9153],[-88.4053,14.2703,1175.5352],[-88.4075,14.2646,1215.4902],[-88.4037,14.2675,1155.9551],[-88.3801,14.2772,1015.125],[-88.3773,14.2747,1006.7574],[-88.3394,14.2816,1219.196],[-88.3365,14.2781,1354.6541],[-88.3371,14.2753,1240.6827],[-88.3322,14.2744,1295.0327],[-88.3249,14.2775,1515.5367]]]]}}