{"type": "Feature","bbox": [-88.7434,14.0082,-88.6337,14.127],"geometry": {"type": "MultiPolygon","coordinates": [[[[-88.6398,14.0145,151.8428],[-88.64,14.0176,117.5022],[-88.645,14.0258,156.2615],[-88.6515,14.0302,200.7058],[-88.6538,14.0393,133.1789],[-88.6513,14.041,193.2383],[-88.6521,14.0447,200.7707],[-88.6497,14.049,230.2961],[-88.6449,14.0483,248.8385],[-88.6418,14.0501,300.0809],[-88.6421,14.059,250.4215],[-88.6337,14.0618,221.9425],[-88.6374,14.065,203.4158],[-88.6479,14.0687,207.3944],[-88.6494,14.0799,192.2326],[-88.6536,14.0814,241.8076],[-88.6539,14.0851,193.9295],[-88.6566,14.0888,258.7145],[-88.6574,14.0956,202.5282],[-88.6546,14.1018,275.2693],[-88.6609,14.1119,206.289],[-88.6577,14.1166,210.4601],[-88.6579,14.1191,243.9341],[-88.6551,14.1196,254.4849],[-88.6567,14.127,366.0022],[-88.6881,14.1128,313.6677],[-88.6885,14.1091,329.5453],[-88.6846,14.1069,280.3704],[-88.6845,14.1046,321.3375],[-88.6956,14.1064,585.5446],[-88.7007,14.1012,457.5503],[-88.7038,14.1013,480.7264],[-88.7256,14.0914,761.3362],[-88.7434,14.0789,728.994],[-88.729,14.064,543.2759],[-88.7176,14.0447,437.5515],[-88.7116,14.0379,536.185],[-88.6888,14.0164,243.5909],[-88.6812,14.0123,202.2503],[-88.6813,14.0111,130.3085],[-88.6746,14.0082,191.9707],[-88.6619,14.0156,154.5248],[-88.6535,14.0124,144.5901],[-88.6497,14.0158,130.6029],[-88.6398,14.0145,151.8428]]]]}
,"properties": {"GID_2": "HND.13.11_1","GID_0": "HND","country": "Honduras","GID_1": "HND.13_1","province": "Lempira","NL_NAME_1": "NA","county": "LaVirtud","VARNAME_2": "NA","NL_NAME_2": "NA","TYPE_2": "Municipio","ENGTYPE_2": "Municipality","CC_2": "NA","HASC_2": "HN.LE.LV","name": "La_Virtud.county","area_km2": 81.60835,"hist_schema_id": "Elevation0-9000","hist_area_km2": {"100": 0.67884,"125": 1.39876,"150": 3.18829,"175": 5.43015,"200": 5.73839,"225": 7.11611,"250": 7.09555,"275": 7.44507,"300": 5.98474,"325": 5.88184,"350": 4.87409,"375": 4.05147,"400": 3.3111,"425": 3.2905,"450": 2.67351,"475": 2.48841,"500": 1.58355,"525": 1.33676,"550": 1.15171,"575": 0.9666,"600": 0.90492,"625": 0.74039,"650": 0.55529,"675": 0.49357,"700": 0.47301,"725": 0.47301,"750": 0.61696,"775": 0.37018,"800": 0.39074,"825": 0.49356,"850": 0.24678,"875": 0.10283,"900": 0.02057,"925": 0.04113}}}