{"type": "Feature","bbox": [-88.4344,14.7846,-87.7307,16.0001],"geometry": {"type": "MultiPolygon","coordinates": [[[[-87.7437,15.0005,269.0],[-87.743,15.0056,269.0],[-87.7384,15.007,269.0],[-87.737,15.0109,269.0],[-87.738,15.0132,269.0],[-87.7455,15.0183,391.0105],[-87.7522,15.04,175.8072],[-87.7478,15.0504,118.337],[-87.7479,15.0664,249.3461],[-87.7396,15.071,243.9543],[-87.7366,15.0765,143.472],[-87.7364,15.0794,131.6623],[-87.7411,15.083,194.5474],[-87.7391,15.0891,128.3896],[-87.7426,15.0935,257.1038],[-87.7362,15.1035,88.1867],[-87.7446,15.1065,452.0309],[-87.7572,15.119,234.4589],[-87.7587,15.1256,114.0242],[-87.7693,15.1302,88.854],[-87.7722,15.1336,75.613],[-87.7835,15.1267,267.3825],[-87.7998,15.1294,204.0977],[-87.8013,15.1317,159.6376],[-87.7981,15.1336,173.1952],[-87.7974,15.1392,66.4898],[-87.8038,15.1472,88.9765],[-87.8074,15.147,89.4195],[-87.8154,15.1417,121.1155],[-87.8184,15.1494,105.4225],[-87.8215,15.1511,228.1644],[-87.842,15.1473,184.0436],[-87.8471,15.1489,146.216],[-87.8508,15.1532,178.6575],[-87.8479,15.1587,130.2637],[-87.8482,15.1624,54.1099],[-87.8497,15.164,74.0044],[-87.8592,15.1665,220.1052],[-87.8658,15.1795,129.5412],[-87.8788,15.1809,79.0975],[-87.8964,15.1771,45.7466],[-87.9102,15.1852,43.5148],[-87.9209,15.1868,41.2096],[-87.9222,15.1906,41.2718],[-87.9171,15.195,41.622],[-87.923,15.1984,42.0925],[-87.9234,15.2002,39.3591],[-87.9191,15.2054,41.849],[-87.9178,15.2098,38.5401],[-87.9245,15.2187,40.6541],[-87.9204,15.2264,40.4363],[-87.9203,15.2295,37.3758],[-87.9229,15.2299,38.9874],[-87.932,15.221,38.4522],[-87.9337,15.2209,37.7895],[-87.9367,15.2397,39.6223],[-87.9317,15.2499,37.6348],[-87.9334,15.2593,37.939],[-87.9294,15.2609,37.2762],[-87.9185,15.2586,36.7082],[-87.9126,15.2616,34.9505],[-87.9113,15.2731,34.0],[-87.9153,15.2756,36.9841],[-87.9252,15.2764,37.9366],[-87.9275,15.2792,37.0687],[-87.9272,15.2836,35.2157],[-87.923,15.2894,38.4772],[-87.9156,15.2906,33.5],[-87.9085,15.2886,33.5506],[-87.9071,15.2902,37.0747],[-87.9078,15.2942,32.749],[-87.9177,15.3027,33.1775],[-87.9175,15.3089,33.9275],[-87.9102,15.3114,35.3661],[-87.8958,15.3086,33.2831],[-87.8914,15.3128,29.9392],[-87.8895,15.327,32.4201],[-87.8863,15.3309,32.299],[-87.8758,15.3223,28.4905],[-87.8692,15.3226,27.4104],[-87.8676,15.3295,28.8358],[-87.8811,15.332,30.6957],[-87.8815,15.337,30.9881],[-87.8625,15.3497,27.893],[-87.8521,15.3624,24.9983],[-87.8443,15.3831,25.9989],[-87.8434,15.3907,28.2216],[-87.8295,15.3873,25.7894],[-87.8266,15.3882,26.0268],[-87.8248,15.3909,26.1148],[-87.8241,15.4012,25.0018],[-87.8296,15.4192,23.0916],[-87.8511,15.4317,22.1177],[-87.8665,15.4356,23.6536],[-87.8687,15.4415,24.5959],[-87.8669,15.4438,21.678],[-87.8618,15.4456,24.0191],[-87.8402,15.4467,25.3235],[-87.8376,15.4423,24.7809],[-87.8356,15.4289,23.4906],[-87.8301,15.4266,22.7536],[-87.8254,15.4297,23.0491],[-87.822,15.4373,24.3592],[-87.8153,15.4452,21.8234],[-87.8142,15.4539,23.3366],[-87.817,15.4597,22.888],[-87.8199,15.4616,22.0956],[-87.8316,15.4638,22.8432],[-87.8335,15.4664,22.5249],[-87.8295,15.4762,18.5],[-87.8293,15.4816,19.2979],[-87.84,15.4871,20.5303],[-87.8419,15.4904,20.3861],[-87.8417,15.4954,20.8262],[-87.8345,15.5026,25.8283],[-87.8336,15.5057,26.8088],[-87.8342,15.5111,25.6549],[-87.8384,15.518,17.7643],[-87.8363,15.52,19.9823],[-87.8313,15.5207,23.3289],[-87.8283,15.5194,19.7327],[-87.8202,15.5108,19.3012],[-87.817,15.5101,16.3027],[-87.814,15.5114,18.5377],[-87.8127,15.518,18.3535],[-87.8214,15.5265,25.5246],[-87.8233,15.5399,19.039],[-87.8211,15.545,19.2771],[-87.8122,15.5468,16.898],[-87.807,15.5519,16.1371],[-87.8067,15.5568,17.6989],[-87.8137,15.5675,16.2561],[-87.8134,15.5715,15.4996],[-87.8101,15.5751,18.202],[-87.8034,15.5743,22.0721],[-87.7939,15.5685,15.6389],[-87.789,15.5604,16.3466],[-87.7829,15.5616,20.6589],[-87.7808,15.5674,16.6016],[-87.7912,15.5815,13.9884],[-87.7927,15.5872,17.3314],[-87.7911,15.5904,16.0356],[-87.7873,15.5911,17.0214],[-87.7781,15.5872,16.2732],[-87.7748,15.5875,16.6763],[-87.7742,15.6049,14.7377],[-87.7839,15.6144,11.6566],[-87.7841,15.62,14.8904],[-87.7812,15.6285,14.8449],[-87.7843,15.6349,16.2462],[-87.7923,15.6362,13.3129],[-87.8071,15.6325,10.4386],[-87.8176,15.6381,10.3281],[-87.8198,15.6451,9.8901],[-87.8137,15.6538,11.1847],[-87.8149,15.659,10.566],[-87.8206,15.6588,10.6024],[-87.825,15.6496,11.0116],[-87.8274,15.648,9.3321],[-87.8361,15.6529,9.3303],[-87.8378,15.6603,9.2692],[-87.833,15.6743,10.1895],[-87.8266,15.679,12.7221],[-87.8158,15.6784,10.4034],[-87.8158,15.6856,11.1491],[-87.8211,15.6852,10.6559],[-87.8295,15.6794,11.2265],[-87.8385,15.6821,11.1742],[-87.8444,15.6794,11.8419],[-87.8468,15.6805,7.6232],[-87.8437,15.6861,13.1467],[-87.8346,15.695,9.0072],[-87.8198,15.6995,8.6001],[-87.815,15.7024,7.7706],[-87.8132,15.7062,15.8972],[-87.8134,15.7172,7.8782],[-87.8111,15.7213,10.2739],[-87.8068,15.7218,8.6053],[-87.8032,15.7202,8.2176],[-87.7961,15.7092,8.9624],[-87.7906,15.7071,6.3316],[-87.7862,15.7098,7.8195],[-87.7836,15.7144,8.3452],[-87.7839,15.7281,5.6363],[-87.7807,15.7294,7.0499],[-87.7665,15.7291,7.8045],[-87.765,15.7306,9.0584],[-87.7649,15.7337,8.0395],[-87.7736,15.7434,5.1913],[-87.7735,15.7568,3.7552],[-87.7786,15.7619,7.3064],[-87.7808,15.7683,5.3344],[-87.7833,15.7703,3.9981],[-87.7851,15.7694,6.002],[-87.7904,15.7561,2.4388],[-87.7938,15.7563,7.2864],[-87.7947,15.759,3.6761],[-87.7895,15.7715,4.4355],[-87.7963,15.7784,3.7082],[-87.7978,15.7848,7.1464],[-87.8068,15.7836,11.7676],[-87.8087,15.7861,14.7088],[-87.8028,15.7939,5.9176],[-87.8036,15.8084,4.6974],[-87.7993,15.8081,7.2944],[-87.7941,15.8032,5.0182],[-87.79,15.8044,5.6498],[-87.7887,15.8064,7.443],[-87.7885,15.8098,4.5529],[-87.7927,15.8231,3.5232],[-87.7895,15.8241,5.6468],[-87.7827,15.818,3.6824],[-87.7784,15.8184,5.9243],[-87.7815,15.8225,5.3908],[-87.7803,15.8398,3.908],[-87.7744,15.8442,6.941],[-87.7803,15.8497,11.0197],[-87.781,15.8569,11.7154],[-87.7674,15.8693,4.594],[-87.7587,15.8819,2.1885],[-87.7541,15.8787,2.3024],[-87.7488,15.878,1.7552],[-87.7428,15.8805,4.0341],[-87.7394,15.8839,3.3578],[-87.7381,15.8883,7.9354],[-87.7389,15.9001,11.8216],[-87.7351,15.9039,4.3347],[-87.7307,15.9201,3.3604],[-87.7363,15.914,1.4107],[-87.7349,15.9118,1.6125],[-87.7412,15.9076,0.3457],[-87.746,15.8976,3.7414],[-87.7568,15.894,2.9056],[-87.7668,15.8935,1.8412],[-87.7868,15.8982,0.0],[-87.7921,15.8926,3.6858],[-87.7949,15.8918,1.4296],[-87.7924,15.8965,1.0116],[-87.794,15.8993,0.0],[-87.7971,15.9001,1.2652],[-87.8135,15.9015,1.6306],[-87.8179,15.8985,9.6138],[-87.8324,15.8988,0.0],[-87.8374,15.8935,3.748],[-87.8426,15.891,1.4654],[-87.8529,15.8885,2.699],[-87.8699,15.889,0.0],[-87.8882,15.8768,0.8486],[-87.8985,15.8657,2.4196],[-87.9051,15.8632,3.5398],[-87.9385,15.8654,1.5743],[-87.9532,15.8637,0.4456],[-87.9585,15.859,0.4539],[-87.9626,15.8524,0.0],[-87.9632,15.8438,0.0903],[-87.9488,15.8432,1.4129],[-87.9485,15.8415,0.0],[-87.9457,15.8407,0.0],[-87.9432,15.8421,0.9395],[-87.9415,15.8404,0.0],[-87.9365,15.8401,0.2402],[-87.9329,15.8354,1.1752],[-87.9335,15.831,1.1833],[-87.9293,15.8285,0.5398],[-87.9276,15.8285,0.6884],[-87.9271,15.8304,1.3252],[-87.9307,15.8357,0.9882],[-87.931,15.8412,1.8837],[-87.9282,15.8415,0.0],[-87.9274,15.8446,1.8498],[-87.9193,15.8504,0.0],[-87.919,15.8535,1.3641],[-87.9143,15.856,0.6388],[-87.9135,15.8582,0.3565],[-87.906,15.8604,0.0],[-87.899,15.8593,5.0827],[-87.8974,15.8579,2.3975],[-87.9021,15.8535,0.0],[-87.9013,15.851,0.0],[-87.8976,15.8521,6.1494],[-87.8943,15.8571,5.059],[-87.8938,15.856,1.4966],[-87.8965,15.8479,0.9723],[-87.9062,15.8329,0.6144],[-87.9171,15.8293,0.0],[-87.9221,15.8346,0.0],[-87.9238,15.8346,0.0],[-87.9265,15.831,0.0],[-87.9268,15.8279,0.6884],[-87.9337,15.8282,0.6016],[-87.9351,15.8199,0.0],[-87.9396,15.8149,2.6977],[-87.9529,15.806,3.4359],[-87.9643,15.8026,0.0],[-87.9754,15.8029,0.0],[-87.9779,15.8007,0.0],[-87.9785,15.7968,8.1598],[-87.999,15.7865,4.8852],[-88.0232,15.7865,0.4142],[-88.036,15.784,0.6639],[-88.0418,15.7846,0.0],[-88.0424,15.7788,2.516],[-88.0446,15.7832,0.1821],[-88.0476,15.7826,0.615],[-88.049,15.7799,0.0],[-88.046,15.7774,0.7286],[-88.0457,15.7749,0.0],[-88.0476,15.764,6.7619],[-88.059,15.7554,15.7175],[-88.066,15.7549,2.301],[-88.0696,15.7496,6.1696],[-88.076,15.7487,1.0321],[-88.0804,15.7371,7.9222],[-88.0854,15.7329,1.1567],[-88.0974,15.7321,0.0],[-88.0996,15.7307,0.0],[-88.1026,15.7257,0.0],[-88.1054,15.7243,0.0],[-88.1087,15.7168,1.8472],[-88.1076,15.7126,1.2677],[-88.1026,15.7151,0.0],[-88.1026,15.706,0.9765],[-88.1096,15.701,0.0],[-88.1151,15.691,6.4078],[-88.1218,15.6865,4.001],[-88.131,15.6851,3.0996],[-88.1396,15.6818,3.0775],[-88.151,15.6812,1.595],[-88.1601,15.6835,1.8283],[-88.1771,15.6915,0.7167],[-88.184,15.6965,1.6593],[-88.1871,15.6968,2.1943],[-88.1915,15.7024,0.0],[-88.2018,15.7099,0.0],[-88.206,15.7107,0.0],[-88.2079,15.7143,0.0],[-88.2199,15.7226,0.0],[-88.2257,15.7232,0.6847],[-88.245,15.7205,4.1677],[-88.2383,15.7116,4.6443],[-88.239,15.6962,2.4462],[-88.2426,15.6949,4.6839],[-88.2427,15.691,2.8022],[-88.2484,15.6878,2.5633],[-88.2507,15.6887,2.595],[-88.2561,15.6839,1.3159],[-88.2739,15.6826,4.7769],[-88.2811,15.6753,3.523],[-88.3004,15.6704,4.354],[-88.3079,15.6792,5.7202],[-88.312,15.672,5.3191],[-88.3188,15.6695,2.8958],[-88.3192,15.6592,4.2],[-88.3175,15.6538,3.4839],[-88.3287,15.6351,6.7197],[-88.3548,15.604,7.8357],[-88.4344,15.5418,236.0507],[-88.2366,15.4864,1244.5077],[-88.2352,15.4846,1254.5442],[-88.2361,15.4804,1128.0637],[-88.2336,15.4772,1262.5104],[-88.238,15.4736,1100.5645],[-88.241,15.4667,839.3962],[-88.2417,15.4586,842.9994],[-88.2374,15.4457,684.9005],[-88.2391,15.4372,605.2041],[-88.2427,15.4305,624.4471],[-88.2399,15.4257,564.0043],[-88.2417,15.4198,646.2762],[-88.2382,15.4181,553.8451],[-88.2298,15.3993,547.1427],[-88.2166,15.3972,513.6772],[-88.2068,15.3924,290.3039],[-88.1982,15.3905,198.1885],[-88.1954,15.3877,163.092],[-88.1928,15.388,161.7214],[-88.1843,15.3745,152.988],[-88.1784,15.3733,117.1444],[-88.1629,15.3614,87.373],[-88.1591,15.3609,84.8732],[-88.1455,15.3673,75.993],[-88.1295,15.3608,113.3043],[-88.1222,15.252,456.4755],[-88.1086,15.2364,589.1641],[-88.099,15.205,418.76],[-88.059,15.2,282.3427],[-88.0628,15.1934,109.8791],[-88.0634,15.1818,468.846],[-88.0678,15.18,336.8967],[-88.0765,15.171,181.6624],[-88.0769,15.1614,451.2384],[-88.0841,15.1571,385.2808],[-88.0901,15.146,190.0288],[-88.0977,15.1426,175.6943],[-88.1145,15.1181,492.6949],[-88.0988,15.0952,721.6317],[-88.0845,15.0848,953.0808],[-88.079,15.078,975.4734],[-88.065,15.0774,697.0765],[-88.0603,15.0701,632.3865],[-88.0346,15.0672,429.6514],[-88.029,15.0585,545.4669],[-88.0233,15.0554,337.7844],[-88.021,15.0521,502.9848],[-88.0233,15.0409,537.9525],[-88.0291,15.0333,563.7015],[-88.0312,14.99,663.0823],[-88.0405,14.9811,587.2281],[-88.0518,14.9144,865.49],[-88.0459,14.9143,750.1014],[-88.0204,14.923,634.0],[-88.0201,14.9199,634.0],[-88.0271,14.914,634.0],[-88.0261,14.9106,634.0],[-88.0307,14.9089,634.0],[-88.03,14.9022,634.0],[-88.0318,14.8991,647.3914],[-88.0277,14.9012,634.0],[-88.0293,14.8982,643.8629],[-88.0274,14.8974,634.0],[-88.0252,14.9023,634.0],[-88.0224,14.9029,634.0],[-88.0242,14.8939,634.0],[-88.0186,14.8895,634.0],[-88.0158,14.8828,657.6504],[-88.0178,14.8764,868.1999],[-88.0216,14.8755,777.1493],[-88.012,14.873,997.5334],[-88.0019,14.8741,672.1904],[-87.9971,14.8717,634.0],[-87.9946,14.8672,634.0],[-87.9916,14.8659,634.0],[-87.991,14.8618,634.0],[-87.998,14.8424,634.0],[-88.0008,14.8149,634.0],[-88.0001,14.8076,634.0],[-87.9973,14.8053,634.0],[-87.996,14.7968,634.0],[-87.9899,14.7856,667.7569],[-87.9856,14.7846,648.061],[-87.976,14.7856,657.8392],[-87.9664,14.7975,825.5195],[-87.8917,14.8447,1152.7874],[-87.8763,14.8563,1222.6825],[-87.8717,14.8659,850.4233],[-87.8679,14.8692,779.1135],[-87.8526,14.8777,736.1087],[-87.8538,14.8837,592.6083],[-87.8491,14.8857,583.921],[-87.8468,14.8909,601.8731],[-87.8411,14.8956,504.6919],[-87.8344,14.8951,488.9683],[-87.8326,14.8974,436.8397],[-87.8267,14.8963,520.8198],[-87.824,14.8983,477.4915],[-87.8242,14.9017,512.4789],[-87.8169,14.9015,430.9538],[-87.8139,14.9087,394.5727],[-87.8088,14.9051,490.2668],[-87.8009,14.911,531.4283],[-87.7986,14.9183,557.1672],[-87.7989,14.9233,313.1429],[-87.7848,14.9194,362.5829],[-87.7844,14.9296,283.4194],[-87.7792,14.9362,440.5879],[-87.7637,14.9394,433.86],[-87.7558,14.9447,371.4093],[-87.7505,14.9448,355.555],[-87.7384,14.9593,269.0],[-87.7391,14.9643,269.0],[-87.736,14.9699,269.0],[-87.739,14.9789,269.0],[-87.7446,14.9803,368.5551],[-87.7458,14.9863,269.0],[-87.7429,14.9931,269.0],[-87.7453,14.9976,298.4836],[-87.7437,15.0005,269.0]]],
[[[-87.9999,15.9999,0.0],[-87.9999,16.0001,0.0],[-88.0001,16.0001,0.0],[-88.0001,15.9999,0.0],[-87.9999,15.9999,0.0]]]]}
,"properties": {"GID_1": "HND.6_1","GID_0": "HND","country": "Honduras","province": "Cortés","VARNAME_1": "Cortez","NL_NAME_1": "NA","TYPE_1": "Departamento","ENGTYPE_1": "Department","CC_1": "NA","HASC_1": "HN.CR","ISO_1": "NA","name": "Cortés.province","area_km2": 3961.943,"hist_schema_id": "Elevation0-9000","hist_area_km2": {"0": 505.549,"25": 484.047,"50": 280.77,"75": 171.303,"100": 118.94,"125": 98.811,"150": 90.291,"175": 79.929,"200": 75.373,"225": 74.003,"250": 72.075,"275": 77.691,"300": 79.159,"325": 83.549,"350": 78.048,"375": 80.018,"400": 77.897,"425": 77.016,"450": 73.645,"475": 74.139,"500": 75.333,"525": 73.966,"550": 72.532,"575": 66.601,"600": 59.461,"625": 139.897,"650": 91.192,"675": 70.361,"700": 52.051,"725": 46.912,"750": 38.703,"775": 33.971,"800": 29.306,"825": 27.095,"850": 23.104,"875": 19.421,"900": 18.171,"925": 15.944,"950": 15.554,"975": 14.021,"1000": 14.612,"1025": 12.956,"1050": 13.098,"1075": 12.567,"1100": 12.035,"1125": 11.319,"1150": 10.625,"1175": 10.421,"1200": 8.642,"1225": 7.702,"1250": 7.866,"1275": 6.946,"1300": 6.946,"1325": 6.292,"1350": 5.945,"1375": 6.027,"1400": 5.966,"1425": 6.497,"1450": 5.271,"1475": 4.719,"1500": 4.719,"1525": 4.453,"1550": 4.453,"1575": 4.351,"1600": 4.045,"1625": 3.555,"1650": 3.085,"1675": 2.799,"1700": 2.227,"1725": 1.675,"1750": 1.553,"1775": 1.369,"1800": 1.308,"1825": 1.246,"1850": 1.246,"1875": 0.899,"1900": 1.062,"1925": 0.776,"1950": 0.776,"1975": 0.654,"2000": 0.735,"2025": 0.511,"2050": 0.552,"2075": 0.347,"2100": 0.368,"2125": 0.306,"2150": 0.327,"2175": 0.163,"2200": 0.041,"2225": 0.041}}}