{"type": "Feature","id": "647","bbox": [-88.46743,14.80354,-87.72516,15.921],"geometry": {"type": "Polygon","coordinates": [[[-87.77544,15.76322,5.7226],[-87.77952,15.77645,6.1632],[-87.79466,15.79335,7.4345],[-87.79487,15.80389,4.2456],[-87.78949,15.81283,5.5578],[-87.77373,15.82849,3.2216],[-87.76645,15.83862,4.4539],[-87.75738,15.8628,5.6218],[-87.75161,15.87221,1.8659],[-87.74053,15.88203,6.9373],[-87.73069,15.88787,2.242],[-87.72516,15.89732,2.108],[-87.72835,15.921,0.0],[-87.73632,15.91861,0.0],[-87.7421,15.90449,2.0797],[-87.76008,15.89956,0.0],[-87.84606,15.89387,0.0],[-87.87556,15.88426,1.0661],[-87.89196,15.87295,0.0],[-87.90876,15.86807,0.0],[-87.951,15.86717,0.0],[-87.95458,15.864,0.0],[-87.95043,15.85692,3.3507],[-87.94131,15.84984,3.2815],[-87.93017,15.84675,2.7901],[-87.92455,15.84219,0.0],[-87.92667,15.83234,0.0],[-87.93391,15.81879,3.0393],[-87.99226,15.78461,12.7692],[-88.03161,15.78986,0.0],[-88.04162,15.78669,0.0],[-88.03628,15.77094,8.2674],[-88.0609,15.75576,0.0],[-88.11889,15.69587,0.0],[-88.14525,15.68452,0.0],[-88.16975,15.69196,0.0],[-88.21508,15.72321,0.0],[-88.22092,15.72565,0.0],[-88.23262,15.72142,1.3111],[-88.23575,15.71243,1.5111],[-88.23492,15.70158,3.5487],[-88.24159,15.68824,2.0245],[-88.24776,15.69568,1.4735],[-88.265,15.6886,3.285],[-88.2797,15.68075,4.32],[-88.29559,15.67501,4.4854],[-88.31667,15.6746,3.7046],[-88.3223,15.66726,4.6295],[-88.35256,15.6169,5.9963],[-88.39899,15.5728,19.1518],[-88.46743,15.52074,518.4139],[-88.46682,15.52076,518.4139],[-88.40992,15.54045,205.1887],[-88.35657,15.53239,365.6321],[-88.262,15.50402,1867.8942],[-88.24779,15.49621,1653.196],[-88.24094,15.49073,1428.1726],[-88.2398,15.48681,1183.1257],[-88.24065,15.47849,1050.3926],[-88.23867,15.46924,971.9237],[-88.23833,15.46402,823.0289],[-88.24068,15.45213,682.5171],[-88.24115,15.44505,637.5],[-88.24011,15.43916,563.9306],[-88.2381,15.43348,529.0054],[-88.23368,15.42717,476.3972],[-88.22712,15.42056,423.0222],[-88.19763,15.4034,209.9492],[-88.18254,15.39115,160.8681],[-88.16908,15.38216,119.0935],[-88.15895,15.37767,95.2429],[-88.13433,15.37302,91.6627],[-88.13095,15.36795,139.4236],[-88.12381,15.27075,318.0373],[-88.10219,15.22791,766.1495],[-88.09451,15.22202,681.6594],[-88.08144,15.2138,469.6553],[-88.06152,15.20775,76.1241],[-88.06713,15.19235,60.7496],[-88.10805,15.14982,126.866],[-88.11353,15.13086,342.2388],[-88.10593,15.11427,596.3525],[-88.09405,15.10104,820.871],[-88.06534,15.0827,662.8603],[-88.04302,15.07526,676.3241],[-88.03602,15.07195,508.8963],[-88.02907,15.06564,376.216],[-88.0223,15.06301,264.9206],[-88.01814,15.05583,436.961],[-88.03075,15.04254,465.8076],[-88.04397,14.99733,942.6622],[-88.04956,14.98896,740.4287],[-88.05671,14.94694,775.6704],[-88.05359,14.93082,814.5016],[-88.04891,14.92917,854.4164],[-88.02697,14.92849,634.0],[-87.99563,14.90085,634.0],[-87.98788,14.87765,634.0],[-87.98581,14.83641,634.0],[-87.98028,14.82013,634.0],[-87.97367,14.81047,634.0],[-87.96297,14.80354,810.575],[-87.88367,14.85821,1269.5774],[-87.86944,14.87682,894.5566],[-87.84742,14.89883,504.0154],[-87.84368,14.90142,453.486],[-87.82146,14.90658,426.1625],[-87.80259,14.91552,418.243],[-87.75722,14.94793,269.0],[-87.74069,14.9625,269.0],[-87.7358,14.98379,269.0],[-87.73588,15.01655,269.0],[-87.74128,15.06146,167.9879],[-87.74007,15.06787,326.059],[-87.73743,15.07515,178.6128],[-87.73379,15.07768,132.4787],[-87.73216,15.08146,118.4485],[-87.73231,15.08647,98.7218],[-87.73332,15.09438,82.8223],[-87.7373,15.10456,137.2576],[-87.73836,15.11112,79.9195],[-87.76769,15.1397,95.4782],[-87.7834,15.13685,65.3931],[-87.78843,15.13747,64.5041],[-87.79407,15.13959,65.3663],[-87.79652,15.1492,63.4452],[-87.7998,15.15339,60.0692],[-87.81099,15.1537,57.2993],[-87.81443,15.15479,59.8743],[-87.81786,15.15799,55.8939],[-87.82215,15.15985,119.3904],[-87.83693,15.15959,57.1482],[-87.84257,15.16042,162.0289],[-87.84515,15.16517,207.3544],[-87.84608,15.16931,212.2818],[-87.84869,15.1738,79.3825],[-87.85308,15.1782,91.054],[-87.86786,15.18936,90.9839],[-87.87871,15.19184,49.3806],[-87.89776,15.19328,46.8585],[-87.91837,15.18781,42.7309],[-87.9231,15.1908,41.1861],[-87.92297,15.19494,41.8152],[-87.9198,15.20465,41.849],[-87.9206,15.21158,41.2462],[-87.91719,15.22584,39.5159],[-87.9175,15.23778,36.569],[-87.91837,15.23907,42.9498],[-87.92104,15.24047,39.2167],[-87.92685,15.23783,39.3578],[-87.93073,15.23731,36.3733],[-87.93512,15.24475,40.1315],[-87.92646,15.25912,37.2065],[-87.92837,15.26971,35.1982],[-87.92553,15.27607,37.9366],[-87.92406,15.28289,35.7525],[-87.92411,15.28982,38.4772],[-87.92576,15.29643,34.1817],[-87.91375,15.30883,34.3234],[-87.91114,15.31354,38.7131],[-87.91127,15.317,32.7494],[-87.91259,15.32025,32.0644],[-87.91331,15.32341,31.931],[-87.91158,15.32661,33.8979],[-87.90688,15.32894,32.9066],[-87.89357,15.3325,32.2969],[-87.88763,15.33581,29.7949],[-87.87856,15.34268,31.6367],[-87.87391,15.34501,26.5],[-87.86995,15.34795,36.0413],[-87.863,15.35638,29.8742],[-87.83848,15.39611,25.1448],[-87.82386,15.40805,26.9229],[-87.82019,15.41627,23.3212],[-87.82378,15.42996,23.0491],[-87.83373,15.43973,25.3576],[-87.84598,15.44588,26.1292],[-87.85272,15.45167,25.5386],[-87.84634,15.46045,24.3043],[-87.83512,15.46035,22.5872],[-87.82438,15.45301,23.5855],[-87.81642,15.45156,22.0512],[-87.81355,15.46913,23.5031],[-87.81864,15.48226,22.8405],[-87.82748,15.49446,18.0],[-87.83094,15.50851,26.4974],[-87.81993,15.52706,20.5869],[-87.80978,15.53368,16.6058],[-87.80451,15.54779,14.7516],[-87.80042,15.56411,16.1297],[-87.79391,15.57765,17.2108],[-87.79084,15.57709,15.7776],[-87.78487,15.57486,16.845],[-87.77776,15.57404,17.3147],[-87.77125,15.57776,25.3511],[-87.772,15.58117,18.2742],[-87.76464,15.60685,13.4709],[-87.76221,15.61016,11.0],[-87.77735,15.63321,12.5512],[-87.80345,15.65357,12.4128],[-87.81975,15.6716,8.0487],[-87.80546,15.68788,13.9889],[-87.82355,15.69155,9.8172],[-87.81797,15.70137,8.1963],[-87.78758,15.721,8.0712],[-87.77324,15.72462,8.4743],[-87.76428,15.72969,7.783],[-87.75841,15.73981,6.0911],[-87.75787,15.75113,5.1169],[-87.76118,15.76043,11.1662],[-87.76738,15.76529,7.7993],[-87.77544,15.76322,5.7226]]]}
,"properties": {"ISO3166-1-Alpha-3": "HND","country": "Honduras","fill": "#00F","name": "Cortés","area_km2": 3985.435,"hist_schema_id": "Elevation0-9000","hist_area_km2": {"0": 563.731,"25": 493.754,"50": 289.465,"75": 174.805,"100": 118.964,"125": 100.165,"150": 92.033,"175": 82.57,"200": 78.321,"225": 75.989,"250": 73.713,"275": 80.067,"300": 79.549,"325": 82.69,"350": 77.312,"375": 79.486,"400": 76.588,"425": 76.423,"450": 72.05,"475": 72.297,"500": 74.003,"525": 72.678,"550": 71.489,"575": 65.538,"600": 58.5,"625": 110.471,"650": 88.468,"675": 68.682,"700": 51.539,"725": 46.196,"750": 37.966,"775": 33.316,"800": 28.549,"825": 25.99,"850": 22.183,"875": 18.541,"900": 17.782,"925": 15.371,"950": 15.001,"975": 13.263,"1000": 13.895,"1025": 12.28,"1050": 12.566,"1075": 11.85,"1100": 11.38,"1125": 10.787,"1150": 10.092,"1175": 9.725,"1200": 8.029,"1225": 7.293,"1250": 7.375,"1275": 6.659,"1300": 6.516,"1325": 5.985,"1350": 5.454,"1375": 5.556,"1400": 5.393,"1425": 5.761,"1450": 4.821,"1475": 4.147,"1500": 4.147,"1525": 3.984,"1550": 3.738,"1575": 3.84,"1600": 3.289,"1625": 3.085,"1650": 2.574,"1675": 2.574,"1700": 1.859,"1725": 1.43,"1750": 1.348,"1775": 1.308,"1800": 1.246,"1825": 1.185,"1850": 1.205,"1875": 0.899,"1900": 1.062,"1925": 0.776,"1950": 0.776,"1975": 0.654,"2000": 0.735,"2025": 0.511,"2050": 0.552,"2075": 0.347,"2100": 0.368,"2125": 0.306,"2150": 0.327,"2175": 0.163,"2200": 0.041,"2225": 0.041}}}