{"type":"Feature","properties":{"featurecla":"River","scalerank":11,"rivernum":22184,"dissolve":"22184River","name":"null14","name_alt":null,"note":"ID is link back to CEC data","name_full":null,"min_zoom":6.7,"strokeweig":0.15,"uident":2172401,"min_label":7.7},
"geometry":{"type": "LineString","coordinates": [[-87.859852668353724,15.262030340619035,191.6631],[-87.8609919912704,15.210028387494035,265.6521],[-87.8678279287704,15.189317124473206,90.9839],[-87.853098111062067,15.178168035931535,91.054],[-87.848703579812067,15.173773504681535,79.3825],[-87.846058723041224,15.169297593223206,212.2818],[-87.8451228506454,15.165147202598206,207.3544],[-87.842600064187067,15.160427150514877,162.0289],[-87.836903449603724,15.159613348431535,57.1482],[-87.822132941791224,15.159857489056535,119.3904],[-87.817860480853724,15.157985744264877,55.8939],[-87.814442512103724,15.154811916139877,59.8743],[-87.811024543353724,15.153672593223206,57.2993],[-87.799794074603724,15.153387762494035,60.0692],[-87.796498176166224,15.149237371869035,63.4452],[-87.794056769916224,15.139593817181535,65.3663],[-87.788441535541224,15.137477931764877,64.5041],[-87.7833552725204,15.136826890098206,65.3931],[-87.767689582416224,15.139715887494035,95.4782],[-87.738392707416224,15.111151434369035,79.9195],[-87.712880012103724,15.115790106244035,321.7786],[-87.684641079812067,15.116237697389877,490.7],[-87.6756892568954,15.106309311973206,340.7067],[-87.6803279287704,15.074164129681535,583.1073]]}}