{"type":"Feature","properties":{"featurecla":"River","scalerank":7,"rivernum":530,"dissolve":"530River","name":"Ula1","name_alt":null,"note":null,"min_zoom":6.0,"strokeweig":0.2,"name_en":"Ula","min_label":7.0},
"geometry":{"type": "LineString","coordinates": [[-87.984057617187489,14.467303778119117,616.8364],[-87.989697265625,14.472284246869123,605.1927],[-88.004248046874991,14.480975653119117,585.8448],[-88.010009765625,14.48712799686912,557.655],[-88.012451171875,14.494745184369123,554.0221],[-88.016040039062489,14.516717840619123,547.6328],[-88.019458007812489,14.526874090619117,541.5835],[-88.051123046874991,14.576776434369123,650.4335],[-88.0703125,14.647235418744117,523.7659],[-88.091723632812489,14.69147369999412,344.5453],[-88.122363281249989,14.73065827030662,505.7028],[-88.162695312499991,14.76520416874412,338.8612],[-88.253173828125,14.81671784061912,262.2726],[-88.2609375,14.822528387494117,298.769],[-88.26611328125,14.83124420780662,255.892],[-88.266772460937489,14.841180731244123,196.3017],[-88.26328125,14.85150787968162,258.8685],[-88.257177734374991,14.85968659061912,199.7069],[-88.249755859375,14.86347077030662,183.8691],[-88.259033203125,14.88483307499412,173.4345],[-88.258544921875,14.91705963749412,205.1891],[-88.249121093749991,14.979852606244123,187.5104],[-88.236425781249991,14.99652741093162,146.5043],[-88.231298828124991,15.005243231244123,161.4957],[-88.228320312499989,15.015252996869123,139.0878],[-88.228125,15.025262762494123,146.682],[-88.23046875,15.046014715619123,212.9641],[-88.229589843749991,15.056415106244117,205.8796],[-88.217944335937489,15.095233465619117,406.8036],[-88.212451171874989,15.10626862186912,213.9489],[-88.201098632812489,15.11920807499412,121.2672],[-88.148779296874991,15.155292059369117,250.3076],[-88.10693359375,15.17560455936912,309.5333],[-88.030566406249989,15.22516510624412,56.7334],[-88.022631835937489,15.231952215619117,59.8133],[-88.016943359374991,15.24042389530662,84.654],[-88.009814453124989,15.25849030155662,43.1805],[-88.003344726562489,15.26740143436912,45.5331],[-87.985107421875,15.277850653119117,42.8111],[-87.967382812499991,15.276385809369117,40.1347],[-87.948901367187489,15.270868231244123,167.2544],[-87.928466796875,15.269647528119123,36.6741],[-87.925634765624991,15.275995184369123,37.9366],[-87.924169921874991,15.282831121869123,35.7525],[-87.924169921874991,15.28974030155662,38.4772],[-87.925878906249991,15.29633209843162,34.1817],[-87.913867187499989,15.30878327030662,34.3234],[-87.911230468749991,15.313495184369117,38.7131],[-87.911376953125,15.316913153119117,32.7494],[-87.912695312499991,15.320184637494123,32.0644],[-87.913427734374991,15.323358465619123,31.931],[-87.911669921874989,15.326532293744123,33.8979],[-87.906982421875,15.328876043744117,32.9066],[-87.893652343749991,15.33246491093162,32.2969],[-87.887744140624989,15.33576080936912,29.7949],[-87.878662109375,15.34259674686912,31.6367],[-87.8740234375,15.344989324994117,26.5],[-87.870043945312489,15.34784577030662,36.0413],[-87.863085937499989,15.35626862186912,29.8742],[-87.838623046875,15.39606354374412,25.1448],[-87.823974609375,15.407977606244117,26.9229],[-87.820239257812489,15.41620514530662,23.3212],[-87.823901367187489,15.42987702030662,23.0491],[-87.833789062499989,15.439715887494117,26.5371],[-87.846044921874991,15.445819403119117,26.1292],[-87.852832031249989,15.451532293744123,25.5386],[-87.846435546875,15.46039459843162,23.0445],[-87.835205078125,15.46027252811912,22.5872],[-87.824462890625,15.45294830936912,23.5855],[-87.816503906249991,15.45148346561912,22.0512],[-87.813647460937489,15.46906159061912,23.5031],[-87.818701171874991,15.482196356244117,22.8405],[-87.827563476562489,15.494403387494117,19.7646],[-87.8310546875,15.508417059369123,26.4974],[-87.820068359375,15.526971746869123,20.5869]]}}