{"type":"Feature","properties":{"GID_2":"HND.12.5_1","GID_0":"HND","country":"Honduras","GID_1":"HND.12_1","province":"LaPaz","NL_NAME_1":"NA","county":"Guajiquiro","VARNAME_2":"NA","NL_NAME_2":"NA","TYPE_2":"Municipio","ENGTYPE_2":"Municipality","CC_2":"NA","HASC_2":"HN.LP.GU","name":"Guajiquiro.county"},
"geometry":{"type": "MultiPolygon","coordinates": [[[[-87.7687,14.1516,1308.3219],[-87.7858,14.1783,1580.2429],[-87.7971,14.1799,1610.9563],[-87.821,14.1882,1905.2449],[-87.8216,14.2008,1786.9222],[-87.8242,14.201,1853.2482],[-87.8364,14.1847,2202.2861],[-87.8416,14.1827,2182.8838],[-87.8436,14.1856,2182.4165],[-87.8452,14.1854,2162.885],[-87.8601,14.1816,1843.7434],[-87.876,14.1733,1766.7151],[-87.8749,14.1656,1823.629],[-87.8811,14.1498,1927.8569],[-87.8799,14.1466,2039.5269],[-87.8721,14.142,2102.0122],[-87.8694,14.1359,2119.0078],[-87.8706,14.13,2101.416],[-87.8689,14.1132,2075.0374],[-87.8558,14.1142,1738.2057],[-87.8509,14.103,1743.9436],[-87.8506,14.0964,1669.0265],[-87.8535,14.0841,1295.6135],[-87.8496,14.0756,1418.0472],[-87.8522,14.0687,1398.4852],[-87.8547,14.0671,1378.2651],[-87.8544,14.0621,1410.3597],[-87.8572,14.0571,1343.1968],[-87.857,14.0531,1178.2057],[-87.8597,14.0504,1174.463],[-87.859,14.0461,1068.8723],[-87.8618,14.0323,1021.6535],[-87.8518,14.0229,1113.5496],[-87.8335,14.0179,841.8769],[-87.8279,14.0027,883.162],[-87.8249,13.9985,781.8036],[-87.8252,13.9938,807.6068],[-87.8223,13.9908,922.053],[-87.8185,13.9803,962.0948],[-87.8157,13.9783,898.1552],[-87.8157,13.9741,928.4875],[-87.8101,13.9672,886.5723],[-87.8054,13.9659,913.4116],[-87.8029,13.972,825.128],[-87.7979,13.9733,770.2613],[-87.7856,13.9643,725.9035],[-87.7829,13.9602,763.3177],[-87.7757,13.9636,1018.9467],[-87.7675,13.9626,1156.3198],[-87.7649,13.9636,1060.105],[-87.7627,13.9623,1008.0747],[-87.7523,13.9641,627.3805],[-87.7483,13.9662,577.4426],[-87.7424,13.9658,669.2624],[-87.7398,13.9678,556.5277],[-87.7004,13.9766,382.0017],[-87.6975,13.9802,363.3395],[-87.6984,13.9915,393.5242],[-87.6964,13.9931,441.3853],[-87.6951,13.9978,395.345],[-87.696,14.0022,468.2845],[-87.6917,14.0059,449.7106],[-87.6899,14.0098,471.3713],[-87.6914,14.0178,506.7659],[-87.6933,14.0197,529.2148],[-87.6894,14.0202,480.7874],[-87.6912,14.0244,542.276],[-87.6903,14.0277,567.2031],[-87.6936,14.03,579.3088],[-87.6937,14.0391,550.2164],[-87.695,14.0405,574.8369],[-87.6921,14.0419,584.452],[-87.6948,14.0433,613.6146],[-87.6947,14.0526,575.9531],[-87.6976,14.0552,592.4783],[-87.6947,14.0562,584.702],[-87.6948,14.0695,604.8644],[-87.6915,14.0701,578.9532],[-87.6912,14.0715,568.0531],[-87.6999,14.0875,676.88],[-87.7013,14.0937,661.2979],[-87.717,14.0839,703.9139],[-87.7397,14.1202,873.9279],[-87.7594,14.1208,849.4103],[-87.784,14.1268,1401.5017],[-87.7841,14.1421,1496.2129],[-87.7687,14.1516,1308.3219]]]]}}