{"type": "Feature","bbox": [-88.4196,14.2118,-88.2893,14.2816],"geometry": {"type": "MultiPolygon","coordinates": [[[[-88.4075,14.2646,1215.4902],[-88.4194,14.2465,1002.5903],[-88.4196,14.2406,1221.5186],[-88.4165,14.2337,1210.1862],[-88.4082,14.2295,1156.1753],[-88.4012,14.2282,1092.462],[-88.3984,14.2238,1068.7333],[-88.3954,14.2235,1072.0205],[-88.3934,14.2213,1005.8901],[-88.3862,14.2207,1011.7721],[-88.3809,14.216,954.4142],[-88.3666,14.218,958.5007],[-88.3633,14.2166,964.5754],[-88.3571,14.2173,1082.3621],[-88.334,14.212,1219.6146],[-88.3289,14.213,977.9086],[-88.3282,14.2118,1010.9174],[-88.3104,14.2132,814.8035],[-88.3117,14.2184,815.3977],[-88.3006,14.2348,1231.6443],[-88.3,14.2443,1196.718],[-88.2928,14.2644,1349.3131],[-88.2893,14.2695,1447.2684],[-88.2901,14.2712,1496.4587],[-88.2975,14.2727,1601.156],[-88.3074,14.2812,1598.4579],[-88.3106,14.2808,1596.9175],[-88.3147,14.2777,1607.197],[-88.3249,14.2775,1515.5367],[-88.333,14.2743,1295.0327],[-88.3371,14.2753,1240.6827],[-88.3366,14.2785,1354.6541],[-88.3395,14.2816,1219.196],[-88.3773,14.2747,1006.7574],[-88.3801,14.2772,1015.125],[-88.4037,14.2675,1155.9551],[-88.4075,14.2646,1215.4902]]]]}
,"properties": {"GID_2": "HND.10.4_1","GID_0": "HND","country": "Honduras","GID_1": "HND.10_1","province": "Intibucá","NL_NAME_1": "NA","county": "Dolores","VARNAME_2": "NA","NL_NAME_2": "NA","TYPE_2": "Municipio","ENGTYPE_2": "Municipality","CC_2": "NA","HASC_2": "HN.CP.DO","name": "Dolores.county","area_km2": 79.71375,"hist_schema_id": "Elevation0-9000","hist_area_km2": {"725": 0.12332,"750": 0.24664,"775": 0.3494,"800": 0.57547,"825": 0.67822,"850": 1.0687,"875": 1.39752,"900": 1.80854,"925": 2.95937,"950": 5.30221,"975": 5.2405,"1000": 4.27454,"1025": 4.50058,"1050": 4.31559,"1075": 4.93208,"1100": 4.10999,"1125": 3.65787,"1150": 4.10993,"1175": 4.06881,"1200": 4.06879,"1225": 2.48646,"1250": 2.11656,"1275": 1.3768,"1300": 1.60284,"1325": 1.4179,"1350": 1.62338,"1375": 1.35624,"1400": 1.58227,"1425": 1.19184,"1450": 0.69866,"1475": 1.06853,"1500": 1.15073,"1525": 0.86303,"1550": 0.67811,"1575": 0.53426,"1600": 0.39041,"1625": 0.5137,"1650": 0.39041,"1675": 0.4726,"1700": 0.28767,"1725": 0.12328}}}