{"type": "Feature","bbox": [-88.4074,14.7757,-88.2457,14.8913],"geometry": {"type": "MultiPolygon","coordinates": [[[[-88.3588,14.798,1050.8604],[-88.3496,14.7949,713.4542],[-88.3425,14.7828,634.2766],[-88.338,14.7794,609.0334],[-88.3367,14.7759,621.9013],[-88.3346,14.7757,622.6058],[-88.3332,14.7775,666.0365],[-88.3243,14.7806,553.6648],[-88.3208,14.7876,455.7779],[-88.3159,14.7916,460.1049],[-88.3119,14.8011,478.0988],[-88.307,14.8058,485.9844],[-88.2998,14.8052,469.7564],[-88.2916,14.8082,363.3709],[-88.2886,14.8063,376.8086],[-88.2834,14.8077,384.9452],[-88.2814,14.8058,390.1855],[-88.2734,14.8055,325.4551],[-88.268,14.8078,296.4382],[-88.264,14.8077,274.0981],[-88.2606,14.817,213.2197],[-88.257,14.8216,305.457],[-88.2612,14.8285,361.0956],[-88.2586,14.8381,404.7426],[-88.2599,14.8412,336.4983],[-88.2553,14.8412,292.0562],[-88.2486,14.8374,432.9535],[-88.2457,14.8387,467.3712],[-88.2457,14.8416,414.4722],[-88.2486,14.845,296.4266],[-88.2559,14.8482,218.9899],[-88.2573,14.855,175.6076],[-88.2641,14.8504,214.0015],[-88.2709,14.8542,241.6124],[-88.2743,14.8498,379.938],[-88.2838,14.846,369.9187],[-88.2974,14.849,453.3148],[-88.3004,14.8473,421.1138],[-88.3057,14.8473,415.1625],[-88.3118,14.8508,380.9561],[-88.3195,14.8512,376.801],[-88.3234,14.8498,430.091],[-88.3234,14.8889,493.9937],[-88.3703,14.8913,1173.6289],[-88.3703,14.8805,1043.8987],[-88.3753,14.877,1075.8259],[-88.3784,14.8725,1009.3392],[-88.3857,14.8698,1170.5006],[-88.3866,14.8511,1267.0253],[-88.4026,14.8503,1507.4952],[-88.4009,14.8456,1564.0049],[-88.4062,14.8417,1568.2772],[-88.4041,14.8302,1380.5442],[-88.4074,14.8248,1237.6216],[-88.4044,14.819,1120.5441],[-88.3979,14.818,1124.1747],[-88.3893,14.8224,1271.4392],[-88.3726,14.821,1484.2207],[-88.3686,14.8159,1476.5267],[-88.3563,14.8063,1071.9568],[-88.3588,14.798,1050.8604]]]]}
,"properties": {"GID_2": "HND.16.1_1","GID_0": "HND","country": "Honduras","GID_1": "HND.16_1","province": "SantaBárbara","NL_NAME_1": "NA","county": "Arada","VARNAME_2": "NA","NL_NAME_2": "NA","TYPE_2": "Municipio","ENGTYPE_2": "Municipality","CC_2": "NA","HASC_2": "HN.SB.AR","name": "Arada.county","area_km2": 107.66216,"hist_schema_id": "Elevation0-9000","hist_area_km2": {"175": 0.20494,"200": 2.48003,"225": 2.80798,"250": 3.75083,"275": 3.66882,"300": 4.16074,"325": 3.62785,"350": 3.27942,"375": 3.17688,"400": 3.56631,"425": 3.21792,"450": 2.4801,"475": 2.41866,"500": 1.78319,"525": 2.00867,"550": 1.72166,"575": 2.00861,"600": 1.94707,"625": 2.23396,"650": 2.23392,"675": 2.25437,"700": 2.0289,"725": 2.39774,"750": 2.02886,"775": 2.35676,"800": 2.06988,"825": 1.82396,"850": 1.90599,"875": 1.47561,"900": 1.76251,"925": 1.82398,"950": 1.82402,"975": 1.74203,"1000": 1.57803,"1025": 1.31162,"1050": 1.47554,"1075": 1.37309,"1100": 1.16818,"1125": 1.06573,"1150": 0.88128,"1175": 0.84031,"1200": 1.16825,"1225": 1.06576,"1250": 1.27073,"1275": 1.02478,"1300": 0.96329,"1325": 1.37321,"1350": 0.98379,"1375": 1.04527,"1400": 1.08627,"1425": 1.12726,"1450": 1.10676,"1475": 1.33223,"1500": 1.18875,"1525": 1.18875,"1550": 0.8813,"1575": 1.18872,"1600": 0.55337,"1625": 0.49188,"1650": 0.36891,"1675": 0.24594,"1700": 0.0205,"1725": 0.0205}}}