{"type":"Feature","properties":{"GID_2":"HND.15.10_1","GID_0":"HND","country":"Honduras","GID_1":"HND.15_1","province":"Olancho","NL_NAME_1":"NA","county":"Guayape","VARNAME_2":"NA","NL_NAME_2":"NA","TYPE_2":"Municipio","ENGTYPE_2":"Municipality","CC_2":"NA","HASC_2":"HN.OL.GY","name":"Guayape.county"},
"geometry":{"type": "MultiPolygon","coordinates": [[[[-86.8162,14.6304,1581.9663],[-86.7977,14.6458,1850.8035],[-86.8051,14.6651,1202.0914],[-86.8009,14.6686,1088.1666],[-86.7983,14.6793,1159.3135],[-86.7984,14.6909,971.8573],[-86.795,14.6966,960.4014],[-86.7894,14.7009,928.3988],[-86.7871,14.7094,908.4297],[-86.7787,14.7144,901.9711],[-86.7751,14.7205,814.6841],[-86.7746,14.7305,994.3359],[-86.7711,14.7302,878.8218],[-86.7665,14.735,849.5143],[-86.7787,14.7351,1070.1748],[-86.7917,14.7428,1069.5441],[-86.793,14.7455,975.1556],[-86.7865,14.7442,1039.1433],[-86.7824,14.7484,859.6581],[-86.781,14.7541,756.5652],[-86.7722,14.7675,990.973],[-86.7625,14.7709,810.3061],[-86.7578,14.7747,826.1406],[-86.7462,14.8261,1552.0438],[-86.7417,14.8305,1578.5884],[-86.7418,14.84,1498.4872],[-86.7618,14.8455,1463.2021],[-86.7782,14.852,1378.9977],[-86.8051,14.886,1822.4572],[-86.8349,14.8814,1676.7596],[-86.8723,14.8935,1287.4199],[-86.883,14.9099,1135.6006],[-86.9245,14.9301,1434.8363],[-86.928,14.9267,1423.4146],[-86.9331,14.926,1472.2382],[-86.9447,14.9079,1305.6069],[-86.9448,14.8985,1418.1644],[-86.955,14.8916,1231.2402],[-86.9559,14.8881,1201.684],[-86.9508,14.8735,1445.4586],[-86.9519,14.8617,1145.0796],[-86.9497,14.859,1091.6354],[-86.9376,14.8533,1222.91],[-86.9262,14.8271,939.9563],[-86.9232,14.8127,844.6219],[-86.9287,14.8109,829.6019],[-86.9299,14.8057,813.2144],[-86.9285,14.7982,875.7722],[-86.9182,14.7928,919.313],[-86.9131,14.7922,851.8503],[-86.9094,14.7884,897.0226],[-86.919,14.7594,1180.7894],[-86.8959,14.7351,936.9977],[-86.8863,14.6959,1176.6899],[-86.8709,14.6587,1337.5005],[-86.854,14.6496,1531.7355],[-86.8388,14.6302,1197.0068],[-86.8278,14.629,1384.9746],[-86.8162,14.6304,1581.9663]]]]}}