{"type":"Feature","properties":{"GID_2":"HND.5.2_1","GID_0":"HND","country":"Honduras","GID_1":"HND.5_1","province":"Copán","NL_NAME_1":"NA","county":"Concepción","VARNAME_2":"NA","NL_NAME_2":"NA","TYPE_2":"Municipio","ENGTYPE_2":"Municipality","CC_2":"NA","HASC_2":"HN.CP.CN","name":"Concepción.county"},
"geometry":{"type": "MultiPolygon","coordinates": [[[[-88.893,14.8972,1232.4678],[-88.9071,14.9017,1147.2877],[-88.9093,14.9052,1123.1599],[-88.9079,14.9136,1015.0763],[-88.9099,14.9179,1061.9268],[-88.9207,14.9212,1058.6948],[-88.928,14.9214,1021.326],[-88.9298,14.9185,1019.4385],[-88.9326,14.9178,1022.0809],[-88.9389,14.9192,1154.6927],[-88.9555,14.9035,1204.3186],[-88.9351,14.8736,1541.1514],[-88.9345,14.8623,1373.8677],[-88.8938,14.8677,1344.8904],[-88.8924,14.8571,1283.7974],[-88.8607,14.8239,924.9628],[-88.8581,14.8177,911.369],[-88.8556,14.8179,928.8195],[-88.8576,14.807,755.233],[-88.8573,14.7968,826.7977],[-88.8531,14.791,749.5435],[-88.8478,14.7894,704.6799],[-88.844,14.7857,754.6006],[-88.8442,14.7806,780.3707],[-88.8423,14.7798,724.4196],[-88.8385,14.7865,838.7881],[-88.8315,14.7892,836.7562],[-88.8263,14.7893,921.5743],[-88.8251,14.7872,972.4632],[-88.8187,14.7868,993.9451],[-88.8173,14.7942,919.2535],[-88.8136,14.7952,942.4263],[-88.8097,14.7994,955.2256],[-88.8089,14.8027,1031.5522],[-88.8068,14.803,1054.5525],[-88.8028,14.8077,1073.8008],[-88.8042,14.8124,1019.6993],[-88.8076,14.8162,925.7045],[-88.8063,14.8185,949.5714],[-88.8105,14.8199,890.3461],[-88.8099,14.8245,847.5308],[-88.8399,14.8241,1055.355],[-88.8549,14.8441,981.3182],[-88.8566,14.8678,1156.9459],[-88.8545,14.8717,1208.6572],[-88.8707,14.8824,1079.5758],[-88.8686,14.8961,956.4205],[-88.8832,14.8934,1281.8478],[-88.893,14.8972,1232.4678]]]]}}