{"type": "Feature","bbox": [-87.1324,13.5751,-86.9357,13.7388],"geometry": {"type": "MultiPolygon","coordinates": [[[[-87.0022,13.5837,710.7825],[-86.9952,13.5845,897.126],[-86.9952,13.5954,702.0752],[-87.0071,13.6039,561.4425],[-86.9986,13.6132,521.3889],[-86.9973,13.6181,318.3458],[-86.9934,13.6201,314.7549],[-86.9938,13.6308,381.5115],[-86.9823,13.6376,434.3192],[-86.9693,13.654,614.5685],[-86.9593,13.6629,914.3016],[-86.9439,13.6713,1063.4122],[-86.9357,13.6831,1151.4341],[-86.9499,13.6901,906.5824],[-86.9566,13.6902,721.5234],[-86.9635,13.6863,819.2971],[-86.9732,13.6843,587.5938],[-86.9751,13.6909,486.4984],[-86.982,13.6994,791.0334],[-86.9817,13.7045,725.9467],[-87.0034,13.7064,816.8321],[-87.0031,13.7132,756.7769],[-87.0062,13.7202,967.1923],[-87.0014,13.7378,1399.7925],[-87.0341,13.7388,1354.124],[-87.0316,13.7272,1292.4305],[-87.05,13.7166,1015.1269],[-87.0751,13.7105,571.7422],[-87.0813,13.7047,639.6264],[-87.087,13.7047,544.062],[-87.0941,13.6999,480.1152],[-87.1016,13.7043,581.1368],[-87.104,13.7012,625.5274],[-87.1165,13.6941,928.8702],[-87.1324,13.6673,897.8412],[-87.1282,13.6606,807.6268],[-87.1251,13.649,771.9213],[-87.1179,13.6454,789.701],[-87.1077,13.6434,754.5435],[-87.0939,13.6364,671.0034],[-87.0928,13.633,652.3794],[-87.0849,13.6305,655.1158],[-87.0805,13.6272,529.8308],[-87.08,13.6237,619.6859],[-87.0752,13.6213,720.9293],[-87.0746,13.6118,746.0125],[-87.0692,13.6034,630.3372],[-87.0638,13.5993,499.2752],[-87.0524,13.5946,372.0307],[-87.0534,13.5934,357.6849],[-87.0516,13.592,338.8372],[-87.0525,13.5889,363.1972],[-87.0513,13.5783,426.3097],[-87.0485,13.5755,329.9648],[-87.0453,13.5751,452.9467],[-87.0452,13.5777,405.3451],[-87.0363,13.5845,483.391],[-87.0316,13.5935,403.0255],[-87.0223,13.5953,520.5374],[-87.0089,13.5936,606.0399],[-87.0022,13.5837,710.7825]]]]}
,"properties": {"GID_2": "HND.7.15_1","GID_0": "HND","country": "Honduras","GID_1": "HND.7_1","province": "ElParaíso","NL_NAME_1": "NA","county": "Texiguat","VARNAME_2": "NA","NL_NAME_2": "NA","TYPE_2": "Municipio","ENGTYPE_2": "Municipality","CC_2": "NA","HASC_2": "HN.EP.TX","name": "Texiguat.county","area_km2": 190.0356,"hist_schema_id": "Elevation0-9000","hist_area_km2": {"275": 0.3709,"300": 1.5041,"325": 3.9972,"350": 4.6153,"375": 5.5836,"400": 7.5822,"425": 8.9008,"450": 9.1274,"475": 8.9831,"500": 9.3333,"525": 9.972,"550": 9.7454,"575": 8.7152,"600": 7.8085,"625": 7.2728,"650": 5.7893,"675": 6.0779,"700": 5.8099,"725": 5.1506,"750": 5.2124,"775": 5.0269,"800": 5.6037,"825": 6.0569,"850": 5.0885,"875": 4.7381,"900": 4.6556,"925": 4.0375,"950": 2.8221,"975": 2.5337,"1000": 2.3895,"1025": 2.3483,"1050": 2.3895,"1075": 2.2041,"1100": 1.8333,"1125": 1.2977,"1150": 1.0711,"1175": 0.9681,"1200": 0.6797,"1225": 0.5355,"1250": 0.5561,"1275": 0.3089,"1300": 0.3089,"1325": 0.4325,"1350": 0.3707,"1375": 0.0618,"1400": 0.0824,"1425": 0.0412,"1450": 0.0412}}}