{"type":"Feature","properties":{"GID_2":"HND.10.9_1","GID_0":"HND","country":"Honduras","GID_1":"HND.10_1","province":"Intibucá","NL_NAME_1":"NA","county":"Masaguara","VARNAME_2":"NA","NL_NAME_2":"NA","TYPE_2":"Municipio","ENGTYPE_2":"Municipality","CC_2":"NA","HASC_2":"HN.IN.MS","name":"Masaguara.county"},
"geometry":{"type": "MultiPolygon","coordinates": [[[[-87.8791,14.4799,2003.7794],[-87.9214,14.458,1306.1376],[-87.9215,14.4541,1284.0674],[-87.9125,14.448,1121.9371],[-87.9124,14.4461,1067.7391],[-87.9333,14.4243,910.8196],[-87.9469,14.4153,780.6384],[-87.9606,14.414,697.1724],[-87.9751,14.427,747.8495],[-87.9978,14.4198,757.6852],[-88.0039,14.4222,755.1736],[-88.0139,14.4224,657.5681],[-88.0155,14.4207,680.4509],[-88.0132,14.4204,685.0863],[-88.0138,14.4178,696.2723],[-88.0309,14.4078,832.5493],[-88.0476,14.4075,1033.0923],[-88.0544,14.4023,1179.7693],[-88.0559,14.3983,1249.0471],[-88.0582,14.3984,1087.2213],[-88.0601,14.3914,1047.7136],[-88.0629,14.3879,1124.9766],[-88.0596,14.3841,1118.8246],[-88.0575,14.3729,1311.7188],[-88.0531,14.3629,1439.6898],[-88.0549,14.3557,1495.6984],[-88.0512,14.3512,1591.0999],[-88.0507,14.3426,1670.252],[-88.0547,14.3407,1819.0293],[-88.0588,14.3284,1618.5719],[-88.0613,14.3271,1687.6278],[-88.0375,14.3047,1226.5779],[-88.036,14.2975,1267.3429],[-88.0251,14.2834,1054.939],[-88.0224,14.2729,1015.4459],[-88.0184,14.2685,1052.3195],[-88.0176,14.2641,1080.8633],[-88.0094,14.2576,1063.7378],[-88.0015,14.2583,1012.6605],[-87.9981,14.2673,1032.6698],[-87.9942,14.272,1004.1486],[-87.9808,14.2764,1035.7784],[-87.9772,14.2793,983.4844],[-87.973,14.2771,1021.126],[-87.9695,14.2833,1062.9272],[-87.9699,14.2873,946.3881],[-87.9663,14.2893,918.0964],[-87.9666,14.2919,932.4978],[-87.9648,14.2924,978.6047],[-87.9665,14.2949,974.4233],[-87.9655,14.3055,896.5591],[-87.9621,14.3059,885.6462],[-87.96,14.309,1060.5974],[-87.9583,14.3066,1027.3015],[-87.9544,14.3079,1046.1218],[-87.9535,14.3102,983.3374],[-87.9469,14.312,922.0745],[-87.9496,14.3144,843.9243],[-87.9464,14.3157,831.2675],[-87.9482,14.3174,821.9021],[-87.9467,14.3205,797.9564],[-87.9478,14.3226,798.5733],[-87.9441,14.3279,878.1627],[-87.9477,14.3325,874.7018],[-87.9477,14.3352,853.6498],[-87.952,14.3351,779.5428],[-87.9523,14.3392,766.1171],[-87.9491,14.3426,812.2346],[-87.951,14.3445,858.2875],[-87.95,14.3467,927.662],[-87.9523,14.3475,845.9008],[-87.9511,14.351,854.2009],[-87.9561,14.3525,722.1064],[-87.95,14.3566,899.5384],[-87.9511,14.3593,877.0658],[-87.9478,14.3605,838.6547],[-87.951,14.3656,890.0853],[-87.9494,14.3678,898.084],[-87.9507,14.3701,889.7836],[-87.9502,14.3763,885.3467],[-87.9451,14.3754,828.7168],[-87.9449,14.3742,828.7168],[-87.9419,14.3754,836.8599],[-87.94,14.373,941.0081],[-87.9409,14.3707,906.7267],[-87.9273,14.3703,980.7188],[-87.9252,14.3689,1033.2491],[-87.9197,14.3715,1073.439],[-87.9158,14.3685,1063.8868],[-87.9087,14.369,1063.7166],[-87.9068,14.3716,951.2413],[-87.9011,14.3741,1065.7844],[-87.8965,14.381,1092.8706],[-87.8886,14.3834,1129.8273],[-87.8786,14.3911,1221.0293],[-87.8631,14.3997,1462.8248],[-87.8572,14.4085,1698.3347],[-87.8528,14.4114,1819.1646],[-87.8506,14.415,1828.1678],[-87.8484,14.415,1888.6617],[-87.8398,14.4216,1821.1219],[-87.8433,14.4279,2030.9314],[-87.8443,14.4371,2162.5154],[-87.8514,14.4407,2340.0193],[-87.8521,14.4451,2366.3767],[-87.8605,14.4519,2092.0938],[-87.8759,14.4705,2065.175],[-87.8791,14.4799,2003.7794]]]]}}