{"type":"Feature","properties":{"GID_2":"HND.13.2_1","GID_0":"HND","country":"Honduras","GID_1":"HND.13_1","province":"Lempira","NL_NAME_1":"NA","county":"Candelaria","VARNAME_2":"NA","NL_NAME_2":"NA","TYPE_2":"Municipio","ENGTYPE_2":"Municipality","CC_2":"NA","HASC_2":"HN.LE.CA","name":"Candelaria.county"},
"geometry":{"type": "MultiPolygon","coordinates": [[[[-88.5831,14.0715,565.6211],[-88.5983,14.0481,256.6307],[-88.5924,14.024,298.0063],[-88.5435,14.0125,304.6415],[-88.5187,14.0018,274.442],[-88.5208,14.0055,173.0508],[-88.5166,14.0104,240.583],[-88.521,14.0118,196.731],[-88.5186,14.0156,256.1395],[-88.5191,14.0184,271.2946],[-88.5218,14.0211,281.3925],[-88.5214,14.0272,235.1461],[-88.5165,14.0337,424.8862],[-88.5181,14.038,433.2578],[-88.5174,14.0429,367.0546],[-88.5227,14.0481,395.0513],[-88.5228,14.0579,406.1829],[-88.5265,14.0586,501.3948],[-88.5272,14.0626,498.9808],[-88.5542,14.0842,655.6202],[-88.5729,14.0807,737.5517],[-88.5831,14.0715,565.6211]]]]}}