{"type":"Feature","properties":{"GID_2":"HND.5.7_1","GID_0":"HND","country":"Honduras","GID_1":"HND.5_1","province":"Copán","NL_NAME_1":"NA","county":"DulceNombre","VARNAME_2":"NA","NL_NAME_2":"NA","TYPE_2":"Municipio","ENGTYPE_2":"Municipality","CC_2":"NA","HASC_2":"HN.CP.DN","name":"Dulce_Nombre.county"},
"geometry":{"type": "MultiPolygon","coordinates": [[[[-88.8028,14.8077,1073.8008],[-88.795,14.8116,997.0674],[-88.7942,14.8173,929.1045],[-88.797,14.8232,879.6907],[-88.7892,14.8306,962.3724],[-88.8307,14.855,1134.6786],[-88.8375,14.8924,968.5125],[-88.8402,14.8923,955.6838],[-88.8424,14.8961,927.5615],[-88.8462,14.8981,836.9366],[-88.864,14.8981,940.5519],[-88.8686,14.8961,956.4205],[-88.8707,14.8824,1079.5758],[-88.8543,14.8712,1170.8007],[-88.8566,14.8678,1156.9459],[-88.856,14.8506,1017.6053],[-88.8543,14.8428,970.8628],[-88.8399,14.8241,1055.355],[-88.8099,14.8245,847.5308],[-88.8105,14.8199,890.3461],[-88.8063,14.8185,949.5714],[-88.8076,14.8162,925.7045],[-88.8042,14.8124,1019.6993],[-88.8028,14.8077,1073.8008]]]]}}