{"type": "Feature","bbox": [-88.0114,14.1202,-87.8751,14.2158],"geometry": {"type": "MultiPolygon","coordinates": [[[[-87.876,14.1733,1766.7151],[-87.8874,14.1918,1750.7147],[-87.8913,14.1861,1678.451],[-87.8951,14.1844,1661.6658],[-87.9052,14.1851,1583.468],[-87.9149,14.1897,1844.7029],[-87.9457,14.1858,1796.2758],[-87.9528,14.1871,1608.0474],[-87.957,14.1899,1559.5345],[-87.9771,14.184,1427.8911],[-87.9771,14.1907,1534.6716],[-87.9825,14.2031,1428.8739],[-87.9983,14.2109,1168.437],[-88.0011,14.2103,1098.2646],[-88.0016,14.213,1082.7466],[-88.0047,14.2126,1061.77],[-88.0051,14.2158,1112.0409],[-88.0093,14.2152,1038.239],[-88.0081,14.2034,1190.8224],[-88.0057,14.1997,1193.1709],[-88.0098,14.1977,1216.9186],[-88.0097,14.1935,1171.8557],[-88.0114,14.1914,1194.0889],[-88.0088,14.1855,1212.7235],[-88.0096,14.1828,1262.3826],[-88.0024,14.1626,1286.484],[-87.9978,14.156,1343.2489],[-87.9966,14.1492,1339.7317],[-87.9904,14.1421,1360.7792],[-87.9738,14.1504,1634.5095],[-87.9618,14.1511,1666.593],[-87.9508,14.1487,1680.7172],[-87.9484,14.1459,1704.1373],[-87.9396,14.1202,1706.8872],[-87.9376,14.1245,1702.6426],[-87.9377,14.1299,1692.0054],[-87.931,14.1418,1714.9968],[-87.9305,14.1472,1672.556],[-87.9199,14.1532,1679.6321],[-87.9177,14.1602,1690.0411],[-87.9103,14.165,1687.5421],[-87.9053,14.1658,1673.2227],[-87.8996,14.171,1701.6093],[-87.8971,14.1679,1782.3916],[-87.891,14.1653,1730.7487],[-87.8825,14.1645,1820.9751],[-87.8798,14.1665,1827.9203],[-87.8751,14.1651,1830.0905],[-87.876,14.1733,1766.7151]]]]}
,"properties": {"GID_2": "HND.12.4_1","GID_0": "HND","country": "Honduras","GID_1": "HND.12_1","province": "LaPaz","NL_NAME_1": "NA","county": "Chinacla","VARNAME_2": "NA","NL_NAME_2": "NA","TYPE_2": "Municipio","ENGTYPE_2": "Municipality","CC_2": "NA","HASC_2": "HN.LP.CH","name": "Chinacla.county","area_km2": 60.68407,"hist_schema_id": "Elevation0-9000","hist_area_km2": {"1050": 0.12332,"1075": 0.12332,"1100": 0.18498,"1125": 0.36997,"1150": 0.73996,"1175": 1.17161,"1200": 1.15107,"1225": 1.56222,"1250": 1.99394,"1275": 1.54173,"1300": 1.48006,"1325": 1.08949,"1350": 1.21287,"1375": 1.52121,"1400": 1.23342,"1425": 0.86338,"1450": 1.13061,"1475": 1.80902,"1500": 1.82956,"1525": 1.0484,"1550": 0.82229,"1575": 1.54176,"1600": 3.24796,"1625": 3.8853,"1650": 8.38749,"1675": 8.44927,"1700": 4.85169,"1725": 1.8913,"1750": 1.04838,"1775": 1.00727,"1800": 1.04838,"1825": 1.04837,"1850": 0.76057,"1875": 0.47278,"1900": 0.04111}}}