{"type":"Feature","properties":{"GID_1":"HND.2_1","GID_0":"HND","country":"Honduras","province":"Choluteca","VARNAME_1":"NA","NL_NAME_1":"NA","TYPE_1":"Departamento","ENGTYPE_1":"Department","CC_1":"NA","HASC_1":"HN.CH","ISO_1":"HN-CH","name":"Choluteca.province"},
"geometry":{"type": "MultiPolygon","coordinates": [[[[-87.3324,13.1021,6.4702],[-87.3318,13.1065,6.0675],[-87.329,13.1096,5.3761],[-87.331,13.1004,0.0],[-87.3171,13.0982,6.8368],[-87.311,13.0924,11.2543],[-87.3032,13.0879,3.0002],[-87.2913,13.0874,2.2621],[-87.2957,13.0863,4.2136],[-87.3026,13.0868,5.1437],[-87.3104,13.0901,3.4446],[-87.3196,13.0976,1.5478],[-87.3299,13.099,0.0],[-87.3415,13.091,4.5208],[-87.3549,13.0885,4.6883],[-87.3688,13.0815,0.0],[-87.366,13.074,0.0],[-87.359,13.0651,1.0842],[-87.3538,13.0551,1.5301],[-87.3468,13.0479,4.4687],[-87.3457,13.0435,0.0],[-87.3418,13.0421,7.478],[-87.3326,13.0332,0.0],[-87.319,13.0274,8.0657],[-87.3115,13.0215,0.0],[-87.3076,13.0232,2.9415],[-87.304,13.0218,0.0],[-87.2915,13.0254,0.0],[-87.279,13.0268,0.0],[-87.2774,13.0301,2.8065],[-87.2771,13.0387,1.7619],[-87.2749,13.0413,1.0136],[-87.244,13.0468,0.0],[-87.2551,13.0432,6.7751],[-87.2746,13.0399,1.5975],[-87.2757,13.0271,4.647],[-87.2693,13.0207,4.8382],[-87.266,13.0207,2.5462],[-87.2607,13.0235,0.0],[-87.2543,13.0312,5.4435],[-87.2482,13.0349,4.076],[-87.2576,13.0251,4.1],[-87.2668,13.0193,1.781],[-87.2718,13.0204,5.4244],[-87.2768,13.0254,2.3537],[-87.2974,13.0182,0.0],[-87.3063,13.0035,0.0],[-87.3151,12.9976,0.0],[-87.309,12.9951,3.1593],[-87.3096,12.9918,0.0],[-87.3115,12.9906,0.0],[-87.309,12.9878,5.2403],[-87.2813,12.9852,5.4073],[-87.1227,12.9983,2.0191],[-87.0853,12.9985,11.41],[-87.0667,12.9971,8.297],[-87.0544,12.9865,11.0183],[-87.0488,12.9845,10.8672],[-87.0315,12.9867,10.4819],[-87.0277,12.9888,11.9499],[-87.024,13.0046,13.8452],[-87.0219,13.006,13.7682],[-87.0123,13.0025,11.6247],[-87.0079,13.0044,12.6723],[-86.9944,13.0165,20.9187],[-86.9907,13.0181,20.4372],[-86.9823,13.0151,24.5167],[-86.9773,13.0157,29.1973],[-86.9787,13.0176,20.297],[-86.9776,13.0201,18.1405],[-86.9684,13.0256,21.7684],[-86.9656,13.0299,22.9638],[-86.9604,13.0306,23.9765],[-86.959,13.0322,24.7003],[-86.9561,13.0511,51.583],[-86.9525,13.0589,37.0621],[-86.9481,13.0641,39.8753],[-86.9283,13.079,48.2575],[-86.9184,13.0893,61.0044],[-86.9179,13.0923,46.5978],[-86.9263,13.1024,48.6945],[-86.9275,13.1116,59.7656],[-86.9333,13.1211,70.1791],[-86.9234,13.1337,67.8762],[-86.926,13.1415,90.224],[-86.9224,13.1452,71.1206],[-86.9183,13.1455,89.258],[-86.9286,13.1707,111.9625],[-86.929,13.1823,142.4279],[-86.9165,13.203,187.8768],[-86.9152,13.2091,173.954],[-86.9164,13.2155,165.0097],[-86.9111,13.2219,237.0778],[-86.9053,13.2463,275.1997],[-86.9087,13.2542,264.2302],[-86.9079,13.2563,251.759],[-86.8988,13.263,331.8148],[-86.8769,13.2749,482.5868],[-86.8706,13.2886,575.0774],[-86.8646,13.2942,744.7234],[-86.8402,13.3001,1252.3186],[-86.8288,13.3054,1180.6006],[-86.8192,13.3063,1409.7878],[-86.7957,13.2936,1228.6923],[-86.7618,13.2686,747.0526],[-86.7563,13.267,928.4045],[-86.7501,13.2674,943.5413],[-86.7405,13.2711,638.3139],[-86.7065,13.2954,939.0656],[-86.7027,13.308,1097.3193],[-86.7025,13.3248,1277.4808],[-86.7104,13.3694,997.3369],[-86.713,13.3724,931.8387],[-86.7313,13.3768,1157.5098],[-86.7363,13.38,1161.9858],[-86.7429,13.3929,1280.6399],[-86.74,13.4027,1080.2241],[-86.7294,13.4141,981.3746],[-86.7224,13.4253,903.5683],[-86.7221,13.4341,1044.46],[-86.7253,13.4519,866.3587],[-86.7374,13.4783,882.7208],[-86.7457,13.5507,1072.6353],[-86.7511,13.5626,1095.4343],[-86.767,13.5701,1189.0564],[-86.7683,13.573,1157.9614],[-86.7674,13.5841,1049.7516],[-86.7515,13.6359,648.3293],[-86.7556,13.6415,666.3701],[-86.7659,13.6473,757.5928],[-86.7794,13.6507,847.7892],[-86.7832,13.6532,799.9449],[-86.785,13.6567,755.5912],[-86.7852,13.6651,694.647],[-86.7837,13.6695,570.3827],[-86.7708,13.6934,363.1124],[-86.7761,13.692,399.4],[-86.7832,13.6926,338.6069],[-86.7885,13.689,449.5405],[-86.793,13.6945,386.2498],[-86.8055,13.6786,293.9524],[-86.8082,13.6656,507.3766],[-86.8155,13.6661,388.6856],[-86.8216,13.6731,359.9598],[-86.8414,13.6721,244.7164],[-86.844,13.6701,248.7331],[-86.8481,13.6617,252.5155],[-86.8527,13.6575,313.7288],[-86.8657,13.6529,336.1523],[-86.8711,13.6481,316.489],[-86.8869,13.6415,225.5122],[-86.8909,13.6448,274.3075],[-86.8901,13.6498,275.0919],[-86.8967,13.6482,313.443],[-86.9047,13.6437,481.6724],[-86.9255,13.6442,559.5072],[-86.9285,13.6528,831.5557],[-86.9306,13.6554,931.8168],[-86.9323,13.655,931.8168],[-86.935,13.6376,831.4361],[-86.9336,13.6291,609.0645],[-86.9414,13.6131,543.3535],[-86.9614,13.5911,529.4899],[-86.9716,13.5861,712.7786],[-86.976,13.5801,1046.5376],[-86.9935,13.5794,938.5897],[-87.0014,13.5716,953.3693],[-87.0067,13.5689,931.5174],[-87.0107,13.5638,762.8731],[-87.0084,13.5559,904.0452],[-87.0091,13.5463,844.6323],[-87.0124,13.5413,783.3876],[-87.021,13.5354,678.436],[-87.0254,13.5344,674.6122],[-87.0243,13.5295,569.4483],[-87.0264,13.5192,632.4145],[-87.036,13.5173,447.2574],[-87.0408,13.5193,378.564],[-87.0513,13.516,272.5485],[-87.0548,13.5116,217.6368],[-87.0562,13.5036,270.9006],[-87.0639,13.498,222.6249],[-87.0695,13.4981,225.4675],[-87.0813,13.5062,536.5092],[-87.0814,13.4983,411.7838],[-87.0826,13.4975,411.7838],[-87.1004,13.5043,261.757],[-87.1069,13.511,227.5637],[-87.1074,13.522,334.182],[-87.1141,13.5299,256.9189],[-87.1127,13.5454,244.1429],[-87.1104,13.5501,259.2349],[-87.1424,13.5429,519.5888],[-87.1477,13.5436,543.1176],[-87.1517,13.5475,530.6351],[-87.1569,13.5486,381.745],[-87.1689,13.5444,290.1385],[-87.1724,13.546,337.9728],[-87.1744,13.5501,425.0775],[-87.1849,13.5585,529.2783],[-87.1851,13.574,433.8983],[-87.1882,13.5791,565.0508],[-87.1857,13.588,617.186],[-87.1928,13.5968,882.2515],[-87.1963,13.5975,769.5398],[-87.2012,13.6095,661.0599],[-87.2081,13.6108,668.5285],[-87.2204,13.6097,871.402],[-87.225,13.6111,747.7775],[-87.2248,13.6152,801.3052],[-87.2221,13.6192,678.6188],[-87.2136,13.6627,533.2111],[-87.2559,13.6819,304.0831],[-87.2845,13.6732,345.9825],[-87.2866,13.6746,298.7231],[-87.2924,13.6736,281.1825],[-87.3013,13.6747,150.3965],[-87.3021,13.6779,148.1459],[-87.3158,13.6842,170.1175],[-87.3282,13.6796,396.4622],[-87.3324,13.6816,215.7067],[-87.363,13.6791,109.6288],[-87.3649,13.6832,108.9994],[-87.365,13.6929,181.0082],[-87.3729,13.6934,256.8784],[-87.3767,13.6974,192.574],[-87.3809,13.6981,220.7152],[-87.3891,13.7089,190.278],[-87.39,13.7158,176.3233],[-87.3939,13.714,261.7292],[-87.397,13.7148,259.3955],[-87.3965,13.732,175.1218],[-87.392,13.736,143.433],[-87.391,13.7435,163.1849],[-87.3846,13.749,157.934],[-87.3836,13.7556,165.2082],[-87.3971,13.7565,255.9533],[-87.4029,13.7525,390.4115],[-87.4143,13.7555,551.0869],[-87.4233,13.7617,568.509],[-87.4372,13.7617,735.0324],[-87.4428,13.7635,752.9863],[-87.458,13.759,820.3485],[-87.4596,13.7568,716.7103],[-87.4586,13.7402,761.2994],[-87.4534,13.7318,808.8494],[-87.4571,13.7268,766.2059],[-87.4558,13.7219,836.8829],[-87.4625,13.7153,645.1121],[-87.4624,13.6985,851.335],[-87.468,13.6866,646.7737],[-87.4626,13.6796,798.1551],[-87.4624,13.6736,648.7072],[-87.4573,13.661,883.4221],[-87.4478,13.6567,830.2253],[-87.4379,13.6492,845.0691],[-87.4282,13.6465,675.2658],[-87.4142,13.6363,437.3642],[-87.4141,13.6329,331.5413],[-87.4206,13.6223,267.4981],[-87.4302,13.5909,192.4083],[-87.4238,13.5874,170.6743],[-87.4177,13.5862,94.4057],[-87.413,13.5778,46.627],[-87.4164,13.5746,70.0331],[-87.4159,13.5714,139.2894],[-87.4012,13.5434,113.1046],[-87.3964,13.537,305.686],[-87.3827,13.5285,398.3439],[-87.3703,13.5253,363.0536],[-87.362,13.5203,319.6439],[-87.3632,13.4998,196.1416],[-87.3682,13.4879,312.7461],[-87.3672,13.4778,144.9165],[-87.3597,13.4693,181.934],[-87.3547,13.4578,298.5748],[-87.3416,13.4405,119.7398],[-87.3455,13.4375,57.6644],[-87.346,13.4316,30.5657],[-87.3443,13.4278,25.2006],[-87.35,13.4219,16.8443],[-87.3516,13.41,9.3114],[-87.356,13.4035,7.5488],[-87.3608,13.4028,4.3978],[-87.3632,13.399,3.5322],[-87.3719,13.3969,3.5869],[-87.3779,13.3993,2.0885],[-87.3802,13.3977,1.0297],[-87.3816,13.4005,1.8313],[-87.3806,13.4036,1.6877],[-87.3817,13.4031,1.3528],[-87.3821,13.4004,2.0139],[-87.3813,13.3974,2.0513],[-87.3824,13.3968,0.0],[-87.3811,13.3953,0.9708],[-87.3826,13.3936,4.4213],[-87.3802,13.3903,1.2136],[-87.3868,13.3846,0.0],[-87.3846,13.3757,0.0],[-87.391,13.3668,1.9618],[-87.4101,13.3693,0.0],[-87.4157,13.364,2.3085],[-87.4185,13.3574,0.0],[-87.4243,13.354,0.0],[-87.4246,13.3521,0.0],[-87.4257,13.3532,0.0],[-87.4274,13.3518,1.309],[-87.431,13.3524,0.4737],[-87.4315,13.354,0.0],[-87.439,13.3576,0.0],[-87.4401,13.3557,2.1727],[-87.4413,13.3571,0.0],[-87.4468,13.3557,0.0],[-87.4574,13.356,0.0],[-87.4574,13.3424,0.0],[-87.4535,13.3365,0.0],[-87.4454,13.3415,1.1408],[-87.4393,13.3399,1.8073],[-87.4343,13.3343,2.1348],[-87.4318,13.3351,0.0],[-87.429,13.3401,1.1633],[-87.4262,13.3418,0.0],[-87.4226,13.3415,0.7252],[-87.4179,13.3368,0.0],[-87.4121,13.3399,0.9196],[-87.4088,13.3393,0.0],[-87.4076,13.3315,2.449],[-87.4104,13.339,0.0],[-87.4182,13.3354,4.1322],[-87.4257,13.3413,0.0],[-87.4324,13.3332,3.2937],[-87.436,13.3335,4.278],[-87.4424,13.3399,0.0],[-87.4474,13.3388,0.0],[-87.4485,13.3358,2.3315],[-87.4476,13.3285,1.2123],[-87.4446,13.3246,1.8401],[-87.4446,13.3204,0.0],[-87.4363,13.3213,0.0],[-87.4332,13.319,0.0],[-87.431,13.3207,1.0767],[-87.4304,13.3235,0.0],[-87.4293,13.3232,0.0],[-87.4307,13.3193,0.0],[-87.4332,13.3182,2.3504],[-87.4365,13.3204,2.0907],[-87.4435,13.3185,0.0],[-87.4404,13.3168,0.0],[-87.4362,13.3176,0.6335],[-87.4324,13.3129,0.3494],[-87.4287,13.3112,0.0],[-87.4246,13.3151,0.0],[-87.424,13.3185,0.6512],[-87.4221,13.3154,1.4646],[-87.4254,13.3101,0.0],[-87.4318,13.3096,0.0],[-87.4349,13.3143,1.5223],[-87.4385,13.316,0.0],[-87.4474,13.3037,0.0],[-87.4482,13.3001,0.0],[-87.4463,13.3004,1.5856],[-87.4482,13.2963,0.0],[-87.4543,13.291,0.0],[-87.4571,13.2796,3.3953],[-87.4646,13.2749,2.3163],[-87.4699,13.2762,6.0475],[-87.4729,13.279,0.6731],[-87.4754,13.2851,0.0],[-87.4754,13.2918,0.0],[-87.4818,13.3046,0.0],[-87.4849,13.3051,0.0],[-87.4832,13.3035,0.5628],[-87.484,13.301,1.3006],[-87.4849,13.3032,0.9417],[-87.4879,13.3029,0.0],[-87.4918,13.2982,2.0298],[-87.4999,13.2999,1.7472],[-87.5113,13.2863,1.2461],[-87.5143,13.276,0.0],[-87.514,13.2693,0.0],[-87.5129,13.2682,0.0],[-87.5051,13.2707,0.0],[-87.4976,13.269,5.8468],[-87.4896,13.2638,0.0],[-87.484,13.2643,3.4104],[-87.4857,13.2629,2.8617],[-87.4851,13.2615,1.2539],[-87.4804,13.2593,1.7678],[-87.4796,13.2563,0.0],[-87.4751,13.2554,2.5739],[-87.4551,13.231,0.0],[-87.4529,13.2324,0.0],[-87.4532,13.2349,5.3056],[-87.4543,13.2371,0.0],[-87.4585,13.2385,2.8499],[-87.4593,13.2413,2.1824],[-87.4568,13.244,6.2491],[-87.4557,13.244,6.2491],[-87.456,13.2399,0.0],[-87.4518,13.2338,5.2827],[-87.4413,13.2351,1.737],[-87.4424,13.2332,4.7715],[-87.4401,13.2288,2.7537],[-87.4454,13.2304,8.1473],[-87.4496,13.2296,0.0],[-87.4535,13.2254,5.0937],[-87.4563,13.2251,1.8505],[-87.4579,13.2188,2.1007],[-87.4496,13.2093,0.9485],[-87.4468,13.2001,0.0],[-87.4407,13.1904,4.7147],[-87.4301,13.1596,3.6474],[-87.429,13.1496,0.0],[-87.4301,13.1457,0.0],[-87.4265,13.146,2.0154],[-87.4249,13.1479,0.7402],[-87.4221,13.1474,1.7352],[-87.4287,13.1432,0.0],[-87.4268,13.1404,0.0],[-87.4274,13.1363,0.0],[-87.4257,13.1324,7.6483],[-87.426,13.1218,9.8349],[-87.4279,13.1224,0.0],[-87.4285,13.1196,0.0],[-87.4271,13.1088,1.9647],[-87.4243,13.1104,0.0],[-87.4243,13.1143,0.0],[-87.416,13.1129,0.0],[-87.4135,13.1146,0.0],[-87.4118,13.1129,0.0],[-87.4076,13.1168,2.3224],[-87.4071,13.116,2.3224],[-87.4085,13.1124,0.0],[-87.4074,13.1115,0.0],[-87.4004,13.1132,0.0],[-87.4032,13.1107,0.0],[-87.4021,13.1096,0.0],[-87.399,13.1096,0.0],[-87.391,13.1135,0.0],[-87.3921,13.1199,1.3022],[-87.3846,13.1237,2.4035],[-87.3876,13.129,2.904],[-87.3832,13.134,4.2491],[-87.3868,13.1293,6.027],[-87.384,13.126,1.8238],[-87.384,13.1235,2.4035],[-87.391,13.1201,15.9791],[-87.3915,13.1179,1.6167],[-87.3818,13.1071,0.0],[-87.3718,13.104,0.0],[-87.3685,13.0999,0.0],[-87.3624,13.1015,8.2804],[-87.3571,13.0999,1.5517],[-87.3549,13.1024,3.557],[-87.3568,13.0993,1.5517],[-87.3549,13.0929,0.0],[-87.349,13.0929,0.0],[-87.3382,13.0963,5.6067],[-87.3329,13.099,2.6209],[-87.3324,13.1021,6.4702]]],
[[[-87.4299,13.1035,2.3558],[-87.4282,13.1057,0.0],[-87.4287,13.1071,0.0],[-87.4301,13.1051,4.1442],[-87.4299,13.1035,2.3558]]],
[[[-87.4274,13.131,0.0],[-87.4285,13.1338,0.0],[-87.4285,13.1274,0.0],[-87.4276,13.1279,0.0],[-87.4274,13.131,0.0]]],
[[[-87.4529,13.2974,0.0],[-87.4529,13.2985,0.0],[-87.4551,13.2979,1.6366],[-87.4568,13.2946,0.0],[-87.456,13.294,0.0],[-87.4529,13.2974,0.0]]],
[[[-87.4635,13.3415,2.4778],[-87.4685,13.3413,0.0],[-87.4657,13.3287,0.0],[-87.4674,13.3268,0.0],[-87.4674,13.3213,4.5816],[-87.4718,13.3154,0.0],[-87.4707,13.3135,0.0],[-87.4765,13.3121,0.0],[-87.4718,13.2993,0.0],[-87.4693,13.2876,7.0865],[-87.4699,13.2818,0.0],[-87.4682,13.279,4.3909],[-87.4646,13.2779,2.6393],[-87.4618,13.2782,1.0846],[-87.4599,13.2804,0.0],[-87.4585,13.2988,0.0],[-87.4568,13.301,0.0],[-87.4549,13.2999,0.0],[-87.4549,13.3026,0.0],[-87.4501,13.3085,0.0],[-87.4507,13.3121,2.3126],[-87.446,13.3135,0.0],[-87.4451,13.3168,1.3155],[-87.4457,13.3243,2.1297],[-87.4488,13.3282,1.2123],[-87.4488,13.3335,1.1337],[-87.4551,13.3343,0.0],[-87.4593,13.3399,1.027],[-87.4635,13.3415,2.4778]]]]}}