{"type":"Feature","properties":{"ISO3166-1-Alpha-3":"HND","country":"Honduras","fill":"#F0F","id":"661","name":"Choluteca"},
"geometry":{"type": "Polygon","coordinates": [[[-87.40102,13.75497,436.6391],[-87.41223,13.75751,426.2563],[-87.42391,13.76061,568.509],[-87.44334,13.7603,872.0625],[-87.45437,13.75689,864.3937],[-87.45752,13.74541,696.1177],[-87.4599,13.71947,690.3435],[-87.46541,13.69782,755.2687],[-87.46525,13.68351,829.8259],[-87.46114,13.67017,930.8643],[-87.45913,13.6679,929.6713],[-87.4415,13.65359,849.9264],[-87.43306,13.64935,702.2349],[-87.42626,13.64454,652.584],[-87.42182,13.63782,439.2415],[-87.42437,13.59803,330.4543],[-87.4198,13.5907,138.6885],[-87.41572,13.58258,100.074],[-87.41456,13.57592,39.4324],[-87.40027,13.54553,98.8337],[-87.36443,13.51938,270.6133],[-87.36768,13.49881,145.6803],[-87.36626,13.48951,235.2453],[-87.36068,13.47448,148.6891],[-87.34955,13.45334,257.0965],[-87.34779,13.43298,33.4563],[-87.35872,13.40848,6.8874],[-87.37903,13.39329,0.0],[-87.37912,13.39322,0.0],[-87.37902,13.39313,0.0],[-87.38036,13.3863,2.592],[-87.3804,13.38044,3.4946],[-87.37902,13.37202,6.7798],[-87.41112,13.35981,2.7372],[-87.42691,13.35602,0.0],[-87.44042,13.35904,0.0],[-87.44778,13.35257,2.2184],[-87.46776,13.3249,0.0],[-87.47667,13.31733,0.0],[-87.49344,13.30976,0.0],[-87.50194,13.30439,0.0],[-87.51049,13.29495,0.0],[-87.51224,13.28669,1.2461],[-87.5089,13.27863,6.3618],[-87.50194,13.2696,0.0],[-87.49698,13.26834,0.0],[-87.49035,13.26972,11.307],[-87.48453,13.27009,4.5865],[-87.48205,13.26594,4.2127],[-87.48082,13.26516,4.7197],[-87.4746,13.24917,0.0],[-87.45507,13.22431,5.0937],[-87.43578,13.1894,3.3177],[-87.42211,13.14993,5.8024],[-87.41934,13.11135,0.0],[-87.41312,13.11135,0.0],[-87.39456,13.11685,2.3637],[-87.36181,13.11335,5.2057],[-87.30394,13.09833,3.0097],[-87.31408,13.0954,1.933],[-87.34472,13.09077,0.0],[-87.35106,13.08841,11.0238],[-87.35281,13.07254,1.6222],[-87.35135,13.06721,1.7249],[-87.34484,13.05732,1.7866],[-87.33178,13.04267,2.0201],[-87.31668,13.03421,1.8313],[-87.29678,13.03034,4.6712],[-87.26915,13.02945,3.9856],[-87.26915,13.02322,14.8535],[-87.28283,13.01822,4.6965],[-87.29357,13.01105,9.8029],[-87.30081,13.00125,11.4654],[-87.30394,12.98847,1.875],[-87.31363,12.98184,0.0],[-87.31403,12.98156,0.0],[-87.08465,12.99593,6.0112],[-87.06985,12.99438,8.4272],[-87.04685,12.98055,12.3728],[-87.03504,12.97978,11.3778],[-87.02962,12.99608,12.4832],[-87.00877,13.00608,15.4354],[-86.98319,13.02187,18.1336],[-86.97182,13.03388,30.3149],[-86.94841,13.06969,36.1957],[-86.94272,13.07406,37.6798],[-86.928,13.08124,40.9776],[-86.92293,13.08639,45.7401],[-86.92025,13.09618,54.2784],[-86.92417,13.0998,62.9785],[-86.92981,13.10222,55.2506],[-86.93234,13.10853,61.7498],[-86.92371,13.16114,111.762],[-86.92552,13.16364,103.0309],[-86.93306,13.17971,88.932],[-86.93492,13.18553,129.7496],[-86.93322,13.18819,108.2155],[-86.92598,13.21635,259.0332],[-86.91885,13.22976,222.8994],[-86.91079,13.23958,213.8184],[-86.86273,13.27994,634.8689],[-86.8495,13.28883,866.8923],[-86.83343,13.29335,927.6696],[-86.81622,13.29193,1012.6603],[-86.75865,13.26418,802.4025],[-86.7493,13.26128,959.8347],[-86.73984,13.26371,749.5104],[-86.73272,13.26847,605.9014],[-86.72548,13.2733,419.0815],[-86.71178,13.28568,811.9733],[-86.70403,13.29883,1133.5468],[-86.70186,13.3142,1250.5364],[-86.7078,13.34283,1126.6841],[-86.70992,13.3489,1100.3486],[-86.71716,13.36164,924.3057],[-86.72362,13.36732,1156.901],[-86.73044,13.3689,1132.6379],[-86.73638,13.37195,1213.1571],[-86.7402,13.38192,1204.6753],[-86.73865,13.39621,1154.0435],[-86.72594,13.42383,970.5358],[-86.72429,13.43941,978.152],[-86.75659,13.55938,1210.3594],[-86.7571,13.57641,1002.7711],[-86.7509,13.60842,696.6138],[-86.75157,13.62441,674.8427],[-86.7554,13.63087,659.027],[-86.76413,13.63734,723.7447],[-86.76821,13.64036,798.6208],[-86.77214,13.64552,792.1292],[-86.77405,13.65459,766.281],[-86.77117,13.70789,308.0581],[-86.77188,13.70759,308.0581],[-86.78625,13.70149,290.157],[-86.79421,13.70015,327.9271],[-86.80121,13.69431,484.6328],[-86.80919,13.68185,273.1765],[-86.81599,13.68061,251.7048],[-86.82361,13.68097,249.0583],[-86.84071,13.67937,298.0701],[-86.84883,13.67637,458.4126],[-86.88735,13.65188,256.8494],[-86.89138,13.65922,310.9315],[-86.92115,13.65653,627.4928],[-86.92614,13.6587,688.7308],[-86.93285,13.66056,912.08],[-86.93508,13.6572,843.6571],[-86.93794,13.63891,843.8824],[-86.94252,13.6295,741.3474],[-86.95001,13.6187,423.7041],[-86.96595,13.60186,369.1065],[-86.97693,13.59333,695.9439],[-86.98474,13.58842,750.121],[-86.99952,13.58387,683.9729],[-87.01057,13.5738,851.9285],[-87.014169999999993,13.56568,775.3031],[-87.01654,13.5507,720.9539],[-87.0392,13.52548,415.7982],[-87.06987,13.50812,318.0367],[-87.07662,13.50579,406.6656],[-87.08892,13.50734,408.2227],[-87.10662,13.52088,309.3907],[-87.11512,13.53974,284.4442],[-87.11561,13.54915,299.0051],[-87.124,13.55556,392.3279],[-87.17013,13.55819,517.4434],[-87.18429,13.5663,395.3996],[-87.18689,13.5786,532.861],[-87.19129,13.59752,863.481],[-87.19759,13.60289,875.794],[-87.20633,13.61224,708.0296],[-87.21728,13.61581,813.4092],[-87.22413,13.62863,499.8825],[-87.21423,13.6711,690.1207],[-87.26343,13.68842,236.5663],[-87.29772,13.68433,150.8887],[-87.30753,13.68878,133.0583],[-87.31947,13.69487,174.2019],[-87.36009,13.69012,150.2159],[-87.3736,13.70278,127.0],[-87.39283,13.72113,142.4213],[-87.39482,13.73394,164.0274],[-87.38761,13.75089,334.6795],[-87.38673,13.75508,253.2695],[-87.39073,13.75611,246.7136],[-87.39655,13.75601,255.9533],[-87.40102,13.75497,436.6391]]]}}