{"type":"Feature","properties":{"featurecla":"River","scalerank":6,"rivernum":320,"dissolve":"320River","name":"Coco","name_alt":null,"note":null,"min_zoom":5.0,"strokeweig":0.2,"name_en":"Coco","min_label":6.0},
"geometry":{"type": "LineString","coordinates": [[-86.843994140625,13.42047760624412,1117.166],[-86.809375,13.455829168744117,884.4089],[-86.799609374999989,13.46137116093162,896.4443],[-86.738452148437489,13.468280340619117,768.6378],[-86.724780273437489,13.46625397343162,708.3508],[-86.686938476562489,13.454608465619117,643.2664],[-86.677832031249991,13.46991608280662,632.287],[-86.64609375,13.49689362186912,709.4129],[-86.63916015625,13.512958074994117,616.4624]]}}