{"type":"Feature","properties":{"featurecla":"River","scalerank":11,"rivernum":22178,"dissolve":"22178River","name":"null975","name_alt":null,"note":"ID is link back to CEC data","name_full":null,"min_zoom":6.7,"strokeweig":0.2,"uident":2058601,"min_label":7.7},
"geometry":{"type": "LineString","coordinates": [[-87.098703579812067,14.261013088014877,1217.6455],[-87.071644660541224,14.249945379681535,1082.8452],[-86.989694790749567,14.254706121869035,644.0104],[-86.962757941791224,14.238959051556535,630.4977],[-86.900949673562067,14.168972072389877,690.2055],[-86.778391079812067,13.995672918744035,628.1384],[-86.6927791006454,13.971502996869035,905.5102],[-86.666493293353724,13.936712957806535,716.0188],[-86.6669001943954,13.922471421348206,534.5028],[-86.745920376687067,13.856146551556535,647.6387],[-86.769846157937067,13.810126043744035,518.5889],[-86.775380012103724,13.776434637494035,516.1933],[-86.7904353506454,13.684841213014877,530.1292],[-86.791493293353724,13.678534246869035,373.0125],[-86.8146052725204,13.660956121869035,576.412],[-86.860218879291224,13.649440822389877,527.0287],[-86.898019986062067,13.589951890098206,326.0389],[-86.930409308978724,13.563340561973206,164.9232],[-87.0724177725204,13.495550848431535,353.4554],[-87.100331183978724,13.463893947389877,122.5657],[-87.143177863666224,13.376044012494035,60.0475],[-87.203195767312067,13.322373765098206,39.8605],[-87.239857551166224,13.300645249473206,41.3271],[-87.2943416006454,13.289374090619035,20.4918],[-87.3263240225204,13.272080796348206,53.1591],[-87.335804816791224,13.253607489056535,12.4005],[-87.334950324603724,13.170965887494035,6.0627],[-87.3358455068954,13.170721746869035,5.6459],[-87.340443488666224,13.168076890098206,4.9016],[-87.3460994131454,13.164089259889877,4.606],[-87.351389126687067,13.159735418744035,7.5966],[-87.359201626687067,13.155829168744035,5.6275],[-87.364979621478724,13.152858791139877,4.8183],[-87.370961066791224,13.148382879681535,2.4229],[-87.394602017312067,13.116807358848206,2.3637]]}}