{"type": "Feature","bbox": [-87.1302,13.7,-87.0316,13.8031],"geometry": {"type": "MultiPolygon","coordinates": [[[[-87.0398,13.7658,1024.1521],[-87.0552,13.765,884.1378],[-87.0627,13.7681,820.5201],[-87.0674,13.7678,840.5419],[-87.069,13.7697,854.0928],[-87.083,13.7705,734.2504],[-87.0885,13.7828,792.5276],[-87.1161,13.8031,646.553],[-87.1237,13.7996,547.9789],[-87.1227,13.7916,602.6159],[-87.1293,13.791,516.185],[-87.1302,13.7442,546.585],[-87.1203,13.7358,537.2723],[-87.1187,13.7275,528.184],[-87.1149,13.7241,488.1509],[-87.1144,13.7197,559.7315],[-87.1017,13.7044,581.1368],[-87.0988,13.7039,503.6969],[-87.0948,13.7,480.1152],[-87.087,13.7047,544.062],[-87.0821,13.7042,639.6264],[-87.0751,13.7105,571.7422],[-87.05,13.7166,1015.1269],[-87.0316,13.7272,1292.4305],[-87.0398,13.7658,1024.1521]]]]}
,"properties": {"GID_2": "HND.7.18_1","GID_0": "HND","country": "Honduras","GID_1": "HND.7_1","province": "ElParaíso","NL_NAME_1": "NA","county": "Yauyupe","VARNAME_2": "NA","NL_NAME_2": "NA","TYPE_2": "Municipio","ENGTYPE_2": "Municipality","CC_2": "NA","HASC_2": "HN.EP.YA","name": "Yauyupe.county","area_km2": 73.04969,"hist_schema_id": "Elevation0-9000","hist_area_km2": {"425": 0.0618,"450": 1.15347,"475": 2.10086,"500": 3.15111,"525": 2.86267,"550": 2.75968,"575": 3.27454,"600": 4.61312,"625": 3.7275,"650": 3.60392,"675": 3.45979,"700": 2.59484,"725": 2.49187,"750": 1.93588,"775": 1.89466,"800": 1.97705,"825": 1.70934,"850": 1.6476,"875": 5.25183,"900": 6.36386,"925": 3.50108,"950": 2.16242,"975": 1.27687,"1000": 0.92676,"1025": 0.82381,"1050": 1.11216,"1075": 0.9062,"1100": 0.63846,"1125": 0.74144,"1150": 0.72084,"1175": 0.39132,"1200": 0.4531,"1225": 0.51489,"1250": 0.63847,"1275": 0.43251,"1300": 0.4943,"1325": 0.28834,"1350": 0.26775,"1375": 0.08238,"1400": 0.0206,"1425": 0.0206}}}