{"type":"Feature","properties":{"GID_2":"HND.15.20_1","GID_0":"HND","country":"Honduras","GID_1":"HND.15_1","province":"Olancho","NL_NAME_1":"NA","county":"SanFranciscodelaPaz","VARNAME_2":"NA","NL_NAME_2":"NA","TYPE_2":"Municipio","ENGTYPE_2":"Municipality","CC_2":"NA","HASC_2":"HN.OL.SP","name":"San_Franciscodela_Paz.county"},
"geometry":{"type": "MultiPolygon","coordinates": [[[[-86.2185,14.9445,825.6263],[-86.2293,14.9274,718.1554],[-86.2308,14.9147,693.5668],[-86.2331,14.908,560.8562],[-86.2398,14.9008,545.6158],[-86.2433,14.8995,546.4904],[-86.2435,14.8897,526.3438],[-86.2409,14.882,514.6504],[-86.2394,14.8638,553.2161],[-86.2439,14.8539,493.0835],[-86.2502,14.8493,490.7696],[-86.2537,14.8422,464.7639],[-86.2479,14.8353,459.8426],[-86.2401,14.8311,465.4931],[-86.2349,14.8195,506.6124],[-86.2431,14.7998,638.2327],[-86.2459,14.7776,588.2309],[-86.2525,14.7631,723.5776],[-86.249,14.7445,927.1818],[-86.2473,14.7435,980.3343],[-86.1427,14.7291,420.217],[-86.1274,14.7429,590.8934],[-86.0833,14.7603,615.4969],[-86.0574,14.7688,797.0105],[-86.0281,14.7825,1065.0978],[-86.0174,14.7853,1016.7884],[-85.9802,14.8058,660.5514],[-86.0009,14.8418,1089.8346],[-86.0224,14.8914,1378.2736],[-86.047,14.9225,1475.8274],[-86.0505,14.9231,1474.6471],[-86.0775,14.9396,1164.3877],[-86.0999,14.9349,1226.6296],[-86.1207,14.9326,1312.5276],[-86.1832,14.9399,1128.8019],[-86.2133,14.9418,937.5864],[-86.2185,14.9445,825.6263]]]]}}