{"type": "Feature","bbox": [-88.58,14.9823,-88.3572,15.2199],"geometry": {"type": "MultiPolygon","coordinates": [[[[-88.4599,14.9851,865.8804],[-88.4557,14.988,742.8231],[-88.4515,14.9886,645.6494],[-88.4478,14.9852,722.2372],[-88.4419,14.9846,556.6067],[-88.4281,14.9903,571.1132],[-88.4158,14.9912,530.2213],[-88.4058,14.995,608.722],[-88.4009,14.9953,704.1331],[-88.3994,14.9927,623.0966],[-88.3959,14.9954,651.1152],[-88.3958,15.0016,774.4588],[-88.4046,15.0155,222.7972],[-88.4035,15.0216,284.5647],[-88.3966,15.0362,667.2847],[-88.3775,15.0648,1141.8439],[-88.3744,15.0659,1127.6606],[-88.3734,15.068,1141.2075],[-88.375,15.0808,1037.1187],[-88.3805,15.0843,1178.8103],[-88.3837,15.0945,1183.66],[-88.3881,15.1014,948.6407],[-88.3906,15.0999,947.1366],[-88.3919,15.1017,930.6489],[-88.3941,15.1012,937.9215],[-88.395,15.1033,915.2778],[-88.4034,15.1067,1032.1372],[-88.4036,15.111,919.6105],[-88.4066,15.1118,908.0231],[-88.4087,15.1309,719.4802],[-88.4058,15.1275,730.9744],[-88.4022,15.1271,770.432],[-88.3974,15.1312,861.6924],[-88.3906,15.1317,972.5085],[-88.386,15.1374,910.8195],[-88.3728,15.141,976.3182],[-88.3704,15.1408,990.9963],[-88.3658,15.1369,992.0969],[-88.3696,15.1453,1051.7518],[-88.368,15.1456,1095.6289],[-88.3662,15.1537,1214.0767],[-88.3572,15.167,1287.97],[-88.369,15.1742,976.3719],[-88.3741,15.1798,852.3679],[-88.3849,15.1774,913.7619],[-88.3902,15.178,765.5552],[-88.402,15.1861,929.8367],[-88.4232,15.1975,941.114],[-88.4544,15.196,677.6693],[-88.4556,15.1934,610.1085],[-88.4537,15.1889,661.8857],[-88.4638,15.1867,889.1876],[-88.4816,15.1898,952.7524],[-88.4964,15.1965,324.3045],[-88.5001,15.2024,258.5084],[-88.5011,15.2118,234.7812],[-88.5037,15.2129,234.7892],[-88.5053,15.2168,234.6197],[-88.5105,15.2199,231.8811],[-88.5131,15.217,234.3774],[-88.513,15.2127,238.7178],[-88.5093,15.193,262.1744],[-88.5128,15.19,275.1634],[-88.514,15.185,359.4795],[-88.5133,15.178,373.8659],[-88.5096,15.1761,459.9032],[-88.5124,15.1689,438.1657],[-88.5107,15.1595,479.6678],[-88.5138,15.1547,681.6871],[-88.5208,15.1514,716.826],[-88.5231,15.1472,810.0856],[-88.5336,15.1462,731.0004],[-88.5377,15.1436,711.5325],[-88.5733,15.1337,616.8145],[-88.58,15.0943,494.8534],[-88.5789,15.085,534.6274],[-88.577,15.0791,622.6432],[-88.5695,15.0721,973.5638],[-88.5586,15.0654,1369.3848],[-88.5578,15.0501,1216.1431],[-88.5398,15.0311,1389.7389],[-88.5574,15.0163,771.8358],[-88.5483,15.0011,300.8948],[-88.5478,14.996,621.9674],[-88.5443,14.9899,652.8751],[-88.5449,14.9835,802.3622],[-88.5396,14.9823,880.4656],[-88.5351,14.986,1103.2676],[-88.5294,14.9867,1108.0911],[-88.5093,14.9863,639.1677],[-88.5067,14.985,555.4716],[-88.4977,14.9866,442.3548],[-88.4742,14.9848,1066.7079],[-88.4681,14.9876,810.5549],[-88.4599,14.9851,865.8804]]]]}
,"properties": {"GID_2": "HND.16.21_1","GID_0": "HND","country": "Honduras","GID_1": "HND.16_1","province": "SantaBárbara","NL_NAME_1": "NA","county": "SanLuis","VARNAME_2": "NA","NL_NAME_2": "NA","TYPE_2": "Municipio","ENGTYPE_2": "Municipality","CC_2": "NA","HASC_2": "HN.CM.SL","name": "San_Luis.county","area_km2": 402.79,"hist_schema_id": "Elevation0-9000","hist_area_km2": {"200": 2.1503,"225": 4.259,"250": 4.8927,"275": 4.0541,"300": 3.8495,"325": 3.3787,"350": 3.2149,"375": 3.1536,"400": 3.1126,"425": 4.5863,"450": 4.4225,"475": 4.1769,"500": 5.18,"525": 6.1421,"550": 6.1214,"575": 7.1243,"600": 8.4343,"625": 9.4372,"650": 8.8839,"675": 11.4632,"700": 13.4692,"725": 15.045,"750": 15.1272,"775": 14.2675,"800": 15.3523,"825": 15.9458,"850": 16.3549,"875": 18.463,"900": 19.9162,"925": 20.3865,"950": 17.6651,"975": 17.5233,"1000": 15.1897,"1025": 11.0543,"1050": 10.7474,"1075": 8.2089,"1100": 7.0423,"1125": 6.3258,"1150": 5.159,"1175": 4.7292,"1200": 3.9513,"1225": 3.3372,"1250": 3.0506,"1275": 2.9687,"1300": 2.8254,"1325": 2.3546,"1350": 2.1293,"1375": 1.8837,"1400": 1.597,"1425": 1.1261,"1450": 0.7985,"1475": 0.3276,"1500": 0.3276,"1525": 0.1024}}}