{"type":"Feature","properties":{"GID_2":"HND.18.7_1","GID_0":"HND","country":"Honduras","GID_1":"HND.18_1","province":"Yoro","NL_NAME_1":"NA","county":"SantaRita","VARNAME_2":"NA","NL_NAME_2":"NA","TYPE_2":"Municipio","ENGTYPE_2":"Municipality","CC_2":"NA","HASC_2":"HN.CP.SR","name":"Santa_Rita.county"},
"geometry":{"type": "MultiPolygon","coordinates": [[[[-87.9023,15.1796,44.9331],[-87.8964,15.1771,45.7466],[-87.8788,15.1809,79.0975],[-87.8658,15.1795,129.5412],[-87.8592,15.1665,220.1052],[-87.8497,15.164,74.0044],[-87.8482,15.1624,54.1099],[-87.8479,15.1587,130.2637],[-87.8508,15.1532,178.6575],[-87.8471,15.1489,146.216],[-87.842,15.1473,184.0436],[-87.8215,15.1511,228.1644],[-87.8184,15.1494,105.4225],[-87.8154,15.1417,121.1155],[-87.8074,15.147,89.4195],[-87.8038,15.1472,88.9765],[-87.7974,15.1392,66.4898],[-87.7981,15.1336,173.1952],[-87.8012,15.132,159.6376],[-87.8006,15.13,204.0977],[-87.7835,15.1267,267.3825],[-87.7736,15.1333,75.613],[-87.771,15.1398,65.4085],[-87.763,15.1396,135.7938],[-87.7631,15.1477,84.0636],[-87.7563,15.1537,95.7636],[-87.7496,15.1543,272.951],[-87.7462,15.1676,141.6302],[-87.7358,15.1741,107.5386],[-87.7368,15.1869,157.2861],[-87.7341,15.1859,174.4385],[-87.7342,15.1897,159.6469],[-87.7316,15.1911,90.7706],[-87.7359,15.1962,110.6305],[-87.7334,15.2002,110.3392],[-87.7512,15.2007,195.6934],[-87.7555,15.1972,275.9401],[-87.7627,15.197,452.1201],[-87.764,15.201,344.8792],[-87.7736,15.2077,445.2094],[-87.7967,15.2142,754.1139],[-87.8025,15.2185,877.1776],[-87.8045,15.2242,1035.5961],[-87.8099,15.2285,1104.3176],[-87.8154,15.2249,856.5302],[-87.8442,15.2132,475.0086],[-87.9183,15.2114,40.4136],[-87.9191,15.2054,41.849],[-87.9234,15.1997,39.3591],[-87.9175,15.1961,41.9897],[-87.9172,15.1939,41.622],[-87.9217,15.1916,41.2718],[-87.9221,15.1879,41.867],[-87.9102,15.1852,43.5148],[-87.9023,15.1796,44.9331]]]]}}