{"type":"Feature","properties":{"GID_2":"HND.12.16_1","GID_0":"HND","country":"Honduras","GID_1":"HND.12_1","province":"LaPaz","NL_NAME_1":"NA","county":"SantaElena","VARNAME_2":"NA","NL_NAME_2":"NA","TYPE_2":"Municipio","ENGTYPE_2":"Municipality","CC_2":"NA","HASC_2":"HN.LP.SE","name":"Santa_Elena.county"},
"geometry":{"type": "MultiPolygon","coordinates": [[[[-88.1148,13.9826,1431.1716],[-88.1127,13.9863,1321.3591],[-88.1138,13.9898,1205.1603],[-88.1114,13.9937,1278.4619],[-88.1199,14.0024,1327.9539],[-88.1225,14.0093,1430.6394],[-88.1008,14.0365,1840.1062],[-88.0996,14.0399,1877.0994],[-88.0919,14.0451,1930.1462],[-88.0918,14.0481,1916.8197],[-88.0879,14.0533,1938.8026],[-88.0906,14.0583,1894.5791],[-88.0901,14.0618,1921.6691],[-88.0933,14.0637,1872.0696],[-88.0928,14.073,1846.3508],[-88.1018,14.0811,1781.936],[-88.1003,14.0847,1814.569],[-88.1008,14.0899,1810.3574],[-88.1091,14.101,1841.5576],[-88.1177,14.1048,1856.8281],[-88.1229,14.1009,1799.4528],[-88.1236,14.0963,1743.6309],[-88.1307,14.0959,1717.9631],[-88.1411,14.1053,1489.691],[-88.1436,14.1108,1614.7206],[-88.1516,14.1196,1298.5339],[-88.1599,14.1191,1231.3741],[-88.1653,14.1289,1186.3826],[-88.1676,14.127,1215.0924],[-88.1714,14.128,1327.46],[-88.1739,14.1242,1406.8264],[-88.1779,14.1243,1157.8031],[-88.1814,14.1202,1293.4484],[-88.1814,14.1154,1347.84],[-88.1838,14.1123,1286.1344],[-88.1881,14.1105,1179.5117],[-88.1934,14.0975,776.7765],[-88.1988,14.0964,921.8391],[-88.1988,14.0938,991.8831],[-88.2021,14.0904,1128.6887],[-88.2013,14.0872,1062.8342],[-88.2092,14.0868,965.8325],[-88.2135,14.0833,786.6969],[-88.2153,14.0777,781.2449],[-88.2186,14.0754,883.1385],[-88.2201,14.0696,974.0685],[-88.2239,14.0737,824.1968],[-88.2285,14.0705,850.786],[-88.2325,14.0711,852.8044],[-88.2312,14.0628,956.4445],[-88.2265,14.0591,1081.087],[-88.2248,14.0539,1026.967],[-88.2201,14.0496,1046.2128],[-88.2163,14.0493,1124.5002],[-88.2098,14.0455,1275.6475],[-88.2013,14.0372,1272.4563],[-88.2066,14.0048,953.604],[-88.2098,13.9972,702.7478],[-88.2117,13.9815,896.2059],[-88.206,13.9816,880.0195],[-88.2039,13.9845,798.8073],[-88.1937,13.9844,842.9963],[-88.1932,13.981,804.7465],[-88.1899,13.9786,806.2087],[-88.1841,13.9772,902.0659],[-88.1763,13.978,929.6642],[-88.1756,13.976,956.2675],[-88.1725,13.9781,882.0397],[-88.1695,13.9724,966.5251],[-88.1606,13.9735,1048.7502],[-88.1587,13.9701,1068.8396],[-88.1478,13.9725,945.1696],[-88.1442,13.9778,996.0045],[-88.1394,13.9766,1010.4601],[-88.1374,13.9786,1031.1062],[-88.1313,13.9761,1055.7881],[-88.1148,13.9826,1431.1716]]]]}}