{"type":"Feature","properties":{"GID_2":"HND.8.19_1","GID_0":"HND","country":"Honduras","GID_1":"HND.8_1","province":"FranciscoMorazán","NL_NAME_1":"NA","county":"SanIgnacio","VARNAME_2":"NA","NL_NAME_2":"NA","TYPE_2":"Municipio","ENGTYPE_2":"Municipality","CC_2":"NA","HASC_2":"HN.FM.SI","name":"San_Ignacio.county"},
"geometry":{"type": "MultiPolygon","coordinates": [[[[-87.0481,14.6009,1037.4708],[-87.0417,14.601,1002.5754],[-87.0393,14.5971,967.9459],[-87.0355,14.597,946.0898],[-87.0314,14.5921,910.7697],[-87.0239,14.5962,925.4825],[-87.0149,14.6174,896.6946],[-87.0005,14.6351,802.3538],[-86.9989,14.6416,851.7621],[-86.9993,14.6496,885.324],[-87.0027,14.6527,918.9227],[-87.0045,14.6576,929.9653],[-86.9961,14.6637,1376.7909],[-86.9942,14.67,1242.4265],[-86.9971,14.6774,1105.7515],[-86.9948,14.6861,1128.4718],[-86.9924,14.6892,1007.5696],[-86.9937,14.6973,973.832],[-86.9923,14.6992,999.2076],[-86.9986,14.7092,865.8427],[-87.0007,14.7202,927.2342],[-87.004,14.727,938.4806],[-87.0007,14.757,1049.5503],[-87.0068,14.7609,919.4582],[-87.0088,14.7643,1016.6184],[-87.0124,14.7656,1070.728],[-87.0198,14.7758,947.1417],[-87.0247,14.802,884.7355],[-87.0445,14.8128,1030.325],[-87.0492,14.8199,1024.4618],[-87.0464,14.8229,1014.1031],[-87.050299999999993,14.8234,1005.0073],[-87.0483,14.8267,1026.5061],[-87.0528,14.8275,1080.8512],[-87.0543,14.8373,1468.3811],[-87.0592,14.8416,1556.7554],[-87.102,14.8432,871.7314],[-87.1268,14.8399,733.5677],[-87.1854,14.8364,824.4449],[-87.1852,14.8331,860.1034],[-87.1806,14.8314,925.8923],[-87.165,14.8312,737.166],[-87.1611,14.8264,858.5348],[-87.1617,14.8187,727.4534],[-87.1579,14.8145,794.1113],[-87.1528,14.814,732.3686],[-87.1524,14.8065,707.6514],[-87.1551,14.8045,831.3673],[-87.1549,14.8005,752.4323],[-87.1614,14.7965,906.5472],[-87.1606,14.792,806.0106],[-87.1659,14.7869,930.0705],[-87.168,14.7799,978.5904],[-87.166,14.7761,997.8522],[-87.169,14.7745,1078.9047],[-87.1704,14.7698,1085.9777],[-87.167,14.7639,979.2448],[-87.166,14.7533,726.0341],[-87.158,14.7417,724.8295],[-87.1384,14.7322,986.265],[-87.1215,14.6961,644.2326],[-87.1218,14.6573,599.3013],[-87.1205,14.6573,600.2011],[-87.1195,14.6522,616.0829],[-87.1133,14.6498,609.7344],[-87.1083,14.6546,617.3043],[-87.1062,14.6544,618.4078],[-87.1044,14.6487,641.2826],[-87.0933,14.645,680.0174],[-87.0874,14.6393,686.3372],[-87.0839,14.6393,666.4778],[-87.0797,14.6425,641.6913],[-87.0726,14.6418,658.0858],[-87.0689,14.6372,677.1695],[-87.0697,14.6349,701.6136],[-87.0583,14.6266,756.4039],[-87.0592,14.6228,799.2224],[-87.056,14.6138,833.8539],[-87.0491,14.6108,921.2459],[-87.0501,14.6097,956.5984],[-87.0481,14.6009,1037.4708]]]]}}