{"type": "Feature","bbox": [-87.5314,14.7038,-87.3863,14.8202],"geometry": {"type": "MultiPolygon","coordinates": [[[[-87.3863,14.7658,989.6671],[-87.4588,14.7853,1035.0515],[-87.5101,14.8202,1144.069],[-87.5212,14.8188,1165.1475],[-87.5314,14.7576,1370.1896],[-87.5235,14.7187,1172.5038],[-87.4953,14.714,1077.4814],[-87.4913,14.7109,1109.6973],[-87.4639,14.7094,1031.5156],[-87.4517,14.7038,998.14],[-87.4447,14.7094,923.2917],[-87.4391,14.7095,941.5746],[-87.4362,14.7081,969.3929],[-87.4085,14.731,723.8541],[-87.4098,14.7358,707.4508],[-87.3863,14.7658,989.6671]]]]}
,"properties": {"GID_2": "HND.4.17_1","GID_0": "HND","country": "Honduras","GID_1": "HND.4_1","province": "Comayagua","NL_NAME_1": "NA","county": "SanLuis","VARNAME_2": "NA","NL_NAME_2": "NA","TYPE_2": "Municipio","ENGTYPE_2": "Municipality","CC_2": "NA","HASC_2": "HN.CM.SL","name": "San_Luis.county","area_km2": 119.40947,"hist_schema_id": "Elevation0-9000","hist_area_km2": {"700": 1.39428,"725": 3.6702,"750": 3.36267,"775": 2.74753,"800": 2.9525,"825": 3.21902,"850": 3.8136,"875": 3.46504,"900": 2.70649,"925": 2.9321,"950": 3.77271,"975": 4.32628,"1000": 4.32627,"1025": 4.44929,"1050": 5.413,"1075": 5.7412,"1100": 6.29485,"1125": 6.15112,"1150": 5.6385,"1175": 5.14633,"1200": 4.46953,"1225": 4.22346,"1250": 4.46925,"1275": 3.64913,"1300": 3.46466,"1325": 2.74714,"1350": 2.62417,"1375": 2.23463,"1400": 2.29615,"1425": 1.59908,"1450": 1.37356,"1475": 1.16856,"1500": 1.12755,"1525": 1.00454,"1550": 0.71753,"1575": 0.41002,"1600": 0.12301,"1625": 0.18451}}}