{"type":"Feature","properties":{"GID_2":"HND.5.19_1","GID_0":"HND","country":"Honduras","GID_1":"HND.5_1","province":"Copán","NL_NAME_1":"NA","county":"SanPedro","VARNAME_2":"NA","NL_NAME_2":"NA","TYPE_2":"Municipio","ENGTYPE_2":"Municipality","CC_2":"NA","HASC_2":"HN.CP.SP","name":"San_Pedro.county"},
"geometry":{"type": "MultiPolygon","coordinates": [[[[-88.733,14.5917,1990.6804],[-88.7279,14.5967,2013.921],[-88.7478,14.6286,1214.4529],[-88.7533,14.6316,1327.7234],[-88.7544,14.6341,1396.1254],[-88.7578,14.6349,1515.7037],[-88.7665,14.6361,1477.3723],[-88.7858,14.6278,1513.2361],[-88.7955,14.614,1389.7145],[-88.8385,14.6141,1086.6786],[-88.8604,14.6162,839.5122],[-88.8755,14.6213,802.9682],[-88.8787,14.6146,792.5319],[-88.8782,14.6126,786.0759],[-88.8744,14.6113,810.9025],[-88.8741,14.6011,830.1014],[-88.8722,14.597,840.4846],[-88.8731,14.5935,848.406],[-88.868,14.5874,860.7534],[-88.8612,14.5855,848.3103],[-88.8403,14.5886,1016.9186],[-88.8362,14.5877,1008.4546],[-88.83,14.5803,935.2838],[-88.8281,14.564,1078.2434],[-88.8234,14.5675,1092.3136],[-88.8181,14.5746,928.0969],[-88.8088,14.5774,978.4171],[-88.8066,14.591,1125.3253],[-88.8043,14.5885,1079.9526],[-88.8049,14.5849,1049.1085],[-88.8025,14.5804,1015.0366],[-88.8042,14.5765,1053.0624],[-88.8032,14.5749,1063.1239],[-88.8017,14.5745,1072.5181],[-88.8001,14.5782,1007.0104],[-88.7952,14.581,1088.7041],[-88.7864,14.5715,1218.3397],[-88.7798,14.5869,1136.1387],[-88.733,14.5917,1990.6804]]]]}}