{"type":"Feature","properties":{"GID_2":"HND.15.15_1","GID_0":"HND","country":"Honduras","GID_1":"HND.15_1","province":"Olancho","NL_NAME_1":"NA","county":"Manto","VARNAME_2":"NA","NL_NAME_2":"NA","TYPE_2":"Municipio","ENGTYPE_2":"Municipality","CC_2":"NA","HASC_2":"HN.OL.MT","name":"Manto.county"},
"geometry":{"type": "MultiPolygon","coordinates": [[[[-86.3482,14.9827,1238.3964],[-86.3848,14.9756,1271.71],[-86.4,14.9758,927.3149],[-86.4158,14.9786,913.8427],[-86.429,14.9834,871.9243],[-86.4518,14.9963,1139.0574],[-86.4689,14.9877,1034.7524],[-86.4745,14.9827,938.0537],[-86.4969,14.9846,937.3762],[-86.4996,14.9676,895.0748],[-86.503,14.9657,978.6937],[-86.5189,14.9404,813.1006],[-86.5212,14.9428,919.4728],[-86.5204,14.9574,1046.4709],[-86.5419,14.9612,963.1915],[-86.5415,14.9492,846.0599],[-86.5345,14.9425,846.6328],[-86.5408,14.9258,817.0984],[-86.5381,14.9135,850.5821],[-86.5386,14.9078,861.2767],[-86.5356,14.8998,790.2256],[-86.537,14.8982,775.1213],[-86.5434,14.8973,894.4745],[-86.5565,14.889099999999999,851.3738],[-86.5531,14.8784,826.1274],[-86.557,14.8552,780.6124],[-86.5489,14.8493,705.7103],[-86.5463,14.8427,745.6744],[-86.5417,14.8389,810.6645],[-86.5406,14.8331,855.9769],[-86.5376,14.8281,665.525],[-86.5328,14.8277,638.7549],[-86.53,14.8317,697.8864],[-86.5259,14.832,699.472],[-86.5116,14.827,752.6115],[-86.5114,14.8163,554.9284],[-86.5068,14.804,598.4227],[-86.4994,14.8047,575.9601],[-86.4987,14.8004,581.5031],[-86.4976,14.8003,578.2778],[-86.4917,14.8025,600.5196],[-86.4833,14.8023,602.1761],[-86.4738,14.795,621.2985],[-86.4712,14.7958,552.1145],[-86.4668,14.7923,613.3632],[-86.4648,14.7866,623.3455],[-86.4488,14.7867,669.1023],[-86.4442,14.7814,734.4271],[-86.4053,14.7605,1078.6169],[-86.3796,14.7569,1013.6475],[-86.3163,14.7556,1246.6831],[-86.2846,14.7493,1334.7534],[-86.249,14.7445,927.1818],[-86.2525,14.7631,723.5776],[-86.2459,14.7776,588.2309],[-86.2431,14.7998,638.2327],[-86.2359,14.8147,475.3499],[-86.2349,14.8195,506.6124],[-86.2361,14.8215,527.4836],[-86.2391,14.8193,472.786],[-86.2447,14.8185,463.3842],[-86.2491,14.8222,461.1415],[-86.2594,14.8232,459.1441],[-86.2853,14.8183,478.0172],[-86.2931,14.8189,475.4388],[-86.3036,14.8279,492.9291],[-86.3218,14.8369,508.9394],[-86.3393,14.8349,523.7725],[-86.3817,14.8588,580.7513],[-86.3893,14.8649,581.142],[-86.3892,14.8683,603.5928],[-86.3703,14.8879,960.4469],[-86.3591,14.894,785.5121],[-86.3659,14.8998,720.5851],[-86.366,14.9033,720.405],[-86.3503,14.9195,651.8034],[-86.3402,14.9368,1019.51],[-86.3327,14.9445,1133.4563],[-86.3136,14.9554,756.6306],[-86.3157,14.9601,770.2579],[-86.327,14.9739,960.0352],[-86.3282,14.9806,982.0129],[-86.3482,14.9827,1238.3964]]]]}}