{"type": "Feature","bbox": [-86.8162,14.564,-86.6162,14.7361],"geometry": {"type": "MultiPolygon","coordinates": [[[[-86.7556,14.564,948.8056],[-86.6932,14.5725,956.9866],[-86.6832,14.5823,986.5994],[-86.6649,14.5727,754.7585],[-86.6607,14.5648,698.0283],[-86.6572,14.5644,689.3081],[-86.6403,14.5697,691.9592],[-86.6329,14.5699,666.7924],[-86.6272,14.5783,628.0863],[-86.6182,14.5817,627.6779],[-86.6162,14.5845,638.3209],[-86.6178,14.5868,633.3507],[-86.6171,14.5887,624.6957],[-86.6232,14.5923,657.9592],[-86.6229,14.5976,730.1458],[-86.6259,14.5981,824.1689],[-86.6316,14.6077,661.8416],[-86.6344,14.6175,924.6028],[-86.6411,14.6207,679.3842],[-86.6448,14.6301,648.6787],[-86.6514,14.6336,631.7698],[-86.6529,14.6377,633.6932],[-86.6714,14.6387,639.4722],[-86.6743,14.6401,653.1649],[-86.6735,14.6456,657.8379],[-86.6748,14.6525,662.9978],[-86.6821,14.6599,663.9402],[-86.6821,14.6634,647.6948],[-86.6914,14.6719,662.1726],[-86.6874,14.6755,640.0885],[-86.6873,14.6796,642.8336],[-86.6943,14.6814,713.3218],[-86.6958,14.6832,720.799],[-86.6913,14.6951,649.5913],[-86.694,14.6995,662.2657],[-86.6923,14.7082,648.5207],[-86.6998,14.7201,706.7627],[-86.7036,14.7216,701.1081],[-86.7141,14.7209,684.9414],[-86.7182,14.716,689.1084],[-86.7297,14.711,743.3713],[-86.7354,14.7143,797.9865],[-86.7373,14.7139,830.3694],[-86.7389,14.7165,807.4531],[-86.7577,14.7262,787.5978],[-86.7584,14.727,787.5978],[-86.7565,14.7284,767.2718],[-86.7587,14.7307,737.7418],[-86.7631,14.7292,797.0166],[-86.7601,14.7341,760.0693],[-86.7613,14.7361,766.4927],[-86.7642,14.7361,804.127],[-86.7711,14.7302,878.8218],[-86.7746,14.7305,994.3359],[-86.7751,14.7205,814.6841],[-86.7787,14.7144,901.9711],[-86.7871,14.7094,908.4297],[-86.7894,14.7009,928.3988],[-86.7974,14.6937,954.6492],[-86.7989,14.6889,998.4661],[-86.7983,14.6793,1159.3135],[-86.8009,14.6686,1088.1666],[-86.8051,14.6651,1202.0914],[-86.7977,14.6458,1850.8035],[-86.8162,14.6304,1581.9663],[-86.8107,14.6254,1653.9672],[-86.8077,14.6131,1337.4814],[-86.8009,14.6103,1355.667],[-86.7899,14.6011,1098.3264],[-86.7801,14.5967,1103.3241],[-86.7737,14.588,1060.9674],[-86.7714,14.577,960.0687],[-86.7551,14.5674,956.8791],[-86.7556,14.564,948.8056]]]]}
,"properties": {"GID_2": "HND.15.3_1","GID_0": "HND","country": "Honduras","GID_1": "HND.15_1","province": "Olancho","NL_NAME_1": "NA","county": "Concordia","VARNAME_2": "NA","NL_NAME_2": "NA","TYPE_2": "Municipio","ENGTYPE_2": "Municipality","CC_2": "NA","HASC_2": "HN.OL.CO","name": "Concordia.county","area_km2": 237.5732,"hist_schema_id": "Elevation0-9000","hist_area_km2": {"625": 1.1488,"650": 7.3648,"675": 15.5291,"700": 13.0669,"725": 10.8927,"750": 11.1386,"775": 11.6924,"800": 12.3075,"825": 13.21,"850": 12.923,"875": 11.6307,"900": 11.8974,"925": 10.4003,"950": 9.5389,"975": 8.3494,"1000": 7.3441,"1025": 6.4213,"1050": 5.3546,"1075": 4.8008,"1100": 4.1648,"1125": 4.3905,"1150": 3.8981,"1175": 3.8366,"1200": 3.734,"1225": 3.2212,"1250": 2.9134,"1275": 2.7287,"1300": 2.544,"1325": 2.3593,"1350": 2.1542,"1375": 1.6002,"1400": 1.5181,"1425": 1.272,"1450": 1.2925,"1475": 1.1899,"1500": 1.1488,"1525": 1.1283,"1550": 0.9847,"1575": 0.677,"1600": 0.7796,"1625": 0.5334,"1650": 0.4718,"1675": 0.4923,"1700": 0.2462,"1725": 0.3898,"1750": 0.2462,"1775": 0.3898,"1800": 0.2872,"1825": 0.2872,"1850": 0.2257,"1875": 0.3282,"1900": 0.2667,"1925": 0.2257,"1950": 0.2667,"1975": 0.1436,"2000": 0.0615,"2025": 0.1026,"2050": 0.0205,"2075": 0.0205,"2100": 0.0205}}}