{"type": "Feature","bbox": [-89.2222,14.6976,-89.0289,15.0972],"geometry": {"type": "MultiPolygon","coordinates": [[[[-89.1818,14.7952,692.2111],[-89.1634,14.777,1019.8409],[-89.1604,14.7556,744.2441],[-89.16,14.7328,780.5566],[-89.1267,14.7151,801.0684],[-89.134,14.6976,917.4289],[-89.119,14.7044,884.4896],[-89.0966,14.7111,1211.7153],[-89.0926,14.7104,1121.0529],[-89.0946,14.7207,1050.5044],[-89.1175,14.7433,1232.3174],[-89.1154,14.7516,1367.8506],[-89.1274,14.7628,1250.9081],[-89.1254,14.7866,933.2484],[-89.1081,14.8245,757.7062],[-89.1125,14.8343,984.336],[-89.1278,14.8409,634.9846],[-89.1237,14.8474,631.8803],[-89.1176,14.852,849.0814],[-89.1054,14.8567,804.2],[-89.1126,14.8659,704.7473],[-89.1211,14.8836,996.7277],[-89.1175,14.8992,936.6698],[-89.1191,14.9049,954.1895],[-89.1297,14.914,1152.0852],[-89.1294,14.9236,1174.3303],[-89.124,14.9393,1315.7798],[-89.1088,14.9366,1205.4351],[-89.0884,14.9551,1294.7087],[-89.0609,14.9555,1183.6383],[-89.0532,14.954,1080.335],[-89.0421,14.9607,978.5923],[-89.0416,14.9646,965.4138],[-89.0449,14.9742,845.7155],[-89.052,14.9817,854.2993],[-89.0509,14.9867,785.2963],[-89.0564,14.9951,811.2147],[-89.0555,15.0037,777.3042],[-89.054,15.0071,828.7479],[-89.0509,15.0087,838.0547],[-89.0409,15.0093,779.229],[-89.0289,15.0153,671.4052],[-89.0437,15.0352,598.9258],[-89.0444,15.0668,596.3162],[-89.0709,15.0768,515.0495],[-89.0725,15.0757,568.9518],[-89.0753,15.0788,546.3],[-89.0818,15.0777,608.4084],[-89.0782,15.0827,499.4492],[-89.0797,15.087,483.6749],[-89.0827,15.0854,481.3096],[-89.0824,15.0888,458.5553],[-89.0734,15.0972,678.0217],[-89.1479,15.0703,621.4858],[-89.1544,15.0653,426.0821],[-89.1585,15.0529,529.8819],[-89.1702,15.0341,839.1125],[-89.1718,15.0208,975.4331],[-89.1785,15.014,957.2308],[-89.1805,15.0048,1080.3145],[-89.1765,15.005,1028.3724],[-89.1733,15.0,1061.8159],[-89.1732,14.9961,1175.713],[-89.1632,14.9929,1075.4358],[-89.1618,14.9866,1209.1072],[-89.1517,14.9846,1023.7345],[-89.1516,14.9794,941.5598],[-89.1577,14.9715,997.6944],[-89.156,14.9697,999.8535],[-89.1607,14.9474,934.96],[-89.1691,14.9422,1036.8752],[-89.1695,14.9391,930.3754],[-89.1666,14.9352,984.3206],[-89.1667,14.932,970.7561],[-89.1726,14.9216,959.3378],[-89.1765,14.9275,1100.4205],[-89.1831,14.9091,1174.5166],[-89.1883,14.9033,1187.8088],[-89.2189,14.887,838.6776],[-89.2206,14.8846,780.3395],[-89.2222,14.8656,869.9716],[-89.2187,14.8398,875.6219],[-89.1971,14.8103,780.4758],[-89.1818,14.7952,692.2111]]]]}
,"properties": {"GID_2": "HND.5.3_1","GID_0": "HND","country": "Honduras","GID_1": "HND.5_1","province": "Copán","NL_NAME_1": "NA","county": "CopánRuinas","VARNAME_2": "NA","NL_NAME_2": "NA","TYPE_2": "Municipio","ENGTYPE_2": "Municipality","CC_2": "NA","HASC_2": "HN.CP.CR","name": "Copán_Ruinas.county","area_km2": 376.6951,"hist_schema_id": "Elevation0-9000","hist_area_km2": {"400": 0.0614,"425": 0.1024,"450": 1.8427,"475": 2.3752,"500": 3.3581,"525": 3.829,"550": 4.3204,"575": 8.7268,"600": 12.6805,"625": 13.3149,"650": 14.0527,"675": 12.3729,"700": 13.9094,"725": 15.1594,"750": 18.5609,"775": 19.278199999999998,"800": 17.7424,"825": 18.4795,"850": 19.4628,"875": 20.1179,"900": 19.2368,"925": 17.7009,"950": 16.1242,"975": 14.2602,"1000": 11.4945,"1025": 10.0195,"1050": 9.2414,"1075": 8.5445,"1100": 6.8644,"1125": 6.332,"1150": 5.8399,"1175": 5.6351,"1200": 4.4878,"1225": 4.2213,"1250": 3.5452,"1275": 3.053,"1300": 2.2744,"1325": 2.7044,"1350": 1.8439,"1375": 1.2293,"1400": 0.6966,"1425": 0.8196,"1450": 0.5532,"1475": 0.2253}}}