{"type":"Feature","properties":{"GID_2":"HND.13.13_1","GID_0":"HND","country":"Honduras","GID_1":"HND.13_1","province":"Lempira","NL_NAME_1":"NA","county":"Lepaera","VARNAME_2":"NA","NL_NAME_2":"NA","TYPE_2":"Municipio","ENGTYPE_2":"Municipality","CC_2":"NA","HASC_2":"HN.LE.LE","name":"Lepaera.county"},
"geometry":{"type": "MultiPolygon","coordinates": [[[[-88.6327,14.8807,454.7131],[-88.6428,14.8666,491.1262],[-88.6413,14.8564,723.5857],[-88.6381,14.8535,872.2887],[-88.6366,14.849,796.793],[-88.6453,14.8508,583.2585],[-88.6499,14.8428,586.1439],[-88.6457,14.8326,753.4271],[-88.6461,14.8287,845.7164],[-88.6553,14.8232,951.0407],[-88.6565,14.821,965.5303],[-88.6628,14.8187,803.6054],[-88.672,14.7987,523.6248],[-88.67,14.7884,675.2164],[-88.6725,14.7824,479.9875],[-88.6712,14.7782,457.816],[-88.6745,14.7703,638.5627],[-88.6742,14.7672,688.5756],[-88.6612,14.761,572.525],[-88.6623,14.7563,495.2885],[-88.6586,14.7521,549.4417],[-88.658,14.7392,472.0147],[-88.6527,14.7345,532.8266],[-88.6575,14.7266,568.119],[-88.653,14.7249,479.1899],[-88.6517,14.7203,475.8457],[-88.6462,14.7182,484.9887],[-88.6397,14.7195,534.6324],[-88.5884,14.7067,844.3688],[-88.5731,14.7054,1011.8101],[-88.5404,14.7289,1773.6157],[-88.5142,14.7826,1491.9598],[-88.5119,14.784,1456.9835],[-88.5088,14.7827,1465.0145],[-88.5074,14.784,1449.2457],[-88.5084,14.7942,1421.9875],[-88.4994,14.7985,1268.2667],[-88.492,14.7953,1251.9003],[-88.4872,14.795,1404.821],[-88.4843,14.7968,1256.6614],[-88.5255,14.8547,1368.3767],[-88.5479,14.9167,1402.5137],[-88.5527,14.9145,1394.7109],[-88.5615,14.9176,1334.3691],[-88.5794,14.9206,878.249],[-88.5957,14.9287,798.8558],[-88.6024,14.9296,549.9016],[-88.6038,14.922,483.9095],[-88.607,14.9175,615.4675],[-88.6041,14.9105,679.6981],[-88.6142,14.9013,877.1812],[-88.6216,14.8994,879.3542],[-88.6385,14.9027,385.8068],[-88.632,14.8829,475.542],[-88.6327,14.8807,454.7131]]]]}}