{"type":"Feature","properties":{"GID_2":"HND.4.6_1","GID_0":"HND","country":"Honduras","GID_1":"HND.4_1","province":"Comayagua","NL_NAME_1":"NA","county":"LaLibertad","VARNAME_2":"NA","NL_NAME_2":"NA","TYPE_2":"Municipio","ENGTYPE_2":"Municipality","CC_2":"NA","HASC_2":"HN.CM.LB","name":"La_Libertad.county"},
"geometry":{"type": "MultiPolygon","coordinates": [[[[-87.5278,14.7413,1222.2827],[-87.5314,14.7576,1370.1896],[-87.5212,14.8188,1165.1475],[-87.509,14.8201,1144.069],[-87.5221,14.8672,944.1146],[-87.557,14.8987,1050.1469],[-87.5588,14.9045,979.1425],[-87.5629,14.906,950.0593],[-87.5664,14.9096,855.3772],[-87.5671,14.9181,891.2367],[-87.5645,14.9228,741.3676],[-87.5619,14.9232,718.1664],[-87.5622,14.9245,711.2501],[-87.5713,14.9383,742.5491],[-87.5696,14.9421,788.2094],[-87.5732,14.9455,742.9615],[-87.5771,14.9466,834.2054],[-87.5792,14.9504,851.9927],[-87.5853,14.9542,802.3729],[-87.5861,14.9602,758.5833],[-87.5902,14.9665,594.2617],[-87.5925,14.9739,448.9902],[-87.5988,14.9819,393.1837],[-87.6014,14.9925,328.7267],[-87.6002,15.0014,299.9536],[-87.6081,15.0161,269.0],[-87.6169,15.0147,269.0],[-87.6175,15.0109,269.0],[-87.6259,15.0023,289.4889],[-87.6305,15.0038,269.0],[-87.6412,15.015,269.0],[-87.6505,15.0146,269.0],[-87.6542,15.0106,378.3453],[-87.6586,15.0127,269.0],[-87.6663,15.0113,404.2811],[-87.6742,15.0163,269.0],[-87.6775,15.0117,277.3569],[-87.6788,15.0115,277.3569],[-87.6816,15.0126,269.0],[-87.6921,15.0059,302.7082],[-87.697,15.0096,269.0],[-87.7049,15.0032,392.7455],[-87.713,15.0051,277.8495],[-87.7284,15.0007,398.0661],[-87.7433,15.0045,269.0],[-87.7452,14.9963,269.0],[-87.7429,14.9917,269.0],[-87.7458,14.9857,269.0],[-87.7444,14.9796,368.5551],[-87.7385,14.9782,269.0],[-87.736,14.971,269.0],[-87.7366,14.968,269.0],[-87.729,14.9687,274.1397],[-87.7277,14.9701,323.6013],[-87.7295,14.974,269.0],[-87.7245,14.9739,271.1265],[-87.719,14.9686,484.5238],[-87.7079,14.9676,279.5454],[-87.7048,14.9611,333.4793],[-87.6991,14.9612,269.0],[-87.6989,14.96,269.0],[-87.7051,14.9553,463.7091],[-87.6998,14.951,346.5358],[-87.697,14.9316,439.3067],[-87.6947,14.9296,392.3014],[-87.6944,14.9237,290.0721],[-87.6921,14.9197,269.0],[-87.6858,14.9208,287.8345],[-87.6801,14.9172,387.6863],[-87.6712,14.9185,405.1731],[-87.6664,14.9155,422.7216],[-87.6612,14.9164,398.5111],[-87.6527,14.9139,391.9138],[-87.6484,14.9204,396.9777],[-87.643,14.9237,463.6131],[-87.6205,14.9303,913.2637],[-87.5678,14.8797,1080.1256],[-87.5675,14.8667,1202.5288],[-87.5791,14.8442,989.8054],[-87.5683,14.8345,1041.1526],[-87.5639,14.8213,1034.906],[-87.5731,14.8123,842.3463],[-87.5995,14.8144,716.7375],[-87.6084,14.8171,659.8409],[-87.6087,14.7927,683.4314],[-87.6271,14.7651,478.4565],[-87.634,14.7573,383.7615],[-87.6326,14.7488,319.6996],[-87.6383,14.7459,444.6659],[-87.64,14.7389,371.1425],[-87.6423,14.7361,484.1782],[-87.6391,14.7298,382.3923],[-87.6394,14.724,437.9449],[-87.6317,14.7233,428.6812],[-87.6252,14.7206,435.2786],[-87.6174,14.7225,499.4746],[-87.6117,14.7207,605.5591],[-87.6084,14.7176,606.0952],[-87.5928,14.716,603.4237],[-87.567,14.724,917.1864],[-87.5548,14.7199,1035.2168],[-87.5283,14.7355,1168.132],[-87.5278,14.7413,1222.2827]]]]}}