{"type":"Feature","properties":{"GID_2":"HND.12.6_1","GID_0":"HND","country":"Honduras","GID_1":"HND.12_1","province":"LaPaz","NL_NAME_1":"NA","county":"LaPaz","VARNAME_2":"NA","NL_NAME_2":"NA","TYPE_2":"Municipio","ENGTYPE_2":"Municipality","CC_2":"NA","HASC_2":"HN.LP.LP","name":"La_Paz.county"},
"geometry":{"type": "MultiPolygon","coordinates": [[[[-87.7876,14.3803,1769.2494],[-87.8018,14.3532,2215.3687],[-87.8189,14.3322,1742.348],[-87.8343,14.3223,1377.1771],[-87.8353,14.317,1316.8047],[-87.841,14.3126,1220.9032],[-87.8442,14.3039,1221.1846],[-87.8495,14.2985,1180.7578],[-87.8646,14.292,1108.697],[-87.8638,14.2877,1108.3004],[-87.8566,14.285,1231.595],[-87.8506,14.2867,1272.2572],[-87.8487,14.2838,1316.0408],[-87.8374,14.283,1289.3934],[-87.8337,14.2773,1368.2155],[-87.8275,14.274,1452.0476],[-87.8279,14.2663,1456.5262],[-87.824,14.2641,1438.9991],[-87.8232,14.2618,1459.1133],[-87.8263,14.2553,1483.6764],[-87.8218,14.2538,1471.4025],[-87.8242,14.2498,1574.0432],[-87.8237,14.2463,1525.9984],[-87.8182,14.2446,1601.8757],[-87.8159,14.2419,1595.7737],[-87.8226,14.233,1618.9302],[-87.8182,14.2256,1619.0149],[-87.8177,14.2209,1622.0665],[-87.8137,14.2229,1544.5043],[-87.8129,14.2172,1545.1199],[-87.7796,14.2319,1167.0972],[-87.7744,14.2231,1222.8605],[-87.7701,14.2254,1279.3644],[-87.764,14.2238,1202.6704],[-87.756,14.2284,1109.7831],[-87.7429,14.2256,1080.0565],[-87.7403,14.2275,1084.9829],[-87.737,14.2349,1028.8776],[-87.7271,14.2364,958.8617],[-87.7246,14.2397,1007.3701],[-87.7204,14.2392,826.3179],[-87.7159,14.2421,868.6118],[-87.7108,14.2425,778.9447],[-87.7033,14.2402,786.6584],[-87.7012,14.243,772.7488],[-87.6979,14.2428,749.8641],[-87.6969,14.2467,754.8754],[-87.6934,14.2466,721.7956],[-87.6912,14.2506,701.6934],[-87.6883,14.2507,690.5024],[-87.6865,14.2548,702.1472],[-87.6876,14.2562,691.7574],[-87.6939,14.2598,695.1176],[-87.7045,14.2594,770.6977],[-87.7173,14.2544,951.3729],[-87.716,14.2497,820.6166],[-87.7198,14.2472,874.7121],[-87.7252,14.2462,852.4521],[-87.7299,14.2494,918.6292],[-87.7489,14.2498,1079.2352],[-87.753,14.2612,1169.903],[-87.7316,14.2773,1200.0308],[-87.7236,14.2753,1062.7478],[-87.7168,14.2809,972.7097],[-87.6982,14.2822,777.868],[-87.688,14.2964,707.0259],[-87.68,14.2994,694.973],[-87.6701,14.2991,666.2441],[-87.6549,14.3023,644.057],[-87.6383,14.2973,606.4511],[-87.6356,14.3006,597.6718],[-87.635,14.3036,595.2521],[-87.6447,14.307,620.6775],[-87.6434,14.314,612.4207],[-87.6467,14.3149,618.4193],[-87.6452,14.3175,613.923],[-87.6476,14.3222,612.156],[-87.6421,14.3324,590.4007],[-87.6456,14.3328,601.7667],[-87.6479,14.337,598.7963],[-87.6468,14.3428,592.5161],[-87.6486,14.3439,591.8217],[-87.6474,14.3464,589.6221],[-87.6504,14.3481,588.4893],[-87.6518,14.3524,585.6461],[-87.6549,14.3526,588.6243],[-87.6529,14.364,579.3867],[-87.6556,14.3595,584.5455],[-87.6606,14.361,585.1799],[-87.6625,14.3636,585.4465],[-87.6653,14.3584,592.2629],[-87.6679,14.3605,590.6815],[-87.6696,14.3581,594.8544],[-87.6728,14.358,596.1525],[-87.6787,14.3534,604.9352],[-87.6859,14.3511,618.3604],[-87.7049,14.3381,784.5198],[-87.7157,14.3478,1200.5244],[-87.7255,14.3472,1293.8536],[-87.7352,14.3501,1281.7222],[-87.7549,14.3609,1450.3479],[-87.777,14.3633,1857.4423],[-87.7814,14.3626,1936.9663],[-87.7864,14.3707,1801.2407],[-87.7876,14.3803,1769.2494]]]]}}