{"type": "Feature","bbox": [-87.3855,13.6787,-87.1925,13.8897],"geometry": {"type": "MultiPolygon","coordinates": [[[[-87.2502,13.6792,314.8865],[-87.2452,13.6787,414.2113],[-87.2367,13.6806,421.1357],[-87.2286,13.6852,488.9377],[-87.2285,13.6869,518.4027],[-87.2344,13.6934,425.8695],[-87.235,13.7026,492.4916],[-87.2311,13.7031,447.7372],[-87.2264,13.7087,590.1825],[-87.2225,13.7088,666.2291],[-87.2211,13.7069,671.1379],[-87.2185,13.7079,690.7661],[-87.2169,13.7138,682.5297],[-87.2145,13.716,681.7916],[-87.2115,13.7151,762.0771],[-87.2085,13.7114,759.4481],[-87.2066,13.7115,759.5745],[-87.2032,13.718,773.5877],[-87.1966,13.7219,919.1849],[-87.1925,13.7657,872.5077],[-87.2042,13.7796,730.2141],[-87.1984,13.8181,1073.7604],[-87.2017,13.8263,896.8],[-87.2002,13.831,1001.1825],[-87.205,13.8434,923.172],[-87.2025,13.8502,1038.5266],[-87.2081,13.8571,1048.5356],[-87.2049,13.8643,1139.1714],[-87.2052,13.8674,1159.8862],[-87.2318,13.8897,1089.3683],[-87.2696,13.8848,923.4139],[-87.2695,13.8809,964.3868],[-87.2748,13.8773,914.3647],[-87.2766,13.871,799.8622],[-87.2814,13.8653,955.3789],[-87.2804,13.8561,724.3529],[-87.2867,13.8432,1097.2208],[-87.2973,13.844,716.5725],[-87.3048,13.8422,569.5342],[-87.3168,13.8272,584.0494],[-87.3224,13.8229,703.4721],[-87.3259,13.8238,577.4132],[-87.3333,13.8182,516.2732],[-87.3371,13.8177,464.3958],[-87.3379,13.8141,529.8314],[-87.3411,13.8178,559.3096],[-87.3472,13.8203,769.6422],[-87.3515,13.8321,781.588],[-87.3529,13.8386,829.4869],[-87.3483,13.8477,835.2403],[-87.3712,13.835,1017.0108],[-87.3764,13.8055,625.8284],[-87.3754,13.7986,286.3016],[-87.3855,13.7944,350.8646],[-87.3829,13.7888,235.8632],[-87.3767,13.7901,213.3116],[-87.3573,13.7878,388.8133],[-87.3531,13.7796,462.5642],[-87.3454,13.7752,535.2964],[-87.3437,13.77,513.6563],[-87.3368,13.7671,631.1256],[-87.3359,13.764,743.4381],[-87.3306,13.7601,685.6229],[-87.3238,13.7593,833.6158],[-87.3184,13.7618,755.6129],[-87.2887,13.7626,638.0157],[-87.2847,13.7589,664.5264],[-87.282,13.7533,528.5649],[-87.283,13.7441,542.8163],[-87.2811,13.7356,527.96],[-87.2719,13.7347,353.4842],[-87.2725,13.7314,443.0918],[-87.2759,13.7282,510.8257],[-87.2684,13.7199,517.5838],[-87.2649,13.7133,276.4927],[-87.2665,13.7104,332.421],[-87.2651,13.7017,227.2389],[-87.2672,13.693,397.3635],[-87.2609,13.689,225.3805],[-87.2632,13.6809,211.1486],[-87.2668,13.6808,184.3393],[-87.2671,13.6795,187.0142],[-87.2559,13.6819,304.0831],[-87.2502,13.6792,314.8865]]]]}
,"properties": {"GID_2": "HND.8.16_1","GID_0": "HND","country": "Honduras","GID_1": "HND.8_1","province": "FranciscoMorazán","NL_NAME_1": "NA","county": "Sabanagrande","VARNAME_2": "NA","NL_NAME_2": "NA","TYPE_2": "Municipio","ENGTYPE_2": "Municipality","CC_2": "NA","HASC_2": "HN.FM.SG","name": "Sabanagrande.county","area_km2": 247.8311,"hist_schema_id": "Elevation0-9000","hist_area_km2": {"175": 0.0206,"200": 0.2883,"225": 0.8856,"250": 0.8856,"275": 1.73,"300": 1.7301,"325": 1.8948,"350": 2.3892,"375": 3.0689,"400": 3.2543,"425": 3.2952,"450": 3.5837,"475": 5.4578,"500": 5.4371,"525": 5.4574,"550": 5.2309,"575": 6.6723,"600": 5.6425,"625": 6.281,"650": 6.7545,"675": 7.599,"700": 8.0519,"725": 7.5574,"750": 8.6077,"775": 7.7426,"800": 7.5365,"825": 6.9185,"850": 5.9095,"875": 6.5889,"900": 7.7212,"925": 8.5033,"950": 9.2239,"975": 7.865,"1000": 8.9971,"1025": 14.7401,"1050": 13.6902,"1075": 12.4344,"1100": 9.1817,"1125": 6.9173,"1150": 5.2911,"1175": 3.3764,"1200": 1.6264,"1225": 0.9676,"1250": 0.5765,"1275": 0.1441,"1300": 0.1029}}}