{"type":"Feature","properties":{"GID_2":"HND.15.17_1","GID_0":"HND","country":"Honduras","GID_1":"HND.15_1","province":"Olancho","NL_NAME_1":"NA","county":"Salamá","VARNAME_2":"NA","NL_NAME_2":"NA","TYPE_2":"Municipio","ENGTYPE_2":"Municipality","CC_2":"NA","HASC_2":"HN.OL.SA","name":"Salamá.county"},
"geometry":{"type": "MultiPolygon","coordinates": [[[[-86.6913,14.6951,649.5913],[-86.6854,14.7037,618.6497],[-86.6779,14.7077,653.1714],[-86.6774,14.716,677.1954],[-86.6742,14.7203,637.4371],[-86.671,14.7184,651.0442],[-86.6652,14.7237,651.2781],[-86.6656,14.7277,675.1982],[-86.6598,14.7211,621.2126],[-86.651,14.7213,767.1208],[-86.6483,14.724,768.9328],[-86.6452,14.7237,701.3055],[-86.6393,14.7199,694.4077],[-86.6276,14.7209,735.4767],[-86.6235,14.7231,728.5007],[-86.6202,14.722,733.8911],[-86.6219,14.7413,712.7662],[-86.6084,14.7553,1030.1766],[-86.6076,14.7632,1046.4899],[-86.5916,14.7766,866.8478],[-86.5811,14.793,761.9999],[-86.574,14.7961,663.1401],[-86.5766,14.8088,622.1896],[-86.5798,14.8127,607.7139],[-86.5793,14.8198,655.0981],[-86.5814,14.8255,673.2692],[-86.5795,14.8255,637.1744],[-86.5808,14.829,638.8311],[-86.5751,14.836,686.1251],[-86.5694,14.8387,637.8456],[-86.5621,14.8458,635.8849],[-86.557,14.8552,780.6124],[-86.5531,14.8784,826.1274],[-86.5565,14.889099999999999,851.3738],[-86.5434,14.8973,894.4745],[-86.537,14.8982,775.1213],[-86.5356,14.8998,790.2256],[-86.5402,14.9098,925.6434],[-86.5502,14.9172,960.1142],[-86.5527,14.9228,1016.1522],[-86.5568,14.9248,918.676],[-86.5608,14.9348,1158.8251],[-86.5696,14.9397,932.0137],[-86.5709,14.9507,1069.1519],[-86.5766,14.9563,1065.9938],[-86.5819,14.9571,1161.7859],[-86.5847,14.9596,1127.2335],[-86.5856,14.939,1007.6108],[-86.597,14.9251,1012.6713],[-86.644,14.9209,1095.3569],[-86.6437,14.8896,1016.645],[-86.6494,14.8669,933.8892],[-86.6542,14.8546,938.7591],[-86.672,14.8495,932.1182],[-86.6923,14.8282,1071.4038],[-86.714,14.8308,1177.8087],[-86.7418,14.84,1498.4872],[-86.7417,14.8305,1578.5884],[-86.7462,14.8261,1552.0438],[-86.7578,14.7747,826.1406],[-86.7625,14.7709,810.3061],[-86.7722,14.7675,990.973],[-86.781,14.7541,756.5652],[-86.7824,14.7484,859.6581],[-86.7865,14.7442,1039.1433],[-86.793,14.7455,975.1556],[-86.7917,14.7428,1069.5441],[-86.7787,14.7351,1070.1748],[-86.7613,14.7361,766.4927],[-86.7603,14.7326,775.0583],[-86.7631,14.7292,797.0166],[-86.7587,14.7307,737.7418],[-86.7565,14.7284,767.2718],[-86.7584,14.727,787.5978],[-86.7577,14.7262,787.5978],[-86.7389,14.7165,807.4531],[-86.7373,14.7139,830.3694],[-86.7354,14.7143,797.9865],[-86.7297,14.711,743.3713],[-86.7182,14.716,689.1084],[-86.7141,14.7209,684.9414],[-86.7006,14.7209,717.4774],[-86.6926,14.7092,662.5189],[-86.6924,14.704,647.9512],[-86.694,14.6995,662.2657],[-86.6913,14.6951,649.5913]]]]}}