{"type": "Feature","bbox": [-87.7693,13.8342,-87.674,13.9279],"geometry": {"type": "MultiPolygon","coordinates": [[[[-87.7453,13.8342,220.2048],[-87.7222,13.8421,432.7535],[-87.6973,13.8431,170.7178],[-87.6915,13.8502,220.2649],[-87.691,13.8586,214.6957],[-87.6837,13.8649,238.8411],[-87.6868,13.8675,227.8164],[-87.685,13.8716,225.9012],[-87.6865,13.8736,341.2347],[-87.6856,13.8791,330.4297],[-87.6841,13.8805,337.8696],[-87.6818,13.8799,254.667],[-87.6796,13.8745,272.153],[-87.6745,13.8747,342.5451],[-87.674,13.8785,389.8732],[-87.6784,13.8808,297.5379],[-87.679,13.8827,276.6638],[-87.6757,13.8885,254.3406],[-87.6765,13.8929,264.5405],[-87.674,13.8957,339.3098],[-87.6849,13.9014,294.8427],[-87.6865,13.9055,318.0195],[-87.6856,13.9069,318.0195],[-87.6821,13.9066,297.0953],[-87.6818,13.9236,375.5984],[-87.6838,13.9271,412.5104],[-87.6916,13.9261,577.1778],[-87.6967,13.9279,403.6678],[-87.7051,13.9213,401.0605],[-87.71,13.9196,399.0637],[-87.7327,13.9217,544.0881],[-87.753,13.9132,648.675],[-87.7574,13.9138,731.9217],[-87.7645,13.9208,939.1641],[-87.7693,13.9179,880.5428],[-87.7665,13.9144,823.4865],[-87.7673,13.908,896.5345],[-87.7649,13.9042,907.0433],[-87.7588,13.9006,760.4338],[-87.7503,13.9014,610.176],[-87.7464,13.9002,608.5126],[-87.7465,13.8938,602.8845],[-87.7564,13.8787,677.5223],[-87.7473,13.8765,516.2968],[-87.743,13.8725,606.4911],[-87.7471,13.8702,550.0446],[-87.748,13.8666,455.0715],[-87.754,13.8614,327.6583],[-87.7503,13.8585,311.226],[-87.7472,13.8525,288.9334],[-87.7453,13.8342,220.2048]]]]}
,"properties": {"GID_2": "HND.12.11_1","GID_0": "HND","country": "Honduras","GID_1": "HND.12_1","province": "LaPaz","NL_NAME_1": "NA","county": "SanAntoniodelNorte","VARNAME_2": "NA","NL_NAME_2": "NA","TYPE_2": "Municipio","ENGTYPE_2": "Municipality","CC_2": "NA","HASC_2": "HN.LP.SN","name": "San_Antoniodel_Norte.county","area_km2": 66.35872,"hist_schema_id": "Elevation0-9000","hist_area_km2": {"175": 0.1441,"200": 0.28819,"225": 0.72044,"250": 1.83192,"275": 5.33101,"300": 6.01019,"325": 5.06333,"350": 4.11655,"375": 4.34302,"400": 3.74613,"425": 4.17833,"450": 4.03424,"475": 4.05482,"500": 3.58136,"525": 3.64304,"550": 2.6757,"575": 2.24346,"600": 2.18177,"625": 1.77011,"650": 1.29675,"675": 1.07029,"700": 0.86446,"725": 0.90559,"750": 0.55572,"775": 0.6586,"800": 0.37045,"825": 0.18522,"850": 0.2058,"875": 0.12348,"900": 0.1029,"925": 0.06174}}}