{"type":"Feature","properties":{"GID_2":"HND.14.1_1","GID_0":"HND","country":"Honduras","GID_1":"HND.14_1","province":"Ocotepeque","NL_NAME_1":"NA","county":"BelénGualcho","VARNAME_2":"NA","NL_NAME_2":"NA","TYPE_2":"Municipio","ENGTYPE_2":"Municipality","CC_2":"NA","HASC_2":"HN.OC.BG","name":"Belén_Gualcho.county"},
"geometry":{"type": "MultiPolygon","coordinates": [[[[-88.8464,14.4864,1650.8428],[-88.8539,14.48,1605.1005],[-88.8427,14.449,1688.1968],[-88.8356,14.4446,1757.6715],[-88.8391,14.4283,1917.4462],[-88.8341,14.4153,2120.8489],[-88.8139,14.4115,2148.75],[-88.8136,14.4145,2100.5566],[-88.79,14.4004,1956.4545],[-88.7491,14.4155,1556.8271],[-88.7468,14.4181,1645.9894],[-88.7427,14.4192,1598.6102],[-88.7364,14.4288,1589.377],[-88.7344,14.4267,1393.5923],[-88.7311,14.4267,1355.3982],[-88.7345,14.437,1312.4893],[-88.7325,14.4398,1248.9095],[-88.7334,14.4414,1275.4459],[-88.7317,14.4443,1393.7661],[-88.7286,14.4442,1505.9709],[-88.727,14.446,1512.7966],[-88.7261,14.4536,1626.0425],[-88.7281,14.4558,1711.4045],[-88.7285,14.46,1655.8396],[-88.7253,14.4659,1725.3313],[-88.723,14.4662,1740.4894],[-88.723,14.4718,1827.8479],[-88.7188,14.4764,1832.9435],[-88.7196,14.479,2030.0273],[-88.7172,14.4889,2145.5913],[-88.7117,14.4979,2262.4595],[-88.7131,14.5084,2177.073],[-88.7125,14.5117,1993.769],[-88.7099,14.513,2031.2349],[-88.7107,14.5182,2161.5767],[-88.7095,14.5209,2208.5962],[-88.7185,14.5298,2283.8931],[-88.7263,14.5315,2184.7791],[-88.737,14.5309,2039.8069],[-88.7477,14.5267,2026.2944],[-88.7589,14.5295,2194.4717],[-88.7723,14.5354,1967.4309],[-88.7943,14.5291,1840.1141],[-88.809,14.5186,1758.3923],[-88.823,14.5228,1503.028],[-88.8286,14.5206,1326.4817],[-88.8296,14.5186,1441.228],[-88.8283,14.5116,1479.8671],[-88.8236,14.505,1512.0764],[-88.8274,14.4975,1621.4634],[-88.8221,14.4893,1724.6056],[-88.8223,14.4869,1753.7083],[-88.8437,14.4813,1748.7969],[-88.8464,14.4864,1650.8428]]]]}}