{"type":"Feature","properties":{"GID_2":"HND.13.28_1","GID_0":"HND","country":"Honduras","GID_1":"HND.13_1","province":"Lempira","NL_NAME_1":"NA","county":"Virginia","VARNAME_2":"NA","NL_NAME_2":"NA","TYPE_2":"Municipio","ENGTYPE_2":"Municipality","CC_2":"NA","HASC_2":"HN.LE.VI","name":"Virginia.county"},
"geometry":{"type": "MultiPolygon","coordinates": [[[[-88.5242,13.9811,81.4901],[-88.5224,13.9876,207.3701],[-88.5242,13.9897,132.3981],[-88.5193,13.9957,329.9651],[-88.5204,13.9977,274.215],[-88.5192,14.0019,212.5147],[-88.5435,14.0125,304.6415],[-88.5904,14.0233,221.5781],[-88.5927,14.0259,310.0428],[-88.612799999999993,14.0074,122.8007],[-88.6075,14.0035,209.2933],[-88.6024,14.0033,179.0862],[-88.5952,14.0077,111.9518],[-88.5891,14.0066,128.5448],[-88.5784,13.9955,123.8517],[-88.5695,13.9809,176.6871],[-88.565,13.9788,89.9137],[-88.5376,13.9831,113.0443],[-88.5273,13.9818,170.1506],[-88.5238,13.9799,128.9221],[-88.5242,13.9811,81.4901]]]]}}