{"type":"Feature","properties":{"GID_2":"HND.9.1_1","GID_0":"HND","country":"Honduras","GID_1":"HND.9_1","province":"GraciasaDios","NL_NAME_1":"NA","county":"Ahuas","VARNAME_2":"NA","NL_NAME_2":"NA","TYPE_2":"Municipio","ENGTYPE_2":"Municipality","CC_2":"NA","HASC_2":"HN.GD.AH","name":"Ahuas.county"},
"geometry":{"type": "MultiPolygon","coordinates": [[[[-84.1904,15.7151,1.9861],[-84.1826,15.7188,0.0],[-84.2326,15.7596,0.0],[-84.2449,15.7679,3.7078],[-84.2487,15.7724,0.0],[-84.2682,15.7857,0.3679],[-84.2923,15.8054,0.0],[-84.292,15.7961,9.6118],[-84.2855,15.7894,0.4184],[-84.2831,15.7814,5.6633],[-84.2888,15.7768,0.0],[-84.298,15.7762,16.4349],[-84.2983,15.7729,9.9298],[-84.2965,15.7697,10.8419],[-84.2907,15.7686,16.0188],[-84.2872,15.7654,18.7401],[-84.2797,15.7625,4.3057],[-84.2791,15.7595,12.0201],[-84.2818,15.7527,5.3598],[-84.3022,15.7435,9.3057],[-84.3007,15.7352,12.3326],[-84.3045,15.7243,9.0276],[-84.3061,15.7134,10.2324],[-84.3111,15.7126,9.094],[-84.3209,15.7162,12.0167],[-84.3201,15.7068,11.8789],[-84.3213,15.7021,10.9657],[-84.3243,15.701,10.5678],[-84.3362,15.7024,4.2277],[-84.3396,15.6924,13.208],[-84.344,15.6925,1.7116],[-84.3485,15.6948,2.0283],[-84.3511,15.6941,5.3843],[-84.3518,15.6902,2.3358],[-84.3453,15.6819,13.8358],[-84.3439,15.6779,13.2862],[-84.3451,15.6764,12.6654],[-84.3483,15.6751,8.8833],[-84.3521,15.6782,8.5773],[-84.3568,15.6714,5.4842],[-84.3629,15.6704,12.8706],[-84.3726,15.6759,4.4963],[-84.3796,15.6692,11.4208],[-84.3815,15.6596,15.6435],[-84.3793,15.6566,3.8642],[-84.3722,15.6555,10.2024],[-84.3623,15.662,10.2606],[-84.3586,15.6624,4.1887],[-84.3558,15.6601,12.7014],[-84.3561,15.6548,12.7778],[-84.3699,15.6556,14.2316],[-84.3783,15.6451,9.295],[-84.3908,15.6404,17.3889],[-84.3955,15.6357,8.2602],[-84.3953,15.6329,14.3263],[-84.3919,15.6294,11.9359],[-84.378,15.6302,9.471],[-84.3693,15.6248,24.4652],[-84.3675,15.6221,20.5856],[-84.3795,15.6204,5.2484],[-84.3852,15.6153,19.4134],[-84.3842,15.6123,9.5613],[-84.3787,15.6103,15.7954],[-84.3799,15.6009,9.8411],[-84.377,15.5969,8.8477],[-84.3634,15.598,21.2554],[-84.365,15.5955,7.6579],[-84.3765,15.5907,2.0],[-84.3788,15.5881,9.2309],[-84.3771,15.5856,10.1802],[-84.3653,15.5824,9.2859],[-84.3663,15.5811,2.5],[-84.3741,15.5808,9.6485],[-84.3757,15.5786,8.8235],[-84.3739,15.5736,10.5848],[-84.3679,15.5691,6.7143],[-84.3663,15.5627,13.6693],[-84.3762,15.5488,10.1038],[-84.3865,15.5421,12.7248],[-84.388,15.5374,14.763],[-84.3868,15.5345,12.6574],[-84.3829,15.5325,8.9659],[-84.3734,15.5433,6.7863],[-84.3574,15.5447,14.0821],[-84.3523,15.5431,9.0229],[-84.3494,15.5361,17.3148],[-84.3501,15.5293,12.3684],[-84.3563,15.5253,13.501],[-84.3571,15.5227,4.5],[-84.3516,15.5186,20.4714],[-84.351,15.5159,18.0761],[-84.3566,15.5151,11.523],[-84.3629,15.511,13.1618],[-84.3625,15.5076,12.3509],[-84.3574,15.5025,11.0768],[-84.3579,15.4929,20.2518],[-84.3613,15.4909,13.4804],[-84.367,15.5048,10.0465],[-84.3704,15.507,11.518],[-84.3742,15.5023,8.8756],[-84.3808,15.4994,12.6489],[-84.3812,15.4953,17.0431],[-84.3837,15.4922,15.1051],[-84.3958,15.4912,11.8236],[-84.4001,15.4889,11.9838],[-84.4016,15.4857,15.032],[-84.4008,15.4835,14.2798],[-84.389,15.4839,15.3103],[-84.3882,15.4818,14.2713],[-84.4008,15.4693,15.7562],[-84.4125,15.4743,23.2753],[-84.4211,15.4758,25.3602],[-84.4358,15.4711,28.0228],[-84.4401,15.4713,30.6869],[-84.4441,15.4673,9.5],[-84.4428,15.4574,30.7941],[-84.4465,15.4518,11.7462],[-84.4474,15.4467,18.9118],[-84.4427,15.4421,16.443],[-84.4346,15.4404,15.4531],[-84.4342,15.4381,15.615],[-84.4476,15.4412,17.6331],[-84.4528,15.4381,19.2281],[-84.4559,15.4332,17.1186],[-84.459,15.4322,17.3475],[-84.4591,15.4398,22.7331],[-84.4627,15.4457,13.0119],[-84.4805,15.4466,28.3792],[-84.4887,15.4375,13.5],[-84.488,15.4331,25.7323],[-84.4802,15.4296,23.2321],[-84.4714,15.4317,26.9394],[-84.4668,15.4285,18.9095],[-84.467,15.423,19.3425],[-84.4753,15.4132,18.7568],[-84.4774,15.4135,19.2032],[-84.479,15.4238,24.1615],[-84.4847,15.4295,17.2679],[-84.4951,15.4322,22.5299],[-84.4992,15.4267,29.4921],[-84.4971,15.4222,28.9022],[-84.4883,15.4194,22.8109],[-84.4865,15.4173,20.5957],[-84.4829,15.4046,19.3932],[-84.4855,15.4021,23.4616],[-84.49,15.4024,24.0693],[-84.4707,15.3686,21.3447],[-84.4238,15.2671,31.9159],[-84.415,15.237,34.4907],[-84.4146,15.2221,34.1673],[-84.4111,15.2113,34.0172],[-84.4108,15.1955,35.0909],[-84.407,15.187,30.9283],[-84.4076,15.1739,46.8161],[-84.4023,15.1704,45.8733],[-84.3974,15.1695,58.6663],[-84.388,15.1724,58.1925],[-84.3825,15.1724,59.2783],[-84.3708,15.1759,57.1747],[-84.3636,15.18,52.4296],[-84.3499,15.182,41.8786],[-84.3405,15.1902,41.8647],[-84.3336,15.2028,42.0383],[-84.3304,15.2034,37.237],[-84.3228,15.1993,43.3431],[-84.317,15.2005,43.0113],[-84.3053,15.2084,25.3414],[-84.2978,15.2177,38.6407],[-84.2852,15.2256,27.6809],[-84.2722,15.2277,32.7579],[-84.2638,15.2312,16.7873],[-84.2602,15.2338,18.5824],[-84.2532,15.2458,16.8943],[-84.2461,15.2493,16.0999],[-84.2426,15.2537,17.1091],[-84.2364,15.2548,16.6864],[-84.2355,15.2586,16.228],[-84.2399,15.2642,15.7437],[-84.2393,15.2712,23.7036],[-84.2274,15.2867,28.8923],[-84.2221,15.2876,21.3229],[-84.2203,15.2978,26.9788],[-84.2149,15.3025,26.6362],[-84.2073,15.3133,23.9408],[-84.2073,15.3314,20.7989],[-84.2029,15.3355,13.8996],[-84.2032,15.3493,11.3669],[-84.1971,15.3572,4.737],[-84.188,15.3651,8.8686],[-84.1872,15.368,10.2429],[-84.188,15.3811,10.6842],[-84.1921,15.389,15.3483],[-84.1886,15.3963,10.012],[-84.188,15.4101,2.9504],[-84.1924,15.4227,1.2941],[-84.1959,15.444,14.7402],[-84.1935,15.4486,14.0742],[-84.1936,15.4441,15.3704],[-84.1925,15.4463,15.2995],[-84.1918,15.4573,16.8833],[-84.1934,15.4688,9.5012],[-84.191,15.4733,6.1833],[-84.1909,15.4823,0.5591],[-84.1888,15.4825,0.0],[-84.1916,15.487,0.0],[-84.1901,15.4886,2.5665],[-84.1873,15.5209,0.0],[-84.1898,15.5174,0.0],[-84.1898,15.5206,0.0],[-84.1895,15.5241,1.1687],[-84.1848,15.5317,0.0],[-84.1856,15.5717,3.0125],[-84.1815,15.5796,1.8425],[-84.1809,15.6045,2.1227],[-84.1838,15.6127,2.5065],[-84.1853,15.6235,2.4073],[-84.1847,15.6326,2.0172],[-84.1929,15.6483,3.012],[-84.1935,15.6904,1.7031],[-84.1929,15.7048,2.3632],[-84.1891,15.71,1.6917],[-84.1887,15.7134,1.9295],[-84.1904,15.7151,1.9861]]],
[[[-82.9185,15.7313,0.0],[-82.9199,15.731,0.0],[-82.9193,15.7271,0.0],[-82.9168,15.7285,0.0],[-82.9185,15.7313,0.0]]]]}}