{"type":"Feature","properties":{"GID_2":"HND.9.6_1","GID_0":"HND","country":"Honduras","GID_1":"HND.9_1","province":"GraciasaDios","NL_NAME_1":"NA","county":"Wampusirpi","VARNAME_2":"NA","NL_NAME_2":"NA","TYPE_2":"Municipio","ENGTYPE_2":"Municipality","CC_2":"NA","HASC_2":"HN.GD.WA","name":"Wampusirpi.county"},
"geometry":{"type": "MultiPolygon","coordinates": [[[[-84.9239,14.7521,107.7818],[-84.9254,14.7531,111.5427],[-84.9299,14.7516,109.4719],[-84.9239,14.7521,107.7818]]],
[[[-84.488,15.3987,21.5526],[-84.49,15.4024,24.0693],[-84.4966,15.4078,17.1374],[-84.5046,15.4088,21.5819],[-84.5117,15.4128,23.1048],[-84.5154,15.4117,19.3432],[-84.519,15.4033,20.4255],[-84.5161,15.4002,22.1201],[-84.5158,15.407,23.4904],[-84.5119,15.4051,24.4512],[-84.5125,15.3936,21.5221],[-84.5041,15.3859,25.8096],[-84.5061,15.3806,21.941],[-84.5049,15.3694,25.9394],[-84.5062,15.3679,24.8574],[-84.5141,15.3675,37.46],[-84.5201,15.3641,23.498],[-84.5286,15.3684,24.4547],[-84.5403,15.3651,39.4383],[-84.544,15.3657,29.7286],[-84.5504,15.3698,21.4069],[-84.5565,15.3683,19.5673],[-84.5576,15.3653,25.0687],[-84.5568,15.3617,26.2225],[-84.5469,15.3589,21.9642],[-84.5438,15.3544,32.3254],[-84.5447,15.3522,34.7358],[-84.5464,15.352,27.0293],[-84.5519,15.3579,30.9606],[-84.5573,15.3595,27.1003],[-84.56,15.355,19.5],[-84.5581,15.3473,26.8295],[-84.5645,15.3396,23.624],[-84.5737,15.3349,21.5],[-84.5726,15.3291,30.8276],[-84.5671,15.3259,29.6918],[-84.5733,15.3178,38.8579],[-84.5688,15.313,35.1226],[-84.5626,15.3117,38.1021],[-84.5631,15.305,37.0918],[-84.5672,15.2998,50.0739],[-84.5693,15.2993,45.3421],[-84.5854,15.303,39.5],[-84.591,15.3019,35.5918],[-84.5941,15.2911,33.4059],[-84.6019,15.2858,34.9682],[-84.6136,15.272,34.1489],[-84.6163,15.2601,26.0],[-84.6128,15.2531,32.2273],[-84.6166,15.2494,33.455],[-84.6162,15.2448,38.2778],[-84.6101,15.2432,30.4649],[-84.6027,15.2466,34.3766],[-84.6005,15.243,37.0519],[-84.6087,15.2333,35.1816],[-84.6063,15.2239,38.3132],[-84.6064,15.2141,45.57],[-84.6082,15.2121,43.5667],[-84.611,15.2129,34.551],[-84.6115,15.2199,39.103],[-84.616,15.2236,48.352],[-84.6193,15.2249,36.7306],[-84.6233,15.2232,38.8216],[-84.6272,15.2166,36.222],[-84.6238,15.2024,52.9273],[-84.6242,15.197,48.7599],[-84.6347,15.197,38.5347],[-84.6419,15.1923,39.2724],[-84.6433,15.188,38.9781],[-84.6419,15.1854,32.0],[-84.6348,15.186,40.0531],[-84.6323,15.1842,38.3881],[-84.6368,15.1751,36.5569],[-84.6357,15.1704,39.4057],[-84.6295,15.1695,40.1316],[-84.6232,15.1715,33.0],[-84.6202,15.1708,43.1246],[-84.6199,15.1663,47.7017],[-84.6247,15.1523,33.8576],[-84.6215,15.1447,56.6687],[-84.6215,15.1403,54.9733],[-84.6247,15.1344,52.0811],[-84.6342,15.1298,52.6082],[-84.6453,15.1343,44.143],[-84.6512,15.1323,48.5418],[-84.6539,15.1279,45.2854],[-84.6565,15.117,47.7172],[-84.6517,15.1116,57.3206],[-84.6514,15.1088,56.4547],[-84.6545,15.1081,68.9181],[-84.6616,15.112,54.1066],[-84.6765,15.1134,62.5656],[-84.6822,15.1259,51.2603],[-84.6873,15.1262,38.0],[-84.7049,15.109,69.1375],[-84.7167,15.1017,58.1497],[-84.7317,15.088,51.7612],[-84.7442,15.08,57.5743],[-84.7543,15.0769,54.2503],[-84.7617,15.0718,80.7493],[-84.7918,15.0704,61.265],[-84.8109,15.0722,71.2769],[-84.8138,15.0608,63.3894],[-84.8276,15.0541,44.0],[-84.8289,15.0514,59.1866],[-84.8278,15.0412,66.5159],[-84.8387,15.0382,181.638],[-84.8393,15.0313,271.2029],[-84.8408,15.03,346.838],[-84.8577,15.0358,66.5156],[-84.8673,15.0351,91.1546],[-84.8829,15.0245,67.3441],[-84.8826,15.021,77.2801],[-84.879,15.0154,251.8547],[-84.8801,15.0114,449.6158],[-84.8899,15.0131,92.5158],[-84.8997,15.0126,80.9043],[-84.9033,15.0109,78.6316],[-84.9057,14.9916,324.9849],[-84.9075,14.9885,444.2054],[-84.9266,14.9616,358.3848],[-84.9453,14.9454,251.1084],[-84.9485,14.9466,178.1522],[-84.9512,14.9556,78.9905],[-84.9749,14.9556,127.5998],[-84.9786,14.9574,77.5537],[-84.9848,14.9653,60.4098],[-84.9855,14.969,76.5898],[-84.98,14.9763,92.796],[-84.9811,14.9839,109.2608],[-84.9771,14.9887,98.074],[-84.9757,14.9943,105.8393],[-84.9824,15.0011,89.999],[-84.9788,15.006,93.1533],[-84.9795,15.0138,81.3219],[-84.9833,15.0162,85.5136],[-84.9847,15.0206,93.5828],[-84.9883,15.0153,121.3597],[-84.9913,15.0153,134.0445],[-84.9917,15.0209,203.9384],[-84.9948,15.0214,181.1606],[-84.9928,15.0191,197.3846],[-84.993,15.0126,144.6955],[-84.9885,15.0132,114.5973],[-84.9855,15.0185,87.3279],[-84.9822,15.0131,68.811],[-84.9829,15.0103,92.8259],[-84.9809,15.0079,91.1757],[-84.9811,15.0051,77.6478],[-84.9864,15.0021,102.959],[-84.9787,14.9958,91.735],[-84.9782,14.9935,96.5341],[-84.979,14.9898,97.2988],[-84.9841,14.9847,78.0644],[-84.9822,14.977,91.4323],[-84.9863,14.9711,78.1033],[-84.9865,14.9665,84.1634],[-84.976,14.9531,256.5589],[-84.9872,14.9536,175.637],[-84.996,14.9606,60.4434],[-84.997,14.9059,156.9389],[-84.9959,14.7247,116.1136],[-84.9879,14.7346,92.778],[-84.9772,14.7372,116.1638],[-84.9615,14.7513,103.7087],[-84.9399,14.7543,102.6992],[-84.9289,14.7579,92.9429],[-84.9271,14.7605,94.4684],[-84.9279,14.7679,92.5921],[-84.9264,14.7719,102.8125],[-84.9165,14.7858,139.7852],[-84.9122,14.7972,101.0027],[-84.9034,14.8077,104.1437],[-84.899,14.8094,108.0344],[-84.8874,14.8082,109.4795],[-84.8807,14.8102,109.2006],[-84.8682,14.8071,150.1866],[-84.8601,14.807,115.1861],[-84.8385,14.8197,129.7507],[-84.8197,14.8233,90.9903],[-84.8102,14.8177,84.9445],[-84.803,14.8176,93.0986],[-84.7984,14.8108,92.0324],[-84.7929,14.8095,83.5626],[-84.7921,14.8058,75.9096],[-84.7829,14.8154,96.5325],[-84.7762,14.8161,109.9334],[-84.7603,14.8329,128.5813],[-84.7473,14.8381,157.7979],[-84.7398,14.8433,136.1671],[-84.7331,14.8516,147.5708],[-84.7214,14.8728,222.3675],[-84.7001,14.9008,151.143],[-84.7003,14.912,145.2033],[-84.6831,14.9221,119.5198],[-84.6775,14.9273,116.8793],[-84.6699,14.9396,124.4303],[-84.6706,14.947,116.1324],[-84.6691,14.9504,127.1406],[-84.6591,14.9538,126.2092],[-84.6468,14.9623,145.1314],[-84.6123,14.975,167.5679],[-84.5999,14.9829,189.522],[-84.5889,14.9873,139.0306],[-84.5591,14.9896,135.641],[-84.5531,14.9918,135.0983],[-84.5403,15.0004,121.4258],[-84.5321,15.0008,115.1863],[-84.513,14.9974,99.6088],[-84.5074,14.9944,95.6476],[-84.5004,14.9944,104.2963],[-84.4938,14.9978,100.9677],[-84.4852,14.9993,88.4509],[-84.4774,15.003,87.2583],[-84.4651,15.0146,86.2787],[-84.4617,15.0205,82.1795],[-84.4606,15.0295,79.8318],[-84.452,15.0403,77.6191],[-84.4519,15.0451,77.2259],[-84.4246,15.0463,103.784],[-84.4205,15.0481,88.5643],[-84.4093,15.0586,66.2046],[-84.4075,15.0668,68.1843],[-84.409,15.0735,62.4848],[-84.4131,15.0746,61.901],[-84.4183,15.0858,61.9278],[-84.4265,15.0966,61.2979],[-84.431,15.0974,71.8995],[-84.434,15.1018,70.246],[-84.4351,15.1093,60.8392],[-84.434,15.113,56.7155],[-84.4168,15.1365,65.3392],[-84.4078,15.1406,55.3541],[-84.403,15.1459,51.4029],[-84.4015,15.1533,29.9262],[-84.4015,15.1578,46.8924],[-84.4037,15.1615,41.5448],[-84.4031,15.1709,45.2623],[-84.4076,15.1739,46.8161],[-84.407,15.187,30.9283],[-84.4108,15.1955,35.0909],[-84.4111,15.2113,34.0172],[-84.4146,15.2221,34.1673],[-84.415,15.237,34.4907],[-84.4238,15.2671,31.9159],[-84.4707,15.3686,21.3447],[-84.488,15.3987,21.5526]],
[[-84.6053,15.2086,45.3655],[-84.6083,15.2054,47.3283],[-84.6115,15.2047,47.9273],[-84.6226,15.2071,32.7438],[-84.6249,15.2187,36.3084],[-84.618,15.2238,36.7306],[-84.6134,15.219,39.106],[-84.6135,15.2133,37.2995],[-84.6105,15.2115,42.9984],[-84.6067,15.212,49.3609],[-84.6042,15.2163,50.7517],[-84.6047,15.226,37.0132],[-84.6026,15.228,32.8303],[-84.5981,15.2227,53.0698],[-84.5976,15.2186,44.6764],[-84.6053,15.2086,45.3655]]]]}}