{"type": "Feature","bbox": [-87.5143,13.0929,-87.2574,13.41],"geometry": {"type": "MultiPolygon","coordinates": [[[[-87.4296,13.1032,2.3558],[-87.4282,13.1057,0.0],[-87.4287,13.1071,0.0],[-87.4301,13.1051,4.1442],[-87.4296,13.1032,2.3558]]],
[[[-87.4526,13.2974,0.0],[-87.4529,13.2985,0.0],[-87.4551,13.2979,1.6366],[-87.4568,13.2946,0.0],[-87.456,13.294,0.0],[-87.4526,13.2974,0.0]]],
[[[-87.4649,13.3415,2.4778],[-87.4685,13.3413,0.0],[-87.4657,13.3321,0.0],[-87.4674,13.3213,4.5816],[-87.4718,13.3154,0.0],[-87.4707,13.3135,0.0],[-87.4765,13.3118,0.0],[-87.4718,13.2993,0.0],[-87.4693,13.2876,7.0865],[-87.4699,13.2818,0.0],[-87.4682,13.279,4.3909],[-87.4624,13.2779,1.0846],[-87.4593,13.2826,0.0],[-87.4585,13.2988,0.0],[-87.4568,13.301,0.0],[-87.4549,13.2999,0.0],[-87.4549,13.3026,0.0],[-87.4501,13.3085,0.0],[-87.4507,13.3121,2.3126],[-87.446,13.3135,0.0],[-87.4451,13.3168,1.3155],[-87.4457,13.3243,2.1297],[-87.4488,13.3282,1.2123],[-87.4488,13.3335,1.1337],[-87.4551,13.3343,0.0],[-87.4593,13.3399,1.027],[-87.4649,13.3415,2.4778]]],
[[[-87.4276,13.1332,0.0],[-87.4293,13.1329,1.4297],[-87.4285,13.1274,0.0],[-87.4274,13.129,0.0],[-87.4276,13.1332,0.0]]],
[[[-87.3325,13.1039,5.1844],[-87.3299,13.1096,1.5],[-87.329,13.1093,5.3761],[-87.3304,13.1062,1.3669],[-87.3211,13.1097,3.1994],[-87.3169,13.114,6.4459],[-87.3097,13.1133,1.7807],[-87.3091,13.1166,4.9576],[-87.3138,13.1222,10.0501],[-87.3161,13.1294,8.9474],[-87.3212,13.1305,3.1436],[-87.3273,13.1267,2.0],[-87.3291,13.135,5.0398],[-87.3271,13.1392,3.8121],[-87.3196,13.1421,2.498],[-87.3176,13.1444,2.4689],[-87.3186,13.1472,3.9845],[-87.3244,13.1475,2.6725],[-87.327,13.1507,4.5826],[-87.3254,13.1529,4.9207],[-87.3178,13.1515,4.7261],[-87.3155,13.1532,4.7505],[-87.3149,13.1574,4.3405],[-87.3163,13.1593,3.4105],[-87.3197,13.1577,5.1642],[-87.3266,13.1594,5.4647],[-87.3262,13.1625,4.2122],[-87.3202,13.1661,3.6164],[-87.3204,13.1672,4.1115],[-87.3239,13.1739,5.1388],[-87.3259,13.1743,4.8944],[-87.3285,13.1786,6.7634],[-87.3324,13.1792,6.3756],[-87.3312,13.1835,6.2414],[-87.3323,13.1904,6.2589],[-87.3343,13.1942,10.0739],[-87.3392,13.1955,9.6671],[-87.3395,13.1973,7.4189],[-87.3348,13.2004,5.7861],[-87.3317,13.2056,10.6404],[-87.3272,13.2075,10.529],[-87.3223,13.2143,8.3697],[-87.3063,13.2167,11.7239],[-87.2996,13.2304,12.2043],[-87.2995,13.2402,10.5709],[-87.2884,13.2419,13.0579],[-87.2856,13.2438,12.7568],[-87.2859,13.2486,14.5824],[-87.2943,13.2523,9.9521],[-87.2952,13.2565,13.7281],[-87.2929,13.2593,15.2449],[-87.2731,13.2667,20.9446],[-87.2707,13.2688,22.7724],[-87.2706,13.2714,24.8501],[-87.2749,13.277,25.5181],[-87.2803,13.2919,34.8386],[-87.2689,13.299,28.2275],[-87.2661,13.3102,27.6839],[-87.2593,13.3132,29.5098],[-87.2574,13.3263,27.8799],[-87.2581,13.3306,30.8185],[-87.2614,13.3345,39.0089],[-87.2749,13.3389,264.1558],[-87.28,13.3427,119.7075],[-87.2872,13.3604,83.2943],[-87.2957,13.359,47.9207],[-87.3054,13.3617,62.5591],[-87.3098,13.3599,20.4524],[-87.3123,13.3615,21.2886],[-87.3119,13.3596,20.861],[-87.317,13.3588,19.8983],[-87.3196,13.3633,19.6772],[-87.3234,13.3637,17.8368],[-87.3249,13.366,18.1756],[-87.3302,13.3656,21.8793],[-87.3299,13.3671,13.599],[-87.3356,13.3746,13.1811],[-87.3449,13.3748,125.2228],[-87.3447,13.3776,18.0718],[-87.3466,13.3774,14.4264],[-87.3511,13.382,6.8482],[-87.354,13.3797,7.3783],[-87.357,13.3811,9.4987],[-87.3586,13.3839,6.5503],[-87.3616,13.3834,33.2756],[-87.3659,13.3857,7.6408],[-87.3676,13.3882,1.623],[-87.3697,13.3869,3.0432],[-87.3694,13.389,1.5],[-87.3664,13.3908,6.971],[-87.3715,13.3902,1.9769],[-87.3718,13.3953,5.0632],[-87.362,13.3988,4.4767],[-87.3604,13.4014,5.8738],[-87.3554,13.4032,7.5488],[-87.3516,13.41,9.3114],[-87.3565,13.4031,6.9582],[-87.3608,13.4028,4.3978],[-87.3621,13.3995,4.4767],[-87.3661,13.399,1.2076],[-87.3679,13.3974,1.2466],[-87.3719,13.3969,3.5869],[-87.3782,13.3993,2.0885],[-87.3802,13.3977,1.0297],[-87.3811,13.4039,1.1383],[-87.3821,13.4014,1.8313],[-87.3813,13.3974,2.0513],[-87.3824,13.3968,0.0],[-87.3811,13.3953,0.9708],[-87.3826,13.3936,4.4213],[-87.3802,13.3903,1.2136],[-87.3868,13.3846,0.0],[-87.3846,13.3757,0.0],[-87.391,13.3668,1.9618],[-87.4101,13.3693,0.0],[-87.4157,13.364,2.3085],[-87.4185,13.3574,0.0],[-87.4243,13.354,0.0],[-87.4246,13.3521,0.0],[-87.4257,13.3532,0.0],[-87.4274,13.3518,1.309],[-87.431,13.3524,0.4737],[-87.4315,13.354,0.0],[-87.439,13.3576,0.0],[-87.4401,13.3557,2.1727],[-87.4413,13.3571,0.0],[-87.4468,13.3557,0.0],[-87.4574,13.356,0.0],[-87.4574,13.3424,0.0],[-87.4535,13.3365,0.0],[-87.4485,13.3407,3.309],[-87.4429,13.3415,0.0],[-87.4335,13.3343,2.1348],[-87.4282,13.341,1.6763],[-87.4232,13.3418,0.7252],[-87.4179,13.3368,0.0],[-87.4121,13.3399,0.9196],[-87.4088,13.3393,0.0],[-87.4076,13.3315,2.449],[-87.4104,13.339,0.0],[-87.4182,13.3354,4.1322],[-87.4257,13.3413,0.0],[-87.4324,13.3332,3.2937],[-87.436,13.3335,4.278],[-87.4424,13.3399,0.0],[-87.4474,13.3388,0.0],[-87.4485,13.3358,2.3315],[-87.4476,13.3285,1.2123],[-87.4446,13.3246,1.8401],[-87.4446,13.3204,0.0],[-87.4363,13.3213,0.0],[-87.4332,13.319,0.0],[-87.431,13.3207,1.0767],[-87.4304,13.3235,0.0],[-87.4293,13.3232,0.0],[-87.431,13.319,0.0],[-87.4343,13.3182,2.3504],[-87.4385,13.3204,2.7927],[-87.4432,13.3193,0.0],[-87.4429,13.3179,0.0],[-87.4404,13.3168,0.0],[-87.4362,13.3176,0.6335],[-87.4299,13.3112,0.0],[-87.4246,13.3151,0.0],[-87.4243,13.3185,0.0],[-87.4221,13.3154,1.4646],[-87.4254,13.3101,0.0],[-87.4276,13.3093,0.0],[-87.4318,13.3096,0.0],[-87.4374,13.316,0.0],[-87.4399,13.3146,0.0],[-87.4474,13.3037,0.0],[-87.4482,13.3001,0.0],[-87.4463,13.3004,1.5856],[-87.4482,13.2963,0.0],[-87.4543,13.291,0.0],[-87.4546,13.2857,1.1873],[-87.4579,13.2785,2.9886],[-87.4646,13.2749,2.3163],[-87.4713,13.2771,0.0],[-87.4754,13.2851,0.0],[-87.4754,13.2918,0.0],[-87.4782,13.2982,1.2344],[-87.4818,13.3046,0.0],[-87.4849,13.3051,0.0],[-87.4832,13.3035,0.5628],[-87.4843,13.3007,1.3006],[-87.4849,13.3032,0.9417],[-87.4879,13.3029,0.0],[-87.4918,13.2982,2.0298],[-87.4999,13.2999,1.7472],[-87.5038,13.2963,3.4532],[-87.5113,13.2863,1.2461],[-87.5143,13.2712,0.0],[-87.5135,13.2682,0.0],[-87.5051,13.2707,0.0],[-87.4976,13.269,5.8468],[-87.4896,13.2638,0.0],[-87.484,13.2643,3.4104],[-87.4857,13.2629,2.8617],[-87.4851,13.2615,1.2539],[-87.4804,13.2593,1.7678],[-87.4796,13.2563,0.0],[-87.4751,13.2554,2.5739],[-87.4551,13.231,0.0],[-87.4529,13.2324,0.0],[-87.4532,13.2349,5.3056],[-87.4543,13.2371,0.0],[-87.4585,13.2385,2.8499],[-87.4593,13.2413,2.1824],[-87.4568,13.244,6.2491],[-87.4557,13.244,6.2491],[-87.456,13.2399,0.0],[-87.4518,13.2338,5.2827],[-87.4413,13.2351,1.737],[-87.4424,13.2332,4.7715],[-87.4401,13.2288,2.7537],[-87.4454,13.2304,8.1473],[-87.4496,13.2296,0.0],[-87.4535,13.2254,5.0937],[-87.4563,13.2251,1.8505],[-87.4579,13.2188,2.1007],[-87.4496,13.2093,0.9485],[-87.4468,13.2001,0.0],[-87.4407,13.1904,4.7147],[-87.4301,13.1596,3.6474],[-87.429,13.1496,0.0],[-87.4301,13.1457,0.0],[-87.4265,13.146,2.0154],[-87.4249,13.1479,0.7402],[-87.4221,13.1474,1.7352],[-87.4287,13.1432,0.0],[-87.4268,13.1404,0.0],[-87.4274,13.1363,0.0],[-87.4257,13.1324,7.6483],[-87.426,13.1218,9.8349],[-87.4279,13.1224,0.0],[-87.4285,13.1196,0.0],[-87.4271,13.1088,1.9647],[-87.4243,13.1104,0.0],[-87.4243,13.1143,0.0],[-87.416,13.1129,0.0],[-87.4135,13.1146,0.0],[-87.4118,13.1129,0.0],[-87.4076,13.1168,2.3224],[-87.4071,13.116,2.3224],[-87.4085,13.1124,0.0],[-87.4074,13.1115,0.0],[-87.4004,13.1132,0.0],[-87.4032,13.1107,0.0],[-87.4021,13.1096,0.0],[-87.399,13.1096,0.0],[-87.391,13.1135,0.0],[-87.3921,13.1199,1.3022],[-87.3846,13.1237,2.4035],[-87.3876,13.129,2.904],[-87.3832,13.134,4.2491],[-87.3868,13.1293,6.027],[-87.384,13.126,1.8238],[-87.384,13.1235,2.4035],[-87.391,13.1201,15.9791],[-87.3915,13.1179,1.6167],[-87.3818,13.1071,0.0],[-87.3718,13.104,0.0],[-87.3685,13.0999,0.0],[-87.3624,13.1015,8.2804],[-87.3571,13.0999,1.5517],[-87.3549,13.1024,3.557],[-87.3568,13.0993,1.5517],[-87.3549,13.0929,0.0],[-87.3454,13.0938,6.1545],[-87.3351,13.0976,1.3872],[-87.3325,13.1039,5.1844]]]]}
,"properties": {"GID_2": "HND.2.7_1","GID_0": "HND","country": "Honduras","GID_1": "HND.2_1","province": "Choluteca","NL_NAME_1": "NA","county": "Marcovia","VARNAME_2": "NA","NL_NAME_2": "NA","TYPE_2": "Municipio","ENGTYPE_2": "Municipality","CC_2": "NA","HASC_2": "HN.CH.MA","name": "Marcovia.county","area_km2": 496.473,"hist_schema_id": "Elevation0-9000","hist_area_km2": {"0": 332.7299,"25": 116.0857,"50": 13.5958,"75": 8.3143,"100": 6.8701,"125": 5.0133,"150": 3.8374,"175": 3.1359,"200": 2.5376,"225": 1.8774,"250": 1.2791,"275": 0.557,"300": 0.3301,"325": 0.2063,"350": 0.0825,"375": 0.0206}}}