{"type": "Feature","bbox": [-86.6461,14.9078,-86.4518,15.212],"geometry": {"type": "MultiPolygon","coordinates": [[[[-86.6452,15.1317,1472.8243],[-86.6461,15.1113,1861.3132],[-86.6448,15.1093,1831.4077],[-86.6338,15.1064,1698.8435],[-86.6297,15.1035,1526.6936],[-86.6261,15.0956,1319.698],[-86.6266,15.0833,1266.2526],[-86.6135,15.0793,1090.4885],[-86.6106,15.0756,1242.6035],[-86.6085,15.0671,1154.144],[-86.605,15.0632,1135.4312],[-86.605,15.0432,976.1937],[-86.5983,15.0176,878.6742],[-86.6001,15.0049,886.1063],[-86.5884,15.0028,922.7748],[-86.5838,14.9924,990.4926],[-86.5847,14.9596,1127.2335],[-86.5819,14.9571,1161.7859],[-86.5729,14.954,1191.7534],[-86.5709,14.9507,1069.1519],[-86.5696,14.9397,932.0137],[-86.5608,14.9348,1158.8251],[-86.5562,14.9239,918.676],[-86.5527,14.9228,1016.1522],[-86.5502,14.9172,960.1142],[-86.5386,14.9078,861.2767],[-86.5381,14.9135,850.5821],[-86.5408,14.9258,817.0984],[-86.5345,14.9425,846.6328],[-86.5415,14.9492,846.0599],[-86.5419,14.9612,963.1915],[-86.5204,14.9574,1046.4709],[-86.5212,14.9428,919.4728],[-86.5189,14.9404,813.1006],[-86.503,14.9657,978.6937],[-86.4996,14.9676,895.0748],[-86.4969,14.9846,937.3762],[-86.4745,14.9827,938.0537],[-86.4689,14.9877,1034.7524],[-86.4518,14.9963,1139.0574],[-86.4738,15.0237,970.0968],[-86.4702,15.0359,846.0292],[-86.4631,15.0435,829.8256],[-86.462,15.0639,885.8876],[-86.4625,15.0679,743.9518],[-86.4641,15.0689,728.7968],[-86.471,15.0693,745.1655],[-86.4757,15.0732,875.9848],[-86.4818,15.075,771.5677],[-86.4744,15.1019,958.2129],[-86.4837,15.1115,802.9178],[-86.4883,15.1189,717.3821],[-86.5157,15.141,927.9061],[-86.5161,15.1447,962.7623],[-86.5142,15.1479,1023.6257],[-86.5077,15.1525,1088.0322],[-86.5051,15.163,1268.3342],[-86.4983,15.1704,1019.0927],[-86.4904,15.1882,778.29],[-86.4741,15.2013,735.5908],[-86.4592,15.2053,689.7748],[-86.4544,15.21,697.0568],[-86.4664,15.212,568.6576],[-86.4729,15.2099,643.0519],[-86.4779,15.2106,708.6754],[-86.4941,15.2032,719.6332],[-86.5043,15.1966,757.843],[-86.5143,15.1949,758.6792],[-86.5179,15.1972,950.5862],[-86.5244,15.1934,1108.7681],[-86.5329,15.1914,1076.058],[-86.5413,15.1788,1160.4446],[-86.5468,15.176,1238.3136],[-86.5506,15.1691,1246.1262],[-86.6052,15.1506,1225.5255],[-86.6343,15.1275,1840.5374],[-86.6452,15.1317,1472.8243]]]]}
,"properties": {"GID_2": "HND.15.11_1","GID_0": "HND","country": "Honduras","GID_1": "HND.15_1","province": "Olancho","NL_NAME_1": "NA","county": "Jano","VARNAME_2": "NA","NL_NAME_2": "NA","TYPE_2": "Municipio","ENGTYPE_2": "Municipality","CC_2": "NA","HASC_2": "HN.OL.JA","name": "Jano.county","area_km2": 346.6967,"hist_schema_id": "Elevation0-9000","hist_area_km2": {"550": 0.0409,"575": 0.0818,"600": 0.1841,"625": 0.2251,"650": 0.3683,"675": 0.9002,"700": 1.2072,"725": 1.7191,"750": 3.8074,"775": 6.6125,"800": 9.7655,"825": 12.3659,"850": 15.5601,"875": 17.6286,"900": 18.4272,"925": 20.0246,"950": 22.4204,"975": 23.895,"1000": 23.1781,"1025": 23.1165,"1050": 22.4406,"1075": 18.6728,"1100": 16.789,"1125": 14.6387,"1150": 12.4885,"1175": 9.2535,"1200": 7.2059,"1225": 5.1996,"1250": 3.5002,"1275": 2.7634,"1300": 1.8627,"1325": 1.31,"1350": 1.4532,"1375": 1.1871,"1400": 1.2076,"1425": 1.1257,"1450": 1.1257,"1475": 1.4122,"1500": 1.0643,"1525": 1.2894,"1550": 1.2894,"1575": 1.0848,"1600": 1.3099,"1625": 1.269,"1650": 1.1871,"1675": 1.2281,"1700": 1.3918,"1725": 1.2485,"1750": 1.2281,"1775": 1.0848,"1800": 1.3918,"1825": 1.0439,"1850": 0.9415,"1875": 0.7573,"1900": 0.9825,"1925": 0.4708,"1950": 0.307,"1975": 0.5322,"2000": 0.307,"2025": 0.0614,"2050": 0.0205,"2075": 0.0409}}}