{"type": "Feature","bbox": [-88.7614,14.0794,-88.6562,14.1906],"geometry": {"type": "MultiPolygon","coordinates": [[[[-88.7427,14.0794,647.4055],[-88.7256,14.0914,761.3362],[-88.7038,14.1013,480.7264],[-88.7007,14.1012,457.5503],[-88.6956,14.1064,585.5446],[-88.6845,14.1046,321.3375],[-88.6846,14.1069,280.3704],[-88.6885,14.1091,329.5453],[-88.6881,14.1128,313.6677],[-88.6567,14.127,366.0022],[-88.6562,14.1308,270.0044],[-88.6592,14.1342,239.4193],[-88.6618,14.1423,292.4645],[-88.6669,14.1487,289.4951],[-88.6672,14.152,341.4844],[-88.6631,14.1547,265.8506],[-88.6671,14.1552,245.2783],[-88.6706,14.1603,256.1105],[-88.6768,14.1635,365.595],[-88.6748,14.1676,304.5178],[-88.6749,14.1764,312.2643],[-88.6793,14.1763,301.556],[-88.6897,14.1843,490.9406],[-88.7076,14.1906,665.136],[-88.7127,14.1774,918.9171],[-88.7151,14.1753,1032.3401],[-88.7151,14.1725,1013.2955],[-88.736,14.173,926.8885],[-88.7416,14.1717,1133.8352],[-88.7437,14.1336,824.528],[-88.7458,14.1333,886.6086],[-88.7525,14.1388,1078.1349],[-88.7508,14.1046,504.9468],[-88.7528,14.1011,505.8679],[-88.756,14.0993,485.5786],[-88.7614,14.0849,554.7635],[-88.7517,14.0849,542.3895],[-88.7427,14.0794,647.4055]]]]}
,"properties": {"GID_2": "HND.13.27_1","GID_0": "HND","country": "Honduras","GID_1": "HND.13_1","province": "Lempira","NL_NAME_1": "NA","county": "Valladolid","VARNAME_2": "NA","NL_NAME_2": "NA","TYPE_2": "Municipio","ENGTYPE_2": "Municipality","CC_2": "NA","HASC_2": "HN.LE.VA","name": "Valladolid.county","area_km2": 77.63542,"hist_schema_id": "Elevation0-9000","hist_area_km2": {"200": 0.02056,"225": 0.32897,"250": 0.69905,"275": 0.88408,"300": 0.96632,"325": 1.50089,"350": 1.87096,"375": 1.76816,"400": 2.03545,"425": 2.13827,"450": 2.59058,"475": 3.33086,"500": 3.80382,"525": 3.12532,"550": 3.41316,"575": 2.7552,"600": 2.71404,"625": 2.81684,"650": 2.42619,"675": 2.44674,"700": 1.95323,"725": 2.03547,"750": 1.91207,"775": 2.09708,"800": 2.13823,"825": 2.07652,"850": 1.93267,"875": 1.82985,"900": 2.3233,"925": 2.15884,"950": 2.17938,"975": 1.91209,"1000": 1.87095,"1025": 1.35693,"1050": 1.1513,"1075": 1.08961,"1100": 0.84288,"1125": 0.76067,"1150": 0.80177,"1175": 0.96624,"1200": 0.63731,"1225": 0.74009,"1250": 0.65786,"1275": 0.37005,"1300": 0.18502,"1325": 0.02056}}}