{"type":"Feature","properties":{"GID_2":"HND.12.17_1","GID_0":"HND","country":"Honduras","GID_1":"HND.12_1","province":"LaPaz","NL_NAME_1":"NA","county":"SantaMaría","VARNAME_2":"NA","NL_NAME_2":"NA","TYPE_2":"Municipio","ENGTYPE_2":"Municipality","CC_2":"NA","HASC_2":"HN.LP.SM","name":"Santa_María.county"},
"geometry":{"type": "MultiPolygon","coordinates": [[[[-87.9701,14.2816,1023.0624],[-87.9669,14.2801,1051.7532],[-87.966,14.2758,1031.1669],[-87.9617,14.2728,1081.9805],[-87.9613,14.2619,1183.0349],[-87.9663,14.2577,1199.0527],[-87.9512,14.2503,1297.0122],[-87.9495,14.2469,1362.5903],[-87.9484,14.237,1420.7323],[-87.9345,14.2318,1457.1821],[-87.9257,14.2189,1535.0597],[-87.9122,14.2205,1700.6746],[-87.9045,14.2178,1766.114],[-87.9056,14.2133,1708.799],[-87.9012,14.2132,1649.5182],[-87.9,14.2205,1726.7524],[-87.8969,14.2256,1529.9458],[-87.8803,14.2253,1607.7334],[-87.8826,14.2024,1673.8047],[-87.8874,14.1918,1750.7147],[-87.8829,14.1863,1798.1996],[-87.8764,14.1735,1766.7151],[-87.8601,14.1816,1843.7434],[-87.8436,14.1856,2182.4165],[-87.8561,14.2026,2126.0681],[-87.8727,14.2137,1731.0479],[-87.8757,14.2205,1626.1106],[-87.8759,14.2279,1542.8928],[-87.8742,14.2325,1493.6396],[-87.8763,14.2352,1393.2196],[-87.8773,14.2426,1241.5382],[-87.8729,14.246,1385.8228],[-87.8688,14.253,1259.3184],[-87.8694,14.2547,1233.6394],[-87.8658,14.2573,1164.3763],[-87.872,14.257,1211.2344],[-87.8753,14.2614,1121.311],[-87.875,14.2645,1144.3254],[-87.8712,14.2694,1093.9053],[-87.8726,14.2781,1166.9893],[-87.8686,14.29,1161.8943],[-87.8713,14.2955,1103.7507],[-87.875,14.2939,1129.9595],[-87.876,14.2971,1086.3282],[-87.8779,14.2949,1104.6646],[-87.8832,14.2963,1043.5264],[-87.8859,14.2993,979.6331],[-87.8862,14.3027,1047.2595],[-87.891,14.3018,1097.0859],[-87.9411,14.3085,859.1445],[-87.9412,14.3107,844.7521],[-87.9464,14.3125,886.6033],[-87.9535,14.3102,983.3374],[-87.9544,14.3079,1046.1218],[-87.9585,14.3066,1027.3015],[-87.96,14.309,1060.5974],[-87.9621,14.3059,885.6462],[-87.9655,14.3055,896.5591],[-87.9665,14.2949,974.4233],[-87.9648,14.2924,978.6047],[-87.9666,14.2919,932.4978],[-87.9663,14.2893,918.0964],[-87.9699,14.2873,946.3881],[-87.9701,14.2816,1023.0624]]]]}}