{"type":"Feature","properties":{"GID_2":"HND.18.9_1","GID_0":"HND","country":"Honduras","GID_1":"HND.18_1","province":"Yoro","NL_NAME_1":"NA","county":"Victoria","VARNAME_2":"NA","NL_NAME_2":"NA","TYPE_2":"Municipio","ENGTYPE_2":"Municipality","CC_2":"NA","HASC_2":"HN.YO.VI","name":"Victoria.county"},
"geometry":{"type": "MultiPolygon","coordinates": [[[[-87.6081,15.0161,269.0],[-87.5918,15.0186,269.0],[-87.5898,15.0225,269.0],[-87.5968,15.0308,350.6355],[-87.5906,15.0313,269.0],[-87.5879,15.0335,269.0],[-87.5809,15.0316,269.0],[-87.5784,15.038,269.0],[-87.5734,15.0407,269.0],[-87.5697,15.0457,269.0],[-87.5609,15.0442,401.3351],[-87.5515,15.049,333.0274],[-87.5477,15.0468,427.7317],[-87.5415,15.0386,578.8653],[-87.5359,15.0384,720.0977],[-87.5294,15.0331,628.9931],[-87.5272,15.0262,576.1018],[-87.5199,15.0189,585.9455],[-87.5144,15.0063,384.3882],[-87.5179,15.0015,486.5987],[-87.5161,14.9948,449.6889],[-87.5172,14.9851,598.476],[-87.5159,14.9822,571.8845],[-87.5101,14.9786,466.1701],[-87.5097,14.9717,685.7585],[-87.5033,14.9688,611.4978],[-87.5004,14.9648,685.5116],[-87.496,14.9665,568.1305],[-87.4913,14.9659,515.1226],[-87.4908,14.9637,627.4254],[-87.4936,14.9605,670.0676],[-87.4934,14.9571,797.704],[-87.4808,14.957,443.1828],[-87.4821,14.9511,548.8523],[-87.4787,14.9403,414.9771],[-87.4827,14.9323,614.3966],[-87.4787,14.925,634.9698],[-87.4722,14.9223,513.6388],[-87.4723,14.9205,484.4678],[-87.4769,14.917,503.5177],[-87.4778,14.9136,551.585],[-87.4765,14.9115,543.8745],[-87.473,14.9105,488.2781],[-87.475,14.8998,386.8607],[-87.4719,14.8976,383.3066],[-87.4705,14.8939,568.6578],[-87.4605,14.894,382.8344],[-87.458,14.8913,413.2516],[-87.4551,14.8931,362.0761],[-87.4476,14.8885,355.6462],[-87.4354,14.8924,447.1631],[-87.4335,14.8946,480.9532],[-87.4254,14.8931,435.7883],[-87.4213,14.9011,363.4004],[-87.412,14.9076,323.5785],[-87.3988,14.9215,330.55],[-87.388,14.922,343.2999],[-87.3826,14.9265,376.5525],[-87.383,14.9372,394.8759],[-87.3892,14.9404,389.1713],[-87.3919,14.946,398.1026],[-87.3764,14.9528,807.5798],[-87.3749,14.955,819.8854],[-87.4195,14.9922,585.056],[-87.4124,15.0131,795.5022],[-87.4189,15.0179,569.7736],[-87.4302,15.0194,498.573],[-87.4333,15.0211,466.32],[-87.4288,15.0262,552.7379],[-87.4307,15.0398,742.3126],[-87.425,15.067,1451.5127],[-87.4274,15.0826,1403.6165],[-87.4258,15.0901,1364.3135],[-87.4316,15.0943,1392.0137],[-87.4414,15.0959,1376.0234],[-87.4495,15.1062,1382.7402],[-87.4537,15.1091,1335.2129],[-87.4694,15.112,1299.816],[-87.4787,15.1257,1185.517],[-87.4879,15.1287,1082.575],[-87.4925,15.1351,1001.3287],[-87.4999,15.1412,1150.2017],[-87.5287,15.1475,1343.6637],[-87.535,15.1449,1126.3634],[-87.5397,15.1467,1183.0022],[-87.5413,15.1511,1506.3557],[-87.5452,15.1533,1350.6328],[-87.5496,15.1598,1505.113],[-87.5496,15.1632,1715.4966],[-87.5709,15.1637,1492.1243],[-87.5774,15.169,1872.9768],[-87.5851,15.1708,1990.1348],[-87.6064,15.1712,1779.7799],[-87.6313,15.1858,1149.158],[-87.6359,15.1899,913.2596],[-87.6362,15.1941,644.9574],[-87.6718,15.2234,355.5265],[-87.6649,15.2628,146.1848],[-87.6867,15.2692,120.059],[-87.6858,15.2661,118.2329],[-87.6881,15.2669,117.596],[-87.689,15.2654,116.7898],[-87.688,15.261,116.3039],[-87.69,15.2582,115.3061],[-87.6933,15.2573,113.3679],[-87.6963,15.2507,110.6554],[-87.698,15.2499,111.625],[-87.6983,15.2487,109.9475],[-87.6961,15.2483,111.0748],[-87.6973,15.2447,109.1897],[-87.6941,15.2399,111.1618],[-87.7006,15.2375,107.3729],[-87.6994,15.2343,106.3813],[-87.7029,15.2347,105.2082],[-87.6999,15.2306,105.8387],[-87.7012,15.2262,101.6356],[-87.7084,15.2222,99.8643],[-87.7101,15.2145,98.9064],[-87.7116,15.2135,98.8251],[-87.713,15.2151,100.5449],[-87.7138,15.209,96.727],[-87.7169,15.2084,96.4285],[-87.7167,15.2055,94.9599],[-87.7206,15.2064,95.0819],[-87.7213,15.2027,92.0332],[-87.7249,15.2039,93.1113],[-87.7229,15.201,91.1214],[-87.7249,15.2002,90.3505],[-87.7242,15.1973,90.2356],[-87.7265,15.1954,90.8276],[-87.727,15.1921,92.1746],[-87.7294,15.1937,90.7073],[-87.7332,15.1928,132.6816],[-87.7318,15.1903,108.2412],[-87.7342,15.1897,159.6469],[-87.7341,15.1859,174.4385],[-87.7368,15.1869,157.2861],[-87.7373,15.184,142.9848],[-87.7358,15.1741,107.5386],[-87.7462,15.1676,141.6302],[-87.7496,15.1543,272.951],[-87.7558,15.1539,108.271],[-87.7627,15.1483,84.0636],[-87.763,15.1396,135.7938],[-87.771,15.1398,65.4085],[-87.7736,15.1333,75.613],[-87.7593,15.1261,114.0242],[-87.7572,15.119,234.4589],[-87.7482,15.11,367.0001],[-87.7433,15.1055,452.0309],[-87.7359,15.1028,88.1867],[-87.7426,15.0935,257.1038],[-87.7391,15.0891,128.3896],[-87.7411,15.083,194.5474],[-87.7364,15.0794,131.6623],[-87.7366,15.0765,143.472],[-87.7396,15.071,243.9543],[-87.7479,15.0664,249.3461],[-87.7478,15.0504,118.337],[-87.7522,15.04,175.8072],[-87.7455,15.0183,391.0105],[-87.738,15.0132,269.0],[-87.737,15.0109,269.0],[-87.7384,15.007,269.0],[-87.7426,15.0061,269.0],[-87.7433,15.0045,269.0],[-87.7284,15.0007,398.0661],[-87.713,15.0051,277.8495],[-87.7049,15.0032,392.7455],[-87.697,15.0096,269.0],[-87.6921,15.0059,302.7082],[-87.6816,15.0126,269.0],[-87.6775,15.0117,277.3569],[-87.6742,15.0163,269.0],[-87.6663,15.0113,404.2811],[-87.6586,15.0127,269.0],[-87.6542,15.0106,378.3453],[-87.6505,15.0146,269.0],[-87.6412,15.015,269.0],[-87.6305,15.0038,269.0],[-87.6259,15.0023,289.4889],[-87.6175,15.0109,269.0],[-87.6169,15.0147,269.0],[-87.6081,15.0161,269.0]]]]}}