{"type": "Feature","bbox": [-89.0981,14.6185,-88.9869,14.6785],"geometry": {"type": "MultiPolygon","coordinates": [[[[-89.0027,14.6768,1787.2866],[-89.0045,14.6782,1692.2172],[-89.0127,14.6785,1673.9097],[-89.0176,14.6731,1650.165],[-89.0243,14.6707,1538.5715],[-89.0294,14.6722,1556.489],[-89.0319,14.6694,1697.793],[-89.0479,14.6687,1441.1147],[-89.0502,14.6663,1449.8252],[-89.0547,14.6653,1390.8656],[-89.0555,14.6631,1394.8186],[-89.0629,14.6621,1222.423],[-89.0663,14.6591,1093.1705],[-89.072,14.6594,1009.7181],[-89.0752,14.6575,962.6962],[-89.0826,14.6565,981.4196],[-89.0856,14.6539,1011.9822],[-89.0891,14.6554,998.1567],[-89.0914,14.6515,1165.9401],[-89.0981,14.6485,1368.9443],[-89.0758,14.6185,1437.2728],[-89.0741,14.6217,1315.4012],[-89.0715,14.6228,1317.7244],[-89.0641,14.6226,1502.4091],[-89.06,14.6295,1481.3317],[-89.0538,14.6327,1656.3188],[-89.0482,14.6449,1491.6632],[-89.0433,14.6383,1698.7321],[-89.0359,14.6338,1899.6624],[-89.0299,14.6357,1979.6763],[-89.0245,14.6405,1810.1514],[-89.0057,14.644,1899.6857],[-88.9869,14.6377,1872.0963],[-88.9966,14.6517,2152.333],[-88.9958,14.664,1981.7087],[-88.9975,14.6647,2019.0031],[-88.9983,14.6693,1949.1198],[-89.0027,14.6768,1787.2866]]]]}
,"properties": {"GID_2": "HND.14.5_1","GID_0": "HND","country": "Honduras","GID_1": "HND.14_1","province": "Ocotepeque","NL_NAME_1": "NA","county": "LaEncarnación","VARNAME_2": "NA","NL_NAME_2": "NA","TYPE_2": "Municipio","ENGTYPE_2": "Municipality","CC_2": "NA","HASC_2": "HN.OC.LE","name": "La_Encarnación.county","area_km2": 37.14879,"hist_schema_id": "Elevation0-9000","hist_area_km2": {"975": 0.08205,"1000": 0.22564,"1025": 0.30769,"1050": 0.36922,"1075": 0.43076,"1100": 0.45128,"1125": 0.45128,"1150": 0.43077,"1175": 0.47179,"1200": 0.49231,"1225": 0.55384,"1250": 0.45128,"1275": 0.38975,"1300": 0.73848,"1325": 0.69747,"1350": 0.84106,"1375": 1.37443,"1400": 1.12826,"1425": 1.04621,"1450": 1.04621,"1475": 1.33338,"1500": 1.43595,"1525": 1.33338,"1550": 1.14875,"1575": 1.00514,"1600": 0.6564,"1625": 0.45126,"1650": 0.53332,"1675": 0.61536,"1700": 0.55383,"1725": 0.67689,"1750": 0.79998,"1775": 0.88203,"1800": 0.90256,"1825": 0.9641,"1850": 1.04615,"1875": 1.27178,"1900": 0.92308,"1925": 0.92307,"1950": 0.96409,"1975": 0.8205,"2000": 0.90254,"2025": 0.73844,"2050": 0.73844,"2075": 0.6769,"2100": 0.65638,"2125": 0.47178,"2150": 0.57434,"2175": 0.49229,"2200": 0.45127,"2225": 0.14359,"2250": 0.06154,"2275": 0.02051}}}