{"type":"Feature","properties":{"GID_1":"HND.7_1","GID_0":"HND","country":"Honduras","province":"ElParaíso","VARNAME_1":"Paraiso","NL_NAME_1":"NA","TYPE_1":"Departamento","ENGTYPE_1":"Department","CC_1":"NA","HASC_1":"HN.EP","ISO_1":"NA","name":"El_Paraíso.province"},
"geometry":{"type": "MultiPolygon","coordinates": [[[[-87.021,13.5354,678.436],[-87.0098,13.5444,818.078],[-87.0083,13.5543,901.7181],[-87.0107,13.5638,762.8731],[-87.0064,13.5691,942.6663],[-87.0014,13.5716,953.3693],[-86.9926,13.5798,938.5897],[-86.976,13.5801,1046.5376],[-86.9716,13.5861,712.7786],[-86.9614,13.5911,529.4899],[-86.9423,13.6118,428.6334],[-86.9336,13.6291,609.0645],[-86.935,13.6376,831.4361],[-86.9323,13.655,931.8168],[-86.9306,13.6554,931.8168],[-86.9285,13.6528,831.5557],[-86.9255,13.6442,559.5072],[-86.9047,13.6437,481.6724],[-86.8967,13.6482,313.443],[-86.8901,13.6498,275.0919],[-86.8909,13.6448,274.3075],[-86.8869,13.6415,225.5122],[-86.8711,13.6481,316.489],[-86.8657,13.6529,336.1523],[-86.8527,13.6575,313.7288],[-86.8481,13.6617,252.5155],[-86.844,13.6701,248.7331],[-86.8414,13.6721,244.7164],[-86.8216,13.6731,359.9598],[-86.8155,13.6661,388.6856],[-86.8082,13.6656,507.3766],[-86.8055,13.6786,293.9524],[-86.793,13.6945,386.2498],[-86.7885,13.689,449.5405],[-86.7832,13.6926,338.6069],[-86.7761,13.692,399.4],[-86.7708,13.6934,363.1124],[-86.7619,13.7208,288.6346],[-86.7682,13.7499,323.4904],[-86.7628,13.7731,388.1918],[-86.7569,13.7747,495.1849],[-86.7485,13.7735,558.8849],[-86.7415,13.7742,574.3412],[-86.7244,13.7846,761.4111],[-86.7153,13.7871,786.9289],[-86.6669,13.7829,805.1322],[-86.6537,13.7778,860.7502],[-86.6416,13.7786,973.1105],[-86.6315,13.7835,1079.3873],[-86.6111,13.7811,1078.0247],[-86.605,13.7818,1163.6108],[-86.5771,13.7887,1304.1323],[-86.5703,13.7919,1242.05],[-86.5652,13.7989,1346.4384],[-86.5608,13.8007,1404.6553],[-86.5513,13.8007,1490.651],[-86.5395,13.8,1367.6196],[-86.5345,13.7979,1410.0151],[-86.5226,13.7811,1331.4775],[-86.5165,13.7763,1336.8569],[-86.4991,13.7692,1384.5295],[-86.4909,13.7683,1680.0093],[-86.474,13.7713,1639.858],[-86.4511,13.7829,1731.8273],[-86.4482,13.7825,1649.8987],[-86.4448,13.7792,1753.2484],[-86.4387,13.7622,1842.3411],[-86.4361,13.7595,1778.3386],[-86.4328,13.7587,1641.2098],[-86.4195,13.7617,2001.0729],[-86.394,13.759,1931.1991],[-86.387,13.7606,1750.3042],[-86.3762,13.7698,1719.1675],[-86.3724,13.7694,1552.9404],[-86.3681,13.763,1618.1639],[-86.3647,13.7611,1580.2356],[-86.3521,13.7596,1672.3105],[-86.3462,13.7618,1631.9656],[-86.3288,13.7734,1557.9808],[-86.3214,13.7812,1363.4872],[-86.313,13.8009,1111.6667],[-86.3013,13.814,1152.1283],[-86.2985,13.8269,1234.9042],[-86.3028,13.8416,1155.7482],[-86.3004,13.8455,1284.3367],[-86.2979,13.8481,1321.0581],[-86.2829,13.8531,1175.139],[-86.2801,13.8554,1014.8315],[-86.2758,13.8689,1084.488],[-86.2521,13.8842,1290.592],[-86.2422,13.9018,1027.191],[-86.2297,13.911,1257.3401],[-86.2222,13.9274,1476.1449],[-86.2186,13.9305,1570.0753],[-86.2021,13.9376,1645.1873],[-86.1954,13.9503,1499.5695],[-86.1859,13.9551,1398.8297],[-86.1859,13.9613,1416.4171],[-86.19,13.9731,1199.3528],[-86.1884,13.9795,1552.4099],[-86.1861,13.9821,1576.217],[-86.1699,13.9832,1394.3535],[-86.1587,13.9862,1340.1506],[-86.1553,13.9878,1260.566],[-86.1489,13.9948,1339.2147],[-86.1404,13.998,1397.6725],[-86.1375,14.0009,1426.2103],[-86.1357,14.004,1374.4152],[-86.1359,14.0085,1255.4882],[-86.1468,14.0152,1251.4927],[-86.1518,14.0206,1346.1521],[-86.1505,14.0325,1147.0084],[-86.139,14.0386,1005.6981],[-86.1219,14.0442,841.529],[-86.1028,14.0593,790.7194],[-86.0924,14.0639,753.9517],[-86.0719,14.0654,754.1974],[-86.0639,14.0693,738.9747],[-86.0344,14.0688,695.3423],[-86.0178,14.0765,709.1191],[-86.0121,14.0771,716.2942],[-86.0086,14.0752,699.3325],[-86.0065,14.0708,687.4877],[-86.0049,14.0593,680.9635],[-86.0095,14.0443,679.7371],[-86.0211,14.023,819.3578],[-86.0233,14.0076,704.6531],[-86.0217,13.9997,726.0983],[-86.0154,13.9898,622.806],[-85.9476,13.9388,618.9993],[-85.9284,13.9209,645.0316],[-85.92,13.9079,426.1022],[-85.901,13.8999,415.7313],[-85.896,13.9036,444.1449],[-85.8941,13.9082,489.8205],[-85.8946,13.9144,542.5279],[-85.8879,13.9221,401.2429],[-85.8827,13.9223,515.4824],[-85.8755,13.9193,577.6105],[-85.8637,13.9194,359.7411],[-85.8513,13.9133,417.1114],[-85.8438,13.9032,383.2141],[-85.8445,13.8772,347.2565],[-85.8328,13.8665,441.0853],[-85.8282,13.8541,394.2827],[-85.8223,13.8517,333.6087],[-85.8182,13.8432,457.8962],[-85.8112,13.8402,648.6923],[-85.7912,13.8393,427.8258],[-85.7775,13.8443,399.516],[-85.7709,13.8447,466.9554],[-85.7632,13.8421,339.6544],[-85.7555,13.8319,297.1585],[-85.7486,13.8351,337.6185],[-85.7437,13.8398,254.665],[-85.7388,13.8543,280.3872],[-85.7397,13.8621,355.0191],[-85.7432,13.867,475.9344],[-85.7502,13.8732,325.8441],[-85.7643,13.8793,396.3982],[-85.7652,13.8816,363.4992],[-85.7606,13.8954,264.9411],[-85.7579,13.913,265.0264],[-85.7591,13.9583,385.0542],[-85.7539,13.9649,249.9538],[-85.7412,13.9655,349.1606],[-85.7332,13.9696,234.4713],[-85.7196,13.9842,233.8916],[-85.7125,13.988,234.7973],[-85.7062,13.9884,299.0568],[-85.6994,13.9863,381.8621],[-85.6825,13.9784,313.5876],[-85.6742,13.9836,227.0889],[-85.6676,13.9902,241.7289],[-85.665,13.9949,230.8937],[-85.6637,14.0107,223.4314],[-85.6616,14.0127,239.2029],[-85.6534,14.0149,326.3074],[-85.6321,14.0112,227.3529],[-85.6218,14.0213,221.3813],[-85.6132,14.0226,248.4532],[-85.6079,14.0254,223.4699],[-85.5984,14.0369,239.9887],[-85.5973,14.0413,318.9169],[-85.5953,14.0429,314.5034],[-85.5879,14.0421,215.0353],[-85.5823,14.0457,360.2196],[-85.5765,14.0624,267.496],[-85.5748,14.0627,238.9262],[-85.5756,14.0692,437.6449],[-85.582,14.0796,344.3279],[-85.5871,14.0826,288.4482],[-85.5938,14.0823,385.8004],[-85.5967,14.0866,315.2034],[-85.6118,14.0939,431.5909],[-85.6176,14.0986,509.4384],[-85.6194,14.1015,379.0796],[-85.6203,14.1114,572.9652],[-85.6188,14.1157,632.4421],[-85.6118,14.1216,419.6973],[-85.6095,14.132,548.1799],[-85.6168,14.1393,639.3701],[-85.6217,14.1498,763.532],[-85.6211,14.1542,739.9466],[-85.6267,14.1611,965.0591],[-85.6437,14.1684,1308.7743],[-85.6547,14.1833,1468.9348],[-85.6579,14.1899,1549.6071],[-85.6609,14.1917,1416.9623],[-85.667,14.1885,1421.0334],[-85.6702,14.1754,1432.7555],[-85.6774,14.1751,1307.7627],[-85.6809,14.1757,1309.7638],[-85.6897,14.1818,1130.2985],[-85.7086,14.185,1090.6711],[-85.7208,14.1897,1118.0367],[-85.7364,14.1879,1023.6298],[-85.7506,14.1833,763.3856],[-85.7576,14.1853,767.7719],[-85.7605,14.1879,809.7424],[-85.7608,14.192,822.9104],[-85.7643,14.1955,933.8987],[-85.7707,14.1949,818.3892],[-85.7763,14.1885,687.0632],[-85.7815,14.1751,681.3237],[-85.7861,14.1678,759.4512],[-85.7917,14.1606,790.0443],[-85.7946,14.1594,671.4038],[-85.7981,14.1594,668.1479],[-85.8036,14.1623,849.3207],[-85.8132,14.1632,1013.9128],[-85.8305,14.1742,919.1481],[-85.8363,14.1812,926.3748],[-85.8398,14.1815,1062.2902],[-85.8634,14.1693,922.5751],[-85.8759,14.1649,768.9711],[-85.8812,14.1568,788.781],[-85.882,14.1411,1022.6772],[-85.8911,14.1259,991.1447],[-85.9141,14.1259,888.5229],[-85.9266,14.1335,1035.9561],[-85.9317,14.1454,969.3798],[-85.9491,14.167,964.7072],[-85.9561,14.1667,904.2509],[-85.9721,14.1704,824.5689],[-85.9884,14.1763,1044.5245],[-85.9983,14.1894,1068.5759],[-86.0006,14.1966,999.247],[-86.0006,14.2086,884.7173],[-86.0041,14.2161,854.7673],[-86.0181,14.2342,1061.8088],[-86.0268,14.2563,983.8051],[-86.0308,14.2626,841.2056],[-86.0362,14.2618,801.5433],[-86.0404,14.2643,724.4196],[-86.051,14.2655,675.8345],[-86.0529,14.2689,653.2115],[-86.0616,14.2697,665.5541],[-86.0695,14.2633,585.0364],[-86.0708,14.2515,554.0544],[-86.0684,14.2475,506.3493],[-86.0707,14.2463,579.7401],[-86.1438,14.2654,381.9871],[-86.1789,14.3456,435.6801],[-86.2335,14.3419,462.0861],[-86.2754,14.3304,664.1647],[-86.2817,14.3219,866.1903],[-86.299,14.3177,859.6066],[-86.3055,14.3132,860.1559],[-86.3169,14.301,986.692],[-86.3429,14.2878,903.6542],[-86.3563,14.2775,1111.0554],[-86.3635,14.2797,918.7979],[-86.3704,14.2747,1044.8401],[-86.3804,14.2748,877.6781],[-86.3861,14.2769,1113.8722],[-86.4549,14.2814,659.7415],[-86.4621,14.3065,878.2892],[-86.4742,14.3158,959.9642],[-86.4786,14.3246,1061.2627],[-86.4934,14.3245,933.1188],[-86.5156,14.3279,906.0748],[-86.5185,14.3308,949.6513],[-86.5234,14.3444,801.3176],[-86.5266,14.3463,843.2783],[-86.5291,14.3447,797.568],[-86.5367,14.3552,950.3245],[-86.6114,14.3714,1170.7312],[-86.6152,14.3706,1183.4883],[-86.6224,14.3635,1225.8857],[-86.6278,14.3718,1166.4224],[-86.6285,14.3824,1108.8787],[-86.6399,14.3904,1171.5892],[-86.6417,14.3955,1169.2793],[-86.6443,14.3977,1151.6345],[-86.6469,14.3981,1170.7842],[-86.6491,14.3955,1222.4814],[-86.6552,14.3959,1222.8069],[-86.6589,14.399,1261.2715],[-86.6625,14.3991,1237.5326],[-86.6675,14.3894,1054.2123],[-86.6711,14.3886,1110.6565],[-86.6801,14.3917,1065.2036],[-86.6846,14.3993,1000.7686],[-86.6921,14.4001,1043.36],[-86.7271,14.4119,906.9198],[-86.7818,14.3713,738.7512],[-86.8423,14.3214,1991.0834],[-86.8384,14.2853,1402.7961],[-86.8402,14.2818,1607.4926],[-86.8534,14.2821,1677.9778],[-86.8716,14.251,1499.1204],[-86.8798,14.2457,1361.646],[-86.8822,14.24,1250.7163],[-86.8851,14.2394,1307.9421],[-86.8936,14.232,1124.9274],[-86.8979,14.2248,1036.4991],[-86.9068,14.2226,1013.4417],[-86.9068,14.2044,908.8461],[-86.9129,14.1995,746.3779],[-86.9085,14.1901,663.5652],[-86.9115,14.1853,630.32],[-86.9161,14.1818,610.7701],[-86.925,14.1793,596.1789],[-86.9317,14.1748,593.6454],[-86.9325,14.1703,611.2057],[-86.937,14.1638,635.4412],[-86.9364,14.16,644.3475],[-86.9348,14.1588,644.3475],[-86.9301,14.1617,631.192],[-86.9195,14.1596,640.5961],[-86.9046,14.1497,655.8742],[-86.9205,14.1272,608.8878],[-86.9211,14.12,607.3754],[-86.9241,14.1216,610.0977],[-86.9353,14.121,633.0098],[-86.9394,14.1242,643.135],[-86.9397,14.1217,641.7218],[-86.956,14.1297,710.6729],[-86.9704,14.1299,835.7697],[-86.9809,14.132,950.7333],[-86.9944,14.1147,1242.8713],[-86.9772,14.0895,991.1398],[-86.9541,14.0747,947.2255],[-86.9543,14.0647,832.4924],[-86.9516,14.0528,768.9672],[-86.9178,14.0418,650.1481],[-86.9165,14.0402,648.4712],[-86.9181,14.0028,1148.6749],[-86.9168,13.9908,1356.7133],[-86.9254,13.9902,1380.879],[-86.9205,13.9789,1411.533],[-86.9547,13.9418,1244.6548],[-86.9588,13.9419,1186.6423],[-86.9645,13.9482,1046.541],[-86.9826,13.9508,815.5555],[-86.9858,13.9539,799.9844],[-86.9888,13.9538,792.7208],[-86.9903,13.958,792.915],[-86.9923,13.9578,804.2036],[-86.993,13.9542,804.2559],[-86.995,13.9538,809.1558],[-86.9953,13.9504,827.7723],[-86.9891,13.9293,849.1564],[-86.9855,13.9245,872.7853],[-86.9872,13.9211,931.5695],[-86.9911,13.9204,913.3586],[-86.9908,13.9181,991.8964],[-86.9936,13.9168,986.8109],[-86.9942,13.9135,985.3881],[-86.9993,13.9093,1010.7029],[-87.0011,13.9015,1319.2119],[-86.9942,13.8917,1262.6562],[-86.9907,13.8778,1267.9309],[-86.9928,13.874,1323.0087],[-86.9986,13.851,1375.7174],[-86.9965,13.8422,1374.0615],[-86.9934,13.839,1410.3022],[-86.9989,13.8127,1361.7883],[-87.0035,13.8092,1405.5377],[-87.0186,13.7797,1468.3428],[-87.0297,13.7686,1171.4446],[-87.0382,13.7658,995.9661],[-87.0552,13.765,884.1378],[-87.0627,13.7681,820.5201],[-87.0674,13.7678,840.5419],[-87.069,13.7697,854.0928],[-87.0812,13.7699,724.0845],[-87.0845,13.7723,723.8105],[-87.0878,13.7821,792.5276],[-87.1073,13.797,593.9391],[-87.1125,13.7993,694.9109],[-87.1161,13.8031,646.553],[-87.123,13.8002,547.9789],[-87.1227,13.7916,602.6159],[-87.1279,13.7921,556.0386],[-87.1296,13.7899,517.863],[-87.1304,13.7447,546.585],[-87.1203,13.7358,537.2723],[-87.1187,13.7275,528.184],[-87.1149,13.7241,488.1509],[-87.1144,13.7197,559.7315],[-87.1035,13.7081,504.9093],[-87.1015,13.7036,588.21],[-87.1165,13.6941,928.8702],[-87.1324,13.6673,897.8412],[-87.1282,13.6606,807.6268],[-87.1251,13.649,771.9213],[-87.1286,13.6478,786.5976],[-87.1343,13.6528,842.4902],[-87.1412,13.6563,911.473],[-87.1444,13.6555,875.5104],[-87.1864,13.6805,810.2702],[-87.2136,13.6627,533.2111],[-87.2221,13.6192,678.6188],[-87.2248,13.6152,801.3052],[-87.225,13.6111,747.7775],[-87.2204,13.6097,871.402],[-87.2081,13.6108,668.5285],[-87.2012,13.6095,661.0599],[-87.1963,13.5975,769.5398],[-87.1928,13.5968,882.2515],[-87.1857,13.588,617.186],[-87.1882,13.5791,565.0508],[-87.1851,13.574,433.8983],[-87.1852,13.5591,501.4068],[-87.1744,13.5501,425.0775],[-87.1715,13.5452,298.5887],[-87.1671,13.5444,290.1385],[-87.1617,13.5479,310.4105],[-87.1569,13.5486,381.745],[-87.1517,13.5475,530.6351],[-87.1477,13.5436,543.1176],[-87.1424,13.5429,519.5888],[-87.1104,13.5501,259.2349],[-87.1127,13.5454,244.1429],[-87.1141,13.5299,256.9189],[-87.1074,13.522,334.182],[-87.1069,13.511,227.5637],[-87.1004,13.5043,261.757],[-87.0826,13.4975,411.7838],[-87.0814,13.4983,411.7838],[-87.0813,13.5062,536.5092],[-87.0695,13.4981,225.4675],[-87.0639,13.498,222.6249],[-87.0562,13.5036,270.9006],[-87.0548,13.5116,217.6368],[-87.0513,13.516,272.5485],[-87.0408,13.5193,378.564],[-87.0372,13.5173,447.2574],[-87.0271,13.5187,635.5005],[-87.0253,13.5212,606.7814],[-87.0243,13.5295,569.4483],[-87.0254,13.5344,674.6122],[-87.021,13.5354,678.436]]]]}}