{"type":"Feature","properties":{"ISO3166-1-Alpha-3":"HND","country":"Honduras","fill":"#FF0","id":"662","name":"El Paraíso"},
"geometry":{"type": "Polygon","coordinates": [[[-86.66566,14.40553,1148.7366],[-86.67132,14.40641,1230.6892],[-86.71421,14.42382,1170.676],[-86.78893,14.36827,754.8866],[-86.8217,14.33778,1960.2281],[-86.82914,14.30497,1615.8453],[-86.84813,14.27169,1539.3923],[-86.89686,14.22993,1085.9136],[-86.90893,14.19867,749.4235],[-86.91993,14.18358,610.7889],[-86.92192,14.17857,616.6646],[-86.92066,14.1749,594.257],[-86.91239,14.17268,616.7026],[-86.90686,14.16957,610.5103],[-86.90304,14.16482,605.2516],[-86.90187,14.161,636.8485],[-86.91218,14.14084,611.0712],[-86.93322,14.13785,632.9883],[-86.94916,14.14084,684.4521],[-86.96301,14.14084,746.8167],[-86.9843,14.13263,1086.5742],[-86.97828,14.11475,941.9453],[-86.95223,14.08028,922.6061],[-86.92474,14.06043,630.9775],[-86.91712,14.05625,604.7708],[-86.91425,14.05,630.7271],[-86.91229,14.03894,637.6871],[-86.91596,13.9993,1289.167],[-86.92673,13.97899,1362.1326],[-86.93828,13.9669,1223.5659],[-86.95458,13.95842,1077.4324],[-86.98926,13.96452,773.8925],[-86.98515,13.95005,812.1246],[-86.98422,13.94282,805.269],[-86.985,13.93429,841.9171],[-86.9899,13.92447,861.0983],[-86.99249,13.91161,1070.0823],[-86.99099,13.89187,1179.2112],[-86.99507,13.84593,1373.1487],[-87.01393,13.80045,1429.1787],[-87.03055,13.779,1107.27],[-87.03553,13.77539,1013.3795],[-87.05122,13.77518,987.3749],[-87.07569,13.77973,863.5117],[-87.0838,13.78371,856.595],[-87.10649,13.8035,593.5267],[-87.12155,13.81032,594.2987],[-87.12819,13.80247,537.8095],[-87.1299,13.79874,522.8841],[-87.13165,13.79094,543.9871],[-87.13227,13.77678,668.4781],[-87.13155,13.76267,648.5685],[-87.12868,13.75213,539.211],[-87.122559999999993,13.74459,510.8086],[-87.11116,13.72402,464.0097],[-87.11163,13.70831,614.9855],[-87.11951,13.69761,938.9225],[-87.12703,13.68159,915.9939],[-87.12984,13.66433,847.4959],[-87.13021,13.66005,727.2608],[-87.13475,13.66087,757.0909],[-87.18268,13.68113,818.3238],[-87.21423,13.6711,690.1207],[-87.22413,13.62863,499.8825],[-87.21728,13.61581,813.4092],[-87.20633,13.61224,708.0296],[-87.19759,13.60289,875.794],[-87.19129,13.59752,863.481],[-87.18689,13.5786,532.861],[-87.18429,13.5663,395.3996],[-87.17013,13.55819,517.4434],[-87.124,13.55556,392.3279],[-87.11561,13.54915,299.0051],[-87.11512,13.53974,284.4442],[-87.10662,13.52088,309.3907],[-87.08892,13.50734,408.2227],[-87.07662,13.50579,406.6656],[-87.06987,13.50812,318.0367],[-87.0392,13.52548,415.7982],[-87.01654,13.5507,720.9539],[-87.014169999999993,13.56568,775.3031],[-87.01057,13.5738,851.9285],[-86.99952,13.58387,683.9729],[-86.98474,13.58842,750.121],[-86.97693,13.59333,695.9439],[-86.96595,13.60186,369.1065],[-86.95001,13.6187,423.7041],[-86.94252,13.6295,741.3474],[-86.93794,13.63891,843.8824],[-86.93508,13.6572,843.6571],[-86.93285,13.66056,912.08],[-86.92614,13.6587,688.7308],[-86.92115,13.65653,627.4928],[-86.89138,13.65922,310.9315],[-86.88735,13.65188,256.8494],[-86.84883,13.67637,458.4126],[-86.84071,13.67937,298.0701],[-86.82361,13.68097,249.0583],[-86.81599,13.68061,251.7048],[-86.80919,13.68185,273.1765],[-86.80121,13.69431,484.6328],[-86.79421,13.70015,327.9271],[-86.78625,13.70149,290.157],[-86.77188,13.70759,308.0581],[-86.77117,13.70789,308.0581],[-86.77023,13.72524,337.4704],[-86.7679,13.73916,424.2441],[-86.7662,13.74526,299.1484],[-86.76144,13.74934,469.0301],[-86.74992,13.75712,611.4041],[-86.72723,13.76826,685.4421],[-86.7063,13.77001,835.3684],[-86.66269,13.76469,989.8024],[-86.58114,13.77986,1243.4718],[-86.54166,13.78213,1210.8129],[-86.50854,13.76438,1232.2825],[-86.49081,13.7595,1496.0924],[-86.47629,13.76402,1719.9479],[-86.46286,13.77094,1623.7181],[-86.44823,13.77296,1767.3719],[-86.43247,13.75712,1641.2098],[-86.42653,13.75299,1733.788],[-86.41707,13.75001,1643.8993],[-86.4101,13.74903,1593.4351],[-86.35847,13.75226,1436.3774],[-86.34013,13.75665,1349.0732],[-86.32519,13.76376,1489.2295],[-86.31356,13.7766,1276.5415],[-86.30778,13.79169,1191.6974],[-86.29992,13.82133,1144.6057],[-86.28411,13.84572,1042.7217],[-86.21858,13.91437,1315.1864],[-86.18406,13.96687,1295.11],[-86.17357,13.97367,1162.786],[-86.16179,13.97811,1345.2344],[-86.1497,13.98426,1210.2184],[-86.13802,13.99618,1398.8245],[-86.13084,14.00891,1227.0363],[-86.12691,14.01855,1146.2482],[-86.12169,14.02721,1109.9999],[-86.11048,14.03713,915.1934],[-86.09673,14.04408,978.8354],[-86.0202,14.05516,666.9534],[-86.02046,14.04408,664.225],[-86.03126,14.02258,656.7662],[-86.02841,13.99607,731.2318],[-85.95777,13.9461,514.1635],[-85.93612,13.9182,594.7855],[-85.9294,13.9121,577.5948],[-85.9155,13.90745,464.7677],[-85.9063,13.90936,467.3475],[-85.89721,13.91303,659.9957],[-85.88356,13.91385,566.9886],[-85.8616,13.90442,405.4921],[-85.84987,13.88709,387.7174],[-85.8401,13.86657,608.9709],[-85.82416,13.84768,343.3658],[-85.80202,13.84022,494.4694],[-85.77866,13.84094,428.7284],[-85.7583,13.83929,294.8234],[-85.74499,13.82469,373.0932],[-85.74311,13.82396,373.0932],[-85.74246,13.82371,420.0676],[-85.74029,13.82564,454.5698],[-85.73339,13.83179,457.4898],[-85.72512,13.84794,324.758],[-85.72301,13.86342,463.286],[-85.72869,13.87502,411.8189],[-85.74368,13.87957,443.9909],[-85.74745,13.88827,428.14],[-85.74329,13.90755,383.1339],[-85.73339,13.93763,658.2953],[-85.7322,13.95954,314.4525],[-85.72735,13.96501,393.4316],[-85.71699,13.96269,399.7184],[-85.69923,13.9615,453.1876],[-85.6865,13.96734,343.5489],[-85.66619,13.98447,292.6315],[-85.65766,13.98199,304.4067],[-85.65149,13.98199,433.0825],[-85.65195,13.98669,342.4615],[-85.6504,13.98786,362.2141],[-85.64766,13.9878,383.2097],[-85.64461,13.98879,540.4149],[-85.64787,13.9993,572.9341],[-85.61281,14.00974,296.1653],[-85.60306,14.01953,317.3861],[-85.59361,14.03346,381.2641],[-85.5717,14.04051,400.6686],[-85.56315,14.04201,473.0698],[-85.56327,14.04235,518.7314],[-85.57565,14.07496,264.6745],[-85.58015,14.0793,355.0208],[-85.58779,14.08519,361.4724],[-85.59593,14.08958,303.7979],[-85.6058,14.09723,400.282],[-85.6097,14.10488,316.4466],[-85.61141,14.1148,460.0782],[-85.61141,14.12648,511.2732],[-85.61549,14.14735,690.4346],[-85.62156,14.1597,928.3416],[-85.63128,14.17035,1187.1168],[-85.64691,14.18342,1318.1456],[-85.65544,14.18601,1535.7247],[-85.6603,14.18492,1589.1967],[-85.66216,14.17743,1345.0819],[-85.66523,14.1764,1369.9595],[-85.67213,14.17707,1417.1283],[-85.71011,14.18875,1037.011],[-85.75747,14.19872,955.1462],[-85.76373,14.19789,939.5304],[-85.76802,14.19355,914.7913],[-85.77977,14.1704,790.0144],[-85.7844,14.16663,811.9778],[-85.79055,14.16513,685.4531],[-85.80375,14.16751,904.4447],[-85.81359,14.17247,1143.7896],[-85.82677,14.18136,1062.2437],[-85.83649,14.18301,976.7426],[-85.84486,14.18203,997.4052],[-85.84917,14.17929,945.0239],[-85.85302,14.17583,898.4495],[-85.85752,14.17304,900.0025],[-85.8678,14.16844,936.8936],[-85.87132,14.16554,851.2842],[-85.87375,14.16182,917.1385],[-85.87545,14.15712,893.6442],[-85.87641,14.14684,946.6971],[-85.87749,14.14234,1070.386],[-85.88018,14.1381,1097.0073],[-85.88537,14.13438,1032.1318],[-85.89266,14.13185,944.1529],[-85.90628,14.13133,903.9099],[-85.91307,14.13278,956.7864],[-85.92454,14.14182,1088.3873],[-85.94441,14.16751,1057.0093],[-85.98273,14.18451,1011.9871],[-85.99051,14.19097,1088.3577],[-85.99531,14.19872,985.0414],[-85.99699,14.20782,858.0067],[-86.00077,14.22146,751.079],[-86.00676,14.23464,1135.0828],[-86.01932,14.25463,899.4753],[-86.0296,14.26342,841.2056],[-86.0403,14.2689,783.1101],[-86.05792,14.27277,647.0332],[-86.06231,14.27293,653.1343],[-86.06655,14.27174,684.7408],[-86.07001,14.269,641.3264],[-86.0727,14.26569,631.5745],[-86.07624,14.25732,688.2172],[-86.08014,14.25339,632.3213],[-86.08846,14.25288,488.0041],[-86.11378,14.25861,652.4846],[-86.14218,14.26895,419.9402],[-86.14923,14.27644,364.0667],[-86.17597,14.32357,485.569],[-86.18494,14.33401,482.2952],[-86.19373,14.33845,473.0439],[-86.20659,14.34104,521.7043],[-86.23248,14.3414,467.3078],[-86.24277,14.34011,508.9674],[-86.26199,14.33473,722.4683],[-86.27664,14.3276,610.2947],[-86.28731,14.32119,876.6791],[-86.29297,14.31938,966.153],[-86.29871,14.31685,811.5037],[-86.30364,14.31334,822.8778],[-86.3131,14.30466,947.0975],[-86.33573,14.29096,972.9171],[-86.34286,14.28807,903.6542],[-86.35447,14.28636,1093.0273],[-86.42816,14.29076,939.9277],[-86.43735,14.29375,639.7596],[-86.44213,14.29773,557.5227],[-86.44782,14.31148,909.9471],[-86.45252,14.31804,978.9861],[-86.45712,14.32316,1060.009],[-86.47578,14.33664,1143.6782],[-86.49898,14.34279,1121.1746],[-86.50265,14.34512,1125.1664],[-86.5229,14.36486,1189.4797],[-86.57892,14.3801,833.1158],[-86.59995,14.38243,1059.4153],[-86.60732,14.38114,1144.0612],[-86.61194,14.38238,1215.8474],[-86.61569,14.38651,1213.9374],[-86.62065,14.39674,1232.5469],[-86.6307,14.40806,1202.0044],[-86.63509,14.41044,1192.5255],[-86.63889,14.41106,1142.6111],[-86.64936,14.40946,1209.6581],[-86.65259,14.40811,1234.9729],[-86.65571,14.40646,1163.5579],[-86.66566,14.40553,1148.7366]]]}}