{"type":"Feature","properties":{"featurecla":"River","scalerank":6,"rivernum":320,"dissolve":"320River","name":"Coco1","name_alt":null,"note":null,"min_zoom":5.0,"strokeweig":0.2,"name_en":"Coco","min_label":6.0},
"geometry":{"type": "LineString","coordinates": [[-86.63916015625,13.512958074994117,616.4624],[-86.630175781249989,13.524188543744117,609.173],[-86.586474609374989,13.54645416874412,608.0977],[-86.570239257812489,13.557635809369117,655.8954],[-86.57421875,13.55975983280662,712.4738],[-86.575439453125,13.561053778119117,628.9899],[-86.576342773437489,13.56342194218162,618.5931],[-86.547949218749991,13.57697174686912,678.3216],[-86.502612304687489,13.619989324994123,565.5005],[-86.476416015624991,13.636737371869117,615.9559],[-86.443359375,13.642938543744123,639.4282],[-86.314135742187489,13.61456940311912,661.9051],[-86.30234375,13.60541412968162,657.353],[-86.29443359375,13.58881256718162,755.3054],[-86.283496093749989,13.536981512494123,589.7745],[-86.273608398437489,13.514032293744123,498.348],[-86.253857421875,13.491815496869123,532.8457],[-86.238623046874991,13.48407623905662,625.5312],[-86.231005859374989,13.478876043744123,689.3544],[-86.227636718749991,13.471942449994117,517.0137],[-86.220263671874989,13.463495184369123,723.4478],[-86.203295898437489,13.453241278119123,619.1039],[-86.184008789062489,13.444598699994117,625.9314],[-86.169604492187489,13.440936590619117,610.9479],[-86.144140624999991,13.44550202030662,490.6496],[-86.130126953125,13.446063543744117,539.3624],[-86.117773437499991,13.440936590619117,433.2926],[-86.108154296875,13.45160553593162,488.9643],[-86.069384765624989,13.48187897343162,538.6541],[-86.050146484374991,13.50470612186912,353.6406],[-86.038916015624991,13.509051824994117,463.6259],[-86.028369140624989,13.496210028119123,348.5752],[-86.018603515624989,13.50067780155662,393.1823],[-85.966357421874989,13.504999090619123,358.5835],[-85.949072265624991,13.50385162968162,417.484],[-85.93798828125,13.497577215619117,424.6255],[-85.929492187499989,13.49005768436912,352.6776],[-85.920214843749989,13.485126043744117,383.9294],[-85.906835937499991,13.48676178593162,321.8443],[-85.899755859374991,13.49176666874412,318.588],[-85.882983398437489,13.515155340619117,441.5045],[-85.860595703125,13.531268621869117,348.3113],[-85.842333984374989,13.540155340619123,438.6481],[-85.831396484374991,13.55329010624412,398.5905],[-85.833056640624989,13.612811590619117,307.3242],[-85.829931640624991,13.637713934369117,429.0393],[-85.820849609374989,13.66071198124412,389.163],[-85.791918945312489,13.709100653119123,273.1135],[-85.78759765625,13.721307684369123,276.8048],[-85.78466796875,13.734491278119123,335.7843],[-85.783203125,13.781854559369123,433.83],[-85.777148437499989,13.798114324994117,306.1172],[-85.767260742187489,13.809588934369117,312.9032],[-85.743212890624989,13.82391998905662,373.0932],[-85.734179687499989,13.83197662968162,457.4898],[-85.725927734374991,13.848163153119117,324.758],[-85.723803710937489,13.86359284061912,463.286],[-85.729418945312489,13.87518952030662,411.8189],[-85.744433593749989,13.879754949994123,443.9909],[-85.748217773437489,13.888446356244117,428.14],[-85.744067382812489,13.90778229374412,383.1339],[-85.734179687499989,13.93781159061912,658.2953],[-85.732958984374989,13.959735418744117,384.5335],[-85.728125,13.965204168744123,393.4316],[-85.7177734375,13.96283600468162,399.7184],[-85.700048828124991,13.961688543744117,486.7106],[-85.687255859375,13.967547918744117,343.5489],[-85.6669921875,13.984637762494117,241.9083],[-85.658447265625,13.982196356244117,301.0496],[-85.652270507812489,13.982196356244117,391.2632],[-85.652685546874991,13.98688385624412,343.2848],[-85.651171874999989,13.988055731244117,336.582],[-85.648486328124989,13.98798248905662,362.2141],[-85.645434570312489,13.98895905155662,540.4149],[-85.648681640625,13.999530340619117,520.1282],[-85.613574218749989,14.009881903119123,273.7156],[-85.603857421874991,14.01972077030662,338.5594],[-85.594409179687489,14.03363678593162,381.2641],[-85.572436523437489,14.04071686405662,378.8401],[-85.54736328125,14.04511139530662,236.4218],[-85.528735351562489,14.05109284061912,256.7085],[-85.519384765624991,14.064813543744123,291.6895],[-85.5171875,14.08075592655662,371.0616],[-85.511474609375,14.09393952030662,310.7544],[-85.475439453124991,14.10358307499412,292.7814],[-85.458349609374991,14.11322662968162,232.1],[-85.432543945312489,14.13300202030662,362.3128],[-85.420947265624989,14.14704010624412,353.6087],[-85.409912109375,14.166376043744123,344.0884],[-85.401660156249989,14.18537018436912,431.3462],[-85.394384765624991,14.210956121869117,415.52],[-85.384765625,14.22662994999412,277.2985],[-85.373291015625,14.24127838749412,329.0187],[-85.363623046874991,14.25031159061912,351.2341],[-85.359375,14.251092840619123,239.0554],[-85.348559570312489,14.249383856244123,216.7511],[-85.344409179687489,14.25031159061912,189.0534],[-85.341552734375,14.25360748905662,306.8015],[-85.338720703124991,14.260858465619123,214.9432],[-85.331640624999991,14.26923248905662,350.0312],[-85.32763671875,14.27594635624412,260.118],[-85.322119140624991,14.281512762494117,282.364],[-85.312744140625,14.283807684369123,253.7799],[-85.288989257812489,14.29535553593162,279.8433],[-85.278613281249989,14.297479559369123,270.9486],[-85.24072265625,14.297479559369123,289.0641],[-85.215991210937489,14.301776434369117,227.2143],[-85.191015624999991,14.309833074994117,196.9462],[-85.17041015625,14.32196686405662,181.6305],[-85.158789062499991,14.33844635624412,217.6593],[-85.159838867187489,14.361200262494123,258.9477],[-85.172705078124991,14.38117096561912,186.0814],[-85.190478515624989,14.39704010624412,195.2766],[-85.206591796874989,14.407342840619123,170.0603],[-85.179296874999991,14.42780182499412,178.641],[-85.178149414062489,14.43414948124412,169.7836],[-85.180468749999989,14.44940827030662,159.4685],[-85.179296874999991,14.45575592655662,157.6151],[-85.156176757812489,14.47968170780662,148.0024],[-85.152587890625,14.48615143436912,149.9706],[-85.150561523437489,14.53668854374412,157.0804],[-85.146289062499989,14.56439850468162,128.6182],[-85.13828125,14.578631903119117,138.5887],[-85.1201171875,14.574090887494123,201.6575],[-85.104101562499991,14.55707428593162,159.3912],[-85.087158203125,14.54474518436912,149.6647],[-85.066015624999991,14.554461981244117,168.4919],[-85.030444335937489,14.589129949994117,128.6201],[-85.022998046874989,14.60602448124412,134.3599],[-85.048925781249991,14.605975653119117,144.2323],[-85.043017578124989,14.613641668744123,106.0919],[-85.02099609375,14.63385651249412,138.7917],[-85.04931640625,14.65350983280662,142.2359],[-85.054736328124989,14.66327545780662,146.9935],[-85.038989257812489,14.66742584843162,142.3853],[-85.033789062499991,14.66974518436912,130.16],[-85.030566406249989,14.67572662968162,131.2362],[-85.025317382812489,14.71271393436912,117.4237],[-85.016455078124991,14.72833893436912,136.7149],[-85.002783203124991,14.74091217655662,140.6997],[-84.985156249999989,14.752460028119117,130.7504]]}}