{"type": "Feature","bbox": [-87.7477,14.3383,-87.652,14.3817],"geometry": {"type": "MultiPolygon","coordinates": [[[[-87.7477,14.3567,1538.8669],[-87.7352,14.3501,1281.7222],[-87.7255,14.3472,1293.8536],[-87.7157,14.3478,1200.5244],[-87.7042,14.3383,784.5198],[-87.6859,14.3511,618.3604],[-87.6787,14.3534,604.9352],[-87.6728,14.358,596.1525],[-87.6696,14.3581,594.8544],[-87.6679,14.3605,590.6815],[-87.6653,14.3584,592.2629],[-87.6625,14.3636,585.4465],[-87.6597,14.3606,585.1799],[-87.6584,14.3654,581.8831],[-87.652,14.3692,571.6248],[-87.6554,14.3759,570.9677],[-87.6543,14.3817,567.9698],[-87.6604,14.3754,574.129],[-87.6751,14.3732,598.5763],[-87.6952,14.3727,635.8058],[-87.7079,14.3654,695.7521],[-87.729,14.3643,1003.7043],[-87.7372,14.3623,1248.9438],[-87.7401,14.3594,1321.5573],[-87.7477,14.3567,1538.8669]]]]}
,"properties": {"GID_2": "HND.4.10_1","GID_0": "HND","country": "Honduras","GID_1": "HND.4_1","province": "Comayagua","NL_NAME_1": "NA","county": "Lejamaní","VARNAME_2": "NA","NL_NAME_2": "NA","TYPE_2": "Municipio","ENGTYPE_2": "Municipality","CC_2": "NA","HASC_2": "HN.CM.LE","name": "Lejamaní.county","area_km2": 19.96471,"hist_schema_id": "Elevation0-9000","hist_area_km2": {"575": 2.01281,"600": 3.98465,"625": 3.06041,"650": 1.43778,"675": 0.69836,"700": 0.59567,"725": 0.32865,"750": 0.28756,"775": 0.53406,"800": 0.36972,"825": 0.32865,"850": 0.22594,"875": 0.24648,"900": 0.24648,"925": 0.30811,"950": 0.3081,"975": 0.14378,"1000": 0.22594,"1025": 0.28756,"1050": 0.39026,"1075": 0.36972,"1100": 0.26702,"1125": 0.22594,"1150": 0.24648,"1175": 0.32865,"1200": 0.28757,"1225": 0.43135,"1250": 0.43135,"1275": 0.24649,"1300": 0.28757,"1325": 0.26703,"1350": 0.16432,"1375": 0.04108,"1400": 0.1027,"1425": 0.08216,"1450": 0.06162,"1475": 0.04108,"1500": 0.04108,"1525": 0.02054}}}