{"type":"Feature","properties":{"GID_2":"HND.14.4_1","GID_0":"HND","country":"Honduras","GID_1":"HND.14_1","province":"Ocotepeque","NL_NAME_1":"NA","county":"Fraternidad","VARNAME_2":"NA","NL_NAME_2":"NA","TYPE_2":"Municipio","ENGTYPE_2":"Municipality","CC_2":"NA","HASC_2":"HN.OC.FR","name":"Fraternidad.county"},
"geometry":{"type": "MultiPolygon","coordinates": [[[[-89.0971,14.5166,1731.7245],[-89.0909,14.5063,1877.1783],[-89.0893,14.5062,1877.1783],[-89.0837,14.5109,1824.1998],[-89.0783,14.5119,1683.2704],[-89.0751,14.5182,1590.2556],[-89.0684,14.5216,1508.9041],[-89.0652,14.5275,1317.9569],[-89.0603,14.5316,1250.2729],[-89.0523,14.5306,1235.2908],[-89.051,14.532,1253.1123],[-89.0476,14.5319,1191.7358],[-89.0468,14.5341,1244.7148],[-89.0454,14.5327,1203.3152],[-89.0408,14.5336,1151.0725],[-89.0374,14.5359,1148.5773],[-89.0371,14.5421,1196.129],[-89.0446,14.5425,1210.8999],[-89.0418,14.5479,1188.474],[-89.044,14.5481,1153.7725],[-89.0463,14.5563,1055.5996],[-89.0423,14.5589,1121.4058],[-89.0405,14.5583,1102.5051],[-89.0402,14.5602,1143.1564],[-89.0354,14.5605,1092.2584],[-89.0338,14.5618,1092.2584],[-89.0341,14.5635,1116.4076],[-89.0317,14.5637,1121.2297],[-89.0244,14.5703,1360.9727],[-89.0245,14.5722,1407.5076],[-89.0193,14.5743,1343.35],[-89.0193,14.5782,1420.584],[-89.016,14.5786,1276.7234],[-89.0174,14.5866,1437.9935],[-89.0155,14.5881,1436.0773],[-89.015,14.5925,1487.3167],[-89.0236,14.5996,1490.493],[-89.0241,14.623,1758.4991],[-89.0292,14.6171,1744.7883],[-89.0346,14.6152,1637.2668],[-89.053,14.6345,1588.7202],[-89.0606,14.6289,1482.1971],[-89.0645,14.6223,1478.9125],[-89.0715,14.6228,1317.7244],[-89.0748,14.6207,1403.9172],[-89.0758,14.6185,1437.2728],[-89.0689,14.6097,1332.3563],[-89.0868,14.6004,1257.0208],[-89.1037,14.5984,1337.2517],[-89.1016,14.5936,1371.1511],[-89.1046,14.5888,1410.8755],[-89.1099,14.5856,1579.9124],[-89.1169,14.5549,1703.9529],[-89.1129,14.5462,1705.9451],[-89.0991,14.538,1490.4165],[-89.0996,14.5211,1768.8175],[-89.0971,14.5166,1731.7245]]]]}}