{"type":"Feature","properties":{"GID_2":"HND.3.7_1","GID_0":"HND","country":"Honduras","GID_1":"HND.3_1","province":"Colón","NL_NAME_1":"NA","county":"SantaRosadeAguán","VARNAME_2":"NA","NL_NAME_2":"NA","TYPE_2":"Municipio","ENGTYPE_2":"Municipality","CC_2":"NA","HASC_2":"HN.CL.SR","name":"Santa_Rosade_Aguán.county"},
"geometry":{"type": "MultiPolygon","coordinates": [[[[-85.6308,15.8522,3.2466],[-85.6311,15.855,3.7484],[-85.6343,15.8579,3.3699],[-85.6329,15.86,4.4387],[-85.6359,15.8636,3.234],[-85.6355,15.8668,7.4732],[-85.6288,15.87,3.9692],[-85.6267,15.8698,4.507],[-85.6235,15.8658,2.238],[-85.6215,15.8656,3.6625],[-85.6205,15.8673,2.6979],[-85.6281,15.8785,7.1279],[-85.6217,15.8782,1.5189],[-85.6216,15.8824,2.3771],[-85.6268,15.8839,18.1053],[-85.6272,15.8855,6.7883],[-85.62,15.8843,2.643],[-85.6144,15.89,4.7756],[-85.6051,15.9043,0.0],[-85.6165,15.909,7.343],[-85.6832,15.9499,2.3374],[-85.684,15.9463,0.0],[-85.6787,15.9388,0.4261],[-85.6774,15.9304,1.441],[-85.6712,15.9254,5.9613],[-85.6776,15.9293,1.441],[-85.6793,15.9371,0.0647],[-85.6846,15.9449,0.2162],[-85.6901,15.9451,0.0],[-85.694,15.9329,0.0],[-85.6929,15.9299,0.4827],[-85.6937,15.9251,0.0],[-85.6862,15.9207,7.2075],[-85.6876,15.9193,0.5],[-85.6876,15.914,0.7876],[-85.6893,15.914,0.7876],[-85.6896,15.9182,2.1039],[-85.694,15.9188,3.1505],[-85.6932,15.9224,0.0],[-85.696,15.9249,0.7602],[-85.6951,15.9307,0.0],[-85.6976,15.9313,0.0913],[-85.7029,15.9288,0.3091],[-85.7068,15.9299,1.7206],[-85.7063,15.9304,1.7206],[-85.7024,15.9299,0.3091],[-85.6971,15.9335,0.0],[-85.6976,15.936,0.0],[-85.6915,15.9454,0.0],[-85.6924,15.9499,1.7384],[-85.6901,15.9529,1.0165],[-85.6918,15.9554,4.0237],[-85.6951,15.9582,0.3737],[-85.6988,15.9585,5.3385],[-85.7224,15.969,0.0],[-85.7262,15.9687,3.4747],[-85.7321,15.9613,7.4598],[-85.7349,15.9615,0.0],[-85.7349,15.9576,0.4191],[-85.7301,15.956,2.5918],[-85.7288,15.9518,0.2289],[-85.7318,15.9479,1.0287],[-85.7349,15.9493,0.0],[-85.7374,15.9479,0.0],[-85.7371,15.9501,0.7685],[-85.7315,15.9501,0.0],[-85.7301,15.9521,0.0],[-85.7301,15.9543,0.7681],[-85.7326,15.9557,0.5442],[-85.7343,15.9554,1.0892],[-85.7337,15.9535,3.1319],[-85.7349,15.9532,2.7109],[-85.7354,15.956,0.2161],[-85.7396,15.9524,0.589],[-85.7416,15.9444,1.7807],[-85.7412,15.9417,1.6481],[-85.7382,15.941,0.9165],[-85.744,15.9085,6.3358],[-85.7435,15.8907,9.6973],[-85.7178,15.8687,14.495],[-85.7027,15.8483,14.9744],[-85.6945,15.8445,6.6045],[-85.6839,15.8447,10.6122],[-85.6764,15.8369,6.0876],[-85.6704,15.8379,7.2326],[-85.6675,15.833,7.1139],[-85.6659,15.8338,6.108],[-85.6646,15.8391,12.3923],[-85.6567,15.8381,4.7542],[-85.6572,15.8422,11.8712],[-85.6604,15.8475,4.1957],[-85.6585,15.8517,5.187],[-85.6508,15.8514,6.0473],[-85.6467,15.8559,5.1074],[-85.6433,15.85,6.2346],[-85.6363,15.8514,4.6536],[-85.6323,15.8499,2.2454],[-85.6308,15.8522,3.2466]]],
[[[-85.6882,15.9499,2.0649],[-85.6913,15.9496,0.0],[-85.691,15.9463,0.0],[-85.6865,15.9479,0.1503],[-85.6882,15.9499,2.0649]]]]}}