{"type": "Feature","bbox": [-87.8969,14.6922,-87.6844,14.9743],"geometry": {"type": "MultiPolygon","coordinates": [[[[-87.7513,14.6922,904.657],[-87.7508,14.7101,959.1847],[-87.7484,14.7156,823.7814],[-87.7505,14.7273,715.3001],[-87.7283,14.7365,900.5358],[-87.715,14.7664,700.9714],[-87.7155,14.7727,749.0472],[-87.7138,14.7775,719.1153],[-87.7059,14.7828,655.6924],[-87.6885,14.7859,385.0726],[-87.6886,14.7898,386.5518],[-87.6844,14.8017,300.6432],[-87.6892,14.8068,435.9122],[-87.6878,14.8216,293.4594],[-87.6883,14.8243,320.4439],[-87.6929,14.829,388.9246],[-87.6897,14.8306,352.6966],[-87.6898,14.8331,300.1223],[-87.6941,14.8342,334.304],[-87.6945,14.8381,362.8247],[-87.7004,14.8382,302.0415],[-87.7021,14.8369,342.7976],[-87.7035,14.8309,552.7385],[-87.706,14.8309,508.2592],[-87.7075,14.8351,280.265],[-87.709,14.8299,328.0897],[-87.7074,14.8378,269.0],[-87.7086,14.8401,272.4578],[-87.7116,14.8408,318.3351],[-87.716,14.8389,417.845],[-87.7178,14.8432,356.529],[-87.721,14.8452,371.4818],[-87.719,14.8538,269.0],[-87.7115,14.8667,269.0],[-87.7061,14.869,350.9825],[-87.7058,14.8778,269.0],[-87.7107,14.8821,343.416],[-87.71,14.8895,269.0],[-87.7023,14.894,414.6273],[-87.6966,14.8946,356.9352],[-87.6915,14.8992,273.3381],[-87.6925,14.904,290.2362],[-87.6956,14.9054,342.9496],[-87.6964,14.9075,293.728],[-87.696,14.912,335.5208],[-87.692,14.9193,269.0],[-87.6944,14.9237,290.0721],[-87.6947,14.9296,392.3014],[-87.697,14.9316,439.3067],[-87.6998,14.951,346.5358],[-87.7051,14.9553,463.7091],[-87.6989,14.96,269.0],[-87.6991,14.9612,269.0],[-87.7048,14.9611,333.4793],[-87.7079,14.9676,279.5454],[-87.719,14.9686,484.5238],[-87.7239,14.9735,330.9717],[-87.7271,14.9743,269.0],[-87.7298,14.9732,269.0],[-87.7279,14.9694,323.6013],[-87.7366,14.968,269.0],[-87.7391,14.9643,269.0],[-87.7384,14.9593,269.0],[-87.7505,14.9448,355.555],[-87.7558,14.9447,371.4093],[-87.7637,14.9394,433.86],[-87.78,14.9355,440.5879],[-87.7844,14.9296,283.4194],[-87.7848,14.9194,362.5829],[-87.7989,14.9233,313.1429],[-87.7989,14.9169,482.7019],[-87.8025,14.9089,491.2458],[-87.8091,14.905,464.7745],[-87.8139,14.9087,394.5727],[-87.8169,14.9015,430.9538],[-87.8242,14.9017,512.4789],[-87.824,14.8983,477.4915],[-87.8267,14.8963,520.8198],[-87.8326,14.8974,436.8397],[-87.8344,14.8951,488.9683],[-87.8401,14.896,504.6919],[-87.845,14.893,533.5613],[-87.8491,14.8857,583.921],[-87.8538,14.8837,592.6083],[-87.8526,14.8777,736.1087],[-87.8679,14.8692,779.1135],[-87.8717,14.8659,850.4233],[-87.8763,14.8563,1222.6825],[-87.8969,14.8411,1212.1989],[-87.8816,14.8336,1962.1562],[-87.8783,14.8299,1911.6212],[-87.8765,14.8251,1703.4171],[-87.8768,14.8124,1797.6724],[-87.8724,14.7875,1610.3064],[-87.8645,14.7667,1455.1521],[-87.8225,14.7083,1105.661],[-87.7513,14.6922,904.657]]]]}
,"properties": {"GID_2": "HND.4.11_1","GID_0": "HND","country": "Honduras","GID_1": "HND.4_1","province": "Comayagua","NL_NAME_1": "NA","county": "Meámbar","VARNAME_2": "NA","NL_NAME_2": "NA","TYPE_2": "Municipio","ENGTYPE_2": "Municipality","CC_2": "NA","HASC_2": "HN.CM.ME","name": "Meámbar.county","area_km2": 413.6554,"hist_schema_id": "Elevation0-9000","hist_area_km2": {"275": 7.6632999999999996,"300": 3.9754,"325": 6.2502,"350": 8.1152,"375": 10.8204,"400": 12.5005,"425": 13.6688,"450": 15.6568,"475": 20.6565,"500": 21.5173,"525": 21.4157,"550": 19.0183,"575": 16.9691,"600": 14.3259,"625": 11.8869,"650": 10.5958,"675": 10.043,"700": 9.0798,"725": 8.9983,"750": 8.7114,"775": 8.3223,"800": 6.9284,"825": 7.0723,"850": 7.3387,"875": 6.8062,"900": 6.6013,"925": 7.5032,"950": 7.483,"975": 7.6265,"1000": 7.0321,"1025": 7.5036,"1050": 7.0934,"1075": 7.4218,"1100": 5.7198,"1125": 5.4943,"1150": 4.8382,"1175": 5.1459,"1200": 3.7517,"1225": 4.4281,"1250": 3.2801,"1275": 3.4029,"1300": 3.3618,"1325": 2.6444,"1350": 2.5829,"1375": 2.3778,"1400": 1.6398,"1425": 1.3938,"1450": 1.7833,"1475": 1.2708,"1500": 1.0454,"1525": 1.1889,"1550": 1.2503,"1575": 0.8404,"1600": 1.0454,"1625": 0.8814,"1650": 0.8199,"1675": 0.7994,"1700": 0.7994,"1725": 0.8609,"1750": 0.6559,"1775": 0.6354,"1800": 0.5739,"1825": 0.5739,"1850": 0.5124,"1875": 0.3075,"1900": 0.4099,"1925": 0.164,"1950": 0.2255,"1975": 0.1435,"2000": 0.1845,"2025": 0.0205}}}