{"type":"Feature","properties":{"GID_2":"HND.4.2_1","GID_0":"HND","country":"Honduras","GID_1":"HND.4_1","province":"Comayagua","NL_NAME_1":"NA","county":"Comayagua","VARNAME_2":"NA","NL_NAME_2":"NA","TYPE_2":"Municipio","ENGTYPE_2":"Municipality","CC_2":"NA","HASC_2":"HN.CM.CO","name":"Comayagua.county"},
"geometry":{"type": "MultiPolygon","coordinates": [[[[-87.6544,14.3817,567.9698],[-87.6554,14.3759,570.9677],[-87.652,14.3692,571.6248],[-87.6584,14.3654,581.8831],[-87.6597,14.3606,585.1799],[-87.6556,14.3595,584.5455],[-87.6529,14.364,579.3867],[-87.6543,14.3553,585.2233],[-87.6416,14.3559,574.6703],[-87.6177,14.3664,615.292],[-87.591,14.3669,664.9454],[-87.5789,14.3707,710.7219],[-87.5577,14.37,871.3279],[-87.5551,14.3651,791.566],[-87.5513,14.3663,834.5437],[-87.5489,14.3707,914.8022],[-87.5425,14.37,951.3587],[-87.5376,14.3736,1023.6058],[-87.5034,14.3707,1075.7765],[-87.5032,14.367,1101.2737],[-87.5062,14.3588,947.5446],[-87.5031,14.355,917.2891],[-87.5024,14.3512,872.0183],[-87.4923,14.3563,957.8304],[-87.4812,14.3471,1101.1724],[-87.4769,14.347,1245.795],[-87.4728,14.3485,1261.6006],[-87.4699,14.3522,1226.9539],[-87.4623,14.3527,1305.1937],[-87.4516,14.3624,1295.2872],[-87.4478,14.3623,1306.5037],[-87.4462,14.37,1421.1713],[-87.4054,14.3706,1588.0282],[-87.3989,14.3893,1652.7139],[-87.3991,14.3909,1678.7834],[-87.4063,14.3937,1721.0131],[-87.4104,14.4068,1721.2168],[-87.4201,14.4073,1672.2262],[-87.4333,14.4105,1741.6672],[-87.4327,14.4133,1722.9664],[-87.4218,14.4161,1678.6671],[-87.4173,14.4207,1772.6306],[-87.4183,14.4309,1638.4027],[-87.4172,14.4391,1453.0159],[-87.4303,14.4395,1511.2251],[-87.4358,14.4475,1517.7827],[-87.4448,14.4491,1611.0454],[-87.4541,14.4595,1565.1344],[-87.4681,14.462,1705.2526],[-87.4839,14.5075,1553.3191],[-87.5179,14.5526,1949.1292],[-87.5619,14.5588,966.8353],[-87.5787,14.5574,968.2826],[-87.5856,14.5672,897.6803],[-87.5936,14.5709,757.4623],[-87.6069,14.5644,566.1621],[-87.6135,14.5657,569.8272],[-87.6191,14.5648,658.1083],[-87.6201,14.5672,591.3434],[-87.629,14.5679,617.4384],[-87.633,14.5706,548.0425],[-87.6309,14.5797,462.7526],[-87.6349,14.5883,499.8052],[-87.6374,14.5859,435.5641],[-87.6485,14.5841,538.4363],[-87.6552,14.58,740.6335],[-87.6637,14.5823,666.1346],[-87.6674,14.5816,517.0211],[-87.6721,14.5736,566.3187],[-87.6708,14.5685,730.7363],[-87.6768,14.566,727.9607],[-87.6865,14.5636,857.2623],[-87.6941,14.5696,557.769],[-87.6919,14.5628,757.3362],[-87.6936,14.5589,918.7293],[-87.7022,14.5539,670.106],[-87.7044,14.5541,669.7359],[-87.7078,14.5486,582.7717],[-87.712,14.546,623.8916],[-87.7617,14.5463,1123.5602],[-87.7629,14.5423,1206.7241],[-87.7763,14.5414,1113.3591],[-87.775,14.5349,1146.5314],[-87.7772,14.5269,1016.1819],[-87.7809,14.5216,913.2526],[-87.7827,14.5132,1024.3125],[-87.7799,14.5128,984.1161],[-87.7769,14.5091,945.3871],[-87.773,14.5075,940.759],[-87.7726,14.5052,875.5302],[-87.7696,14.5066,893.7497],[-87.7706,14.5038,872.0908],[-87.7657,14.5043,923.4711],[-87.7634,14.5005,869.928],[-87.7639,14.4947,932.0293],[-87.7602,14.4894,868.2253],[-87.7637,14.486,956.1108],[-87.7691,14.4864,968.9719],[-87.7783,14.4823,1064.7363],[-87.7845,14.4818,1227.5525],[-87.7967,14.4865,1246.6305],[-87.8122,14.4873,1365.4453],[-87.8204,14.496,1229.8381],[-87.8264,14.496,1189.113],[-87.8344,14.4987,1388.8326],[-87.8376,14.4968,1469.1136],[-87.8696,14.4982,1644.2889],[-87.8937,14.4897,1912.3141],[-87.8816,14.4833,2143.3027],[-87.8779,14.4781,2005.8677],[-87.8759,14.4705,2065.175],[-87.8605,14.4519,2092.0938],[-87.8521,14.4451,2366.3767],[-87.8514,14.4407,2340.0193],[-87.8443,14.4371,2162.5154],[-87.8433,14.4279,2030.9314],[-87.8398,14.4216,1821.1219],[-87.8484,14.415,1888.6617],[-87.8382,14.4026,2101.9126],[-87.8383,14.3982,2097.6987],[-87.8305,14.3829,2037.5879],[-87.8103,14.3841,2082.0889],[-87.7998,14.3806,2044.3901],[-87.7876,14.3803,1769.2494],[-87.7855,14.3812,1752.251],[-87.7782,14.3929,1546.5736],[-87.7683,14.4019,1626.6155],[-87.7594,14.4033,1186.7183],[-87.7443,14.4009,1051.2914],[-87.728,14.4053,874.5845],[-87.7166,14.415,684.0121],[-87.7158,14.4237,669.1636],[-87.7113,14.4255,649.0456],[-87.7092,14.4283,639.0679],[-87.7026,14.4214,627.9719],[-87.6958,14.423,606.8202],[-87.6876,14.4003,604.797],[-87.6607,14.395,574.1906],[-87.6544,14.3817,567.9698]]]]}}