{"type": "Feature","bbox": [-88.403,13.8654,-88.3453,13.9678],"geometry": {"type": "MultiPolygon","coordinates": [[[[-88.3453,13.8681,264.8798],[-88.3536,13.884,344.7415],[-88.3576,13.8957,411.0097],[-88.3574,13.8979,340.3067],[-88.3537,13.8997,348.321],[-88.3496,13.906,289.4833],[-88.3458,13.9182,265.2577],[-88.3489,13.9228,243.0367],[-88.3486,13.9277,245.3836],[-88.3522,13.9308,344.2406],[-88.3532,13.9421,332.679],[-88.3561,13.944,365.0392],[-88.3597,13.9554,517.824],[-88.365,13.9604,591.4321],[-88.3687,13.9678,629.3428],[-88.3836,13.9589,769.2783],[-88.3894,13.9623,785.1989],[-88.3969,13.9624,805.4211],[-88.4025,13.9647,786.1176],[-88.403,13.9606,727.8456],[-88.3975,13.9546,528.26],[-88.3953,13.9441,542.4449],[-88.3963,13.926,405.044],[-88.3987,13.9222,404.0635],[-88.3984,13.92,427.7827],[-88.3965,13.9182,343.1252],[-88.3896,13.918,372.0607],[-88.3857,13.9158,371.8691],[-88.3777,13.9028,178.9931],[-88.3734,13.8999,166.7388],[-88.377,13.8946,158.0523],[-88.3945,13.8832,160.0835],[-88.3947,13.881,126.2003],[-88.3769,13.8824,184.4234],[-88.3533,13.8654,168.8265],[-88.3453,13.8681,264.8798]]]]}
,"properties": {"GID_2": "HND.10.8_1","GID_0": "HND","country": "Honduras","GID_1": "HND.10_1","province": "Intibucá","NL_NAME_1": "NA","county": "Magdalena","VARNAME_2": "NA","NL_NAME_2": "NA","TYPE_2": "Municipio","ENGTYPE_2": "Municipality","CC_2": "NA","HASC_2": "HN.IN.MD","name": "Magdalena.county","area_km2": 39.18328,"hist_schema_id": "Elevation0-9000","hist_area_km2": {"125": 0.30874,"150": 1.29668,"175": 1.97583,"200": 2.44918,"225": 2.79901,"250": 2.42853,"275": 2.42847,"300": 2.71658,"325": 2.73714,"350": 3.29273,"375": 2.36664,"400": 2.34603,"425": 2.03733,"450": 1.23471,"475": 1.23466,"500": 0.80252,"525": 0.69962,"550": 0.8025,"575": 0.80249,"600": 0.57615,"625": 0.63787,"650": 0.59672,"675": 0.41153,"700": 0.69959,"725": 0.41152,"750": 0.34979,"775": 0.34979,"800": 0.20576,"825": 0.10288,"850": 0.04115,"875": 0.04115}}}