{"type": "Feature","bbox": [-87.2633,15.4108,-87.0756,15.7946],"geometry": {"type": "MultiPolygon","coordinates": [[[[-87.2542,15.4164,1105.0254],[-87.2439,15.4131,1030.3572],[-87.234,15.4137,1220.5706],[-87.2247,15.4174,1389.3976],[-87.2195,15.4115,1345.3267],[-87.2109,15.4108,1206.3401],[-87.2043,15.4188,1536.9857],[-87.2025,15.4298,1537.6779],[-87.1974,15.434,1357.6074],[-87.1852,15.4501,752.4843],[-87.1793,15.4506,630.3846],[-87.1697,15.4477,782.3015],[-87.1591,15.447,746.507],[-87.1412,15.4483,818.4166],[-87.1265,15.4643,835.6681],[-87.1097,15.4653,1087.3464],[-87.0829,15.4812,733.1852],[-87.0846,15.4916,575.5491],[-87.0777,15.497,501.1569],[-87.0781,15.5017,418.2645],[-87.0756,15.5043,487.5327],[-87.0782,15.5109,666.8654],[-87.0758,15.5155,819.2579],[-87.0756,15.5213,748.5607],[-87.0771,15.5257,639.9749],[-87.0823,15.5254,569.8242],[-87.0865,15.528,430.8793],[-87.0875,15.5373,569.7665],[-87.0846,15.5401,737.6001],[-87.0844,15.5436,688.093],[-87.0872,15.5459,452.0134],[-87.088,15.5507,211.1442],[-87.0946,15.5549,99.1007],[-87.0891,15.5672,78.6869],[-87.0907,15.5695,84.475],[-87.0967,15.5661,180.1659],[-87.098,15.5671,251.5225],[-87.0959,15.5716,225.4559],[-87.092,15.5718,133.4335],[-87.0918,15.5734,136.3611],[-87.094,15.5757,212.1016],[-87.0999,15.5771,347.0674],[-87.1008,15.5798,375.2104],[-87.0988,15.5864,306.3103],[-87.1018,15.5902,562.2738],[-87.0976,15.5978,208.6539],[-87.0952,15.6079,31.0779],[-87.0954,15.6124,29.6229],[-87.0982,15.6175,33.4524],[-87.0978,15.6223,28.6884],[-87.1015,15.6256,23.1383],[-87.1022,15.6308,24.3404],[-87.1043,15.6327,25.1551],[-87.1028,15.6371,23.5262],[-87.1071,15.6392,23.3682],[-87.105,15.6435,22.1227],[-87.111,15.6593,17.8959],[-87.1097,15.6634,17.8963],[-87.1157,15.6685,14.515],[-87.1223,15.6784,13.9251],[-87.1278,15.6836,11.8111],[-87.1318,15.6853,12.19],[-87.1367,15.6839,11.6262],[-87.1379,15.6861,11.7772],[-87.138,15.6922,9.6064],[-87.136,15.6963,10.2269],[-87.1349,15.7051,9.2396],[-87.1293,15.7195,7.8539],[-87.1311,15.7268,8.7895],[-87.1302,15.7301,6.3979],[-87.1096,15.7658,0.9664],[-87.1017,15.7699,3.1231],[-87.1025,15.7727,4.6832],[-87.1068,15.7721,1.2394],[-87.1162,15.7756,1.9581],[-87.1184,15.774,5.0777],[-87.1172,15.7779,3.5008],[-87.1219,15.7845,1.7112],[-87.1218,15.7879,0.0],[-87.1438,15.7899,0.5296],[-87.1421,15.7871,0.9361],[-87.1332,15.7849,0.9059],[-87.1326,15.7807,0.4187],[-87.1304,15.7796,0.9666],[-87.1329,15.7779,6.6076],[-87.1344,15.7849,2.5289],[-87.1363,15.784,0.0595],[-87.1343,15.7818,4.5233],[-87.1379,15.7818,7.5962],[-87.1451,15.7887,5.4117],[-87.1507,15.791,0.8958],[-87.1732,15.7946,0.7781],[-87.1721,15.787,0.9722],[-87.1562,15.7806,7.0986],[-87.1556,15.7757,14.4122],[-87.158,15.765,0.8748],[-87.1618,15.7623,1.9215],[-87.1612,15.7563,1.858],[-87.1642,15.7557,1.7038],[-87.1649,15.752,5.9989],[-87.1643,15.7423,5.5096],[-87.1625,15.7416,6.6569],[-87.1632,15.7354,9.3663],[-87.159,15.7286,8.563],[-87.162,15.7256,9.0931],[-87.1617,15.7147,12.4073],[-87.166,15.7051,15.0867],[-87.1658,15.6988,15.0458],[-87.1721,15.6918,15.0635],[-87.1754,15.6827,16.0736],[-87.1807,15.681,18.0795],[-87.1808,15.6777,18.9707],[-87.1875,15.6713,20.7116],[-87.1915,15.671,19.5069],[-87.1893,15.6693,23.1542],[-87.1901,15.6634,26.2544],[-87.1929,15.6651,25.741],[-87.1943,15.6631,25.8063],[-87.2015,15.6611,26.9139],[-87.2036,15.6636,24.6306],[-87.2052,15.6634,25.124],[-87.2107,15.6572,24.5508],[-87.2094,15.6545,27.5152],[-87.2122,15.6555,28.181],[-87.2136,15.6525,29.3248],[-87.2175,15.6522,28.8652],[-87.2183,15.6572,28.6185],[-87.2199,15.6554,30.104],[-87.2217,15.6574,44.5066],[-87.223,15.6558,60.7671],[-87.2289,15.6553,63.5209],[-87.2275,15.6516,47.4273],[-87.2292,15.6479,38.0178],[-87.2373,15.6474,40.017],[-87.2391,15.6455,49.8387],[-87.237799999999993,15.6415,41.5385],[-87.2402,15.6433,36.477],[-87.246,15.6412,48.2728],[-87.2497,15.6355,50.7363],[-87.2493,15.6308,36.919],[-87.2459,15.629,35.9401],[-87.2462,15.623,48.595],[-87.2383,15.6186,44.1662],[-87.2376,15.6076,45.0579],[-87.2395,15.6051,52.1051],[-87.2448,15.6064,53.2529],[-87.2436,15.5969,67.2377],[-87.2478,15.5951,96.6725],[-87.247,15.5872,184.4404],[-87.2419,15.5851,211.2204],[-87.2407,15.5831,296.2705],[-87.2423,15.5772,357.7189],[-87.2393,15.568,319.3615],[-87.2503,15.5577,504.5109],[-87.2506,15.5559,482.6746],[-87.2476,15.5527,461.3199],[-87.2518,15.548,786.0109],[-87.2495,15.5391,601.9196],[-87.246,15.5393,598.7762],[-87.2465,15.5283,682.0812],[-87.2434,15.5137,926.0095],[-87.2455,15.5077,1000.8365],[-87.2429,15.5063,950.3824],[-87.2421,15.5033,986.0692],[-87.2477,15.4997,1219.9811],[-87.2507,15.4922,1293.7996],[-87.2493,15.4801,839.1146],[-87.2569,15.476,1067.582],[-87.2559,15.4657,1201.8993],[-87.2588,15.4646,1172.5544],[-87.2577,15.4613,1399.0776],[-87.2597,15.4601,1519.3501],[-87.2562,15.4552,1230.0276],[-87.2596,15.4522,1221.5603],[-87.2633,15.4376,1640.3905],[-87.26,15.4263,1314.9218],[-87.2534,15.4239,1271.7349],[-87.2542,15.4164,1105.0254]]]]}
,"properties": {"GID_2": "HND.1.6_1","GID_0": "HND","country": "Honduras","GID_1": "HND.1_1","province": "Atlántida","NL_NAME_1": "NA","county": "LaMasica","VARNAME_2": "NA","NL_NAME_2": "NA","TYPE_2": "Municipio","ENGTYPE_2": "Municipality","CC_2": "NA","HASC_2": "HN.AT.LM","name": "La_Masica.county","area_km2": 470.7356,"hist_schema_id": "Elevation0-9000","hist_area_km2": {"0": 44.181,"25": 96.7128,"50": 22.2173,"75": 7.4539,"100": 5.8613,"125": 6.0861,"150": 6.5765,"175": 7.6796,"200": 7.6594,"225": 8.0271,"250": 7.7208,"275": 8.8648,"300": 8.7423,"325": 9.0285,"350": 8.6406,"375": 9.6416,"400": 8.3345,"425": 9.1312,"450": 8.7637,"475": 8.5186,"500": 9.009,"525": 9.0499,"550": 8.1513,"575": 9.2343,"600": 10.2356,"625": 9.6023,"650": 8.5809,"675": 7.7228,"700": 7.6002,"725": 7.1918,"750": 6.3542,"775": 6.293,"800": 5.5984,"825": 4.8629,"850": 4.5974,"875": 4.2909,"900": 3.8618,"925": 3.4532,"950": 3.1264,"975": 2.9016,"1000": 2.4725,"1025": 2.7178,"1050": 2.207,"1075": 2.2683,"1100": 1.8392,"1125": 2.1049,"1150": 2.3501,"1175": 1.6962,"1200": 2.1049,"1225": 1.9006,"1250": 2.0232,"1275": 1.5123,"1300": 1.8393,"1325": 1.5737,"1350": 1.2262,"1375": 1.2058,"1400": 1.2058,"1425": 0.8788,"1450": 0.7971,"1475": 0.9606,"1500": 0.9606,"1525": 0.7358,"1550": 0.5927,"1575": 0.6745,"1600": 0.3679,"1625": 0.3066,"1650": 0.1635,"1675": 0.2044,"1700": 0.0817,"1725": 0.1022,"1750": 0.0817,"1775": 0.0204}}}