{"type": "Feature","bbox": [-88.8227,14.1725,-88.6813,14.2642],"geometry": {"type": "MultiPolygon","coordinates": [[[[-88.7397,14.1725,1055.4474],[-88.7151,14.1725,1013.2955],[-88.7151,14.1753,1032.3401],[-88.7127,14.1774,918.9171],[-88.7076,14.1906,665.136],[-88.6897,14.1843,490.9406],[-88.6847,14.1802,411.8566],[-88.6813,14.1838,419.2753],[-88.6831,14.1868,439.4825],[-88.6824,14.193,409.6532],[-88.6865,14.1932,329.8371],[-88.686,14.1953,343.0304],[-88.6882,14.1991,434.7528],[-88.6877,14.2006,394.7487],[-88.6835,14.2009,421.9054],[-88.6862,14.2068,363.6721],[-88.7036,14.2166,586.3613],[-88.7199,14.2097,591.0834],[-88.7332,14.2099,522.9811],[-88.7348,14.2145,518.0615],[-88.7407,14.2161,613.9753],[-88.7499,14.2113,846.8429],[-88.7582,14.2097,1082.7965],[-88.7622,14.2098,1032.5281],[-88.7657,14.212,1036.9573],[-88.7711,14.2102,1124.665],[-88.7811,14.2123,1159.0215],[-88.7868,14.2178,1169.9675],[-88.7592,14.2315,868.4878],[-88.7574,14.2421,851.2706],[-88.759,14.2441,905.3383],[-88.7625,14.2445,966.0888],[-88.7658,14.2499,1027.3213],[-88.7705,14.2532,1003.8074],[-88.7709,14.2566,962.4288],[-88.7736,14.2594,1021.3507],[-88.778,14.26,1156.1602],[-88.78,14.2642,1057.0269],[-88.794,14.2521,1443.6581],[-88.8044,14.2486,1186.9379],[-88.8071,14.2452,1275.6578],[-88.8124,14.2431,1256.6255],[-88.8087,14.2237,952.1096],[-88.819,14.2195,782.8943],[-88.8227,14.2132,828.9979],[-88.8217,14.2097,845.8304],[-88.7919,14.2,733.3546],[-88.7874,14.1893,638.5676],[-88.7622,14.1903,889.4595],[-88.7597,14.1871,1038.8265],[-88.7445,14.1778,1117.3196],[-88.7397,14.1725,1055.4474]]]]}
,"properties": {"GID_2": "HND.13.25_1","GID_0": "HND","country": "Honduras","GID_1": "HND.13_1","province": "Lempira","NL_NAME_1": "NA","county": "Tambla","VARNAME_2": "NA","NL_NAME_2": "NA","TYPE_2": "Municipio","ENGTYPE_2": "Municipality","CC_2": "NA","HASC_2": "HN.LE.TB","name": "Tambla.county","area_km2": 62.25626,"hist_schema_id": "Elevation0-9000","hist_area_km2": {"300": 0.02056,"325": 0.24666,"350": 0.4522,"375": 0.65774,"400": 0.76052,"425": 0.98661,"450": 1.19217,"475": 1.43881,"500": 1.25381,"525": 0.78107,"550": 1.15103,"575": 0.96605,"600": 0.86327,"625": 0.94549,"650": 1.31548,"675": 1.31549,"700": 1.33603,"725": 1.62379,"750": 1.43881,"775": 1.74714,"800": 1.72657,"825": 1.87045,"850": 1.78823,"875": 1.80879,"900": 1.99377,"925": 2.24045,"950": 2.44595,"975": 1.95265,"1000": 1.80876,"1025": 1.97318,"1050": 2.05533,"1075": 2.19922,"1100": 2.40466,"1125": 1.78805,"1150": 1.56196,"1175": 1.60303,"1200": 1.62357,"1225": 1.15086,"1250": 1.23305,"1275": 1.2536,"1300": 1.25359,"1325": 0.98642,"1350": 1.00697,"1375": 0.61651,"1400": 0.55485,"1425": 0.2466,"1450": 0.2877,"1475": 0.1233,"1500": 0.14385,"1525": 0.02055,"1550": 0.02055,"1575": 0.02055}}}