{"type":"Feature","properties":{"GID_2":"HND.13.4_1","GID_0":"HND","country":"Honduras","GID_1":"HND.13_1","province":"Lempira","NL_NAME_1":"NA","county":"Erandique","VARNAME_2":"NA","NL_NAME_2":"NA","TYPE_2":"Municipio","ENGTYPE_2":"Municipality","CC_2":"NA","HASC_2":"HN.LE.ER","name":"Erandique.county"},
"geometry":{"type": "MultiPolygon","coordinates": [[[[-88.4075,14.2646,1215.4902],[-88.4053,14.2703,1175.5352],[-88.4128,14.3175,1199.2734],[-88.4195,14.3377,1214.9879],[-88.4215,14.3488,1158.5229],[-88.4312,14.3535,1340.9019],[-88.4406,14.352,1306.5271],[-88.4476,14.3439,1373.5176],[-88.4545,14.3427,1426.1931],[-88.4574,14.339,1466.5607],[-88.4625,14.3386,1453.2828],[-88.4641,14.3352,1455.3961],[-88.4694,14.3336,1505.1321],[-88.4734,14.3287,1507.364],[-88.4784,14.3275,1469.5948],[-88.497,14.2828,1698.4978],[-88.5031,14.2813,1825.4436],[-88.5062,14.286,1793.627],[-88.5081,14.2865,1789.2068],[-88.5112,14.2862,1764.5229],[-88.5184,14.2816,1677.9293],[-88.5277,14.2796,1648.1523],[-88.5405,14.2826,1500.8424],[-88.5588,14.27,1181.4734],[-88.5548,14.2665,1179.173],[-88.549,14.2672,1331.0916],[-88.5451,14.2647,1385.7372],[-88.5322,14.2505,1747.1593],[-88.526,14.2338,1731.8596],[-88.5266,14.2178,1757.2144],[-88.5225,14.2085,1807.2343],[-88.5133,14.1995,1719.4635],[-88.5264,14.1945,1550.2712],[-88.5265,14.1726,1713.5432],[-88.5203,14.1625,1633.4845],[-88.4931,14.1458,1206.2542],[-88.4879,14.1364,1371.2316],[-88.4792,14.1361,1208.0746],[-88.4759,14.1235,1524.4432],[-88.4774,14.1107,1444.5076],[-88.473,14.1135,1462.5403],[-88.4719,14.12,1509.6505],[-88.4691,14.1216,1285.1973],[-88.4642,14.1216,1128.4814],[-88.4545,14.1178,919.4951],[-88.4471,14.1202,778.8715],[-88.4404,14.1195,640.0542],[-88.4368,14.1216,609.6335],[-88.4302,14.1219,512.744],[-88.4314,14.1251,470.295],[-88.4296,14.1294,529.6584],[-88.4299,14.1349,570.0458],[-88.4272,14.1346,564.0269],[-88.4268,14.1369,596.6008],[-88.4195,14.1398,747.782],[-88.4094,14.148,914.58],[-88.4035,14.1619,672.369],[-88.3901,14.168,913.5604],[-88.3882,14.1718,906.3022],[-88.383,14.171,939.2922],[-88.3681,14.1734,1152.3506],[-88.344,14.1984,1176.4207],[-88.3438,14.2026,1068.3901],[-88.3268,14.2078,852.0414],[-88.3289,14.213,977.9086],[-88.334,14.212,1219.6146],[-88.3571,14.2173,1082.3621],[-88.3633,14.2166,964.5754],[-88.3666,14.218,958.5007],[-88.3809,14.216,954.4142],[-88.3862,14.2207,1011.7721],[-88.3934,14.2213,1005.8901],[-88.3954,14.2235,1072.0205],[-88.3984,14.2238,1068.7333],[-88.4012,14.2282,1092.462],[-88.4082,14.2295,1156.1753],[-88.4165,14.2337,1210.1862],[-88.4196,14.2406,1221.5186],[-88.4194,14.2465,1002.5903],[-88.4075,14.2646,1215.4902]]]]}}