{"type": "Feature","bbox": [-88.3396,14.6308,-88.131,14.7721],"geometry": {"type": "MultiPolygon","coordinates": [[[[-88.1532,14.6441,882.0132],[-88.1434,14.6794,786.6257],[-88.1389,14.6892,568.2071],[-88.1381,14.6953,569.5637],[-88.14,14.6976,556.2397],[-88.14,14.7011,528.3286],[-88.1394,14.7029,478.3511],[-88.1331,14.7049,412.2994],[-88.131,14.7091,350.3129],[-88.1319,14.7137,320.502],[-88.1384,14.7196,308.2965],[-88.139,14.724,283.7298],[-88.142,14.7283,279.5549],[-88.1425,14.7298,279.6887],[-88.1387,14.7337,286.2569],[-88.1414,14.7374,340.539],[-88.1496,14.739,308.4921],[-88.1564,14.7444,369.9017],[-88.1598,14.7517,380.3691],[-88.1629,14.7535,323.1622],[-88.1808,14.7504,390.4902],[-88.1845,14.755,443.059],[-88.1959,14.7538,412.8755],[-88.1978,14.7583,360.0774],[-88.2012,14.7598,462.8192],[-88.1986,14.7627,354.1802],[-88.1991,14.766,264.4704],[-88.2067,14.7717,244.1781],[-88.213,14.7695,266.1876],[-88.2161,14.7721,339.6426],[-88.2194,14.7686,365.8326],[-88.2191,14.7634,299.6193],[-88.2246,14.7602,327.0953],[-88.229,14.7517,399.2901],[-88.2245,14.7435,389.4745],[-88.2272,14.7372,495.7899],[-88.2295,14.736,564.7295],[-88.2314,14.7312,549.799],[-88.2351,14.7277,638.3802],[-88.2389,14.701,808.7855],[-88.2462,14.6898,616.2627],[-88.2522,14.6848,797.6671],[-88.264,14.6865,704.002],[-88.2741,14.685,758.3678],[-88.2771,14.6866,793.5459],[-88.2812,14.6929,932.6595],[-88.3108,14.6991,1494.5604],[-88.3127,14.6701,1479.0015],[-88.3271,14.6509,1825.033],[-88.3396,14.6401,2075.0327],[-88.2823,14.6319,1523.5769],[-88.2462,14.6308,1204.2775],[-88.2319,14.6386,992.8718],[-88.2249,14.6403,872.3311],[-88.1532,14.6441,882.0132]]]]}
,"properties": {"GID_2": "HND.16.19_1","GID_0": "HND","country": "Honduras","GID_1": "HND.16_1","province": "SantaBárbara","NL_NAME_1": "NA","county": "SanFranciscodeOjuera","VARNAME_2": "NA","NL_NAME_2": "NA","TYPE_2": "Municipio","ENGTYPE_2": "Municipality","CC_2": "NA","HASC_2": "HN.SB.SF","name": "San_Franciscode_Ojuera.county","area_km2": 183.908,"hist_schema_id": "Elevation0-9000","hist_area_km2": {"225": 0.0205,"250": 0.2255,"275": 1.5172,"300": 2.0299,"325": 2.6861,"350": 3.9165,"375": 4.019,"400": 5.0443,"425": 5.0648,"450": 5.7621,"475": 7.977,"500": 7.0749,"525": 6.8905,"550": 6.5216,"575": 6.7472,"600": 6.9319,"625": 6.1323,"650": 6.8912,"675": 6.7477,"700": 5.6608,"725": 4.7789,"750": 4.4917,"775": 3.979,"800": 3.3228,"825": 2.8305,"850": 2.9741,"875": 2.9946,"900": 2.9742,"925": 3.2408,"950": 3.5075,"975": 3.0563,"1000": 2.8922,"1025": 2.8512,"1050": 2.3589,"1075": 2.6461,"1100": 2.7076,"1125": 2.3589,"1150": 2.0512,"1175": 1.4154,"1200": 1.4359,"1225": 1.2718,"1250": 1.1692,"1275": 1.5795,"1300": 1.5385,"1325": 1.2513,"1350": 1.0051,"1375": 1.3128,"1400": 1.7641,"1425": 1.723,"1450": 1.5179,"1475": 1.7435,"1500": 1.3948,"1525": 1.1691,"1550": 0.923,"1575": 0.5743,"1600": 0.3487,"1625": 0.1846,"1650": 0.1846,"1675": 0.4103,"1700": 0.4308,"1725": 0.5333,"1750": 0.2872,"1775": 0.4103,"1800": 0.6564,"1825": 0.759,"1850": 0.6359,"1875": 0.9026,"1900": 0.6975,"1925": 0.4103,"1950": 0.2462,"1975": 0.1231,"2000": 0.0205}}}