{"type": "Feature","bbox": [-86.6026,15.9521,-86.3371,16.403],"geometry": {"type": "MultiPolygon","coordinates": [[[[-86.4979,15.9654,1.6958],[-86.4999,15.9663,0.0],[-86.4993,15.9632,6.7381],[-86.5032,15.9579,29.4642],[-86.5071,15.9588,0.0],[-86.5076,15.9565,0.0],[-86.5013,15.9521,14.205],[-86.4982,15.9521,0.8649],[-86.4957,15.9571,0.0],[-86.4979,15.9654,1.6958]]],
[[[-86.4724,15.9613,0.0],[-86.4726,15.9596,0.0],[-86.4707,15.9601,0.0],[-86.4707,15.9624,0.0],[-86.4724,15.9613,0.0]]],
[[[-86.476,15.9813,2.642],[-86.4776,15.9815,2.642],[-86.4785,15.9779,36.0849],[-86.484,15.9776,0.0],[-86.4863,15.9749,0.0],[-86.479,15.9735,25.2083],[-86.4801,15.9674,0.0],[-86.4754,15.9637,0.0],[-86.4724,15.9668,8.1481],[-86.4726,15.9701,42.9449],[-86.4685,15.9765,0.0],[-86.4701,15.9793,24.7341],[-86.476,15.9813,2.642]]],
[[[-86.536,16.311,6.2081],[-86.5371,16.3126,0.0],[-86.5379,16.3093,1.9932],[-86.5362,16.3099,0.0],[-86.536,16.311,6.2081]]],
[[[-86.5032,16.3207,0.0],[-86.5049,16.3213,0.233],[-86.5057,16.3201,0.0],[-86.5032,16.319,0.4697],[-86.5032,16.3207,0.0]]],
[[[-86.4757,16.3354,1.4845],[-86.4785,16.3346,0.5152],[-86.4751,16.3335,0.0],[-86.4743,16.3349,0.1558],[-86.4757,16.3354,1.4845]]],
[[[-86.3632,16.3883,2.1932],[-86.3626,16.3868,0.0],[-86.3596,16.3879,2.2264],[-86.3585,16.3865,0.0],[-86.3549,16.3879,0.0],[-86.3535,16.3901,0.0],[-86.3535,16.3968,0.2214],[-86.3524,16.3963,0.2214],[-86.3532,16.3921,6.2569],[-86.3507,16.3899,0.0],[-86.3432,16.3921,0.4349],[-86.3439,16.3952,3.5103],[-86.3397,16.3954,1.99],[-86.341,16.3932,0.0],[-86.3374,16.3918,0.0],[-86.3371,16.3937,0.0],[-86.3401,16.3976,14.4196],[-86.3396,16.4018,3.8876],[-86.3455,16.3962,49.2328],[-86.351,16.3955,26.0287],[-86.3551,16.3999,3.2518],[-86.3696,16.4019,36.7957],[-86.3739,16.4004,35.5544],[-86.3772,16.403,26.2563],[-86.3798,16.4029,30.9641],[-86.3856,16.3971,21.5075],[-86.3914,16.3949,52.8696],[-86.3951,16.3886,41.7443],[-86.4059,16.3857,98.1516],[-86.4078,16.38,99.0016],[-86.4112,16.3767,30.9304],[-86.4232,16.3737,16.898],[-86.4252,16.3688,25.1164],[-86.4281,16.3675,18.1797],[-86.438,16.3679,37.1183],[-86.4369,16.3829,0.0],[-86.4376,16.3799,2.572],[-86.4401,16.3782,8.2675],[-86.4507,16.3754,6.3402],[-86.4604,16.379,0.0],[-86.4854,16.3649,13.1128],[-86.4921,16.3671,0.0],[-86.4954,16.3665,2.7642],[-86.4976,16.3604,3.9363],[-86.4996,16.3604,1.0591],[-86.5013,16.3582,5.2804],[-86.504,16.3585,3.2365],[-86.5115,16.3535,3.9645],[-86.5154,16.3554,1.5721],[-86.5126,16.3599,0.0],[-86.5185,16.3565,1.5368],[-86.5176,16.3551,0.9269],[-86.5204,16.3496,5.5283],[-86.5221,16.3499,1.0098],[-86.524,16.356,0.0],[-86.5274,16.3512,2.8905],[-86.531,16.3493,11.8828],[-86.5376,16.3493,0.5991],[-86.5385,16.346,2.055],[-86.5462,16.3454,7.9445],[-86.5612,16.3365,1.5321],[-86.5701,16.3285,13.4548],[-86.5732,16.3293,1.0451],[-86.5718,16.3265,18.9826],[-86.5743,16.3263,3.0854],[-86.5765,16.3229,0.0],[-86.5843,16.3185,6.6602],[-86.5821,16.3163,6.2919],[-86.5837,16.3137,9.3889],[-86.5874,16.3176,0.0],[-86.5871,16.3154,4.4132],[-86.5893,16.3157,0.0],[-86.591,16.314,0.0],[-86.5896,16.3074,2.3845],[-86.5921,16.3118,0.0],[-86.594,16.3113,0.0],[-86.5951,16.3082,0.0],[-86.5926,16.3065,10.6763],[-86.5954,16.3057,0.0],[-86.594,16.3037,0.6391],[-86.5949,16.2929,10.4399],[-86.5965,16.2865,9.3318],[-86.6004,16.2801,2.0452],[-86.5993,16.2738,1.5489],[-86.6026,16.269,0.0],[-86.6024,16.2671,0.7999],[-86.5987,16.2671,0.0],[-86.5801,16.2818,0.0],[-86.5796,16.2846,0.0],[-86.581,16.2854,1.5154],[-86.5768,16.2854,0.0],[-86.5701,16.2915,0.0],[-86.5704,16.2935,2.2675],[-86.5646,16.296,0.0],[-86.5549,16.306,0.0],[-86.5549,16.3085,0.3093],[-86.5512,16.3132,5.7248],[-86.5462,16.3146,2.2496],[-86.5449,16.3124,1.2702],[-86.5437,16.3143,5.3008],[-86.5404,16.3151,0.2064],[-86.5401,16.3135,0.0],[-86.5382,16.3132,0.0],[-86.5315,16.314,5.4596],[-86.5312,16.3121,0.5142],[-86.5126,16.3196,0.0],[-86.5121,16.3218,1.2808],[-86.5104,16.3204,0.0],[-86.5068,16.321,1.4431],[-86.5062,16.3235,1.6462],[-86.501,16.3246,2.2106],[-86.5007,16.3279,1.9362],[-86.4974,16.3304,0.2211],[-86.4965,16.3218,0.0],[-86.4929,16.3201,0.0],[-86.4949,16.3235,0.5436],[-86.4929,16.3218,0.0],[-86.4851,16.3238,0.0],[-86.4843,16.3296,5.4804],[-86.4818,16.3304,0.0],[-86.4829,16.3329,0.2211],[-86.4863,16.3335,1.1355],[-86.4857,16.3357,2.8764],[-86.4799,16.3363,0.3692],[-86.4762,16.3388,6.0578],[-86.4746,16.3368,0.0],[-86.4749,16.3399,1.3063],[-86.4685,16.3435,0.0],[-86.4601,16.3515,1.0997],[-86.4596,16.351,1.0997],[-86.461,16.3485,1.6503],[-86.4599,16.3474,1.6503],[-86.4565,16.3499,0.7418],[-86.4526,16.3501,0.0],[-86.4529,16.3543,0.0],[-86.4496,16.3538,4.8228],[-86.4404,16.3568,0.0],[-86.4404,16.3593,0.7323],[-86.4351,16.3615,0.5684],[-86.4349,16.3629,7.1271],[-86.4315,16.3626,4.1708],[-86.4332,16.3599,0.997],[-86.4324,16.3585,0.0],[-86.4199,16.3596,0.0],[-86.419,16.3693,1.806],[-86.4165,16.3657,11.4597],[-86.4187,16.3624,0.0],[-86.4182,16.3604,0.0],[-86.4135,16.361,0.0],[-86.4112,16.3643,0.0],[-86.4129,16.3682,7.7395],[-86.4107,16.3693,3.9728],[-86.4096,16.3657,2.0969],[-86.4037,16.366,1.7269],[-86.3999,16.3668,0.0],[-86.3996,16.3685,4.2354],[-86.4026,16.3699,6.8729],[-86.3987,16.371,15.0371],[-86.3943,16.3662,0.0],[-86.3921,16.3662,0.6571],[-86.3854,16.3757,4.1866],[-86.3885,16.3813,0.0],[-86.3876,16.3843,1.127],[-86.3854,16.3846,1.069],[-86.3821,16.3782,0.2126],[-86.3799,16.381,2.1074],[-86.3749,16.3824,4.6236],[-86.3796,16.3915,5.6755],[-86.3768,16.3896,1.5713],[-86.3763,16.3929,14.102],[-86.3737,16.3901,0.0],[-86.3726,16.3832,0.4158],[-86.3707,16.3849,1.1167],[-86.371,16.3868,1.1338],[-86.3693,16.3863,0.0],[-86.3665,16.3882,0.0],[-86.3662,16.3951,4.6782],[-86.3643,16.3926,25.2467],[-86.3646,16.3893,0.0],[-86.3625,16.3896,7.7102],[-86.3632,16.3883,2.1932]]],
[[[-86.4679,16.3415,0.5192],[-86.4696,16.3424,2.8488],[-86.4721,16.3393,0.0],[-86.4696,16.339,1.5163],[-86.4679,16.3415,0.5192]]],
[[[-86.4618,16.3479,0.4257],[-86.4638,16.3479,1.068],[-86.4635,16.3457,0.0],[-86.4615,16.3465,0.8409],[-86.4618,16.3479,0.4257]]],
[[[-86.4424,16.3518,0.0],[-86.4426,16.3529,0.0],[-86.4457,16.3521,0.0],[-86.4451,16.3504,0.0],[-86.4424,16.3518,0.0]]],
[[[-86.4385,16.3574,8.7576],[-86.4365,16.3576,1.8001],[-86.4357,16.3596,3.4578],[-86.4382,16.359,3.5254],[-86.4385,16.3574,8.7576]]]]}
,"properties": {"GID_2": "HND.11.3_1","GID_0": "HND","country": "Honduras","GID_1": "HND.11_1","province": "IslasdelaBahía","NL_NAME_1": "NA","county": "Roatán","VARNAME_2": "NA","NL_NAME_2": "NA","TYPE_2": "Municipio","ENGTYPE_2": "Municipality","CC_2": "NA","HASC_2": "HN.IB.RO","name": "Roatán.county","area_km2": 82.5473,"hist_schema_id": "Elevation0-9000","hist_area_km2": {"0": 21.07894,"25": 24.29321,"50": 15.93208,"75": 10.78433,"100": 5.90087,"125": 2.50285,"150": 1.40392,"175": 0.48832,"200": 0.14242,"225": 0.02035}}}