{"type":"Feature","properties":{"GID_2":"HND.3.1_1","GID_0":"HND","country":"Honduras","GID_1":"HND.3_1","province":"Colón","NL_NAME_1":"NA","county":"Balfate","VARNAME_2":"NA","NL_NAME_2":"NA","TYPE_2":"Municipio","ENGTYPE_2":"Municipality","CC_2":"NA","HASC_2":"HN.CL.BA","name":"Balfate.county"},
"geometry":{"type": "MultiPolygon","coordinates": [[[[-86.3933,15.5998,334.3044],[-86.3743,15.6048,266.6517],[-86.3693,15.6125,290.2106],[-86.3733,15.6181,455.1324],[-86.3687,15.6581,351.0439],[-86.3696,15.6624,428.5807],[-86.3719,15.6643,415.062],[-86.353,15.6722,448.3844],[-86.3454,15.6803,550.0079],[-86.2659,15.7187,899.0075],[-86.2408,15.7288,726.1741],[-86.2041,15.7513,853.9903],[-86.1572,15.7561,219.973],[-86.1851,15.8262,911.1693],[-86.1919,15.8309,738.0463],[-86.1947,15.8347,799.7526],[-86.1938,15.8372,978.7486],[-86.1865,15.8399,1083.7631],[-86.1845,15.8466,923.1192],[-86.1907,15.8573,509.9838],[-86.1968,15.8599,488.6138],[-86.1993,15.8637,287.1823],[-86.1985,15.8724,115.7429],[-86.2018,15.8773,36.4356],[-86.1937,15.8812,22.4704],[-86.201,15.8813,1.0974],[-86.2046,15.8785,30.7361],[-86.2087,15.8779,0.0],[-86.2115,15.874,11.334],[-86.2218,15.871,0.0],[-86.2329,15.8599,0.0],[-86.2393,15.856,0.0],[-86.2454,15.846,0.6533],[-86.2549,15.8426,2.1801],[-86.2551,15.8399,8.3732],[-86.2624,15.8296,0.9672],[-86.2743,15.8246,0.8492],[-86.2851,15.8129,2.2178],[-86.3104,15.804,1.3521],[-86.3324,15.8018,0.7704],[-86.336,15.7965,1.0692],[-86.3457,15.794,0.4295],[-86.3504,15.786,0.4774],[-86.3587,15.7807,2.4266],[-86.371,15.7801,5.0396],[-86.3943,15.7863,2.5607],[-86.4032,15.7793,1.9817],[-86.4132,15.7779,2.9687],[-86.4229,15.7801,3.8529],[-86.4415,15.7876,0.433],[-86.471,15.8035,6.5407],[-86.4815,15.8112,0.3513],[-86.4921,15.8157,0.0],[-86.5038,15.8165,0.0],[-86.5118,15.8138,0.0],[-86.5107,15.8061,4.179],[-86.5007,15.7976,8.6081],[-86.4966,15.7983,10.3841],[-86.4939,15.7969,7.7139],[-86.4687,15.7778,12.6243],[-86.4684,15.7748,15.3302],[-86.4765,15.7734,7.7927],[-86.4775,15.765,13.9727],[-86.4771,15.7617,14.9197],[-86.4735,15.756,17.7023],[-86.4725,15.7388,149.5722],[-86.4687,15.7267,120.3291],[-86.4647,15.723,78.2782],[-86.4481,15.717,155.7607],[-86.4377,15.716,152.9031],[-86.4263,15.7039,251.7122],[-86.4246,15.7002,239.6205],[-86.4256,15.6834,386.2028],[-86.4232,15.677,215.0597],[-86.4152,15.6777,302.8912],[-86.4111,15.673,271.7889],[-86.3994,15.6743,257.0306],[-86.3937,15.6679,266.944],[-86.3933,15.6454,284.3163],[-86.391,15.6394,270.1515],[-86.391,15.6364,281.9575],[-86.3937,15.6344,204.6858],[-86.3937,15.6152,224.1869],[-86.3913,15.6102,290.9336],[-86.3933,15.5998,334.3044]]]]}}