{"type": "Feature","bbox": [-88.3576,13.8681,-88.2013,14.0731],"geometry": {"type": "MultiPolygon","coordinates": [[[[-88.2117,13.9815,896.2059],[-88.2098,13.9972,702.7478],[-88.2066,14.0048,953.604],[-88.2013,14.0372,1272.4563],[-88.2098,14.0455,1275.6475],[-88.2163,14.0493,1124.5002],[-88.2201,14.0496,1046.2128],[-88.2248,14.0539,1026.967],[-88.2265,14.0591,1081.087],[-88.2312,14.0628,956.4445],[-88.2325,14.0709,852.8044],[-88.2453,14.0731,918.9288],[-88.2488,14.0702,790.5403],[-88.249,14.0651,758.8108],[-88.2537,14.0604,907.5319],[-88.262,14.0575,898.4514],[-88.2712,14.0472,414.9221],[-88.2771,14.0468,354.5811],[-88.2809,14.0441,310.121],[-88.2833,14.0372,450.6482],[-88.2834,14.0322,559.182],[-88.2815,14.03,560.3682],[-88.2722,14.0326,480.8561],[-88.2695,14.037,444.5346],[-88.2647,14.029,482.3644],[-88.2876,14.007,675.3471],[-88.2994,14.0104,656.8339],[-88.3292,13.9874,673.1759],[-88.3355,13.9776,837.5157],[-88.3358,13.9748,789.0635],[-88.3341,13.9695,793.3781],[-88.3285,13.9682,554.9852],[-88.3284,13.9662,526.6254],[-88.3392,13.96,482.386],[-88.338,13.9521,426.5948],[-88.3407,13.9488,376.1505],[-88.3499,13.9451,393.6204],[-88.3532,13.9421,332.679],[-88.3522,13.9308,344.2406],[-88.3486,13.9277,245.3836],[-88.3489,13.9228,243.0367],[-88.3457,13.9174,265.2577],[-88.3496,13.906,289.4833],[-88.3537,13.8997,348.321],[-88.3574,13.8979,340.3067],[-88.3576,13.8957,411.0097],[-88.3536,13.884,344.7415],[-88.3453,13.8681,264.8798],[-88.255,13.8974,458.2341],[-88.2207,13.9256,837.0599],[-88.2154,13.9307,835.1307],[-88.2168,13.951599999999999,832.3799],[-88.213,13.9655,873.5671],[-88.2117,13.9815,896.2059]]]]}
,"properties": {"GID_2": "HND.10.2_1","GID_0": "HND","country": "Honduras","GID_1": "HND.10_1","province": "Intibucá","NL_NAME_1": "NA","county": "Colomoncagua","VARNAME_2": "NA","NL_NAME_2": "NA","TYPE_2": "Municipio","ENGTYPE_2": "Municipality","CC_2": "NA","HASC_2": "HN.IN.CL","name": "Colomoncagua.county","area_km2": 219.3988,"hist_schema_id": "Elevation0-9000","hist_area_km2": {"200": 0.1029,"225": 1.2967,"250": 2.6345,"275": 3.9105,"300": 6.0097,"325": 6.2154,"350": 6.5445,"375": 7.3675,"400": 5.8857,"425": 5.6592,"450": 6.0499,"475": 5.844,"500": 5.885,"525": 6.2348,"550": 5.8639,"575": 6.1109,"600": 5.4523,"625": 6.0489,"650": 5.6991,"675": 5.8636,"700": 5.946,"725": 6.5838,"750": 7.7977,"775": 8.6,"800": 10.6575,"825": 12.2212,"850": 11.5628,"875": 10.0607,"900": 9.3818,"925": 7.9413,"950": 6.4806,"975": 4.9992,"1000": 3.8266,"1025": 2.4069,"1050": 1.4606,"1075": 1.2137,"1100": 0.9462,"1125": 0.8022,"1150": 0.6171,"1175": 0.3908,"1200": 0.2263,"1225": 0.2674,"1250": 0.144,"1275": 0.1028,"1300": 0.0411,"1325": 0.0411}}}