{"type":"Feature","properties":{"GID_2":"HND.2.2_1","GID_0":"HND","country":"Honduras","GID_1":"HND.2_1","province":"Choluteca","NL_NAME_1":"NA","county":"Choluteca","VARNAME_2":"NA","NL_NAME_2":"NA","TYPE_2":"Municipio","ENGTYPE_2":"Municipality","CC_2":"NA","HASC_2":"HN.CH.CH","name":"Choluteca.county"},
"geometry":{"type": "MultiPolygon","coordinates": [[[[-87.3343,13.0985,1.3872],[-87.3326,13.0993,2.6209],[-87.3324,13.1041,5.1844],[-87.3343,13.099,9.6275],[-87.3343,13.0985,1.3872]]],
[[[-87.1103,13.4021,69.6723],[-87.1365,13.4045,323.813],[-87.1396,13.4512,735.3424],[-87.1361,13.4514,622.1532],[-87.1327,13.4537,583.8425],[-87.1302,13.4568,642.6051],[-87.1304,13.4605,498.1424],[-87.1563,13.475,862.8649],[-87.1692,13.4863,799.9568],[-87.183,13.493,853.28],[-87.1998,13.499,794.662],[-87.2186,13.5027,1014.7614],[-87.2949,13.4819,188.5235],[-87.3533,13.5104,289.0916],[-87.3614,13.5188,319.6439],[-87.3635,13.4984,196.9917],[-87.3682,13.4879,312.7461],[-87.3672,13.4778,144.9165],[-87.3597,13.4693,181.934],[-87.3547,13.4578,298.5748],[-87.3416,13.4405,119.7398],[-87.3458,13.4365,42.4339],[-87.346,13.4316,30.5657],[-87.344,13.4289,27.9057],[-87.3505,13.4207,15.2453],[-87.3519,13.4077,7.983],[-87.3547,13.4038,7.9956],[-87.3604,13.4014,5.8738],[-87.362,13.3988,4.4767],[-87.3718,13.3953,5.0632],[-87.3715,13.3902,1.9769],[-87.3663,13.3904,4.9122],[-87.3702,13.3875,1.5],[-87.3686,13.3866,5.4094],[-87.3676,13.3882,1.623],[-87.3616,13.3834,33.2756],[-87.3586,13.3839,6.5503],[-87.357,13.3811,9.4987],[-87.354,13.3797,7.3783],[-87.3511,13.382,6.8482],[-87.3466,13.3774,14.4264],[-87.3447,13.3776,18.0718],[-87.3449,13.3748,125.2228],[-87.3356,13.3746,13.1811],[-87.3299,13.3671,13.599],[-87.3302,13.3656,21.8793],[-87.3249,13.366,18.1756],[-87.3234,13.3637,17.8368],[-87.3196,13.3633,19.6772],[-87.317,13.3588,19.8983],[-87.3119,13.3596,20.861],[-87.3123,13.3615,21.2886],[-87.3098,13.3599,20.4524],[-87.3054,13.3617,62.5591],[-87.2957,13.359,47.9207],[-87.2872,13.3604,83.2943],[-87.28,13.3427,119.7075],[-87.2749,13.3389,264.1558],[-87.2614,13.3345,39.0089],[-87.2576,13.3277,27.9017],[-87.2593,13.3132,29.5098],[-87.2661,13.3102,27.6839],[-87.2689,13.299,28.2275],[-87.2803,13.2919,34.8386],[-87.2749,13.277,25.5181],[-87.2706,13.2714,24.8501],[-87.2707,13.2688,22.7724],[-87.2731,13.2667,20.9446],[-87.2929,13.2593,15.2449],[-87.2952,13.2565,13.7281],[-87.2943,13.2523,9.9521],[-87.2859,13.2486,14.5824],[-87.2856,13.2438,12.7568],[-87.2884,13.2419,13.0579],[-87.2995,13.2402,10.5709],[-87.2996,13.2304,12.2043],[-87.3063,13.2167,11.7239],[-87.3223,13.2143,8.3697],[-87.3272,13.2075,10.529],[-87.3317,13.2056,10.6404],[-87.3348,13.2004,5.7861],[-87.3395,13.1973,7.4189],[-87.3392,13.1955,9.6671],[-87.3343,13.1942,10.0739],[-87.3323,13.1904,6.2589],[-87.3312,13.1835,6.2414],[-87.3324,13.1792,6.3756],[-87.3285,13.1786,6.7634],[-87.3259,13.1743,4.8944],[-87.3239,13.1739,5.1388],[-87.3204,13.1672,4.1115],[-87.3202,13.1661,3.6164],[-87.3262,13.1625,4.2122],[-87.3266,13.1594,5.4647],[-87.3197,13.1577,5.1642],[-87.3163,13.1593,3.4105],[-87.3149,13.1574,4.3405],[-87.3155,13.1532,4.7505],[-87.3178,13.1515,4.7261],[-87.3254,13.1529,4.9207],[-87.327,13.1507,4.5826],[-87.3244,13.1475,2.6725],[-87.3186,13.1472,3.9845],[-87.3176,13.1444,2.4689],[-87.3196,13.1421,2.498],[-87.3271,13.1392,3.8121],[-87.3291,13.135,5.0398],[-87.3273,13.1267,2.0],[-87.3212,13.1305,3.1436],[-87.3161,13.1294,8.9474],[-87.3138,13.1222,10.0501],[-87.3091,13.1166,4.9576],[-87.3097,13.1133,1.7807],[-87.3169,13.114,6.4459],[-87.3211,13.1097,3.1994],[-87.3304,13.1062,1.3669],[-87.331,13.1004,0.0],[-87.3171,13.0982,6.8368],[-87.311,13.0924,11.2543],[-87.3032,13.0879,3.0002],[-87.2913,13.0874,2.2621],[-87.2957,13.0863,4.2136],[-87.3026,13.0868,5.1437],[-87.3104,13.0901,3.4446],[-87.3196,13.0976,1.5478],[-87.3299,13.099,0.0],[-87.3415,13.091,4.5208],[-87.3549,13.0885,4.6883],[-87.3676,13.0829,0.0],[-87.369,13.0807,0.0],[-87.3538,13.0551,1.5301],[-87.3468,13.0479,4.4687],[-87.3457,13.0435,0.0],[-87.3418,13.0421,7.478],[-87.3326,13.0332,0.0],[-87.319,13.0274,8.0657],[-87.3115,13.0215,0.0],[-87.3076,13.0232,2.9415],[-87.304,13.0218,0.0],[-87.2915,13.0254,0.0],[-87.279,13.0268,0.0],[-87.2774,13.0301,2.8065],[-87.2771,13.0387,1.7619],[-87.2749,13.0413,1.0136],[-87.244,13.0468,0.0],[-87.2551,13.0432,6.7751],[-87.2746,13.0399,1.5975],[-87.2757,13.0271,4.647],[-87.2693,13.0207,4.8382],[-87.266,13.0207,2.5462],[-87.2607,13.0235,0.0],[-87.2543,13.0312,5.4435],[-87.2482,13.0349,4.076],[-87.2576,13.0251,4.1],[-87.2668,13.0193,1.781],[-87.2718,13.0204,5.4244],[-87.2768,13.0254,2.3537],[-87.2974,13.0182,0.0],[-87.3063,13.0035,0.0],[-87.3151,12.9976,0.0],[-87.309,12.9951,3.1593],[-87.3096,12.9918,0.0],[-87.3115,12.9906,0.0],[-87.309,12.9878,5.2403],[-87.2813,12.9852,5.4073],[-87.1227,12.9983,2.0191],[-87.1064,12.998,5.9688],[-87.1204,13.0077,2.0261],[-87.1287,13.0174,2.6159],[-87.1312,13.0322,3.2267],[-87.1342,13.0355,3.0929],[-87.1356,13.0423,3.2128],[-87.1361,13.0607,8.1082],[-87.1395,13.0624,2.177],[-87.1489,13.059,2.0],[-87.1528,13.0626,2.0],[-87.1511,13.0702,2.4706],[-87.1486,13.0731,2.6716],[-87.1599,13.0805,2.1575],[-87.1606,13.0829,2.5477],[-87.1605,13.089,3.4671],[-87.1548,13.0932,5.6981],[-87.153,13.0996,5.6994],[-87.1534,13.1039,7.5763],[-87.1571,13.1099,1.1728],[-87.1671,13.1194,1.0],[-87.1736,13.1227,1.0],[-87.1798,13.1238,1.2848],[-87.1864,13.1326,1.9493],[-87.1871,13.1357,4.8406],[-87.1979,13.139099999999999,1.7406],[-87.2024,13.1439,2.2729],[-87.2109,13.1438,1.8938],[-87.2144,13.1408,1.5286],[-87.2177,13.1445,1.4885],[-87.2129,13.1468,1.7346],[-87.2098,13.1521,2.8644],[-87.2051,13.1541,5.6182],[-87.2056,13.1573,4.2858],[-87.2011,13.1627,7.4072],[-87.2019,13.1656,7.4545],[-87.1873,13.1809,12.7235],[-87.1894,13.1859,11.3141],[-87.1886,13.1914,10.7233],[-87.1457,13.2457,385.6251],[-87.1098,13.256,595.7769],[-87.1164,13.2677,670.7228],[-87.1182,13.2783,338.6205],[-87.121,13.284,241.2991],[-87.1245,13.2872,145.6541],[-87.1309,13.2893,64.1313],[-87.1337,13.2976,48.7382],[-87.1417,13.2984,45.7777],[-87.1354,13.314,50.2761],[-87.1318,13.3188,57.395],[-87.1277,13.3222,53.2928],[-87.1212,13.3327,57.3871],[-87.1041,13.3336,57.2182],[-87.1035,13.3386,56.1383],[-87.0973,13.3504,58.6222],[-87.0931,13.3527,59.5527],[-87.0842,13.3524,68.4099],[-87.083,13.3555,66.7798],[-87.0738,13.3658,189.1931],[-87.0596,13.3695,269.9519],[-87.0585,13.3691,269.9519],[-87.0611,13.3644,335.2582],[-87.0594,13.3626,351.0812],[-87.0523,13.3656,426.2678],[-87.0496,13.3684,546.5001],[-87.0436,13.3684,532.4929],[-87.0333,13.3892,338.7364],[-87.037,13.3921,205.9318],[-87.0442,13.3917,163.2487],[-87.0532,13.3807,164.9689],[-87.0558,13.38,177.3388],[-87.078,13.3885,98.8015],[-87.0806,13.395,88.5805],[-87.0853,13.3955,83.3057],[-87.0946,13.3922,75.5517],[-87.0926,13.3902,83.3087],[-87.0945,13.389099999999999,76.7523],[-87.1103,13.4021,69.6723]]]]}}